HIERARCHY
ROOT Hips
{
    OFFSET 0.0 0.0 0.0
    CHANNELS 6 Xposition Yposition Zposition Zrotation Xrotation Yrotation
    JOINT Spine
    {
        OFFSET 0.0 5.0 0.0
        CHANNELS 3 Zrotation Xrotation Yrotation
        JOINT Chest
        {
            OFFSET 0.0 5.0 0.0
            CHANNELS 3 Zrotation Xrotation Yrotation
            JOINT Neck
            {
                OFFSET 0.0 8.0 0.0
                CHANNELS 3 Zrotation Xrotation Yrotation
                JOINT Head
                {
                    OFFSET 0.0 5.0 0.0
                    CHANNELS 3 Zrotation Xrotation Yrotation
                    End Site
                    {
                        OFFSET 0.0 3.0 0.0
                    }
                }
            }
            JOINT LeftShoulder
            {
                OFFSET -5.0 0.0 0.0
                CHANNELS 3 Zrotation Xrotation Yrotation
                JOINT LeftArm
                {
                    OFFSET 0.0 -10.0 0.0
                    CHANNELS 3 Zrotation Xrotation Yrotation
                    JOINT LeftForeArm
                    {
                        OFFSET 0.0 -10.0 0.0
                        CHANNELS 3 Zrotation Xrotation Yrotation
                        End Site
                        {
                            OFFSET 0.0 -3.0 0.0
                        }
                    }
                }
            }
        }
    }
}

MOTION
Frames: 300
Frame Time: 0.033333

960.000000 445.000000 82.426803 0.000000 0.000000 0.000000 0.000000 0.000000 0.000000 23.025492 -10.159346 0.000000 180.000000 -10.556960 0.000000 21.801409 11.504254 -0.000000 158.198591 0.808300 30.000000 15.945396 1.430855 0.000000 18.000000 -0.279733 0.000000
1691.525230 140.756605 113.390307 0.000000 0.000000 0.000000 0.000000 0.000000 0.000000 -163.376529 5.394493 4.973798 16.623471 -13.179963 4.973798 -171.853121 -2.880337 3.759997 99.744051 -16.010211 29.763441 -171.126653 -3.611956 -3.759997 0.673538 0.354003 0.313953
1636.048050 128.802021 103.942559 0.000000 0.000000 0.000000 0.000000 0.000000 0.000000 157.904128 -4.363421 9.635073 -22.095872 -2.316115 9.635073 -171.936471 -3.766352 7.460697 -143.675701 -1.729298 29.057495 -173.500805 -4.006784 -7.460697 0.570999 0.396062 0.626666
1578.156967 80.474526 100.355073 0.000000 0.000000 0.000000 0.000000 0.000000 0.000000 -139.519796 -5.224387 13.690942 40.480204 8.636432 13.690942 -174.507724 -4.347277 11.043737 119.111399 1.739249 27.893295 -173.607258 -4.237928 -11.043737 0.461920 0.491352 0.936907
960.418757 444.998421 130.589250 0.000000 0.000000 0.000000 0.000000 0.000000 0.000000 25.077893 -24.231468 16.886559 180.000000 -1.813874 16.886559 23.861935 -3.313177 14.452610 156.138065 -5.471492 26.289200 17.903699 -1.442348 -14.452610 18.000000 0.531254 1.243449
960.523360 444.997533 119.112772 0.000000 0.000000 0.000000 0.000000 0.000000 0.000000 25.638906 -36.946514 19.021130 180.000000 10.369893 19.021130 24.425035 7.204764 17.633558 155.574965 -0.201398 24.270510 18.452907 4.398400 -17.633558 18.000000 -0.129513 1.545085
960.627905 444.996447 113.312015 0.000000 0.000000 0.000000 0.000000 0.000000 0.000000 26.219073 -12.892213 19.960535 180.000000 4.769659 19.960535 25.006291 -13.037794 20.536413 154.993709 -6.256842 21.869059 19.024920 2.543496 -20.536413 18.000000 -0.071865 1.840623
1126.242828 420.359820 122.160870 0.000000 0.000000 0.000000 0.000000 0.000000 0.000000 31.410514 -3.331228 19.645745 -148.589486 -1.595089 19.645745 32.280463 0.361270 23.115397 -131.603972 1.827288 19.122720 45.585331 0.639203 -23.115397 -13.449727 -0.018161 2.128896
1257.895088 650.549197 132.040777 0.000000 0.000000 0.000000 0.000000 0.000000 0.000000 25.073180 -12.533338 18.096541 -154.926820 -4.631883 18.096541 46.260945 11.308393 25.329838 -154.651428 -5.375116 16.074804 27.339487 5.051573 -25.329838 -13.619892 -0.067203 2.408768
960.941083 444.992008 138.470218 0.000000 0.000000 0.000000 0.000000 0.000000 0.000000 28.072001 28.967183 15.410265 180.000000 -19.157968 15.410265 26.849221 3.013160 27.144812 153.150779 -5.461923 12.773379 20.864045 -7.914191 -27.144812 18.000000 0.398784 2.679134
1163.815842 547.748709 138.374822 0.000000 0.000000 0.000000 0.000000 0.000000 0.000000 117.162728 -5.517102 11.755705 -62.837272 3.901625 11.755705 102.363764 -6.339771 28.531695 -47.376450 -2.343823 9.270510 104.768601 -2.573726 -28.531695 -6.003489 0.114103 2.938926
961.149372 444.988063 143.148150 0.000000 0.000000 0.000000 0.000000 0.000000 0.000000 29.395983 16.759593 7.362491 180.000000 0.267830 7.362491 28.146217 -1.050537 29.468618 151.853783 7.827647 5.621439 22.170006 -13.262551 -29.468618 18.000000 0.793548 3.187120
1136.717377 590.104480 172.584503 0.000000 0.000000 0.000000 0.000000 0.000000 0.000000 115.752126 -0.548883 2.506665 -64.247874 6.400280 2.506665 73.638146 -2.519914 29.940802 -21.842452 0.610746 1.883716 75.369282 0.363686 -29.940802 -6.767207 0.700561 3.422736
1163.079758 634.077559 143.078158 0.000000 0.000000 0.000000 0.000000 0.000000 0.000000 132.174340 -3.794839 -2.506665 -47.825660 7.837516 -2.506665 94.255711 0.441077 29.940802 -149.364979 -6.645300 -1.883716 30.021641 5.473125 -29.940802 -5.096180 1.374946 3.644843
961.460830 444.980668 154.994881 0.000000 0.000000 0.000000 0.000000 0.000000 0.000000 31.497152 -1.635613 -7.362491 180.000000 5.949504 -7.362491 30.152455 3.021440 29.468618 149.847545 5.884075 -5.621439 24.175589 -5.714622 -29.468618 18.000000 1.151753 3.852566
1097.449951 565.089898 167.930833 0.000000 0.000000 0.000000 0.000000 0.000000 0.000000 -119.219568 -0.744869 -11.755705 60.780432 -2.734220 -11.755705 -150.180642 -6.850079 28.531695 48.804955 -1.039161 -9.270510 -149.874178 -6.361034 -28.531695 2.713854 0.588102 4.045085
1114.140244 528.302071 144.217087 0.000000 0.000000 0.000000 0.000000 0.000000 0.000000 -142.671523 4.636767 -15.410265 37.328477 4.908241 -15.410265 -177.395681 -2.945303 27.144812 34.687329 -5.144616 -12.773379 161.894167 5.221351 -27.144812 -0.910956 0.140795 4.221640
1116.433640 479.728639 161.912212 0.000000 0.000000 0.000000 0.000000 0.000000 0.000000 -102.267481 -2.837097 -18.096541 77.732519 -16.614813 -18.096541 -163.695626 3.813371 25.329838 38.575767 -1.918002 -16.074804 -176.001122 -2.152591 -25.329838 0.706594 -0.141190 4.381533
1135.931282 466.493965 144.877196 0.000000 0.000000 0.000000 0.000000 0.000000 0.000000 -112.868406 -13.870918 -19.645745 67.131594 -0.125690 -19.645745 -159.517862 3.435643 23.115397 36.204678 0.545932 -19.122720 -154.426613 -5.710009 -23.115397 2.428729 0.522244 4.524135
1141.618767 467.420679 155.650955 0.000000 0.000000 0.000000 0.000000 0.000000 0.000000 -123.086385 12.828648 -19.960535 56.913615 -0.960008 -19.960535 -154.885724 -0.539691 20.536413 36.481623 -3.731914 -21.869059 -153.965441 -5.513793 -20.536413 2.446728 0.443832 4.648882
1150.647926 469.370956 147.122220 0.000000 0.000000 0.000000 0.000000 0.000000 0.000000 -43.953779 -26.753823 -19.021130 136.046221 -9.922245 -19.021130 -154.327268 -7.127739 17.633558 60.745168 -1.362262 -24.270510 -153.350642 -6.821728 -17.633558 2.386216 0.609889 4.755283
1151.529922 496.420240 145.175852 0.000000 0.000000 0.000000 0.000000 0.000000 0.000000 -116.362129 0.269584 -16.886559 63.637871 4.917484 -16.886559 -149.081043 3.891007 14.452610 35.941860 3.934337 -26.289200 -156.847177 0.218999 -14.452610 2.056513 -0.080345 4.842916
1148.402367 515.713574 161.502892 0.000000 0.000000 0.000000 0.000000 0.000000 0.000000 -118.252650 -10.332663 -13.690942 61.747350 5.948782 -13.690942 -138.082896 -2.028273 11.043737 -156.312677 -6.920452 -27.893295 21.649626 10.367741 -11.043737 2.962417 -0.119932 4.911436
1175.363617 533.368646 130.248228 0.000000 0.000000 0.000000 0.000000 0.000000 0.000000 -95.476638 17.013161 -9.635073 84.523362 -13.281542 -9.635073 -113.907461 -3.445725 7.460697 -155.995907 -7.748376 -29.057495 12.512064 8.662550 -7.460697 -16.748794 -0.866255 4.960574
1199.533310 485.991104 147.721373 0.000000 0.000000 0.000000 0.000000 0.000000 0.000000 -100.003195 -3.340119 -4.973798 79.996805 8.726536 -4.973798 -86.083188 -1.716999 3.759997 38.843754 0.534600 -29.763441 -106.539452 1.839963 -3.759997 6.197806 0.114585 4.990134
962.588190 444.938442 138.130662 0.000000 0.000000 0.000000 0.000000 0.000000 0.000000 39.579754 38.641108 -0.000000 180.000000 10.180801 -0.000000 36.680773 9.674242 0.000000 143.319227 2.719635 -30.000000 29.388385 0.317188 -0.000000 18.000000 0.031920 5.000000
1142.094727 445.716287 124.904923 0.000000 0.000000 0.000000 0.000000 0.000000 0.000000 -140.228454 -1.276719 4.973798 39.771546 23.487838 4.973798 -156.118008 -6.139580 -3.759997 3.479189 15.662415 -29.763441 -158.005660 -6.544763 3.759997 2.150019 0.502692 4.990134
1164.005928 424.847746 121.912263 0.000000 0.000000 0.000000 0.000000 0.000000 0.000000 -84.241076 18.301808 9.635073 95.758924 19.553395 9.635073 -156.181584 -5.984535 -7.460697 166.928360 8.142325 -29.057495 -154.947270 -6.487041 7.460697 2.644196 0.696584 4.960574
1124.208755 418.286655 113.163500 0.000000 0.000000 0.000000 0.000000 0.000000 0.000000 -117.427077 10.418642 13.690942 62.572923 0.497256 13.690942 -155.943063 -5.203220 -11.043737 14.023837 4.588774 -27.893295 -157.382674 -5.274675 11.043737 2.188130 0.503882 4.911436
962.990408 444.917226 115.173540 0.000000 0.000000 0.000000 0.000000 0.000000 0.000000 42.110883 -3.471205 16.886559 180.000000 -22.276365 16.886559 37.946959 -1.328424 -14.452610 142.053041 2.785619 -26.289200 29.293612 -6.532134 14.452610 18.000000 0.089024 4.842916
963.090170 444.911436 110.488340 0.000000 0.000000 0.000000 0.000000 0.000000 0.000000 42.659200 2.285502 19.021130 180.000000 17.065573 19.021130 38.119107 12.537712 -17.633558 141.880893 15.738376 -24.270510 29.068887 -7.283807 17.633558 18.000000 0.586599 4.755283
1186.646461 396.272757 91.779364 0.000000 0.000000 0.000000 0.000000 0.000000 0.000000 -72.847419 -18.985392 19.960535 107.152581 29.842474 19.960535 -156.703603 -4.927185 -20.536413 178.447294 13.929698 -21.869059 -157.212393 -4.999206 20.536413 1.964058 0.455115 4.648882
1313.051605 426.636125 105.136009 0.000000 0.000000 0.000000 0.000000 0.000000 0.000000 90.994869 -1.409150 19.645745 -89.005131 9.251953 19.645745 -160.515303 -4.418973 -23.115397 -153.248861 3.983641 -19.122720 -159.640525 -5.180266 23.115397 0.000000 0.000000 0.000000
1347.999344 420.772226 103.886320 0.000000 0.000000 0.000000 0.000000 0.000000 0.000000 90.154351 12.063337 18.096541 -89.845649 -8.596996 18.096541 -162.053401 -4.436350 -25.329838 -136.198880 -11.750769 -16.074804 -160.991694 -3.715415 25.329838 0.000000 0.000000 0.000000
1344.315948 421.031681 76.907159 0.000000 0.000000 0.000000 0.000000 0.000000 0.000000 69.757587 -1.713024 15.410265 -110.242413 -8.062089 15.410265 25.616746 6.979366 -27.144812 -157.821005 -3.963370 -12.773379 17.214985 3.011544 27.144812 -16.704706 -0.031205 4.221640
1350.307617 440.309436 79.576203 0.000000 0.000000 0.000000 0.000000 0.000000 0.000000 71.124018 -2.741646 11.755705 -108.875982 -4.053529 11.755705 42.739987 6.285045 -28.531695 -142.315466 3.627657 -9.270510 16.600926 -3.151694 28.531695 -16.660102 0.229859 4.045085
1357.685051 430.688889 71.089237 0.000000 0.000000 0.000000 0.000000 0.000000 0.000000 77.656077 7.148273 7.362491 -102.343923 -0.467908 7.362491 39.407151 -3.264297 -29.468618 -136.343173 3.273993 -5.621439 22.144452 -0.569563 29.468618 -16.305135 -0.226155 3.852566
1369.482193 445.909406 71.426321 0.000000 0.000000 0.000000 0.000000 0.000000 0.000000 88.051188 -4.118478 2.506665 -91.948812 0.627510 2.506665 -161.283973 -3.075018 -29.940802 -119.799169 -5.253618 -1.883716 -164.575400 -2.461631 29.940802 1.401013 0.333219 3.644843
963.875156 444.858159 65.279041 0.000000 0.000000 0.000000 0.000000 0.000000 0.000000 45.304844 38.515030 -2.506665 180.000000 -21.893925 -2.506665 37.252439 0.516981 -29.940802 142.747561 -13.475370 1.883716 25.146244 -2.617696 29.940802 18.000000 0.124402 3.422736
963.971479 444.850633 80.417567 0.000000 0.000000 0.000000 0.000000 0.000000 0.000000 45.383640 5.270478 -7.362491 180.000000 27.939647 -7.362491 36.882310 -28.795395 -29.468618 143.117690 -9.167566 5.621439 24.499789 4.703998 29.468618 18.000000 0.259788 3.187120
1336.629524 469.010178 63.363826 0.000000 0.000000 0.000000 0.000000 0.000000 0.000000 -72.390177 31.311256 -11.755705 107.609823 2.720215 -11.755705 -158.649984 -2.334075 -28.531695 2.583425 -4.463042 9.270510 -39.658551 -2.431069 28.531695 10.837181 1.999524 2.938926
1311.966934 518.219100 37.820231 0.000000 0.000000 0.000000 0.000000 0.000000 0.000000 -63.565072 42.455016 -15.410265 116.434928 -40.276534 -15.410265 -14.840750 -5.957985 -27.144812 -158.549348 -3.079151 12.773379 17.488774 2.337120 27.144812 7.174982 -5.095444 2.679134
964.257793 444.826908 50.835980 0.000000 0.000000 0.000000 0.000000 0.000000 0.000000 45.262206 16.034546 -18.096541 180.000000 -2.459259 -18.096541 35.497192 1.292520 -25.329838 144.502808 1.022067 16.074804 22.522929 8.964469 25.329838 18.000000 -0.702363 2.408768
1275.921364 516.836239 42.537897 0.000000 0.000000 0.000000 0.000000 0.000000 0.000000 85.186295 3.726758 -19.645745 -94.813705 4.411866 -19.645745 52.470689 -3.443429 -23.115397 -44.513683 -3.928844 19.122720 50.867598 2.729410 23.115397 -8.717188 -0.159196 2.128896
1263.254128 546.875424 64.913849 0.000000 0.000000 0.000000 0.000000 0.000000 0.000000 34.848242 -8.307796 -19.960535 -145.151758 14.462528 -19.960535 42.487561 -10.982676 -20.536413 -157.415675 -2.271351 21.869059 22.420880 2.229993 20.536413 -15.757912 -0.222999 1.840623
1258.788185 528.263061 54.453582 0.000000 0.000000 0.000000 0.000000 0.000000 0.000000 118.326865 -36.933991 -19.021130 -61.673135 5.233370 -19.021130 143.214759 -1.859924 -17.633558 -156.228306 -2.464191 24.270510 28.173554 3.099806 17.633558 -15.182645 -0.309981 1.545085
1231.492081 471.383836 54.971869 0.000000 0.000000 0.000000 0.000000 0.000000 0.000000 -115.049381 -19.398899 -16.886559 64.950619 1.918740 -16.886559 172.843704 -3.166335 -14.452610 -157.842300 -2.230559 26.289200 32.851042 1.897404 14.452610 -14.714896 -0.189740 1.243449
1223.928795 435.993515 60.291742 0.000000 0.000000 0.000000 0.000000 0.000000 0.000000 -115.322532 -7.018211 -13.690942 64.677468 17.515692 -13.690942 -168.597862 -3.281503 -11.043737 -158.853816 -1.752014 27.893295 31.099266 2.533418 11.043737 -14.890073 -0.253342 0.936907
1223.669701 418.195664 59.379045 0.000000 0.000000 0.000000 0.000000 0.000000 0.000000 -102.084053 -10.478454 -9.635073 77.915947 17.675677 -9.635073 -171.103858 -0.619420 -7.460697 162.056334 -0.050915 29.057495 -153.594437 -2.342099 7.460697 2.968481 0.284575 0.626666
1216.486244 414.503002 56.333048 0.000000 0.000000 0.000000 0.000000 0.000000 0.000000 69.261091 -8.980544 -4.973798 -110.738909 -6.072933 -4.973798 -158.083722 -2.570805 -3.759997 -173.244581 -6.596509 29.763441 -154.635509 -1.948639 3.759997 2.928763 0.241258 0.313953
1212.090225 434.550980 43.146229 0.000000 0.000000 0.000000 0.000000 0.000000 0.000000 -112.403932 -6.801874 0.000000 67.596068 18.949511 0.000000 -157.060799 -2.827638 -0.000000 173.400765 4.238026 30.000000 -154.473580 -3.191050 0.000000 2.734633 0.408025 0.000000
1214.024734 450.340490 63.356619 0.000000 0.000000 0.000000 0.000000 0.000000 0.000000 -110.634751 -4.636413 4.973798 69.365249 -3.127356 4.973798 -137.583343 0.084894 3.759997 -158.589698 -2.799904 29.763441 20.879446 2.403928 -3.759997 -15.912055 -0.240393 0.313953
1204.271393 440.192921 35.052783 0.000000 0.000000 0.000000 0.000000 0.000000 0.000000 -99.498286 -30.780234 9.635073 80.501714 45.164334 9.635073 -156.696469 -3.352074 7.460697 -178.487725 20.890599 29.057495 -157.318323 -2.650768 -7.460697 2.108583 0.293103 0.626666
965.269558 444.725315 61.871237 0.000000 0.000000 0.000000 0.000000 0.000000 0.000000 40.845461 7.768676 13.690942 180.000000 -14.352271 13.690942 28.615377 9.572846 11.043737 151.384623 -6.971247 27.893295 16.305092 1.940709 -11.043737 18.000000 0.287214 0.936907
1182.456551 475.103824 60.391551 0.000000 0.000000 0.000000 0.000000 0.000000 0.000000 -168.146016 -74.335452 16.886559 11.853984 -71.135953 16.886559 -63.802645 -5.944781 14.452610 -61.114510 0.640548 26.289200 -47.869281 5.212844 -14.452610 -13.834956 -7.780701 1.243449
965.446390 444.704404 81.379921 0.000000 0.000000 0.000000 0.000000 0.000000 0.000000 39.578146 20.815183 19.021130 180.000000 5.794963 19.021130 27.338029 -4.715038 17.633558 152.661971 -7.249756 24.270510 15.463180 2.976752 -17.633558 18.000000 0.685635 1.545085
965.533915 444.693669 79.183452 0.000000 0.000000 0.000000 0.000000 0.000000 0.000000 38.916706 -5.173693 19.960535 180.000000 -7.901991 19.960535 26.716768 0.510999 20.536413 153.283232 2.575802 21.869059 15.076605 -0.614416 -20.536413 18.000000 -0.181370 1.840623
965.620834 444.682749 87.215096 0.000000 0.000000 0.000000 0.000000 0.000000 0.000000 38.241653 -21.061417 19.645745 180.000000 -2.041226 19.645745 26.109467 10.303023 23.115397 153.890533 4.493441 19.122720 14.712258 -3.242917 -23.115397 18.000000 0.111763 2.128896
965.707136 444.671645 66.692970 0.000000 0.000000 0.000000 0.000000 0.000000 0.000000 37.556504 -32.544497 18.096541 180.000000 5.422781 18.096541 25.517536 -1.727157 25.329838 154.482464 -12.885214 16.074804 14.369537 6.232407 -25.329838 18.000000 0.209454 2.408768
965.792812 444.660356 78.504630 0.000000 0.000000 0.000000 0.000000 0.000000 0.000000 36.864608 21.309519 15.410265 180.000000 -6.235770 15.410265 24.942131 7.792835 27.144812 155.057869 -22.926172 12.773379 14.047797 13.407869 -27.144812 18.000000 0.019800 2.679134
965.877853 444.648882 85.094375 0.000000 0.000000 0.000000 0.000000 0.000000 0.000000 36.169118 -21.588072 11.755705 180.000000 9.948371 11.755705 24.384173 -10.517901 28.531695 155.615827 -12.189265 9.270510 13.746367 8.549154 -28.531695 18.000000 -0.085371 2.938926
965.962249 444.637226 89.782432 0.000000 0.000000 0.000000 0.000000 0.000000 0.000000 35.472980 -18.417174 7.362491 180.000000 18.959947 7.362491 23.844373 -6.386213 29.468618 156.155627 7.201395 5.621439 13.464570 0.546622 -29.468618 18.000000 -0.370492 3.187120
966.045991 444.625386 86.755114 0.000000 0.000000 0.000000 0.000000 0.000000 0.000000 34.778913 -25.662734 2.506665 180.000000 6.801323 2.506665 23.323250 6.362893 29.940802 156.676750 6.311211 1.883716 13.201728 -0.077102 -29.940802 18.000000 0.228305 3.422736
966.129071 444.613364 108.278261 0.000000 0.000000 0.000000 0.000000 0.000000 0.000000 34.089406 15.291099 -2.506665 180.000000 -6.842125 -2.506665 22.821158 7.086433 29.940802 157.178842 -5.434322 -1.883716 12.957175 5.411137 -29.940802 18.000000 -0.226350 3.644843
966.211478 444.601159 100.297305 0.000000 0.000000 0.000000 0.000000 0.000000 0.000000 33.406712 2.780214 -7.362491 180.000000 -0.335491 -7.362491 22.338307 -8.630753 29.468618 157.661693 -5.406990 -5.621439 12.730264 -2.002541 -29.468618 18.000000 0.776865 3.852566
1171.486244 534.946783 102.679621 0.000000 0.000000 0.000000 0.000000 0.000000 0.000000 70.594720 -1.993994 -11.755705 -109.405280 5.127934 -11.755705 49.953444 -2.319444 28.531695 -151.467583 -5.086438 -9.270510 0.000000 0.000000 0.000000 0.000000 0.000000 0.000000
966.374240 444.576206 125.535259 0.000000 0.000000 0.000000 0.000000 0.000000 0.000000 32.069603 -4.828788 -15.410265 180.000000 10.688418 -15.410265 21.430544 3.468743 27.144812 158.569456 4.256553 -12.773379 12.326901 0.707392 -27.144812 18.000000 -0.072249 4.221640
1172.156410 555.047708 109.068814 0.000000 0.000000 0.000000 0.000000 0.000000 0.000000 -121.065102 -8.405978 -18.096541 58.934898 -7.187537 -18.096541 -151.641456 -5.526412 25.329838 -177.360623 -5.736256 -16.074804 -149.076048 -5.834273 -25.329838 0.000000 0.000000 0.000000
1161.826630 552.360713 137.077060 0.000000 0.000000 0.000000 0.000000 0.000000 0.000000 69.958407 -10.210050 -19.645745 -110.041593 -58.825519 -19.645745 -152.437496 -4.777612 23.115397 -158.790607 -1.238016 -19.122720 -150.591725 -7.057092 -23.115397 3.219062 0.757092 4.524135
1165.827255 569.832902 128.804197 0.000000 0.000000 0.000000 0.000000 0.000000 0.000000 25.594208 8.793977 -19.960535 -154.405792 -10.161151 -19.960535 11.723883 11.760311 20.536413 -161.543160 1.241828 -21.869059 7.769582 -1.471168 -20.536413 -17.248199 0.091399 4.648882
1165.555573 565.067046 130.301524 0.000000 0.000000 0.000000 0.000000 0.000000 0.000000 43.355707 7.301345 -19.021130 -136.644293 -5.449702 -19.021130 15.984329 -0.417146 17.633558 -140.773833 -0.621062 -24.270510 13.679449 0.123666 -17.633558 -16.392157 -0.041391 4.755283
1290.255775 608.533316 140.712919 0.000000 0.000000 0.000000 0.000000 0.000000 0.000000 -153.952071 -17.111157 -16.886559 26.047929 34.044916 -16.886559 -152.683807 -6.390176 14.452610 4.794196 9.948586 -26.289200 -154.287190 -5.520643 -14.452610 2.418080 0.570716 4.842916
1180.398903 551.817470 122.873605 0.000000 0.000000 0.000000 0.000000 0.000000 0.000000 51.640104 5.990240 -13.690942 -128.359896 -13.150622 -13.690942 14.419400 -4.618486 11.043737 -33.521359 -25.964409 -27.893295 -34.277510 6.994736 -11.043737 5.235387 -1.519201 4.911436
1162.708626 619.419501 157.267885 0.000000 0.000000 0.000000 0.000000 0.000000 0.000000 -88.968325 -39.511550 -9.635073 91.031675 24.531620 -9.635073 -52.690088 0.732623 7.460697 25.015222 2.580636 -29.057495 -72.561734 5.138975 -7.460697 8.557489 -0.146967 4.960574
1110.899391 602.919216 127.398949 0.000000 0.000000 0.000000 0.000000 0.000000 0.000000 -86.972237 -2.600101 -4.973798 93.027763 1.266291 -4.973798 -39.551144 -0.434360 3.759997 34.838085 3.426743 -29.763441 -44.185810 -1.325623 -3.759997 10.000609 0.251499 4.990134
1150.187302 553.686991 156.693667 0.000000 0.000000 0.000000 0.000000 0.000000 0.000000 -116.065142 -10.919446 -0.000000 63.934858 13.866852 -0.000000 -151.059314 -7.005549 0.000000 -0.492058 0.951122 -30.000000 -14.044098 12.959265 -0.000000 1.929760 -0.888167 5.000000
967.144727 444.440682 160.959664 0.000000 0.000000 0.000000 0.000000 0.000000 0.000000 26.270296 -8.965555 4.973798 180.000000 -1.318503 4.973798 17.996647 4.980559 -3.759997 162.003353 -1.971981 -29.763441 11.189167 0.869615 3.759997 18.000000 0.339165 4.990134
1213.452644 620.002785 143.863086 0.000000 0.000000 0.000000 0.000000 0.000000 0.000000 140.390379 -36.158594 9.635073 -39.609621 23.056776 9.635073 77.724607 -9.341289 -7.460697 -153.982965 -5.930041 -29.057495 24.142749 5.967801 7.460697 -0.833727 0.449267 4.960574
1124.373779 618.464527 163.610316 0.000000 0.000000 0.000000 0.000000 0.000000 0.000000 99.329635 -15.327344 13.690942 -80.670365 -22.018126 13.690942 85.960927 0.455037 -11.043737 -150.875293 -7.536066 -27.893295 31.644098 6.032778 11.043737 -14.835590 -0.603278 4.911436
967.360971 444.396582 148.894827 0.000000 0.000000 0.000000 0.000000 0.000000 0.000000 24.874716 -0.925648 16.886559 180.000000 -2.271671 16.886559 17.291102 5.500478 -14.452610 162.708898 2.487092 -26.289200 11.098846 -2.315296 14.452610 18.000000 -0.083442 4.842916
1107.875175 542.453964 154.485107 0.000000 0.000000 0.000000 0.000000 0.000000 0.000000 -128.741314 11.037811 19.021130 51.258686 -6.449657 19.021130 -177.225595 -4.447454 -17.633558 19.954750 -2.039930 -24.270510 162.677362 1.330413 17.633558 -1.443098 -0.007015 4.755283
1119.652290 522.766346 165.693079 0.000000 0.000000 0.000000 0.000000 0.000000 0.000000 -99.017754 1.166753 19.960535 80.982246 7.504799 19.960535 -150.289603 -7.131519 -20.536413 -152.613833 -6.968872 -21.869059 0.000000 0.000000 0.000000 0.000000 0.000000 0.000000
1132.908783 538.229613 143.909687 0.000000 0.000000 0.000000 0.000000 0.000000 0.000000 -127.874185 -1.931430 19.645745 52.125815 -4.193224 19.645745 -165.450188 -0.794641 -23.115397 -152.521515 -7.278030 -19.122720 40.606225 8.169106 23.115397 -13.939378 -0.816911 4.524135
1146.969337 541.828065 148.700174 0.000000 0.000000 0.000000 0.000000 0.000000 0.000000 -113.631604 0.812247 18.096541 66.368396 -7.409691 18.096541 -159.067475 1.715406 -25.329838 113.981862 -16.648511 -16.074804 -145.449815 -5.136712 25.329838 0.000000 0.000000 0.000000
1165.252304 561.329677 155.155723 0.000000 0.000000 0.000000 0.000000 0.000000 0.000000 -112.861399 -6.358042 15.410265 67.138601 -7.031847 15.410265 -159.396543 3.434340 -27.144812 -151.967552 -7.309326 -12.773379 38.422588 8.447552 27.144812 -14.157741 -0.844755 4.221640
1174.726181 592.839689 132.176133 0.000000 0.000000 0.000000 0.000000 0.000000 0.000000 -110.369899 -5.352977 11.755705 69.630101 7.787905 11.755705 -148.108768 0.296208 -28.531695 -151.515612 -6.333165 -9.270510 34.277732 10.114538 28.531695 -14.572227 -1.011454 4.045085
1167.352524 605.194867 138.118131 0.000000 0.000000 0.000000 0.000000 0.000000 0.000000 -113.828445 3.639379 7.362491 66.171555 -1.305009 7.362491 -131.688453 -4.964755 -29.468618 -151.045756 -6.935140 -5.621439 27.200835 8.688292 29.468618 -15.279916 -0.868829 3.852566
1139.678879 602.981014 134.900601 0.000000 0.000000 0.000000 0.000000 0.000000 0.000000 -97.599684 -28.329294 2.506665 82.400316 18.967795 2.506665 -113.965806 3.631808 -29.940802 -121.058781 3.224311 -1.883716 -118.492407 7.780469 29.940802 10.137620 -0.515972 3.644843
1165.830002 580.020189 139.376571 0.000000 0.000000 0.000000 0.000000 0.000000 0.000000 -28.085052 -9.599927 -2.506665 151.914948 -5.986414 -2.506665 -150.589103 -5.449614 -29.940802 -172.678414 -2.934975 1.883716 -149.717924 -5.712959 29.940802 0.000000 0.000000 0.000000
1184.501953 619.872494 124.689814 0.000000 0.000000 0.000000 0.000000 0.000000 0.000000 -113.790307 54.492048 -7.362491 66.209693 -26.747803 -7.362491 -59.272274 -1.356636 -29.468618 29.476823 -6.027533 5.621439 -88.148483 -1.447019 29.468618 7.414604 0.120222 3.187120
968.090170 444.221640 117.702189 0.000000 0.000000 0.000000 0.000000 0.000000 0.000000 21.092887 11.599863 -11.755705 180.000000 6.189844 -11.755705 15.757771 -2.926331 -28.531695 164.242229 -0.211448 9.270510 11.678908 2.049494 28.531695 18.000000 0.146197 2.938926
968.151278 444.204723 113.632081 0.000000 0.000000 0.000000 0.000000 0.000000 0.000000 20.844337 2.396152 -15.410265 180.000000 2.357884 -15.410265 15.691895 0.929444 -27.144812 164.308105 1.962612 12.773379 11.804629 -6.781902 27.144812 18.000000 0.449076 2.679134
968.211492 444.187640 107.354683 0.000000 0.000000 0.000000 0.000000 0.000000 0.000000 20.610265 21.838281 -18.096541 180.000000 -4.925473 -18.096541 15.637361 0.541994 -25.329838 164.362639 2.871658 16.074804 11.943263 -3.704218 25.329838 18.000000 -0.246776 2.408768
968.270806 444.170392 123.011666 0.000000 0.000000 0.000000 0.000000 0.000000 0.000000 20.390366 12.083305 -19.645745 180.000000 -7.068791 -19.645745 15.594026 3.888270 -23.115397 164.405974 2.976886 19.122720 12.095062 -0.652516 23.115397 18.000000 -0.014563 2.128896
968.329212 444.152979 113.804613 0.000000 0.000000 0.000000 0.000000 0.000000 0.000000 20.184343 -20.156936 -19.960535 180.000000 2.227747 -19.960535 15.561766 5.013520 -20.536413 164.438234 -0.180258 21.869059 12.260289 2.552136 20.536413 18.000000 -0.057021 1.840623
968.386706 444.135403 106.255616 0.000000 0.000000 0.000000 0.000000 0.000000 0.000000 19.991916 7.229647 -19.021130 180.000000 -4.643610 -19.021130 15.540476 3.112919 -17.633558 164.459524 0.637822 24.270510 12.439222 -0.467447 17.633558 18.000000 -0.569606 1.545085
968.443279 444.117663 99.639144 0.000000 0.000000 0.000000 0.000000 0.000000 0.000000 19.812814 -13.389773 -16.886559 180.000000 9.759659 -16.886559 15.530069 -5.568286 -14.452610 164.469931 -3.498190 26.289200 12.632146 2.901638 14.452610 18.000000 0.467434 1.243449
968.498927 444.099761 89.521173 0.000000 0.000000 0.000000 0.000000 0.000000 0.000000 19.646785 -8.676924 -13.690942 180.000000 -6.484645 -13.690942 15.530474 11.098106 -11.043737 164.469526 -0.857368 27.893295 12.839349 0.389203 11.043737 18.000000 -0.257527 0.936907
968.553643 444.081696 82.145843 0.000000 0.000000 0.000000 0.000000 0.000000 0.000000 19.493591 -4.345620 -9.635073 180.000000 11.290519 -9.635073 15.541640 -5.555455 -7.460697 164.458360 12.105483 29.057495 13.061119 -5.676615 7.460697 18.000000 0.333330 0.626666
1051.772690 653.004448 79.406312 0.000000 0.000000 0.000000 0.000000 0.000000 0.000000 -79.007834 -6.659338 -4.973798 100.992166 6.980092 -4.973798 -126.715299 1.593562 -3.759997 -149.991181 -3.728822 29.763441 31.772279 4.863256 3.759997 -14.822772 -0.486326 0.313953
1061.669197 624.716241 69.526643 0.000000 0.000000 0.000000 0.000000 0.000000 0.000000 -94.718359 10.244254 0.000000 85.281641 3.166591 0.000000 -144.150484 -8.151179 -0.000000 60.155085 -12.055758 30.000000 -152.711462 3.683228 0.000000 1.815393 -0.259591 0.000000
1072.053337 571.032879 73.220105 0.000000 0.000000 0.000000 0.000000 0.000000 0.000000 71.424080 8.472654 4.973798 -108.575920 -6.428740 4.973798 -149.042361 -2.915048 3.759997 -149.913636 1.538102 29.763441 -145.792107 -4.359962 -3.759997 3.947623 0.477875 0.313953
1070.057373 572.884376 59.807069 0.000000 0.000000 0.000000 0.000000 0.000000 0.000000 -80.850201 -25.002323 9.635073 99.149799 -4.330768 9.635073 -147.567525 -2.886290 7.460697 -164.443014 -1.037922 29.057495 -145.447997 -3.329222 -7.460697 4.032371 0.512026 0.626666
968.813035 443.988972 69.706188 0.000000 0.000000 0.000000 0.000000 0.000000 0.000000 18.912944 9.590029 13.690942 180.000000 -10.063598 13.690942 15.758200 8.061001 11.043737 164.241800 1.358854 27.893295 14.397395 -2.248871 -11.043737 18.000000 -0.025896 0.936907
968.862036 443.969952 57.581729 0.000000 0.000000 0.000000 0.000000 0.000000 0.000000 18.832684 -20.270634 16.886559 180.000000 6.084369 16.886559 15.833735 -1.148638 14.452610 164.166265 9.264685 26.289200 14.711463 -4.684733 -14.452610 18.000000 0.399186 1.243449
968.910065 443.950775 64.741247 0.000000 0.000000 0.000000 0.000000 0.000000 0.000000 18.764066 7.063112 19.021130 180.000000 1.520677 19.021130 15.920102 -0.384032 17.633558 164.079898 -0.452859 24.270510 15.041323 7.047691 -17.633558 18.000000 -0.373851 1.545085
968.957118 443.931442 44.543995 0.000000 0.000000 0.000000 0.000000 0.000000 0.000000 18.706990 -22.795403 19.960535 180.000000 9.874944 19.960535 16.017366 -7.807776 20.536413 163.982634 2.005580 21.869059 15.386894 3.035317 -20.536413 18.000000 -0.113489 1.840623
969.003188 443.911954 65.461338 0.000000 0.000000 0.000000 0.000000 0.000000 0.000000 18.661377 4.476295 19.645745 180.000000 10.195886 19.645745 16.125602 -3.117310 23.115397 163.874398 4.259096 19.122720 15.747980 -10.154525 -23.115397 18.000000 1.004331 2.128896
969.048271 443.892312 35.958298 0.000000 0.000000 0.000000 0.000000 0.000000 0.000000 18.627165 6.425455 18.096541 180.000000 3.006728 18.096541 16.244896 -3.691635 25.329838 163.755104 -1.451787 16.074804 16.124252 -1.301377 -25.329838 18.000000 -0.091228 2.408768
969.092361 443.872515 53.755081 0.000000 0.000000 0.000000 0.000000 0.000000 0.000000 18.604312 1.316906 15.410265 180.000000 -0.786054 15.410265 16.375340 0.465793 27.144812 163.624660 4.940246 12.773379 16.515224 -7.990156 -27.144812 18.000000 1.079742 2.679134
1055.186234 577.357593 43.492000 0.000000 0.000000 0.000000 0.000000 0.000000 0.000000 85.510211 -2.631408 11.755705 -94.489789 -7.494674 11.755705 37.103410 7.633384 28.531695 -148.111343 -2.728073 9.270510 24.294182 2.782404 -28.531695 -8.601915 -2.672186 2.938926
1122.856522 566.714029 45.503674 0.000000 0.000000 0.000000 0.000000 0.000000 0.000000 96.216240 6.699058 7.362491 -83.783760 4.248219 7.362491 46.189625 -2.301773 29.468618 -149.396962 -1.754365 5.621439 24.670091 2.744897 -29.468618 -7.107716 -1.533003 3.187120
969.218632 443.812213 48.800395 0.000000 0.000000 0.000000 0.000000 0.000000 0.000000 18.603763 18.523754 2.506665 180.000000 -0.764113 2.506665 16.834613 8.160558 29.940802 163.165387 -2.407211 1.883716 17.768624 1.787276 -29.940802 18.000000 0.662024 3.422736
1112.757797 605.798106 27.556022 0.000000 0.000000 0.000000 0.000000 0.000000 0.000000 110.914625 -2.578705 -2.506665 -69.085375 -26.540907 -2.506665 67.769469 8.606121 29.940802 -149.822316 -2.925202 -1.883716 29.049901 2.027718 -29.940802 -3.625079 0.365845 3.644843
1086.733246 592.557156 45.911521 0.000000 0.000000 0.000000 0.000000 0.000000 0.000000 -80.132323 72.251210 -7.362491 99.867677 -3.986846 -7.362491 36.201564 -7.844774 29.468618 -13.679556 -4.224931 -5.621439 78.049842 -3.558653 -29.468618 -5.127460 0.456692 3.852566
1081.109390 570.394492 47.376056 0.000000 0.000000 0.000000 0.000000 0.000000 0.000000 -175.864613 -10.538704 -11.755705 4.135387 3.103768 -11.755705 134.713876 -3.135417 28.531695 -10.005873 -2.589236 -9.270510 135.737755 0.296916 -28.531695 -3.389365 -0.052129 4.045085
1089.776802 536.594539 57.476998 0.000000 0.000000 0.000000 0.000000 0.000000 0.000000 -139.033903 -14.688559 -15.410265 40.966097 -2.013092 -15.410265 161.695972 7.006815 27.144812 3.114398 3.518550 -12.773379 148.805610 0.934760 -27.144812 -2.611636 -0.216692 4.221640
1114.282036 523.965647 54.476287 0.000000 0.000000 0.000000 0.000000 0.000000 0.000000 -156.073983 14.222759 -18.096541 23.926017 -1.420195 -18.096541 174.825807 -2.476982 25.329838 5.093343 -2.363416 -16.074804 161.266817 -1.057939 -25.329838 -1.814366 -0.014315 4.381533
1122.145157 503.425248 63.861720 0.000000 0.000000 0.000000 0.000000 0.000000 0.000000 -144.538174 -10.631241 -19.645745 35.461826 -0.449032 -19.645745 174.215003 0.476467 23.115397 -151.750905 -3.184862 -19.122720 43.887064 4.487745 -23.115397 -13.611294 -0.448774 4.524135
1134.158249 484.688419 82.599844 0.000000 0.000000 0.000000 0.000000 0.000000 0.000000 -142.311443 -3.782703 -19.960535 37.688557 -2.744637 -19.960535 -174.407776 4.026118 20.536413 14.121014 -0.590846 -21.869059 176.737053 0.874056 -20.536413 -0.386439 0.041818 4.648882
1156.756668 500.025387 84.213896 0.000000 0.000000 0.000000 0.000000 0.000000 0.000000 -140.140767 3.377624 -19.021130 39.859233 3.263452 -19.021130 -176.866589 3.568829 17.633558 -153.177991 -3.009658 -24.270510 40.555680 4.331659 -17.633558 -13.944432 -0.433166 4.755283
1163.818588 490.292573 71.841392 0.000000 0.000000 0.000000 0.000000 0.000000 0.000000 -126.918075 2.521595 -16.886559 53.081925 -5.214839 -16.886559 -163.374411 -1.848791 14.452610 -153.952175 -4.204322 -26.289200 36.914642 4.432629 -14.452610 0.798233 0.136360 4.842916
1176.523705 490.346003 87.401183 0.000000 0.000000 0.000000 0.000000 0.000000 0.000000 -130.072590 -8.770908 -13.690942 49.927410 1.004855 -13.690942 -150.224616 -2.517083 11.043737 24.749952 -3.796778 -27.893295 -162.219632 2.389244 -11.043737 1.550269 -0.142253 4.911436
1165.045052 489.521159 93.138540 0.000000 0.000000 0.000000 0.000000 0.000000 0.000000 -134.421293 -6.440154 -9.635073 45.578707 -2.758236 -9.635073 -138.114962 0.194499 7.460697 20.347125 -2.492534 -29.057495 -149.675125 1.697220 -7.460697 1.919618 -0.032122 4.960574
1186.003189 485.341580 94.635005 0.000000 0.000000 0.000000 0.000000 0.000000 0.000000 151.263424 87.353313 -4.973798 -28.736576 -85.541718 -4.973798 -155.571724 -3.801344 3.759997 -114.944239 -25.626110 -29.763441 -157.446860 -4.048952 -3.759997 2.096391 0.404871 4.990134
1190.285912 497.609435 113.806750 0.000000 0.000000 0.000000 0.000000 0.000000 0.000000 -104.331435 3.161767 -0.000000 75.668565 -2.175677 -0.000000 -153.934692 -4.363244 0.000000 -67.465008 4.282087 -30.000000 -71.629168 -4.446828 -0.000000 -13.965204 -5.449603 5.000000
846.875610 502.341399 115.886538 0.000000 0.000000 0.000000 0.000000 0.000000 0.000000 -153.358185 -11.607973 4.973798 26.641815 -5.461583 4.973798 -147.628169 -5.185204 -3.759997 -147.401289 -5.603881 -29.763441 0.000000 0.000000 0.000000 0.000000 0.000000 0.000000
969.711343 443.490827 115.686629 0.000000 0.000000 0.000000 0.000000 0.000000 0.000000 20.204512 20.184104 9.635073 180.000000 16.393652 9.635073 20.733157 -16.793173 -7.460697 159.266843 -0.906993 -29.057495 24.065833 13.241266 7.460697 18.000000 -0.339804 4.960574
969.735789 443.468267 106.387317 0.000000 0.000000 0.000000 0.000000 0.000000 0.000000 20.415894 -12.675697 13.690942 180.000000 12.079193 13.690942 21.087741 -6.031726 -11.043737 158.912259 12.918350 -27.893295 24.320336 2.473672 11.043737 18.000000 -0.139368 4.911436
969.759168 443.445569 119.479630 0.000000 0.000000 0.000000 0.000000 0.000000 0.000000 20.642061 -31.018343 16.886559 180.000000 1.843467 16.886559 21.453029 6.739161 -14.452610 158.546971 12.883164 -26.289200 24.533304 11.687565 14.452610 18.000000 -1.581579 4.842916
585.252171 514.469179 129.726468 0.000000 0.000000 0.000000 0.000000 0.000000 0.000000 74.723181 25.361495 19.021130 -105.276819 57.130045 19.021130 119.807175 -8.614412 -17.633558 165.825978 -8.596074 -24.270510 138.012220 8.729004 17.633558 -12.357653 -2.239784 4.755283
624.843979 517.601860 143.666963 0.000000 0.000000 0.000000 0.000000 0.000000 0.000000 103.202449 16.328504 19.960535 -76.797551 14.935830 19.960535 114.381580 -7.044444 -20.536413 -53.015473 60.562637 -21.869059 145.467160 -5.830096 20.536413 -4.173333 0.913953 4.648882
969.822873 443.376664 133.549482 0.000000 0.000000 0.000000 0.000000 0.000000 0.000000 21.413420 5.325519 19.645745 180.000000 -0.301627 19.645745 22.607712 9.494533 -23.115397 157.392288 -2.031859 -19.122720 24.899813 9.279161 23.115397 18.000000 -0.209253 4.524135
969.841956 443.353428 137.793609 0.000000 0.000000 0.000000 0.000000 0.000000 0.000000 21.702987 11.686382 18.096541 180.000000 -3.012562 18.096541 23.009909 -0.857508 -25.329838 156.990091 0.858038 -16.074804 24.926562 -2.966088 25.329838 18.000000 -0.497221 4.381533
969.859960 443.330059 157.974865 0.000000 0.000000 0.000000 0.000000 0.000000 0.000000 22.009579 23.503687 15.410265 180.000000 -9.104154 15.410265 23.419334 1.932146 -27.144812 156.580666 -12.000356 -12.773379 24.904993 3.631314 27.144812 18.000000 -0.083112 4.221640
594.905148 538.048757 147.973198 0.000000 0.000000 0.000000 0.000000 0.000000 0.000000 -57.080480 0.797235 11.755705 122.919520 28.060032 11.755705 -12.750556 -7.166307 -28.531695 149.841027 7.955886 -9.270510 -8.274090 -2.765418 28.531695 17.596979 -0.031123 4.045085
969.892723 443.282929 145.676816 0.000000 0.000000 0.000000 0.000000 0.000000 0.000000 22.675903 -17.300335 7.362491 180.000000 15.574135 7.362491 24.255612 -14.654186 -29.468618 155.744388 5.216543 -5.621439 24.720303 2.150983 29.468618 18.000000 0.816069 3.852566
1257.001877 499.708382 148.651424 0.000000 0.000000 0.000000 0.000000 0.000000 0.000000 52.818511 -2.846894 2.506665 -127.181489 -3.383991 2.506665 25.369497 4.953999 -29.940802 -143.914951 3.974179 -1.883716 14.556766 -0.390910 29.940802 -16.686776 -0.065354 3.644843
1279.050064 493.773898 166.192508 0.000000 0.000000 0.000000 0.000000 0.000000 0.000000 56.685213 -7.600712 -2.506665 -123.314787 10.127979 -2.506665 24.065452 -2.502727 -29.940802 -146.540317 3.796392 1.883716 13.097461 0.763274 29.940802 -16.716891 -0.161842 3.422736
1295.108986 477.099677 142.836803 0.000000 0.000000 0.000000 0.000000 0.000000 0.000000 65.723361 1.002188 -7.362491 -114.276639 -0.419274 -7.362491 23.725299 1.807589 -29.468618 -147.984281 4.161434 5.621439 13.187557 -3.308168 29.468618 -16.751134 -0.027017 3.187120
1289.065018 496.763316 145.375871 0.000000 0.000000 0.000000 0.000000 0.000000 0.000000 61.662232 -0.983233 -11.755705 -118.337768 1.659737 -11.755705 31.397757 1.818084 -28.531695 -148.047797 -0.226898 9.270510 12.491083 0.325266 28.531695 -16.898368 -0.058859 2.938926
1285.337105 480.691112 153.559519 0.000000 0.000000 0.000000 0.000000 0.000000 0.000000 58.021980 -1.513000 -15.410265 -121.978020 1.187471 -15.410265 31.705930 -1.049699 -27.144812 -157.028684 2.049067 12.773379 11.107306 1.090027 27.144812 -17.140016 -0.123514 2.679134
1276.453171 465.093691 146.422634 0.000000 0.000000 0.000000 0.000000 0.000000 0.000000 70.157145 -1.253839 -18.096541 -109.842855 -1.514646 -18.096541 40.303764 -0.979786 -25.329838 -145.293609 -2.954142 16.074804 10.431204 4.249520 25.329838 -17.100572 -0.102094 2.408768
1253.658714 472.768564 146.534537 0.000000 0.000000 0.000000 0.000000 0.000000 0.000000 65.087926 -15.214435 -19.645745 -114.912074 30.414116 -19.645745 -157.680356 -7.489194 -23.115397 -137.727082 3.892541 19.122720 -153.053596 -3.878985 23.115397 -16.054219 -0.854000 2.128896
1366.101608 507.691247 149.938576 0.000000 0.000000 0.000000 0.000000 0.000000 0.000000 108.715100 -21.512330 -19.960535 -71.284900 18.307576 -19.960535 156.661132 10.109637 -20.536413 -158.224303 -5.711622 21.869059 0.000000 0.000000 0.000000 0.000000 0.000000 0.000000
969.986295 443.064535 147.437927 0.000000 0.000000 0.000000 0.000000 0.000000 0.000000 26.662144 -25.644334 -19.021130 180.000000 7.677931 -19.021130 28.015351 4.510166 -17.633558 151.984649 2.792621 24.270510 22.068935 2.468151 17.633558 18.000000 -0.614109 1.545085
1282.107124 481.511257 155.776981 0.000000 0.000000 0.000000 0.000000 0.000000 0.000000 80.650781 29.675010 -16.886559 -99.349219 17.500678 -16.886559 1.511604 0.338124 -14.452610 -32.896908 -2.908490 26.289200 -7.727072 0.926721 14.452610 13.531851 0.822229 1.243449
1282.921486 484.777769 140.600163 0.000000 0.000000 0.000000 0.000000 0.000000 0.000000 -81.737646 -41.326566 -13.690942 98.262354 40.181710 -13.690942 -23.867101 -0.378595 -11.043737 12.655668 6.733045 27.893295 -29.454911 -0.656025 11.043737 9.861248 0.790358 0.936907
1290.933037 513.180238 147.632240 0.000000 0.000000 0.000000 0.000000 0.000000 0.000000 -91.387864 -3.225565 -9.635073 88.612136 -7.778390 -9.635073 -41.685392 -0.817858 -7.460697 -161.156957 -6.892209 29.057495 15.157863 5.503490 7.460697 10.543436 -1.844118 0.626666
969.999452 442.964284 147.129061 0.000000 0.000000 0.000000 0.000000 0.000000 0.000000 29.025427 -21.913246 -4.973798 180.000000 -6.652619 -4.973798 29.437993 20.368111 -3.759997 150.562007 3.923633 29.763441 20.404746 5.606155 3.759997 18.000000 -0.114778 0.313953
970.000000 442.938926 114.625266 0.000000 0.000000 0.000000 0.000000 0.000000 0.000000 29.678605 -12.718167 0.000000 180.000000 14.485541 0.000000 29.744881 -9.818873 -0.000000 150.255119 4.795242 30.000000 19.983107 4.628640 0.000000 18.000000 -0.998873 0.000000
1354.522934 467.411410 129.965834 0.000000 0.000000 0.000000 0.000000 0.000000 0.000000 150.622570 2.761571 4.973798 -29.377430 -5.753759 4.973798 140.176400 7.734269 3.759997 -12.221629 2.875759 29.763441 132.794256 -1.788551 -3.759997 -2.626015 0.083030 0.313953
969.997807 442.887864 133.832698 0.000000 0.000000 0.000000 0.000000 0.000000 0.000000 31.061399 29.691281 9.635073 180.000000 -4.419997 9.635073 30.285790 -8.551252 7.460697 149.714210 -6.842703 29.057495 19.151579 -6.432473 -7.460697 18.000000 0.372434 0.626666
1246.736984 514.278152 112.639184 0.000000 0.000000 0.000000 0.000000 0.000000 0.000000 143.557092 1.601085 13.690942 -36.442908 -7.631286 13.690942 133.761037 1.214119 11.043737 -156.950665 -5.963394 27.893295 0.000000 0.000000 0.000000 1.928484 0.452049 0.936907
1245.221100 458.637464 118.364957 0.000000 0.000000 0.000000 0.000000 0.000000 0.000000 160.701064 34.696469 16.886559 -19.298936 -6.736450 16.886559 140.193827 -2.848335 14.452610 -157.554825 -5.823342 26.289200 29.500467 5.069800 -14.452610 -15.049953 -0.506980 1.243449
1257.365570 418.514181 106.946460 0.000000 0.000000 0.000000 0.000000 0.000000 0.000000 -143.710676 -1.443749 19.021130 36.289324 -3.635412 19.021130 163.220413 -2.430561 17.633558 11.688054 -3.330233 24.270510 152.038385 1.462579 -17.633558 -2.339948 0.015461 1.545085
1275.099564 408.163741 99.226907 0.000000 0.000000 0.000000 0.000000 0.000000 0.000000 -132.929531 6.259422 19.960535 47.070469 -7.675622 19.960535 173.491912 4.528081 20.536413 -160.709681 -5.294935 21.869059 33.138793 4.835161 -20.536413 -14.686121 -0.483516 1.840623
1290.611115 384.880857 82.886729 0.000000 0.000000 0.000000 0.000000 0.000000 0.000000 -132.705235 1.133842 19.645745 47.294765 -1.320449 19.645745 -173.778854 5.027808 23.115397 20.496835 1.918652 19.122720 -161.220290 -4.191123 -23.115397 1.723235 0.369635 2.128896
1302.817154 380.305352 85.596138 0.000000 0.000000 0.000000 0.000000 0.000000 0.000000 -131.493915 -1.504783 18.096541 48.506085 -4.796204 18.096541 -165.393697 -1.948626 25.329838 23.154815 -6.467954 16.074804 -178.200316 3.081945 -25.329838 0.138141 -0.087758 2.408768
1304.997711 379.563582 94.379618 0.000000 0.000000 0.000000 0.000000 0.000000 0.000000 -126.727972 8.093334 15.410265 53.272028 -2.782516 15.410265 -160.219593 -0.787532 27.144812 28.448880 2.262484 12.773379 -174.368770 -1.596832 -27.144812 0.079526 0.132791 2.679134
1311.668472 386.890390 80.440306 0.000000 0.000000 0.000000 0.000000 0.000000 0.000000 -122.308728 -14.953882 11.755705 57.691272 2.979267 11.755705 -158.801130 0.622855 28.531695 150.942637 8.368162 9.270510 -154.878332 -5.464720 -28.531695 2.695409 0.613738 2.938926
1305.131836 395.180186 83.602237 0.000000 0.000000 0.000000 0.000000 0.000000 0.000000 -125.112810 -11.038108 7.362491 54.887190 15.747966 7.362491 -146.487292 -5.362233 29.468618 -175.167369 -2.560324 5.621439 -159.224034 -3.614510 -29.468618 1.782042 0.572715 3.187120
1296.320457 392.734526 93.666286 0.000000 0.000000 0.000000 0.000000 0.000000 0.000000 -131.035750 -0.300805 2.506665 48.964250 0.299542 2.506665 -128.969563 -1.697446 29.940802 38.856147 -0.458742 1.883716 -134.776850 1.912604 -29.940802 3.458429 -0.259683 3.422736
1306.963577 386.612041 75.036727 0.000000 0.000000 0.000000 0.000000 0.000000 0.000000 -124.469622 4.375961 -2.506665 55.530378 -4.025359 -2.506665 -109.994856 6.054838 29.940802 37.691309 0.785094 -1.883716 -118.274788 -0.940694 -29.940802 5.098336 0.042599 3.644843
969.892723 442.572198 66.965911 0.000000 0.000000 0.000000 0.000000 0.000000 0.000000 41.287575 -6.520576 -7.362491 180.000000 3.013522 -7.362491 30.974696 -11.460730 29.468618 149.025304 2.194462 -5.621439 15.072869 -1.267225 -29.468618 18.000000 -0.259908 3.852566
969.876883 442.545207 63.894687 0.000000 0.000000 0.000000 0.000000 0.000000 0.000000 42.241956 -30.982441 -11.755705 180.000000 11.680299 -11.755705 30.826133 -0.423422 28.531695 149.173867 5.615720 -9.270510 14.823070 7.535400 -28.531695 18.000000 -0.408694 4.045085
969.859960 442.518116 73.072703 0.000000 0.000000 0.000000 0.000000 0.000000 0.000000 43.199779 -31.129068 -15.410265 180.000000 8.863836 -15.410265 30.649504 7.758005 27.144812 149.350496 -2.151170 -12.773379 14.587557 11.330366 -27.144812 18.000000 -0.801689 4.221640
969.841956 442.490926 57.799290 0.000000 0.000000 0.000000 0.000000 0.000000 0.000000 44.157210 28.211130 -18.096541 180.000000 0.425755 -18.096541 30.446417 -13.601389 25.329838 149.553583 -19.184498 -16.074804 14.366154 6.455597 -25.329838 18.000000 -0.134588 4.381533
969.822873 442.463637 65.111821 0.000000 0.000000 0.000000 0.000000 0.000000 0.000000 45.110117 -14.967513 -19.645745 180.000000 2.581698 -19.645745 30.218633 -9.825353 23.115397 149.781367 -9.586271 -19.122720 14.158653 5.846403 -23.115397 18.000000 -0.209566 4.524135
969.802712 442.436251 32.272476 0.000000 0.000000 0.000000 0.000000 0.000000 0.000000 46.054109 12.820327 -19.960535 180.000000 -3.866669 -19.960535 29.968037 9.732638 20.536413 150.031963 0.223687 -21.869059 13.964823 1.819616 -20.536413 18.000000 -0.221488 4.648882
1187.040939 541.658249 55.906924 0.000000 0.000000 0.000000 0.000000 0.000000 0.000000 82.806623 -12.769389 -19.021130 -97.193377 6.783651 -19.021130 45.395981 -8.126910 17.633558 -156.144455 -2.345242 -24.270510 0.000000 0.000000 0.000000 0.000000 0.000000 0.000000
1182.242889 522.024286 60.219879 0.000000 0.000000 0.000000 0.000000 0.000000 0.000000 -105.721938 14.886385 -16.886559 74.278062 10.768445 -16.886559 -155.708006 -2.733164 14.452610 -157.302521 -2.400762 -26.289200 0.000000 0.000000 0.000000 2.684983 0.153723 4.842916
1180.914459 527.065626 40.970731 0.000000 0.000000 0.000000 0.000000 0.000000 0.000000 88.055617 0.318824 -13.690942 -91.944383 -6.922833 -13.690942 -158.862018 -2.283427 11.043737 -151.747289 -3.080101 -27.893295 0.000000 0.000000 0.000000 0.000000 0.000000 0.000000
1236.800194 541.387432 39.508323 0.000000 0.000000 0.000000 0.000000 0.000000 0.000000 -85.588400 -6.761408 -9.635073 94.411600 5.190709 -9.635073 -159.297106 -10.013433 7.460697 -157.915391 -2.264192 -29.057495 26.607362 2.342404 -7.460697 14.926890 0.758717 4.960574
1161.066513 575.006626 51.792691 0.000000 0.000000 0.000000 0.000000 0.000000 0.000000 -81.021168 -14.354596 -4.973798 98.978832 8.843449 -4.973798 -102.851701 1.116207 3.759997 -157.041007 -1.657180 -29.763441 21.429890 2.787465 -3.759997 10.859432 -0.419435 4.990134
1255.636253 512.645942 53.117347 0.000000 0.000000 0.000000 0.000000 0.000000 0.000000 77.832564 0.363466 -0.000000 -102.167436 -10.702454 -0.000000 -158.264834 -1.226846 0.000000 -130.745502 1.484688 -30.000000 -157.699225 -3.294388 -0.000000 0.000000 0.000000 0.000000
1265.118484 521.473864 41.455764 0.000000 0.000000 0.000000 0.000000 0.000000 0.000000 64.078276 -2.277391 4.973798 -115.921724 -4.624122 4.973798 41.397952 1.728555 -3.759997 -139.329851 -0.496360 -29.763441 20.223252 -0.396656 3.759997 -16.047574 0.047014 4.990134
1228.099480 522.138258 54.970076 0.000000 0.000000 0.000000 0.000000 0.000000 0.000000 71.050901 -1.715171 9.635073 -108.949099 3.210638 9.635073 150.099970 6.462819 -7.460697 -139.894702 2.130136 -29.057495 -156.275691 -3.263712 7.460697 0.000000 0.000000 0.000000
1240.357246 528.695873 53.063406 0.000000 0.000000 0.000000 0.000000 0.000000 0.000000 65.413351 -14.592143 13.690942 -114.586649 8.108650 13.690942 147.242328 16.947766 -11.043737 -154.470720 -1.923823 -27.893295 25.557225 2.352391 11.043737 -15.444278 -0.235239 4.911436
1231.815262 551.380248 46.905301 0.000000 0.000000 0.000000 0.000000 0.000000 0.000000 56.412506 13.459610 16.886559 -123.587494 -7.454945 16.886559 -153.392336 3.541174 -14.452610 -154.784582 -2.641034 -26.289200 24.191555 4.039836 14.452610 -15.580844 -0.403984 4.842916
1221.475182 508.360147 56.761159 0.000000 0.000000 0.000000 0.000000 0.000000 0.000000 77.450622 -8.647445 19.021130 -102.549378 4.901787 19.021130 -156.789784 -3.138048 -17.633558 -125.590168 0.805088 -24.270510 -160.017240 -3.400259 17.633558 1.833434 0.408990 4.755283
969.477684 442.100429 49.050767 0.000000 0.000000 0.000000 0.000000 0.000000 0.000000 54.932575 -53.393969 19.960535 180.000000 11.566863 19.960535 25.919122 0.557789 -20.536413 154.080878 2.634996 -21.869059 12.612867 3.127052 20.536413 18.000000 -0.191381 4.648882
1480.140495 518.878891 55.137478 0.000000 0.000000 0.000000 0.000000 0.000000 0.000000 -110.621767 82.622892 19.645745 69.378233 -84.723610 19.645745 -158.235933 -2.556741 -23.115397 166.031448 1.995383 -19.122720 -155.186432 -3.232059 23.115397 2.641553 0.238404 4.524135
1271.640472 556.840560 91.862937 0.000000 0.000000 0.000000 0.000000 0.000000 0.000000 -94.404719 -5.012687 18.096541 85.595281 1.705652 18.096541 -62.417786 -1.156551 -25.329838 23.992813 -1.496678 -16.074804 -76.856107 -1.139952 25.329838 7.708835 -0.022728 4.381533
1258.556786 530.268441 80.365619 0.000000 0.000000 0.000000 0.000000 0.000000 0.000000 78.355945 -15.595850 15.410265 -101.644055 11.595342 15.410265 35.068294 2.613854 -27.144812 -54.090640 1.232129 -12.773379 35.848220 7.662560 27.144812 -8.104639 0.208300 4.221640
1250.800209 527.150567 76.967704 0.000000 0.000000 0.000000 0.000000 0.000000 0.000000 72.417769 -8.119957 11.755705 -107.582231 -0.075164 11.755705 24.571109 0.401351 -28.531695 -39.196117 2.611307 -9.270510 10.411117 5.373638 28.531695 -9.048616 -5.014746 4.045085
1243.466148 571.776259 89.426382 0.000000 0.000000 0.000000 0.000000 0.000000 0.000000 86.301473 2.651540 7.362491 -93.698527 -6.321878 7.362491 24.553534 0.641537 -29.468618 -153.460385 -3.553651 -5.621439 19.510484 2.982510 29.468618 -10.109500 -1.980471 3.852566
1261.883812 566.052918 97.901461 0.000000 0.000000 0.000000 0.000000 0.000000 0.000000 94.015209 -18.232507 2.506665 -85.984791 -5.724637 2.506665 38.959993 11.518056 -29.940802 -154.008305 -3.551891 -1.883716 20.870951 3.536665 29.940802 -10.872440 0.220246 3.644843
1284.436798 527.190542 112.981529 0.000000 0.000000 0.000000 0.000000 0.000000 0.000000 111.186365 -7.337620 -2.506665 -68.813635 0.785138 -2.506665 58.506163 -3.092254 -29.940802 -19.138727 -5.060927 1.883716 51.457372 0.723679 29.940802 -5.203198 0.617770 3.422736
1272.860069 533.494012 113.814260 0.000000 0.000000 0.000000 0.000000 0.000000 0.000000 72.301471 -23.784829 -7.362491 -107.698529 10.923286 -7.362491 78.802573 1.592862 -29.468618 -154.772375 -4.349901 5.621439 26.927455 4.078212 29.468618 -15.307255 -0.407821 3.187120
1255.264664 498.243735 112.139215 0.000000 0.000000 0.000000 0.000000 0.000000 0.000000 164.596971 -58.282421 -11.755705 -15.403029 37.721485 -11.755705 125.849126 2.018684 -28.531695 -156.067666 -4.407326 9.270510 33.087561 5.078010 28.531695 -14.691244 -0.507801 2.938926
1259.202232 470.407684 114.178138 0.000000 0.000000 0.000000 0.000000 0.000000 0.000000 -139.980397 17.220598 -15.410265 40.019603 -5.328747 -15.410265 165.887722 2.679500 -27.144812 -157.901492 -5.434685 12.773379 35.196094 5.132327 27.144812 -14.480391 -0.513233 2.679134
1236.502075 429.951335 112.731164 0.000000 0.000000 0.000000 0.000000 0.000000 0.000000 -113.295066 6.702974 -18.096541 66.704934 9.639182 -18.096541 -174.664169 -5.290694 -25.329838 -159.007335 -5.509107 16.074804 32.868990 5.967573 25.329838 -14.713101 -0.596757 2.408768
1253.359451 413.942538 115.529084 0.000000 0.000000 0.000000 0.000000 0.000000 0.000000 -123.348580 11.543864 -19.645745 56.651420 -12.670111 -19.645745 -167.815074 9.300224 -23.115397 -159.603180 -5.972121 19.122720 32.791747 6.733624 23.115397 -14.720825 -0.673362 2.128896
1281.206589 405.664523 133.792082 0.000000 0.000000 0.000000 0.000000 0.000000 0.000000 -124.414271 1.813482 -19.960535 55.585729 -8.320956 -19.960535 -161.281803 0.853060 -20.536413 28.568449 -5.374487 21.869059 -159.052798 -4.250843 20.536413 1.849141 0.453938 1.840623
1300.238571 418.760215 141.869931 0.000000 0.000000 0.000000 0.000000 0.000000 0.000000 -126.263092 -0.750875 -19.021130 53.736908 -3.690605 -19.021130 -159.739358 0.676370 -17.633558 31.487961 -4.661316 24.270510 -170.323915 1.482232 17.633558 0.671815 -0.163618 1.545085
1321.889191 413.634385 130.684213 0.000000 0.000000 0.000000 0.000000 0.000000 0.000000 -133.874471 -2.945229 -16.886559 46.125529 2.237690 -16.886559 -159.376251 0.831686 -14.452610 30.696824 -2.042372 26.289200 -164.929556 2.750802 14.452610 1.089735 -0.034328 1.243449
1336.221428 432.881820 148.868752 0.000000 0.000000 0.000000 0.000000 0.000000 0.000000 -115.020798 3.174444 -13.690942 64.979202 -3.791833 -13.690942 -135.609544 2.985809 -11.043737 -161.321630 -6.244911 27.893295 17.353502 7.889674 11.043737 -16.264650 -0.788967 0.936907
1329.124603 416.860342 147.259672 0.000000 0.000000 0.000000 0.000000 0.000000 0.000000 -134.023347 -1.518173 -9.635073 45.976653 -0.564064 -9.635073 -128.030830 -1.989765 -7.460697 28.249885 -4.687140 29.057495 -136.447985 1.911979 7.460697 4.038834 -0.079886 0.626666
1343.366776 427.060794 138.176981 0.000000 0.000000 0.000000 0.000000 0.000000 0.000000 -130.153347 -0.026653 -4.973798 49.846653 -1.454457 -4.973798 -103.564435 -1.153832 -3.759997 27.398095 0.377319 29.763441 -115.461530 2.243443 3.759997 5.470063 -0.378056 0.313953
1376.991005 465.829636 140.159570 0.000000 0.000000 0.000000 0.000000 0.000000 0.000000 -120.272352 2.179976 0.000000 59.727648 1.211533 0.000000 -62.204131 -2.664705 -0.000000 27.740602 -1.612145 30.000000 -80.461527 1.599933 0.000000 7.450891 0.345564 0.000000
1384.978867 468.790376 138.196131 0.000000 0.000000 0.000000 0.000000 0.000000 0.000000 -93.720384 -46.424343 4.973798 86.279616 22.953557 4.973798 3.847814 -1.614378 3.759997 -160.438787 -6.131545 29.763441 15.990976 4.590561 -3.759997 7.894783 2.940571 0.313953
1345.894547 516.257268 128.922113 0.000000 0.000000 0.000000 0.000000 0.000000 0.000000 127.577640 -7.750057 9.635073 -52.422360 23.928881 9.635073 53.096359 -5.387694 7.460697 -159.021748 -5.557328 29.057495 18.308456 5.694978 -7.460697 -4.062191 -2.243189 0.626666
968.498927 441.455181 135.558614 0.000000 0.000000 0.000000 0.000000 0.000000 0.000000 47.920147 -33.632138 13.690942 180.000000 25.197872 13.690942 19.641385 -6.617364 11.043737 160.358615 11.295260 27.893295 13.993219 -4.993317 -11.043737 18.000000 -0.080154 0.936907
1336.846733 493.527671 131.516671 0.000000 0.000000 0.000000 0.000000 0.000000 0.000000 102.681311 34.757726 16.886559 -77.318689 -36.954788 16.886559 35.985219 -3.481903 14.452610 -159.617763 -7.175562 26.289200 19.375410 5.428735 -14.452610 -16.062459 -0.542874 1.243449
968.386706 441.394956 158.267053 0.000000 0.000000 0.000000 0.000000 0.000000 0.000000 46.120581 -7.432009 19.021130 180.000000 -10.665900 19.021130 19.316787 2.403186 17.633558 160.683213 -0.630610 24.270510 14.327067 -2.578305 -17.633558 18.000000 0.520793 1.545085
1263.984947 433.341283 142.332559 0.000000 0.000000 0.000000 0.000000 0.000000 0.000000 -115.578373 11.965187 19.960535 64.421627 -15.075830 19.960535 -82.396446 7.627053 20.536413 25.733383 -13.690292 21.869059 -77.477544 11.273516 -20.536413 5.836928 -0.594157 1.840623
1352.596436 477.564354 120.853966 0.000000 0.000000 0.000000 0.000000 0.000000 0.000000 -99.196741 -9.982158 19.645745 80.803259 9.828892 19.645745 -125.272585 -3.684850 23.115397 -162.405270 -5.879310 19.122720 17.377627 7.017425 -23.115397 -16.262237 -0.701742 2.128896
1384.326782 408.174427 142.670379 0.000000 0.000000 0.000000 0.000000 0.000000 0.000000 96.868601 12.130966 18.096541 -83.131399 8.850959 18.096541 -160.848957 -6.081474 25.329838 -137.255583 0.525576 16.074804 -162.076720 -6.568072 -25.329838 0.000000 0.000000 0.000000
1387.580223 387.128634 146.131241 0.000000 0.000000 0.000000 0.000000 0.000000 0.000000 78.087764 2.503289 15.410265 -101.912236 -8.752302 15.410265 -161.807915 -6.180061 27.144812 -147.504361 0.562791 12.773379 -162.566306 -7.604066 -27.144812 1.735427 0.900995 2.679134
1345.818558 392.423122 144.394208 0.000000 0.000000 0.000000 0.000000 0.000000 0.000000 71.782984 11.234742 11.755705 -108.217016 12.454002 11.755705 -169.469261 -3.161981 28.531695 -153.903088 0.218177 9.270510 -154.670689 -0.307548 -28.531695 15.277725 3.385625 2.938926
1331.471329 361.814139 142.315808 0.000000 0.000000 0.000000 0.000000 0.000000 0.000000 53.586100 -7.281295 7.362491 -126.413900 -1.151691 7.362491 -162.290330 -5.932399 29.468618 -154.912165 -3.563838 5.621439 -162.550394 -6.310820 -29.468618 1.742175 0.886779 3.187120
1354.413986 427.213873 115.923777 0.000000 0.000000 0.000000 0.000000 0.000000 0.000000 -131.358118 5.465266 2.506665 48.641882 -21.343053 2.506665 -142.488821 -3.161812 29.940802 -161.977882 -6.746054 1.883716 12.673705 8.730838 -29.940802 1.397524 0.012542 3.422736
1330.326691 347.207226 131.367587 0.000000 0.000000 0.000000 0.000000 0.000000 0.000000 52.464175 1.361762 -2.506665 -127.535825 -0.202104 -2.506665 14.270918 1.104158 29.940802 -122.057234 3.483654 -1.883716 22.820874 -4.204916 -29.940802 -15.244909 0.266673 3.644843
1317.103271 414.475805 127.017537 0.000000 0.000000 0.000000 0.000000 0.000000 0.000000 76.170457 5.144246 -7.362491 -103.829543 3.098121 -7.362491 -50.250674 -3.232199 29.468618 -52.503744 -1.830400 -5.621439 -92.793049 2.307375 -29.468618 3.303440 0.208476 3.852566
1331.844635 430.291482 130.856727 0.000000 0.000000 0.000000 0.000000 0.000000 0.000000 79.985160 -6.499036 -11.755705 -100.014840 -4.191268 -11.755705 25.995082 2.565650 28.531695 -75.062603 1.698402 -9.270510 38.761234 -0.970119 -28.531695 -11.442229 -0.219171 4.045085
1359.462433 496.472383 106.025238 0.000000 0.000000 0.000000 0.000000 0.000000 0.000000 84.268829 -6.628539 -15.410265 -95.731171 0.640418 -15.410265 30.279153 0.161222 27.144812 -63.318008 -0.244105 -12.773379 39.457716 0.659629 -27.144812 -9.485742 -0.276631 4.221640
1323.514366 546.771398 118.116225 0.000000 0.000000 0.000000 0.000000 0.000000 0.000000 84.407325 -0.592772 -18.096541 -95.592675 -1.253753 -18.096541 27.768249 2.686308 25.329838 -47.660055 6.644270 -16.074804 28.281511 -11.525917 -25.329838 -7.827901 0.952828 4.381533
1268.535347 591.567099 107.533085 0.000000 0.000000 0.000000 0.000000 0.000000 0.000000 90.890792 6.534586 -19.645745 -89.109208 -5.382434 -19.645745 44.654760 -5.719295 23.115397 -48.200667 -11.830881 -19.122720 43.369388 7.683089 -23.115397 -8.974980 -0.038831 4.524135
1303.157158 602.888768 111.332173 0.000000 0.000000 0.000000 0.000000 0.000000 0.000000 90.349289 5.041585 -19.960535 -89.650711 -3.818175 -19.960535 47.707312 0.870969 20.536413 -53.918782 2.723038 -21.869059 40.070965 -6.975021 -20.536413 -9.318632 0.732872 4.648882
1314.841690 613.141973 96.590532 0.000000 0.000000 0.000000 0.000000 0.000000 0.000000 94.480501 0.462625 -19.021130 -85.519499 1.475543 -19.021130 58.462862 0.255026 17.633558 -52.020507 -0.587949 -24.270510 55.276552 -2.560733 -17.633558 -7.777523 -0.300309 4.755283
1327.521400 639.394319 100.693238 0.000000 0.000000 0.000000 0.000000 0.000000 0.000000 99.879576 -1.021833 -16.886559 -80.120424 0.461230 -16.886559 69.161359 -1.314638 14.452610 -46.413613 -3.923668 -26.289200 76.680143 3.480399 -14.452610 -6.257768 -0.026309 4.842916
1277.812729 671.228578 87.409074 0.000000 0.000000 0.000000 0.000000 0.000000 0.000000 99.708534 -0.806862 -13.690942 -80.291466 1.027376 -13.690942 92.239140 -2.734152 11.043737 -26.764021 -2.603593 -27.893295 98.168457 -5.150435 -11.043737 -4.372074 0.445995 4.911436
1309.642181 690.479329 100.088249 0.000000 0.000000 0.000000 0.000000 0.000000 0.000000 117.292414 7.520693 -9.635073 -62.707586 1.871398 -9.635073 137.002702 -1.962456 7.460697 -32.045917 2.279418 -29.057495 135.211322 0.491709 -7.460697 -3.212944 -0.121614 4.960574
1299.770966 664.126496 65.302051 0.000000 0.000000 0.000000 0.000000 0.000000 0.000000 158.531160 -11.071966 -4.973798 -21.468840 16.609767 -4.973798 161.478323 -0.138786 3.759997 -12.838206 2.639002 -29.763441 151.269584 -0.992936 -3.759997 -2.521934 0.100061 4.990134
1313.353729 643.668108 53.181438 0.000000 0.000000 0.000000 0.000000 0.000000 0.000000 -154.315892 -8.819048 -0.000000 25.684108 7.826334 -0.000000 173.459940 0.185273 0.000000 1.519689 4.878295 -30.000000 164.244875 -1.966844 -0.000000 -1.552244 0.070849 5.000000
1342.841377 638.982847 92.120476 0.000000 0.000000 0.000000 0.000000 0.000000 0.000000 -138.993869 19.189971 4.973798 41.006131 -12.363616 4.973798 175.724056 -3.273940 -3.759997 -151.723069 -3.844288 -29.763441 43.242568 4.490543 3.759997 -13.675743 -0.449054 4.990134
1350.000229 614.724133 66.934820 0.000000 0.000000 0.000000 0.000000 0.000000 0.000000 -144.248147 -4.721586 9.635073 35.751853 -0.714322 9.635073 177.069273 0.267917 -7.460697 -152.227621 -2.683348 -29.057495 43.136563 3.947441 7.460697 -13.686344 -0.394744 4.960574
1328.535919 624.780936 59.909069 0.000000 0.000000 0.000000 0.000000 0.000000 0.000000 -165.447222 4.211714 13.690942 14.552778 12.615249 13.690942 169.657511 2.351096 -11.043737 -152.168050 -2.580741 -27.893295 41.929642 3.726046 11.043737 -13.807036 -0.372605 4.911436
1318.810501 615.688248 62.238800 0.000000 0.000000 0.000000 0.000000 0.000000 0.000000 -120.063657 -3.239285 16.886559 59.936343 -9.157912 16.886559 -165.389465 5.556604 -14.452610 -152.866764 -2.862628 -26.289200 39.162270 2.608949 14.452610 -14.083773 -0.260895 4.842916
1321.656418 659.275410 52.003214 0.000000 0.000000 0.000000 0.000000 0.000000 0.000000 -121.435085 -5.399771 19.021130 58.564915 9.508985 19.021130 -149.190712 -5.835086 -17.633558 -151.926374 -2.251959 -24.270510 33.097066 3.378064 17.633558 -14.690293 -0.337806 4.755283
1328.445511 687.490232 53.076780 0.000000 0.000000 0.000000 0.000000 0.000000 0.000000 -104.253419 -3.780441 19.960535 75.746581 15.051795 19.960535 -110.140878 -2.633034 -20.536413 -152.911692 -2.014414 -21.869059 23.882145 2.765170 20.536413 3.694979 0.071532 4.648882
966.534206 440.564282 40.937248 0.000000 0.000000 0.000000 0.000000 0.000000 0.000000 25.865486 5.095009 19.645745 180.000000 9.107804 19.645745 18.728337 -4.488347 -23.115397 161.271663 2.705062 -19.122720 19.024234 7.063259 23.115397 18.000000 -1.275893 4.524135
966.454577 440.533056 39.816051 0.000000 0.000000 0.000000 0.000000 0.000000 0.000000 25.417507 3.712054 18.096541 180.000000 8.158207 18.096541 18.825450 -11.636005 -25.329838 161.174550 -3.068087 -16.074804 19.071566 0.814845 25.329838 18.000000 0.677805 4.381533
966.374240 440.501809 46.627583 0.000000 0.000000 0.000000 0.000000 0.000000 0.000000 24.990320 9.007363 15.410265 180.000000 0.004731 15.410265 18.929718 3.078723 -27.144812 161.070282 2.231081 -12.773379 19.102411 4.502248 27.144812 18.000000 -0.781719 4.221640
966.293204 440.470542 27.736762 0.000000 0.000000 0.000000 0.000000 0.000000 0.000000 24.583377 -15.250456 11.755705 180.000000 5.788818 11.755705 19.040946 -7.487468 -28.531695 160.959054 3.651468 -9.270510 19.116765 -11.925493 28.531695 18.000000 1.577538 4.045085
966.211478 440.439256 40.330190 0.000000 0.000000 0.000000 0.000000 0.000000 0.000000 24.196129 16.942913 7.362491 180.000000 11.310559 7.362491 19.158923 -12.232423 -29.468618 160.841077 -9.730763 -5.621439 19.114778 -8.369022 29.468618 18.000000 1.035842 3.852566
644.985180 745.864069 36.201567 0.000000 0.000000 0.000000 0.000000 0.000000 0.000000 96.086415 -0.067953 2.506665 -83.913585 42.079460 2.506665 -159.662371 -0.565221 -29.940802 -116.741565 12.359729 -1.883716 -176.001217 -2.416318 29.940802 -1.006627 1.131122 3.644843
1269.020119 699.025490 47.258557 0.000000 0.000000 0.000000 0.000000 0.000000 0.000000 83.810916 6.629589 -2.506665 -96.189084 -0.209960 -2.506665 51.932890 -1.729106 -29.940802 -149.314466 -2.369807 1.883716 27.598511 2.000484 29.940802 -15.240149 -0.200048 3.422736
573.721218 678.450201 75.474226 0.000000 0.000000 0.000000 0.000000 0.000000 0.000000 18.756393 18.095848 -7.362491 -161.243607 -11.419410 -7.362491 -174.158094 7.887675 -29.468618 178.010322 -1.092067 5.621439 -154.394154 -2.439340 29.468618 11.886524 3.135449 3.187120
1261.580200 714.897366 55.139836 0.000000 0.000000 0.000000 0.000000 0.000000 0.000000 87.191276 -9.298750 -11.755705 -92.808724 2.934464 -11.755705 23.129119 -8.282792 -28.531695 -149.376238 -1.956593 9.270510 24.545507 1.876407 28.531695 13.583501 -0.351273 2.938926
1314.655838 684.171546 59.482915 0.000000 0.000000 0.000000 0.000000 0.000000 0.000000 61.219932 0.815505 -15.410265 -118.780068 -9.066177 -15.410265 25.476616 5.400753 -27.144812 -150.404247 -2.526288 12.773379 24.621454 1.816714 27.144812 -15.537855 -0.181671 2.679134
1319.638939 674.820013 54.362324 0.000000 0.000000 0.000000 0.000000 0.000000 0.000000 82.055377 5.797747 -18.096541 -97.944623 -18.445879 -18.096541 17.325085 5.595678 -25.329838 -60.067277 -8.569449 16.074804 23.747728 -4.177241 25.329838 -13.005173 0.319073 2.408768
1367.852325 659.536314 90.909132 0.000000 0.000000 0.000000 0.000000 0.000000 0.000000 -150.278430 52.838409 -19.645745 29.721570 -20.577676 -19.645745 -151.222797 -2.874855 -23.115397 18.758043 -3.120591 19.122720 -152.451920 -2.561826 23.115397 2.484143 0.229930 2.128896
1392.624664 638.981302 60.572827 0.000000 0.000000 0.000000 0.000000 0.000000 0.000000 -122.704248 6.366342 -19.960535 57.295752 5.153790 -19.960535 -134.513385 -4.584967 -20.536413 30.292627 -1.002405 21.869059 -146.694539 0.795180 20.536413 2.430965 -0.232644 1.840623
1401.291389 646.422758 76.824845 0.000000 0.000000 0.000000 0.000000 0.000000 0.000000 83.316637 -0.180075 -19.021130 -96.683363 1.540711 -19.021130 29.335627 2.788389 -17.633558 -136.281416 4.382016 24.270510 19.119183 -3.817050 17.633558 -15.871560 0.009919 1.545085
1381.838951 663.410475 72.257145 0.000000 0.000000 0.000000 0.000000 0.000000 0.000000 79.215331 -0.292695 -16.886559 -100.784669 2.011866 -16.886559 30.640455 -3.963622 -14.452610 -139.113455 -2.175862 26.289200 14.302413 4.163601 14.452610 -16.408036 -0.260054 1.243449
1390.185928 664.248354 80.732306 0.000000 0.000000 0.000000 0.000000 0.000000 0.000000 75.546066 -0.413147 -13.690942 -104.453934 8.814360 -13.690942 38.995097 -1.369661 -11.043737 -142.871297 -1.187190 27.893295 14.209110 1.386205 11.043737 -16.737090 0.057183 0.936907
1393.889923 677.551103 96.038181 0.000000 0.000000 0.000000 0.000000 0.000000 0.000000 84.293627 9.344870 -9.635073 -95.706373 -3.656818 -9.635073 -152.700272 -3.162480 -7.460697 -143.357755 0.851848 29.057495 -148.868889 -4.419649 7.460697 3.626268 0.494666 0.626666
905.601082 693.654528 94.896464 0.000000 0.000000 0.000000 0.000000 0.000000 0.000000 -84.410869 -3.480766 -4.973798 95.589131 4.877558 -4.973798 -139.498802 -5.060329 -3.759997 -178.556713 35.163988 29.763441 -142.061844 -5.569718 3.759997 3.411456 0.459943 0.313953
1337.643929 680.318756 85.037147 0.000000 0.000000 0.000000 0.000000 0.000000 0.000000 78.192517 -5.459767 0.000000 -101.807483 7.043459 0.000000 48.289813 -5.951417 -0.000000 -140.291980 -3.428920 30.000000 13.663140 4.617507 0.000000 -17.395561 -0.245132 0.000000
1322.670708 685.543334 95.953984 0.000000 0.000000 0.000000 0.000000 0.000000 0.000000 71.501063 -4.717451 4.973798 -108.498937 4.052405 4.973798 23.648228 3.438131 3.759997 -144.586500 1.390480 29.763441 14.578018 0.924416 -3.759997 -16.885607 -0.007950 0.313953
1305.530548 682.910864 103.613749 0.000000 0.000000 0.000000 0.000000 0.000000 0.000000 72.979287 21.501012 9.635073 -107.020713 -22.111217 9.635073 -148.728581 -4.278795 7.460697 -74.802907 3.137151 29.057495 -151.178244 -4.736848 -7.460697 2.601049 0.367508 0.626666
1359.363556 692.650115 78.996972 0.000000 0.000000 0.000000 0.000000 0.000000 0.000000 73.244804 -6.407085 13.690942 -106.755196 19.550813 13.690942 13.983499 5.856757 11.043737 -67.611809 6.461673 27.893295 13.130547 -5.081574 -11.043737 -11.004089 0.479911 0.936907
1299.495964 679.994059 122.323124 0.000000 0.000000 0.000000 0.000000 0.000000 0.000000 116.206779 -6.783383 16.886559 -63.793221 -2.618962 16.886559 -150.858719 -4.573912 14.452610 -34.548592 -1.457343 26.289200 60.366751 7.415427 -14.452610 -4.627493 -0.061833 1.243449
1306.260338 711.527116 110.027000 0.000000 0.000000 0.000000 0.000000 0.000000 0.000000 -85.758672 -29.507334 19.021130 94.241328 20.308844 19.021130 -31.461750 -4.968553 17.633558 -4.237664 4.061768 24.270510 -15.215787 0.902265 -17.633558 7.867754 -2.278913 1.545085
1272.614822 704.778571 123.240494 0.000000 0.000000 0.000000 0.000000 0.000000 0.000000 -78.634637 -7.049643 19.960535 101.365363 6.500715 19.960535 -34.118569 -1.030279 20.536413 22.539652 7.677237 21.869059 -31.373170 -1.510838 -20.536413 11.310693 -0.008693 1.840623
1310.345650 676.427021 160.167716 0.000000 0.000000 0.000000 0.000000 0.000000 0.000000 97.572435 -5.557574 19.645745 -82.427565 2.493153 19.645745 50.400703 1.332653 23.115397 -39.584286 2.310015 19.122720 44.966766 1.681971 -23.115397 -8.852712 -0.945590 2.128896
1315.732956 671.025095 138.730397 0.000000 0.000000 0.000000 0.000000 0.000000 0.000000 97.797337 7.865666 18.096541 -82.202663 -14.683100 18.096541 49.825934 2.873540 25.329838 -39.162923 -6.896289 16.074804 36.475631 3.310017 -25.329838 -8.191519 -0.755286 2.408768
1329.935532 653.525419 124.802379 0.000000 0.000000 0.000000 0.000000 0.000000 0.000000 96.469555 0.754502 15.410265 -83.530445 -6.141951 15.410265 63.882053 5.907251 27.144812 -51.972064 -1.423556 12.773379 58.624362 -1.305822 -27.144812 -8.239564 0.422924 2.679134
1316.170578 674.246514 136.645402 0.000000 0.000000 0.000000 0.000000 0.000000 0.000000 -87.946330 -7.199507 11.755705 92.053670 2.699203 11.755705 -29.715798 6.280367 28.531695 54.212796 5.669039 9.270510 -40.560774 5.872736 -28.531695 11.008015 -1.032215 2.938926
1317.367287 678.027205 131.057613 0.000000 0.000000 0.000000 0.000000 0.000000 0.000000 95.152942 8.896862 7.362491 -84.847058 -0.018328 7.362491 98.792835 1.717520 29.468618 -150.515547 -6.136579 5.621439 32.983753 4.574454 -29.468618 -14.701625 -0.457445 3.187120
1318.168488 670.157025 143.182145 0.000000 0.000000 0.000000 0.000000 0.000000 0.000000 -151.252255 37.616352 2.506665 28.747745 -55.835282 2.506665 138.896993 -6.937493 29.940802 -151.946620 -6.727918 1.883716 38.784684 5.888088 -29.940802 -14.121532 -0.588809 3.422736
1323.412628 644.667885 151.040918 0.000000 0.000000 0.000000 0.000000 0.000000 0.000000 -97.904066 11.683075 -2.506665 82.095934 -28.963705 -2.506665 155.695030 -0.107038 29.940802 -152.500978 -7.376314 -1.883716 44.721081 6.966270 -29.940802 -13.527892 -0.696627 3.644843
1312.776718 630.059459 126.691912 0.000000 0.000000 0.000000 0.000000 0.000000 0.000000 -116.637972 -2.441942 -7.362491 63.362028 12.370497 -7.362491 171.094570 -4.589604 29.468618 -152.894064 -6.413149 -5.621439 43.947863 7.136387 -29.468618 -13.605214 -0.713639 3.852566
1316.420746 625.237019 148.798870 0.000000 0.000000 0.000000 0.000000 0.000000 0.000000 -136.254273 -11.680732 -11.755705 43.745727 -3.012363 -11.755705 -177.663204 1.451196 28.531695 -153.006287 -5.984717 -9.270510 42.784597 8.082249 -28.531695 -13.721540 -0.808225 4.045085
1314.719925 628.818026 150.868662 0.000000 0.000000 0.000000 0.000000 0.000000 0.000000 -114.737929 6.281775 -15.410265 65.262071 -0.719320 -15.410265 -169.764314 -1.396756 27.144812 -153.369487 -6.805166 -12.773379 41.498347 7.962645 -27.144812 -13.850165 -0.796265 4.221640
1334.396782 646.165652 164.992557 0.000000 0.000000 0.000000 0.000000 0.000000 0.000000 -116.903454 9.131967 -18.096541 63.096546 3.526961 -18.096541 -154.594534 -0.989301 25.329838 -153.225015 -6.534735 -16.074804 37.136182 8.114790 -25.329838 -14.286382 -0.811479 4.381533
1340.823784 648.244128 161.447064 0.000000 0.000000 0.000000 0.000000 0.000000 0.000000 -116.932323 8.094790 -19.645745 63.067677 -3.715627 -19.645745 -138.898656 -2.913077 23.115397 35.335752 -7.428490 -19.122720 -153.336856 0.754094 -23.115397 2.206211 0.087839 4.524135
1330.023880 654.599032 132.937983 0.000000 0.000000 0.000000 0.000000 0.000000 0.000000 -112.150704 -5.078290 -19.960535 67.849296 7.274063 -19.960535 -118.798313 -3.060315 20.536413 -153.636372 -6.110298 -21.869059 16.691869 8.585023 -20.536413 -16.330813 -0.858502 4.648882
1337.431641 662.410698 159.663383 0.000000 0.000000 0.000000 0.000000 0.000000 0.000000 -109.111809 -1.362164 -19.021130 70.888191 2.632051 -19.021130 -91.144379 -1.512536 17.633558 -154.448144 -6.103656 -24.270510 10.298202 6.712077 -17.633558 6.642051 -0.167703 4.755283
1324.339714 676.416593 166.451500 0.000000 0.000000 0.000000 0.000000 0.000000 0.000000 -104.120178 0.996209 -16.886559 75.879822 1.890829 -16.886559 -57.095620 2.495472 14.452610 38.799650 2.041219 -26.289200 -71.942639 0.180485 -14.452610 8.831938 -0.001457 4.842916
962.890318 439.311049 130.944357 0.000000 0.000000 0.000000 0.000000 0.000000 0.000000 19.986963 -11.372520 -13.690942 180.000000 10.144927 -13.690942 24.297229 -6.678040 11.043737 155.702771 1.685298 -27.893295 14.983342 0.463301 -11.043737 18.000000 0.058472 4.911436
962.789911 439.279946 139.635159 0.000000 0.000000 0.000000 0.000000 0.000000 0.000000 20.089586 2.536234 -9.635073 180.000000 6.624106 -9.635073 24.330184 7.853979 7.460697 155.669816 4.057460 -29.057495 14.926290 -6.952073 -7.460697 18.000000 0.210393 4.960574
641.318550 641.336324 118.877035 0.000000 0.000000 0.000000 0.000000 0.000000 0.000000 163.642929 17.317824 -4.973798 -16.357071 -28.031603 -4.973798 -155.926011 8.183505 3.759997 -130.644608 -8.998919 -29.763441 68.679337 13.301150 -3.759997 -11.132066 -1.330115 4.990134
1305.385551 662.289033 139.940469 0.000000 0.000000 0.000000 0.000000 0.000000 0.000000 -81.949824 -8.330542 -0.000000 98.050176 10.915699 -0.000000 9.536664 -6.073620 0.000000 -153.586691 -5.960936 -30.000000 24.402531 5.205673 -0.000000 -15.559747 -0.520567 5.000000
962.486899 439.186814 135.765594 0.000000 0.000000 0.000000 0.000000 0.000000 0.000000 20.465882 -22.891155 4.973798 180.000000 10.515797 4.973798 24.357206 -4.739718 -3.759997 155.642794 13.662931 -29.763441 14.800425 -1.530009 3.759997 18.000000 -0.276502 4.990134
1216.314240 612.580640 128.276745 0.000000 0.000000 0.000000 0.000000 0.000000 0.000000 78.221991 -3.804370 9.635073 -101.778009 6.172196 9.635073 46.689014 0.996652 -7.460697 -61.937558 -0.036411 -29.057495 44.546377 0.285183 7.460697 -10.771750 0.771462 4.960574
1273.897820 573.707514 124.037179 0.000000 0.000000 0.000000 0.000000 0.000000 0.000000 77.469628 4.869708 13.690942 -102.530372 1.354042 13.690942 -155.691164 -5.487259 -11.043737 -120.750172 2.467168 -27.893295 -156.229293 -6.173289 11.043737 2.162203 0.579847 4.911436
1337.358742 570.303276 109.050389 0.000000 0.000000 0.000000 0.000000 0.000000 0.000000 73.705918 6.549151 16.886559 -106.294082 1.748341 16.886559 -155.918376 -5.669877 -14.452610 -149.887909 -4.895679 -26.289200 0.000000 0.000000 0.000000 0.000000 0.000000 0.000000
1342.446442 569.623497 114.218402 0.000000 0.000000 0.000000 0.000000 0.000000 0.000000 68.898287 5.406112 19.021130 -111.101713 -7.755997 19.021130 39.314088 -4.128131 -17.633558 -140.912764 -3.715124 -24.270510 -153.216026 -5.554138 17.633558 2.759242 0.711044 4.755283
1335.759430 584.665475 114.526449 0.000000 0.000000 0.000000 0.000000 0.000000 0.000000 66.989329 4.901258 19.960535 -113.010671 -3.597937 19.960535 -154.807077 -4.569155 -20.536413 -142.328055 -1.398256 -21.869059 -153.049156 -5.501030 20.536413 2.866457 0.563780 4.648882
1337.950974 598.074245 103.258360 0.000000 0.000000 0.000000 0.000000 0.000000 0.000000 62.697633 11.805076 19.645745 -117.302367 -11.619621 19.645745 19.366736 -2.425991 -23.115397 -144.826223 -1.170652 -19.122720 9.911455 -3.336693 23.115397 -17.004209 0.226422 4.524135
1352.846489 601.043322 94.605089 0.000000 0.000000 0.000000 0.000000 0.000000 0.000000 59.083577 3.232448 18.096541 -120.916423 0.536043 18.096541 20.876734 5.061670 -25.329838 -142.301690 3.263345 -16.074804 13.356960 -1.961634 25.329838 -16.821524 0.061661 4.381533
1347.310982 587.475100 84.379091 0.000000 0.000000 0.000000 0.000000 0.000000 0.000000 56.169135 6.097277 15.410265 -123.830865 -8.350989 15.410265 21.172503 -2.821009 -27.144812 -139.640745 -2.688015 -12.773379 14.641496 -0.701574 27.144812 -16.282575 0.027810 4.221640
1326.982155 606.886139 80.590986 0.000000 0.000000 0.000000 0.000000 0.000000 0.000000 70.119981 -3.896980 11.755705 -109.880019 -4.968760 11.755705 26.511889 -0.966543 -28.531695 -111.264667 1.782412 -9.270510 31.153840 -2.478806 28.531695 -13.943905 0.018186 4.045085
1354.391098 626.185555 67.376549 0.000000 0.000000 0.000000 0.000000 0.000000 0.000000 88.154395 7.982315 7.362491 -91.845605 -4.825380 7.362491 30.442275 0.720828 -29.468618 -76.284233 -1.132566 -5.621439 43.854867 -0.166601 29.468618 -10.818190 -0.065019 3.852566
1370.667114 610.219567 87.942419 0.000000 0.000000 0.000000 0.000000 0.000000 0.000000 89.945118 4.923662 2.506665 -90.054882 -9.317106 2.506665 44.053326 8.470323 -29.940802 -56.238091 -1.260308 -1.883716 55.411270 0.171235 29.940802 -7.805659 -0.192624 3.644843
1372.834854 597.828534 66.747465 0.000000 0.000000 0.000000 0.000000 0.000000 0.000000 93.407992 -3.782948 -2.506665 -86.592008 7.022875 -2.506665 54.165845 -4.873196 -29.940802 -47.239220 7.403218 1.883716 56.575186 -8.618939 29.940802 -6.344474 0.182667 3.422736
1336.554337 597.454848 74.625383 0.000000 0.000000 0.000000 0.000000 0.000000 0.000000 95.622643 -2.817380 -7.362491 -84.377357 -4.595491 -7.362491 56.597780 -1.448303 -29.468618 -45.108662 -1.119345 5.621439 55.386034 -4.446354 29.468618 -7.206870 0.572663 3.187120
1310.567093 590.844769 66.801076 0.000000 0.000000 0.000000 0.000000 0.000000 0.000000 100.193768 0.489487 -11.755705 -79.806232 1.015979 -11.755705 61.986347 -2.493541 -28.531695 -37.593815 1.749084 9.270510 62.907615 -2.763355 28.531695 -6.637230 -0.582216 2.938926
1328.574371 576.493385 69.586518 0.000000 0.000000 0.000000 0.000000 0.000000 0.000000 101.943783 2.571028 -15.410265 -78.056217 -2.504482 -15.410265 61.902838 -0.910488 -27.144812 -33.889586 -1.649757 12.773379 55.760387 1.080914 27.144812 -7.097415 -0.485678 2.679134
1316.178360 595.500870 49.914977 0.000000 0.000000 0.000000 0.000000 0.000000 0.000000 103.792097 9.810511 -18.096541 -76.207903 -3.057426 -18.096541 65.535198 -1.882309 -25.329838 -28.739437 -3.255535 16.074804 68.415337 4.208278 25.329838 -6.481753 -0.273994 2.408768
1302.343140 568.138025 48.226524 0.000000 0.000000 0.000000 0.000000 0.000000 0.000000 101.222717 -5.259493 -19.645745 -78.777283 -13.111638 -19.645745 90.757296 -0.434141 -23.115397 -18.578033 -0.665810 19.122720 97.909038 -0.715730 23.115397 -5.050134 -0.186346 2.128896
1274.166183 540.660596 60.458608 0.000000 0.000000 0.000000 0.000000 0.000000 0.000000 -126.898591 33.214605 -19.960535 53.101409 -22.875499 -19.960535 127.276662 0.610878 -20.536413 8.808645 -4.961939 21.869059 119.711272 1.193499 20.536413 -4.115393 -0.132301 1.840623
1268.557091 468.331075 28.858892 0.000000 0.000000 0.000000 0.000000 0.000000 0.000000 -124.112133 1.681561 -19.021130 55.887867 16.464216 -19.021130 163.344780 -0.207995 -17.633558 38.476068 2.355468 24.270510 145.889074 2.473236 17.633558 -1.929933 -0.169576 1.545085
1278.673096 454.375906 67.415167 0.000000 0.000000 0.000000 0.000000 0.000000 0.000000 -126.805061 -1.925995 -16.886559 53.194939 4.815798 -16.886559 -174.009950 2.376955 -14.452610 27.419224 1.267184 26.289200 168.192977 0.707635 14.452610 -0.976267 -0.045119 1.243449
1285.008774 434.700390 47.032057 0.000000 0.000000 0.000000 0.000000 0.000000 0.000000 -132.005120 4.484384 -13.690942 47.994880 3.431459 -13.690942 -171.247775 2.026205 -11.043737 26.625253 0.176790 27.893295 178.805957 -0.236916 11.043737 0.023422 -0.002761 0.936907
1288.157730 426.987666 41.845736 0.000000 0.000000 0.000000 0.000000 0.000000 0.000000 -123.987926 4.196679 -9.635073 56.012074 -0.839268 -9.635073 -166.356219 -0.882044 -7.460697 35.716336 -1.947102 29.057495 -172.960762 2.325595 7.460697 0.819533 -0.024920 0.626666
1291.221657 420.425448 41.094323 0.000000 0.000000 0.000000 0.000000 0.000000 0.000000 -122.265643 7.940336 -4.973798 57.734357 1.660653 -4.973798 -156.870161 2.169880 -3.759997 38.220704 -1.482599 29.763441 -165.716368 -0.192935 3.759997 1.405814 -0.059620 0.313953
