HIERARCHY
ROOT Hips
{
    OFFSET 0.0 0.0 0.0
    CHANNELS 6 Xposition Yposition Zposition Zrotation Xrotation Yrotation
    JOINT Spine
    {
        OFFSET 0.0 5.0 0.0
        CHANNELS 3 Zrotation Xrotation Yrotation
        JOINT Chest
        {
            OFFSET 0.0 5.0 0.0
            CHANNELS 3 Zrotation Xrotation Yrotation
            JOINT Neck
            {
                OFFSET 0.0 8.0 0.0
                CHANNELS 3 Zrotation Xrotation Yrotation
                JOINT Head
                {
                    OFFSET 0.0 5.0 0.0
                    CHANNELS 3 Zrotation Xrotation Yrotation
                    End Site
                    {
                        OFFSET 0.0 3.0 0.0
                    }
                }
            }
            JOINT LeftShoulder
            {
                OFFSET -5.0 0.0 0.0
                CHANNELS 3 Zrotation Xrotation Yrotation
                JOINT LeftArm
                {
                    OFFSET 0.0 -10.0 0.0
                    CHANNELS 3 Zrotation Xrotation Yrotation
                    JOINT LeftForeArm
                    {
                        OFFSET 0.0 -10.0 0.0
                        CHANNELS 3 Zrotation Xrotation Yrotation
                        End Site
                        {
                            OFFSET 0.0 -3.0 0.0
                        }
                    }
                }
            }
        }
    }
}

MOTION
Frames: 300
Frame Time: 0.033333

960.000000 445.000000 103.613527 0.000000 0.000000 0.000000 0.000000 0.000000 0.000000 23.025492 12.707652 0.000000 180.000000 -2.661421 0.000000 21.801409 2.299249 -0.000000 158.198591 -4.011890 30.000000 15.945396 -4.315662 0.000000 18.000000 0.507604 0.000000
1691.525230 140.756605 122.161013 0.000000 0.000000 0.000000 0.000000 0.000000 0.000000 -163.376529 8.333856 4.973798 16.623471 -5.054849 4.973798 -171.853121 -3.365868 3.759997 99.744051 -10.260106 29.763441 -171.126653 -3.701919 -3.759997 0.673538 0.387871 0.313953
1636.048050 128.802021 108.090956 0.000000 0.000000 0.000000 0.000000 0.000000 0.000000 157.904128 33.216298 9.635073 -22.095872 -11.626990 9.635073 -171.936471 -4.061061 7.460697 -143.675701 -3.976654 29.057495 -173.500805 -4.344410 -7.460697 0.570999 0.378122 0.626666
1578.156967 80.474526 118.659133 0.000000 0.000000 0.000000 0.000000 0.000000 0.000000 -139.519796 -10.264010 13.690942 40.480204 1.671290 13.690942 -174.507724 -3.652141 11.043737 119.111399 9.253816 27.893295 -173.607258 -4.296989 -11.043737 0.461920 0.445363 0.936907
960.418757 444.998421 121.622735 0.000000 0.000000 0.000000 0.000000 0.000000 0.000000 25.077893 -13.327555 16.886559 180.000000 -3.762159 16.886559 23.861935 10.716591 14.452610 156.138065 -4.765301 26.289200 17.903699 2.586029 -14.452610 18.000000 0.880286 1.243449
960.523360 444.997533 139.811241 0.000000 0.000000 0.000000 0.000000 0.000000 0.000000 25.638906 -13.344848 19.021130 180.000000 -5.117539 19.021130 24.425035 0.704839 17.633558 155.574965 0.141234 24.270510 18.452907 -0.400974 -17.633558 18.000000 0.011529 1.545085
960.627905 444.996447 135.126467 0.000000 0.000000 0.000000 0.000000 0.000000 0.000000 26.219073 11.582453 19.960535 180.000000 -0.278855 19.960535 25.006291 3.022616 20.536413 154.993709 2.504420 21.869059 19.024920 8.733456 -20.536413 18.000000 -0.785996 1.840623
1126.242828 420.359820 143.924400 0.000000 0.000000 0.000000 0.000000 0.000000 0.000000 31.410514 0.198940 19.645745 -148.589486 -0.632221 19.645745 32.280463 4.034103 23.115397 -131.603972 -1.064360 19.122720 45.585331 1.626537 -23.115397 -13.449727 -0.016321 2.128896
1257.895088 650.549197 149.023922 0.000000 0.000000 0.000000 0.000000 0.000000 0.000000 25.073180 -0.627125 18.096541 -154.926820 0.133934 18.096541 46.260945 1.537924 25.329838 -154.651428 -5.549982 16.074804 27.339487 5.497561 -25.329838 -13.619892 -0.550629 2.408768
960.941083 444.992008 161.338173 0.000000 0.000000 0.000000 0.000000 0.000000 0.000000 28.072001 -37.265152 15.410265 180.000000 12.980749 15.410265 26.849221 2.393821 27.144812 153.150779 -8.735849 12.773379 20.864045 14.857898 -27.144812 18.000000 -0.644707 2.679134
1163.815842 547.748709 142.812447 0.000000 0.000000 0.000000 0.000000 0.000000 0.000000 117.162728 6.264738 11.755705 -62.837272 -2.675619 11.755705 102.363764 0.768329 28.531695 -47.376450 -0.119873 9.270510 104.768601 -0.553405 -28.531695 -6.003489 -0.077550 2.938926
961.149372 444.988063 157.912201 0.000000 0.000000 0.000000 0.000000 0.000000 0.000000 29.395983 19.846117 7.362491 180.000000 -3.872643 7.362491 28.146217 2.853179 29.468618 151.853783 -1.418285 5.621439 22.170006 5.168604 -29.468618 18.000000 -0.314482 3.187120
1136.717377 590.104480 156.576939 0.000000 0.000000 0.000000 0.000000 0.000000 0.000000 115.752126 -2.632710 2.506665 -64.247874 -7.057162 2.506665 73.638146 5.473112 29.940802 -21.842452 2.882142 1.883716 75.369282 -4.041032 -29.940802 -6.767207 -0.388042 3.422736
1163.079758 634.077559 155.876164 0.000000 0.000000 0.000000 0.000000 0.000000 0.000000 132.174340 0.607901 -2.506665 -47.825660 -3.712054 -2.506665 94.255711 5.872302 29.940802 -149.364979 -7.125219 -1.883716 30.021641 5.850328 -29.940802 -5.096180 0.719869 3.644843
961.460830 444.980668 147.231407 0.000000 0.000000 0.000000 0.000000 0.000000 0.000000 31.497152 -2.007110 -7.362491 180.000000 -2.310472 -7.362491 30.152455 -11.863010 29.468618 149.847545 -6.579098 -5.621439 24.175589 -6.650291 -29.468618 18.000000 1.767311 3.852566
1097.449951 565.089898 147.860013 0.000000 0.000000 0.000000 0.000000 0.000000 0.000000 -119.219568 5.564953 -11.755705 60.780432 3.536271 -11.755705 -150.180642 -7.406804 28.531695 48.804955 -3.145482 -9.270510 -149.874178 -5.766194 -28.531695 2.713854 0.496894 4.045085
1114.140244 528.302071 174.252271 0.000000 0.000000 0.000000 0.000000 0.000000 0.000000 -142.671523 -2.247561 -15.410265 37.328477 -1.047788 -15.410265 -177.395681 0.921084 27.144812 34.687329 3.790876 -12.773379 161.894167 -1.006633 -27.144812 -0.910956 -0.040508 4.221640
1116.433640 479.728639 128.408154 0.000000 0.000000 0.000000 0.000000 0.000000 0.000000 -102.267481 -6.392539 -18.096541 77.732519 3.860973 -18.096541 -163.695626 0.669969 25.329838 38.575767 -0.650889 -16.074804 -176.001122 1.356496 -25.329838 0.706594 -0.117705 4.381533
1135.931282 466.493965 175.059774 0.000000 0.000000 0.000000 0.000000 0.000000 0.000000 -112.868406 -12.460618 -19.645745 67.131594 -7.648653 -19.645745 -159.517862 0.163079 23.115397 36.204678 1.527691 -19.122720 -154.426613 -6.328389 -23.115397 2.428729 0.498328 4.524135
1141.618767 467.420679 164.728687 0.000000 0.000000 0.000000 0.000000 0.000000 0.000000 -123.086385 -2.946010 -19.960535 56.913615 -1.010763 -19.960535 -154.885724 5.301517 20.536413 36.481623 1.906466 -21.869059 -153.965441 -5.999396 -20.536413 2.446728 0.539470 4.648882
1150.647926 469.370956 140.999559 0.000000 0.000000 0.000000 0.000000 0.000000 0.000000 -43.953779 0.427496 -19.021130 136.046221 7.435336 -19.021130 -154.327268 -7.595529 17.633558 60.745168 -7.618224 -24.270510 -153.350642 -6.465116 -17.633558 2.386216 0.653516 4.755283
1151.529922 496.420240 144.072525 0.000000 0.000000 0.000000 0.000000 0.000000 0.000000 -116.362129 8.723647 -16.886559 63.637871 0.763959 -16.886559 -149.081043 -4.926013 14.452610 35.941860 -2.638728 -26.289200 -156.847177 -0.203465 -14.452610 2.056513 0.048811 4.842916
1148.402367 515.713574 145.564381 0.000000 0.000000 0.000000 0.000000 0.000000 0.000000 -118.252650 0.078968 -13.690942 61.747350 -14.795634 -13.690942 -138.082896 3.718585 11.043737 -156.312677 -7.458065 -27.893295 21.649626 10.285589 -11.043737 2.962417 0.011751 4.911436
1175.363617 533.368646 121.925589 0.000000 0.000000 0.000000 0.000000 0.000000 0.000000 -95.476638 -0.599607 -9.635073 84.523362 12.599441 -9.635073 -113.907461 0.864156 7.460697 -155.995907 -6.956073 -29.057495 12.512064 9.429046 -7.460697 -16.748794 -0.942905 4.960574
1199.533310 485.991104 112.725521 0.000000 0.000000 0.000000 0.000000 0.000000 0.000000 -100.003195 -10.864270 -4.973798 79.996805 14.365708 -4.973798 -86.083188 -2.231123 3.759997 38.843754 5.336707 -29.763441 -106.539452 0.460204 -3.759997 6.197806 -0.355315 4.990134
962.588190 444.938442 146.490319 0.000000 0.000000 0.000000 0.000000 0.000000 0.000000 39.579754 46.585512 -0.000000 180.000000 -4.266362 -0.000000 36.680773 -13.906322 0.000000 143.319227 -2.984388 -30.000000 29.388385 6.385096 -0.000000 18.000000 -0.826254 5.000000
1142.094727 445.716287 122.219041 0.000000 0.000000 0.000000 0.000000 0.000000 0.000000 -140.228454 -2.470040 4.973798 39.771546 24.067243 4.973798 -156.118008 -6.025065 -3.759997 3.479189 -5.484094 -29.763441 -158.005660 -4.750674 3.759997 2.150019 0.527487 4.990134
1164.005928 424.847746 104.277100 0.000000 0.000000 0.000000 0.000000 0.000000 0.000000 -84.241076 -16.784804 9.635073 95.758924 24.822716 9.635073 -156.181584 -6.010094 -7.460697 166.928360 6.603367 -29.057495 -154.947270 -6.283079 7.460697 2.644196 0.668149 4.960574
1124.208755 418.286655 114.719561 0.000000 0.000000 0.000000 0.000000 0.000000 0.000000 -117.427077 0.600249 13.690942 62.572923 26.507990 13.690942 -155.943063 -5.997517 -11.043737 14.023837 27.625947 -27.893295 -157.382674 -6.441259 11.043737 2.188130 0.496950 4.911436
962.990408 444.917226 101.775732 0.000000 0.000000 0.000000 0.000000 0.000000 0.000000 42.110883 -11.094485 16.886559 180.000000 -6.888931 16.886559 37.946959 4.477578 -14.452610 142.053041 4.022283 -26.289200 29.293612 -4.182873 14.452610 18.000000 -0.305453 4.842916
963.090170 444.911436 99.866805 0.000000 0.000000 0.000000 0.000000 0.000000 0.000000 42.659200 -40.361535 19.021130 180.000000 6.890523 19.021130 38.119107 -11.998838 -17.633558 141.880893 23.615025 -24.270510 29.068887 -12.688398 17.633558 18.000000 0.245788 4.755283
1186.646461 396.272757 102.013820 0.000000 0.000000 0.000000 0.000000 0.000000 0.000000 -72.847419 18.273292 19.960535 107.152581 -21.250480 19.960535 -156.703603 -4.539705 -20.536413 178.447294 -4.867513 -21.869059 -157.212393 -5.375213 20.536413 1.964058 0.469141 4.648882
1313.051605 426.636125 98.661106 0.000000 0.000000 0.000000 0.000000 0.000000 0.000000 90.994869 24.915463 19.645745 -89.005131 6.786680 19.645745 -160.515303 -5.146418 -23.115397 -153.248861 -3.386332 -19.122720 -159.640525 -5.091425 23.115397 0.000000 0.000000 0.000000
1347.999344 420.772226 87.378821 0.000000 0.000000 0.000000 0.000000 0.000000 0.000000 90.154351 0.938967 18.096541 -89.845649 -12.115601 18.096541 -162.053401 -3.228995 -25.329838 -136.198880 0.260826 -16.074804 -160.991694 -5.020398 25.329838 0.000000 0.000000 0.000000
1344.315948 421.031681 97.871827 0.000000 0.000000 0.000000 0.000000 0.000000 0.000000 69.757587 9.117657 15.410265 -110.242413 -6.167701 15.410265 25.616746 -7.420872 -27.144812 -157.821005 -4.382836 -12.773379 17.214985 3.471446 27.144812 -16.704706 -0.031668 4.221640
1350.307617 440.309436 82.419742 0.000000 0.000000 0.000000 0.000000 0.000000 0.000000 71.124018 0.382876 11.755705 -108.875982 -6.068778 11.755705 42.739987 6.036285 -28.531695 -142.315466 -3.272930 -9.270510 16.600926 1.625197 28.531695 -16.660102 -0.041820 4.045085
1357.685051 430.688889 84.522721 0.000000 0.000000 0.000000 0.000000 0.000000 0.000000 77.656077 4.988790 7.362491 -102.343923 6.391091 7.362491 39.407151 -11.528936 -29.468618 -136.343173 1.490060 -5.621439 22.144452 1.161670 29.468618 -16.305135 -0.309843 3.852566
1369.482193 445.909406 64.255391 0.000000 0.000000 0.000000 0.000000 0.000000 0.000000 88.051188 6.386854 2.506665 -91.948812 -10.433688 2.506665 -161.283973 -2.918057 -29.940802 -119.799169 -2.329348 -1.883716 -164.575400 -3.456820 29.940802 1.401013 0.372977 3.644843
963.875156 444.858159 57.211649 0.000000 0.000000 0.000000 0.000000 0.000000 0.000000 45.304844 -10.232074 -2.506665 180.000000 44.991336 -2.506665 37.252439 -16.318654 -29.940802 142.747561 14.110541 1.883716 25.146244 -6.208013 29.940802 18.000000 0.167280 3.422736
963.971479 444.850633 58.616130 0.000000 0.000000 0.000000 0.000000 0.000000 0.000000 45.383640 16.125476 -7.362491 180.000000 -29.403444 -7.362491 36.882310 16.968125 -29.468618 143.117690 5.812140 5.621439 24.499789 -3.160373 29.468618 18.000000 -0.127120 3.187120
1336.629524 469.010178 74.259515 0.000000 0.000000 0.000000 0.000000 0.000000 0.000000 -72.390177 40.336889 -11.755705 107.609823 -19.634198 -11.755705 -158.649984 -2.696094 -28.531695 2.583425 -13.629611 9.270510 -39.658551 7.921382 28.531695 10.837181 -0.147556 2.938926
1311.966934 518.219100 73.122535 0.000000 0.000000 0.000000 0.000000 0.000000 0.000000 -63.565072 50.639720 -15.410265 116.434928 -51.409636 -15.410265 -14.840750 0.872989 -27.144812 -158.549348 -3.163920 12.773379 17.488774 2.434559 27.144812 7.174982 0.117761 2.679134
964.257793 444.826908 63.276021 0.000000 0.000000 0.000000 0.000000 0.000000 0.000000 45.262206 -35.257544 -18.096541 180.000000 22.222006 -18.096541 35.497192 -16.383924 -25.329838 144.502808 6.246077 16.074804 22.522929 -1.508026 25.329838 18.000000 0.795249 2.408768
1275.921364 516.836239 67.755665 0.000000 0.000000 0.000000 0.000000 0.000000 0.000000 85.186295 0.209400 -19.645745 -94.813705 -6.474714 -19.645745 52.470689 0.540539 -23.115397 -44.513683 0.426211 19.122720 50.867598 -6.121029 23.115397 -8.717188 0.902541 2.128896
1263.254128 546.875424 45.592049 0.000000 0.000000 0.000000 0.000000 0.000000 0.000000 34.848242 -15.853749 -19.960535 -145.151758 21.660489 -19.960535 42.487561 -44.109883 -20.536413 -157.415675 -2.377631 21.869059 22.420880 1.460568 20.536413 -15.757912 -0.146057 1.840623
1258.788185 528.263061 58.658188 0.000000 0.000000 0.000000 0.000000 0.000000 0.000000 118.326865 -17.452754 -19.021130 -61.673135 21.514914 -19.021130 143.214759 -9.013053 -17.633558 -156.228306 -2.087654 24.270510 28.173554 2.039309 17.633558 -15.182645 -0.203931 1.545085
1231.492081 471.383836 70.699534 0.000000 0.000000 0.000000 0.000000 0.000000 0.000000 -115.049381 21.109967 -16.886559 64.950619 1.494486 -16.886559 172.843704 -0.325222 -14.452610 -157.842300 -2.549624 26.289200 32.851042 3.244072 14.452610 -14.714896 -0.324407 1.243449
1223.928795 435.993515 45.404004 0.000000 0.000000 0.000000 0.000000 0.000000 0.000000 -115.322532 -22.643429 -13.690942 64.677468 5.212071 -13.690942 -168.597862 -5.522335 -11.043737 -158.853816 -2.291762 27.893295 31.099266 2.507510 11.043737 -14.890073 -0.250751 0.936907
1223.669701 418.195664 56.548921 0.000000 0.000000 0.000000 0.000000 0.000000 0.000000 -102.084053 -7.865262 -9.635073 77.915947 -41.767795 -9.635073 -171.103858 7.363532 -7.460697 162.056334 -10.677831 29.057495 -153.594437 -1.868205 7.460697 2.968481 0.346867 0.626666
1216.486244 414.503002 22.325145 0.000000 0.000000 0.000000 0.000000 0.000000 0.000000 69.261091 21.739535 -4.973798 -110.738909 -30.747608 -4.973798 -158.083722 -1.603394 -3.759997 -173.244581 5.233011 29.763441 -154.635509 -3.449676 3.759997 2.928763 0.262357 0.313953
1212.090225 434.550980 54.559828 0.000000 0.000000 0.000000 0.000000 0.000000 0.000000 -112.403932 -0.440458 0.000000 67.596068 -17.093490 0.000000 -157.060799 -2.050631 -0.000000 173.400765 -1.876263 30.000000 -154.473580 -2.616946 0.000000 2.734633 0.288709 0.000000
1214.024734 450.340490 54.957093 0.000000 0.000000 0.000000 0.000000 0.000000 0.000000 -110.634751 -8.961774 4.973798 69.365249 -9.343658 4.973798 -137.583343 -1.164842 3.759997 -158.589698 -2.778403 29.763441 20.879446 3.861079 -3.759997 -15.912055 -0.386108 0.313953
1204.271393 440.192921 59.885110 0.000000 0.000000 0.000000 0.000000 0.000000 0.000000 -99.498286 16.747017 9.635073 80.501714 -10.283577 9.635073 -156.696469 -2.238961 7.460697 -178.487725 5.951130 29.057495 -157.318323 -3.072351 -7.460697 2.108583 0.296228 0.626666
965.269558 444.725315 67.742009 0.000000 0.000000 0.000000 0.000000 0.000000 0.000000 40.845461 37.921495 13.690942 180.000000 -25.875821 13.690942 28.615377 -10.715282 11.043737 151.384623 -6.042001 27.893295 16.305092 1.403707 -11.043737 18.000000 0.068010 0.936907
1182.456551 475.103824 56.232437 0.000000 0.000000 0.000000 0.000000 0.000000 0.000000 -168.146016 -81.245111 16.886559 11.853984 72.157326 16.886559 -63.802645 0.117494 14.452610 -61.114510 -2.810950 26.289200 -47.869281 3.024468 -14.452610 -13.834956 8.334538 1.243449
965.446390 444.704404 63.268020 0.000000 0.000000 0.000000 0.000000 0.000000 0.000000 39.578146 -1.797670 19.021130 180.000000 1.407010 19.021130 27.338029 -6.559304 17.633558 152.661971 -10.608582 24.270510 15.463180 5.926509 -17.633558 18.000000 -0.182568 1.545085
965.533915 444.693669 83.211830 0.000000 0.000000 0.000000 0.000000 0.000000 0.000000 38.916706 14.865334 19.960535 180.000000 -18.271158 19.960535 26.716768 9.619842 20.536413 153.283232 -6.343491 21.869059 15.076605 -0.241363 -20.536413 18.000000 0.230396 1.840623
965.620834 444.682749 44.916127 0.000000 0.000000 0.000000 0.000000 0.000000 0.000000 38.241653 14.573031 19.645745 180.000000 -3.857580 19.645745 26.109467 -3.831909 23.115397 153.890533 -12.609903 19.122720 14.712258 1.625959 -23.115397 18.000000 0.556079 2.128896
965.707136 444.671645 66.463493 0.000000 0.000000 0.000000 0.000000 0.000000 0.000000 37.556504 -21.374429 18.096541 180.000000 3.305337 18.096541 25.517536 9.631690 25.329838 154.482464 8.330328 16.074804 14.369537 -3.262138 -25.329838 18.000000 0.800871 2.408768
965.792812 444.660356 71.610646 0.000000 0.000000 0.000000 0.000000 0.000000 0.000000 36.864608 -29.029359 15.410265 180.000000 11.078359 15.410265 24.942131 -14.226406 27.144812 155.057869 10.693419 12.773379 14.047797 -6.329534 -27.144812 18.000000 0.735374 2.679134
965.877853 444.648882 87.907541 0.000000 0.000000 0.000000 0.000000 0.000000 0.000000 36.169118 -33.611038 11.755705 180.000000 33.739499 11.755705 24.384173 -11.797248 28.531695 155.615827 16.885275 9.270510 13.746367 0.478200 -28.531695 18.000000 0.089364 2.938926
965.962249 444.637226 99.068144 0.000000 0.000000 0.000000 0.000000 0.000000 0.000000 35.472980 11.811519 7.362491 180.000000 -3.215684 7.362491 23.844373 -4.093026 29.468618 156.155627 9.540896 5.621439 13.464570 -0.024185 -29.468618 18.000000 0.061932 3.187120
966.045991 444.625386 89.978499 0.000000 0.000000 0.000000 0.000000 0.000000 0.000000 34.778913 -13.837324 2.506665 180.000000 -3.677437 2.506665 23.323250 14.821505 29.940802 156.676750 -4.919649 1.883716 13.201728 6.244206 -29.940802 18.000000 -0.199720 3.422736
966.129071 444.613364 92.895260 0.000000 0.000000 0.000000 0.000000 0.000000 0.000000 34.089406 36.679614 -2.506665 180.000000 -8.557701 -2.506665 22.821158 12.165235 29.940802 157.178842 4.200720 -1.883716 12.957175 -6.884110 -29.940802 18.000000 0.337256 3.644843
966.211478 444.601159 112.395593 0.000000 0.000000 0.000000 0.000000 0.000000 0.000000 33.406712 3.585082 -7.362491 180.000000 2.331794 -7.362491 22.338307 1.600529 29.468618 157.661693 2.290601 -5.621439 12.730264 -0.748899 -29.468618 18.000000 0.093553 3.852566
1171.486244 534.946783 84.178502 0.000000 0.000000 0.000000 0.000000 0.000000 0.000000 70.594720 9.752200 -11.755705 -109.405280 -2.463785 -11.755705 49.953444 -0.949013 28.531695 -151.467583 -5.238228 -9.270510 0.000000 0.000000 0.000000 0.000000 0.000000 0.000000
966.374240 444.576206 98.966276 0.000000 0.000000 0.000000 0.000000 0.000000 0.000000 32.069603 -18.989202 -15.410265 180.000000 -10.018584 -15.410265 21.430544 -0.191618 27.144812 158.569456 -8.313207 -12.773379 12.326901 6.941280 -27.144812 18.000000 -0.033721 4.221640
1172.156410 555.047708 124.248939 0.000000 0.000000 0.000000 0.000000 0.000000 0.000000 -121.065102 12.721332 -18.096541 58.934898 -2.599373 -18.096541 -151.641456 -5.777332 25.329838 -177.360623 -2.009013 -16.074804 -149.076048 -6.498483 -25.329838 0.000000 0.000000 0.000000
1161.826630 552.360713 130.693885 0.000000 0.000000 0.000000 0.000000 0.000000 0.000000 69.958407 -11.054065 -19.645745 -110.041593 -15.203459 -19.645745 -152.437496 -5.963082 23.115397 -158.790607 -2.287363 -19.122720 -150.591725 -6.809547 -23.115397 3.219062 0.756586 4.524135
1165.827255 569.832902 123.535884 0.000000 0.000000 0.000000 0.000000 0.000000 0.000000 25.594208 8.526583 -19.960535 -154.405792 -11.112172 -19.960535 11.723883 0.905532 20.536413 -161.543160 0.470879 -21.869059 7.769582 -1.401332 -20.536413 -17.248199 0.154445 4.648882
1165.555573 565.067046 141.067795 0.000000 0.000000 0.000000 0.000000 0.000000 0.000000 43.355707 1.264593 -19.021130 -136.644293 -0.155083 -19.021130 15.984329 -0.272788 17.633558 -140.773833 -2.749719 -24.270510 13.679449 0.693690 -17.633558 -16.392157 0.195567 4.755283
1290.255775 608.533316 131.106208 0.000000 0.000000 0.000000 0.000000 0.000000 0.000000 -153.952071 1.680563 -16.886559 26.047929 -16.297183 -16.886559 -152.683807 -4.948414 14.452610 4.794196 0.132041 -26.289200 -154.287190 -5.405703 -14.452610 2.418080 0.500193 4.842916
1180.398903 551.817470 138.025777 0.000000 0.000000 0.000000 0.000000 0.000000 0.000000 51.640104 -7.971487 -13.690942 -128.359896 1.127166 -13.690942 14.419400 -6.351204 11.043737 -33.521359 9.904579 -27.893295 -34.277510 -10.270860 -11.043737 5.235387 0.465123 4.911436
1162.708626 619.419501 135.177089 0.000000 0.000000 0.000000 0.000000 0.000000 0.000000 -88.968325 -25.121052 -9.635073 91.031675 3.237792 -9.635073 -52.690088 1.002154 7.460697 25.015222 9.476316 -29.057495 -72.561734 -6.199164 -7.460697 8.557489 0.480113 4.960574
1110.899391 602.919216 162.161909 0.000000 0.000000 0.000000 0.000000 0.000000 0.000000 -86.972237 -0.590111 -4.973798 93.027763 4.437717 -4.973798 -39.551144 -8.018918 3.759997 34.838085 0.560449 -29.763441 -44.185810 -4.025348 -3.759997 10.000609 0.137651 4.990134
1150.187302 553.686991 145.015517 0.000000 0.000000 0.000000 0.000000 0.000000 0.000000 -116.065142 -4.765463 -0.000000 63.934858 -22.843625 -0.000000 -151.059314 -6.376787 0.000000 -0.492058 -4.213713 -30.000000 -14.044098 -0.513164 -0.000000 1.929760 0.214502 5.000000
967.144727 444.440682 142.004682 0.000000 0.000000 0.000000 0.000000 0.000000 0.000000 26.270296 9.634537 4.973798 180.000000 6.323892 4.973798 17.996647 -9.185512 -3.759997 162.003353 -2.875133 -29.763441 11.189167 -2.344045 3.759997 18.000000 0.177805 4.990134
1213.452644 620.002785 134.667211 0.000000 0.000000 0.000000 0.000000 0.000000 0.000000 140.390379 31.953840 9.635073 -39.609621 -36.760477 9.635073 77.724607 -7.209033 -7.460697 -153.982965 -7.382869 -29.057495 24.142749 5.516318 7.460697 -0.833727 2.042777 4.960574
1124.373779 618.464527 148.357965 0.000000 0.000000 0.000000 0.000000 0.000000 0.000000 99.329635 39.066465 13.690942 -80.670365 -22.015332 13.690942 85.960927 2.282429 -11.043737 -150.875293 -7.236660 -27.893295 31.644098 6.203818 11.043737 -14.835590 -0.620382 4.911436
967.360971 444.396582 150.522801 0.000000 0.000000 0.000000 0.000000 0.000000 0.000000 24.874716 6.755066 16.886559 180.000000 1.460520 16.886559 17.291102 -7.278708 -14.452610 162.708898 2.753045 -26.289200 11.098846 -4.617030 14.452610 18.000000 0.375721 4.842916
1107.875175 542.453964 143.195239 0.000000 0.000000 0.000000 0.000000 0.000000 0.000000 -128.741314 3.461473 19.021130 51.258686 -4.088390 19.021130 -177.225595 -3.407543 -17.633558 19.954750 -0.199975 -24.270510 162.677362 0.302985 17.633558 -1.443098 -0.045636 4.755283
1119.652290 522.766346 157.979578 0.000000 0.000000 0.000000 0.000000 0.000000 0.000000 -99.017754 9.024989 19.960535 80.982246 1.532987 19.960535 -150.289603 -7.524384 -20.536413 -152.613833 -7.681775 -21.869059 0.000000 0.000000 0.000000 0.000000 0.000000 0.000000
1132.908783 538.229613 156.838892 0.000000 0.000000 0.000000 0.000000 0.000000 0.000000 -127.874185 12.682352 19.645745 52.125815 -5.015907 19.645745 -165.450188 3.127505 -23.115397 -152.521515 -7.890825 -19.122720 40.606225 8.078394 23.115397 -13.939378 -0.807839 4.524135
1146.969337 541.828065 150.646240 0.000000 0.000000 0.000000 0.000000 0.000000 0.000000 -113.631604 0.671894 18.096541 66.368396 -3.508125 18.096541 -159.067475 1.120006 -25.329838 113.981862 -3.814487 -16.074804 -145.449815 -6.883404 25.329838 0.000000 0.000000 0.000000
1165.252304 561.329677 136.498867 0.000000 0.000000 0.000000 0.000000 0.000000 0.000000 -112.861399 1.935078 15.410265 67.138601 -4.850219 15.410265 -159.396543 1.639273 -27.144812 -151.967552 -6.774785 -12.773379 38.422588 9.034142 27.144812 -14.157741 -0.903414 4.221640
1174.726181 592.839689 153.420522 0.000000 0.000000 0.000000 0.000000 0.000000 0.000000 -110.369899 8.969391 11.755705 69.630101 10.387619 11.755705 -148.108768 -8.634376 -28.531695 -151.515612 -6.642824 -9.270510 34.277732 9.510378 28.531695 -14.572227 -0.951038 4.045085
1167.352524 605.194867 137.533955 0.000000 0.000000 0.000000 0.000000 0.000000 0.000000 -113.828445 -1.001816 7.362491 66.171555 -1.813953 7.362491 -131.688453 -0.594223 -29.468618 -151.045756 -6.750946 -5.621439 27.200835 7.692386 29.468618 -15.279916 -0.769239 3.852566
1139.678879 602.981014 146.675333 0.000000 0.000000 0.000000 0.000000 0.000000 0.000000 -97.599684 9.564442 2.506665 82.400316 23.739612 2.506665 -113.965806 -5.848072 -29.940802 -121.058781 -5.148066 -1.883716 -118.492407 1.431502 29.940802 10.137620 -2.635827 3.644843
1165.830002 580.020189 118.987529 0.000000 0.000000 0.000000 0.000000 0.000000 0.000000 -28.085052 -4.508491 -2.506665 151.914948 6.362571 -2.506665 -150.589103 -5.787784 -29.940802 -172.678414 7.068163 1.883716 -149.717924 -6.706461 29.940802 0.000000 0.000000 0.000000
1184.501953 619.872494 131.529761 0.000000 0.000000 0.000000 0.000000 0.000000 0.000000 -113.790307 -15.217618 -7.362491 66.209693 33.369419 -7.362491 -59.272274 4.236676 -29.468618 29.476823 5.426765 5.621439 -88.148483 -1.134064 29.468618 7.414604 0.135961 3.187120
968.090170 444.221640 127.854716 0.000000 0.000000 0.000000 0.000000 0.000000 0.000000 21.092887 26.358007 -11.755705 180.000000 -12.243790 -11.755705 15.757771 -8.782371 -28.531695 164.242229 -12.340753 9.270510 11.678908 -0.045415 28.531695 18.000000 0.483899 2.938926
968.151278 444.204723 120.662679 0.000000 0.000000 0.000000 0.000000 0.000000 0.000000 20.844337 3.013985 -15.410265 180.000000 2.137869 -15.410265 15.691895 -3.138830 -27.144812 164.308105 10.465514 12.773379 11.804629 -3.852273 27.144812 18.000000 0.296290 2.679134
968.211492 444.187640 106.684847 0.000000 0.000000 0.000000 0.000000 0.000000 0.000000 20.610265 -19.462319 -18.096541 180.000000 -2.638705 -18.096541 15.637361 2.569427 -25.329838 164.362639 5.840970 16.074804 11.943263 -5.065718 25.329838 18.000000 0.235828 2.408768
968.270806 444.170392 92.039221 0.000000 0.000000 0.000000 0.000000 0.000000 0.000000 20.390366 3.867101 -19.645745 180.000000 -11.273057 -19.645745 15.594026 7.625042 -23.115397 164.405974 0.076562 19.122720 12.095062 -9.882189 23.115397 18.000000 0.664568 2.128896
968.329212 444.152979 93.130007 0.000000 0.000000 0.000000 0.000000 0.000000 0.000000 20.184343 18.964755 -19.960535 180.000000 -10.864054 -19.960535 15.561766 4.175717 -20.536413 164.438234 -4.173830 21.869059 12.260289 2.552333 20.536413 18.000000 0.248954 1.840623
968.386706 444.135403 84.504993 0.000000 0.000000 0.000000 0.000000 0.000000 0.000000 19.991916 10.694017 -19.021130 180.000000 -9.487160 -19.021130 15.540476 3.440759 -17.633558 164.459524 -5.052549 24.270510 12.439222 -3.757673 17.633558 18.000000 0.478255 1.545085
968.443279 444.117663 88.618582 0.000000 0.000000 0.000000 0.000000 0.000000 0.000000 19.812814 -3.452130 -16.886559 180.000000 -3.101570 -16.886559 15.530069 -5.866911 -14.452610 164.469931 -8.275996 26.289200 12.632146 1.728614 14.452610 18.000000 0.216153 1.243449
968.498927 444.099761 68.371964 0.000000 0.000000 0.000000 0.000000 0.000000 0.000000 19.646785 -32.873083 -13.690942 180.000000 8.602811 -13.690942 15.530474 -2.932511 -11.043737 164.469526 4.610581 27.893295 12.839349 1.774501 11.043737 18.000000 -0.241127 0.936907
968.553643 444.081696 66.123398 0.000000 0.000000 0.000000 0.000000 0.000000 0.000000 19.493591 15.669164 -9.635073 180.000000 1.072245 -9.635073 15.541640 1.462728 -7.460697 164.458360 -6.598866 29.057495 13.061119 3.927968 7.460697 18.000000 -0.831884 0.626666
1051.772690 653.004448 82.167633 0.000000 0.000000 0.000000 0.000000 0.000000 0.000000 -79.007834 -10.440139 -4.973798 100.992166 6.260122 -4.973798 -126.715299 1.216532 -3.759997 -149.991181 -3.418359 29.763441 31.772279 5.029709 3.759997 -14.822772 -0.502971 0.313953
1061.669197 624.716241 74.535299 0.000000 0.000000 0.000000 0.000000 0.000000 0.000000 -94.718359 8.619404 0.000000 85.281641 -10.920074 0.000000 -144.150484 -1.382248 -0.000000 60.155085 -11.558965 30.000000 -152.711462 1.468292 0.000000 1.815393 0.155604 0.000000
1072.053337 571.032879 63.586292 0.000000 0.000000 0.000000 0.000000 0.000000 0.000000 71.424080 13.716814 4.973798 -108.575920 -10.553444 4.973798 -149.042361 -2.820386 3.759997 -149.913636 0.964822 29.763441 -145.792107 -4.447941 -3.759997 3.947623 0.480332 0.313953
1070.057373 572.884376 67.012218 0.000000 0.000000 0.000000 0.000000 0.000000 0.000000 -80.850201 -17.518429 9.635073 99.149799 49.915046 9.635073 -147.567525 -3.919574 7.460697 -164.443014 2.440115 29.057495 -145.447997 -3.737356 -7.460697 4.032371 0.508917 0.626666
968.813035 443.988972 55.810265 0.000000 0.000000 0.000000 0.000000 0.000000 0.000000 18.912944 11.740363 13.690942 180.000000 -2.715624 13.690942 15.758200 -2.039797 11.043737 164.241800 -0.331169 27.893295 14.397395 -6.531313 -11.043737 18.000000 0.737233 0.936907
968.862036 443.969952 40.168154 0.000000 0.000000 0.000000 0.000000 0.000000 0.000000 18.832684 0.252943 16.886559 180.000000 1.432027 16.886559 15.833735 0.526724 14.452610 164.166265 0.691305 26.289200 14.711463 3.046793 -14.452610 18.000000 -0.008987 1.243449
968.910065 443.950775 36.324115 0.000000 0.000000 0.000000 0.000000 0.000000 0.000000 18.764066 -7.451180 19.021130 180.000000 0.813258 19.021130 15.920102 0.355364 17.633558 164.079898 7.415707 24.270510 15.041323 -11.498321 -17.633558 18.000000 0.565515 1.545085
968.957118 443.931442 73.487063 0.000000 0.000000 0.000000 0.000000 0.000000 0.000000 18.706990 -8.647025 19.960535 180.000000 -0.108780 19.960535 16.017366 8.252171 20.536413 163.982634 4.886240 21.869059 15.386894 0.391294 -20.536413 18.000000 -1.372169 1.840623
969.003188 443.911954 53.674355 0.000000 0.000000 0.000000 0.000000 0.000000 0.000000 18.661377 -8.816601 19.645745 180.000000 -6.193360 19.645745 16.125602 -6.422873 23.115397 163.874398 -8.896110 19.122720 15.747980 -0.276356 -23.115397 18.000000 0.372853 2.128896
969.048271 443.892312 55.218563 0.000000 0.000000 0.000000 0.000000 0.000000 0.000000 18.627165 7.071219 18.096541 180.000000 1.759612 18.096541 16.244896 3.975282 25.329838 163.755104 -3.911139 16.074804 16.124252 3.067623 -25.329838 18.000000 0.055728 2.408768
969.092361 443.872515 40.314647 0.000000 0.000000 0.000000 0.000000 0.000000 0.000000 18.604312 -3.073163 15.410265 180.000000 -9.062684 15.410265 16.375340 7.972957 27.144812 163.624660 4.013808 12.773379 16.515224 -3.101158 -27.144812 18.000000 -0.189601 2.679134
1055.186234 577.357593 39.356388 0.000000 0.000000 0.000000 0.000000 0.000000 0.000000 85.510211 -8.060055 11.755705 -94.489789 -2.273968 11.755705 37.103410 11.720382 28.531695 -148.111343 -2.109133 9.270510 24.294182 2.248974 -28.531695 -8.601915 -0.606451 2.938926
1122.856522 566.714029 55.648355 0.000000 0.000000 0.000000 0.000000 0.000000 0.000000 96.216240 5.635562 7.362491 -83.783760 -8.876660 7.362491 46.189625 8.043568 29.468618 -149.396962 -2.642946 5.621439 24.670091 2.303056 -29.468618 -7.107716 -0.539451 3.187120
969.218632 443.812213 51.178590 0.000000 0.000000 0.000000 0.000000 0.000000 0.000000 18.603763 -23.790726 2.506665 180.000000 2.747029 2.506665 16.834613 1.487860 29.940802 163.165387 -2.191406 1.883716 17.768624 9.007244 -29.940802 18.000000 -1.359656 3.422736
1112.757797 605.798106 50.039655 0.000000 0.000000 0.000000 0.000000 0.000000 0.000000 110.914625 16.977641 -2.506665 -69.085375 -13.174666 -2.506665 67.769469 9.422818 29.940802 -149.822316 -2.930286 -1.883716 29.049901 2.396072 -29.940802 -3.625079 0.091379 3.644843
1086.733246 592.557156 41.240169 0.000000 0.000000 0.000000 0.000000 0.000000 0.000000 -80.132323 -56.141348 -7.362491 99.867677 -8.517794 -7.362491 36.201564 -4.798657 29.468618 -13.679556 -1.766640 -5.621439 78.049842 5.265273 -29.468618 -5.127460 -0.227996 3.852566
1081.109390 570.394492 85.637802 0.000000 0.000000 0.000000 0.000000 0.000000 0.000000 -175.864613 20.906838 -11.755705 4.135387 10.316319 -11.755705 134.713876 -2.063179 28.531695 -10.005873 7.459467 -9.270510 135.737755 -6.238169 -28.531695 -3.389365 -0.065382 4.045085
1089.776802 536.594539 57.436423 0.000000 0.000000 0.000000 0.000000 0.000000 0.000000 -139.033903 -1.902398 -15.410265 40.966097 19.294608 -15.410265 161.695972 -1.727422 27.144812 3.114398 5.034958 -12.773379 148.805610 0.155335 -27.144812 -2.611636 -0.166419 4.221640
1114.282036 523.965647 60.048589 0.000000 0.000000 0.000000 0.000000 0.000000 0.000000 -156.073983 2.604414 -18.096541 23.926017 -9.577133 -18.096541 174.825807 4.483788 25.329838 5.093343 -2.384224 -16.074804 161.266817 -1.548215 -25.329838 -1.814366 0.120478 4.381533
1122.145157 503.425248 70.410738 0.000000 0.000000 0.000000 0.000000 0.000000 0.000000 -144.538174 -8.258440 -19.645745 35.461826 1.101435 -19.645745 174.215003 3.603231 23.115397 -151.750905 -3.167418 -19.122720 43.887064 3.233216 -23.115397 -13.611294 -0.323322 4.524135
1134.158249 484.688419 65.482725 0.000000 0.000000 0.000000 0.000000 0.000000 0.000000 -142.311443 15.037503 -19.960535 37.688557 -10.805756 -19.960535 -174.407776 -2.406428 20.536413 14.121014 -5.387111 -21.869059 176.737053 -0.071867 -20.536413 -0.386439 0.036432 4.648882
1156.756668 500.025387 66.197934 0.000000 0.000000 0.000000 0.000000 0.000000 0.000000 -140.140767 -3.446974 -19.021130 39.859233 -3.406587 -19.021130 -176.866589 -3.983168 17.633558 -153.177991 -3.883924 -24.270510 40.555680 5.585071 -17.633558 -13.944432 -0.558507 4.755283
1163.818588 490.292573 67.960993 0.000000 0.000000 0.000000 0.000000 0.000000 0.000000 -126.918075 -4.861507 -16.886559 53.081925 -3.956881 -16.886559 -163.374411 4.866944 14.452610 -153.952175 -3.747296 -26.289200 36.914642 5.026854 -14.452610 0.798233 0.003281 4.842916
1176.523705 490.346003 81.374941 0.000000 0.000000 0.000000 0.000000 0.000000 0.000000 -130.072590 1.717986 -13.690942 49.927410 5.262821 -13.690942 -150.224616 -5.636423 11.043737 24.749952 -0.258353 -27.893295 -162.219632 0.171806 -11.043737 1.550269 0.024794 4.911436
1165.045052 489.521159 99.411945 0.000000 0.000000 0.000000 0.000000 0.000000 0.000000 -134.421293 4.088491 -9.635073 45.578707 -1.406882 -9.635073 -138.114962 0.319975 7.460697 20.347125 -2.404321 -29.057495 -149.675125 0.561597 -7.460697 1.919618 -0.162591 4.960574
1186.003189 485.341580 88.805037 0.000000 0.000000 0.000000 0.000000 0.000000 0.000000 151.263424 75.368070 -4.973798 -28.736576 -68.449288 -4.973798 -155.571724 -4.018760 3.759997 -114.944239 -5.144159 -29.763441 -157.446860 -4.214674 -3.759997 2.096391 0.372999 4.990134
1190.285912 497.609435 97.287588 0.000000 0.000000 0.000000 0.000000 0.000000 0.000000 -104.331435 -5.206542 -0.000000 75.668565 9.801933 -0.000000 -153.934692 -4.851170 0.000000 -67.465008 4.701689 -30.000000 -71.629168 -8.480853 -0.000000 -13.965204 8.575820 5.000000
846.875610 502.341399 105.863791 0.000000 0.000000 0.000000 0.000000 0.000000 0.000000 -153.358185 -24.189552 4.973798 26.641815 32.915274 4.973798 -147.628169 -5.964818 -3.759997 -147.401289 -4.740861 -29.763441 0.000000 0.000000 0.000000 0.000000 0.000000 0.000000
969.711343 443.490827 113.764030 0.000000 0.000000 0.000000 0.000000 0.000000 0.000000 20.204512 -17.442677 9.635073 180.000000 0.264368 9.635073 20.733157 -4.577576 -7.460697 159.266843 5.955686 -29.057495 24.065833 1.314287 7.460697 18.000000 -1.015080 4.960574
969.735789 443.468267 103.313180 0.000000 0.000000 0.000000 0.000000 0.000000 0.000000 20.415894 -15.388640 13.690942 180.000000 8.775253 13.690942 21.087741 -4.469697 -11.043737 158.912259 10.557692 -27.893295 24.320336 -7.790714 11.043737 18.000000 -0.153945 4.911436
969.759168 443.445569 122.366332 0.000000 0.000000 0.000000 0.000000 0.000000 0.000000 20.642061 10.155583 16.886559 180.000000 0.391287 16.886559 21.453029 9.187298 -14.452610 158.546971 1.630079 -26.289200 24.533304 -6.501712 14.452610 18.000000 0.462543 4.842916
585.252171 514.469179 133.809146 0.000000 0.000000 0.000000 0.000000 0.000000 0.000000 74.723181 3.009582 19.021130 -105.276819 -2.806259 19.021130 119.807175 3.583371 -17.633558 165.825978 -3.806567 -24.270510 138.012220 -3.420233 17.633558 -12.357653 0.597986 4.755283
624.843979 517.601860 132.328517 0.000000 0.000000 0.000000 0.000000 0.000000 0.000000 103.202449 7.122907 19.960535 -76.797551 -0.315251 19.960535 114.381580 -1.035230 -20.536413 -53.015473 -72.425401 -21.869059 145.467160 6.227810 20.536413 -4.173333 -1.440027 4.648882
969.822873 443.376664 134.729728 0.000000 0.000000 0.000000 0.000000 0.000000 0.000000 21.413420 -2.896413 19.645745 180.000000 5.331733 19.645745 22.607712 1.721084 -23.115397 157.392288 -0.502920 -19.122720 24.899813 0.529769 23.115397 18.000000 0.053822 4.524135
969.841956 443.353428 143.836203 0.000000 0.000000 0.000000 0.000000 0.000000 0.000000 21.702987 5.118871 18.096541 180.000000 8.837990 18.096541 23.009909 -6.660596 -25.329838 156.990091 6.334651 -16.074804 24.926562 5.292248 25.329838 18.000000 -1.436526 4.381533
969.859960 443.330059 112.833772 0.000000 0.000000 0.000000 0.000000 0.000000 0.000000 22.009579 6.173617 15.410265 180.000000 2.170828 15.410265 23.419334 5.973403 -27.144812 156.580666 -1.436232 -12.773379 24.904993 5.706098 27.144812 18.000000 0.307028 4.221640
594.905148 538.048757 145.114459 0.000000 0.000000 0.000000 0.000000 0.000000 0.000000 -57.080480 -9.328924 11.755705 122.919520 -1.612887 11.755705 -12.750556 8.010960 -28.531695 149.841027 -1.414312 -9.270510 -8.274090 3.596904 28.531695 17.596979 0.005803 4.045085
969.892723 443.282929 140.708053 0.000000 0.000000 0.000000 0.000000 0.000000 0.000000 22.675903 -14.528122 7.362491 180.000000 17.657495 7.362491 24.255612 -12.263668 -29.468618 155.744388 20.521797 -5.621439 24.720303 -6.481587 29.468618 18.000000 -0.574155 3.852566
1257.001877 499.708382 168.646017 0.000000 0.000000 0.000000 0.000000 0.000000 0.000000 52.818511 0.633025 2.506665 -127.181489 -2.556528 2.506665 25.369497 -0.759371 -29.940802 -143.914951 4.474094 -1.883716 14.556766 -4.665180 29.940802 -16.686776 0.084974 3.644843
1279.050064 493.773898 144.623696 0.000000 0.000000 0.000000 0.000000 0.000000 0.000000 56.685213 -4.466230 -2.506665 -123.314787 7.715229 -2.506665 24.065452 -3.911401 -29.940802 -146.540317 -2.391486 1.883716 13.097461 2.911539 29.940802 -16.716891 -0.057293 3.422736
1295.108986 477.099677 143.124060 0.000000 0.000000 0.000000 0.000000 0.000000 0.000000 65.723361 3.961211 -7.362491 -114.276639 -11.377263 -7.362491 23.725299 4.056855 -29.468618 -147.984281 -1.179677 5.621439 13.187557 -0.151491 29.468618 -16.751134 0.130860 3.187120
1289.065018 496.763316 167.433762 0.000000 0.000000 0.000000 0.000000 0.000000 0.000000 61.662232 -4.261460 -11.755705 -118.337768 11.471026 -11.755705 31.397757 -8.495962 -28.531695 -148.047797 2.129204 9.270510 12.491083 -0.600075 28.531695 -16.898368 -0.045666 2.938926
1285.337105 480.691112 145.294809 0.000000 0.000000 0.000000 0.000000 0.000000 0.000000 58.021980 -0.481288 -15.410265 -121.978020 -8.173565 -15.410265 31.705930 5.530174 -27.144812 -157.028684 -1.701664 12.773379 11.107306 1.285471 27.144812 -17.140016 -0.127140 2.679134
1276.453171 465.093691 150.609617 0.000000 0.000000 0.000000 0.000000 0.000000 0.000000 70.157145 -0.772439 -18.096541 -109.842855 2.023187 -18.096541 40.303764 6.425350 -25.329838 -145.293609 -5.611438 16.074804 10.431204 4.241301 25.329838 -17.100572 -0.219873 2.408768
1253.658714 472.768564 150.217771 0.000000 0.000000 0.000000 0.000000 0.000000 0.000000 65.087926 10.076007 -19.645745 -114.912074 4.959651 -19.645745 -157.680356 -6.628962 -23.115397 -137.727082 -0.293229 19.122720 -153.053596 3.865047 23.115397 -16.054219 -0.831786 2.128896
1366.101608 507.691247 145.842759 0.000000 0.000000 0.000000 0.000000 0.000000 0.000000 108.715100 31.269265 -19.960535 -71.284900 9.342772 -19.960535 156.661132 7.010011 -20.536413 -158.224303 -5.824064 21.869059 0.000000 0.000000 0.000000 0.000000 0.000000 0.000000
969.986295 443.064535 162.620772 0.000000 0.000000 0.000000 0.000000 0.000000 0.000000 26.662144 3.469628 -19.021130 180.000000 -4.800580 -19.021130 28.015351 5.092115 -17.633558 151.984649 -4.346172 24.270510 22.068935 -3.856677 17.633558 18.000000 0.075404 1.545085
1282.107124 481.511257 150.818930 0.000000 0.000000 0.000000 0.000000 0.000000 0.000000 80.650781 28.174753 -16.886559 -99.349219 -6.946510 -16.886559 1.511604 -1.893743 -14.452610 -32.896908 -1.375031 26.289200 -7.727072 2.589483 14.452610 13.531851 -4.690735 1.243449
1282.921486 484.777769 150.283548 0.000000 0.000000 0.000000 0.000000 0.000000 0.000000 -81.737646 19.486372 -13.690942 98.262354 -21.762820 -13.690942 -23.867101 -11.097046 -11.043737 12.655668 -10.245781 27.893295 -29.454911 0.004887 11.043737 9.861248 0.903141 0.936907
1290.933037 513.180238 130.074304 0.000000 0.000000 0.000000 0.000000 0.000000 0.000000 -91.387864 -22.080856 -9.635073 88.612136 13.853258 -9.635073 -41.685392 2.365796 -7.460697 -161.156957 -5.360509 29.057495 15.157863 5.367631 7.460697 10.543436 -0.476107 0.626666
969.999452 442.964284 143.597183 0.000000 0.000000 0.000000 0.000000 0.000000 0.000000 29.025427 -16.202603 -4.973798 180.000000 1.008770 -4.973798 29.437993 -6.506864 -3.759997 150.562007 5.904442 29.763441 20.404746 1.879085 3.759997 18.000000 -0.484416 0.313953
970.000000 442.938926 137.902280 0.000000 0.000000 0.000000 0.000000 0.000000 0.000000 29.678605 -3.392957 0.000000 180.000000 -0.506942 0.000000 29.744881 8.966485 -0.000000 150.255119 3.148339 30.000000 19.983107 5.787399 0.000000 18.000000 0.254740 0.000000
1354.522934 467.411410 147.085910 0.000000 0.000000 0.000000 0.000000 0.000000 0.000000 150.622570 13.213430 4.973798 -29.377430 2.609551 4.973798 140.176400 -1.878251 3.759997 -12.221629 -2.962590 29.763441 132.794256 -0.330913 -3.759997 -2.626015 0.198617 0.313953
969.997807 442.887864 138.229791 0.000000 0.000000 0.000000 0.000000 0.000000 0.000000 31.061399 0.435667 9.635073 180.000000 0.199030 9.635073 30.285790 -7.546156 7.460697 149.714210 -10.667134 29.057495 19.151579 5.483798 -7.460697 18.000000 0.096716 0.626666
1246.736984 514.278152 128.696413 0.000000 0.000000 0.000000 0.000000 0.000000 0.000000 143.557092 -4.377987 13.690942 -36.442908 -4.119472 13.690942 133.761037 -3.861515 11.043737 -156.950665 -5.927418 27.893295 0.000000 0.000000 0.000000 1.928484 0.456813 0.936907
1245.221100 458.637464 128.150672 0.000000 0.000000 0.000000 0.000000 0.000000 0.000000 160.701064 -2.246018 16.886559 -19.298936 16.075865 16.886559 140.193827 -6.714272 14.452610 -157.554825 -5.435198 26.289200 29.500467 5.799884 -14.452610 -15.049953 -0.579988 1.243449
1257.365570 418.514181 101.756971 0.000000 0.000000 0.000000 0.000000 0.000000 0.000000 -143.710676 -4.793887 19.021130 36.289324 3.938100 19.021130 163.220413 2.645285 17.633558 11.688054 2.547647 24.270510 152.038385 2.378066 -17.633558 -2.339948 -0.396681 1.545085
1275.099564 408.163741 109.085873 0.000000 0.000000 0.000000 0.000000 0.000000 0.000000 -132.929531 1.723763 19.960535 47.070469 2.106104 19.960535 173.491912 -5.052037 20.536413 -160.709681 -5.179861 21.869059 33.138793 4.643903 -20.536413 -14.686121 -0.464390 1.840623
1290.611115 384.880857 100.575463 0.000000 0.000000 0.000000 0.000000 0.000000 0.000000 -132.705235 1.601646 19.645745 47.294765 1.141360 19.645745 -173.778854 0.128713 23.115397 20.496835 -3.083287 19.122720 -161.220290 -3.711447 -23.115397 1.723235 0.423209 2.128896
1302.817154 380.305352 90.496014 0.000000 0.000000 0.000000 0.000000 0.000000 0.000000 -131.493915 -8.431194 18.096541 48.506085 4.135559 18.096541 -165.393697 -2.290927 25.329838 23.154815 -0.821678 16.074804 -178.200316 0.938175 -25.329838 0.138141 0.107043 2.408768
1304.997711 379.563582 94.192610 0.000000 0.000000 0.000000 0.000000 0.000000 0.000000 -126.727972 2.046409 15.410265 53.272028 0.147774 15.410265 -160.219593 -1.525739 27.144812 28.448880 -3.812648 12.773379 -174.368770 0.175100 -27.144812 0.079526 0.206331 2.679134
1311.668472 386.890390 98.858799 0.000000 0.000000 0.000000 0.000000 0.000000 0.000000 -122.308728 -12.630796 11.755705 57.691272 10.719556 11.755705 -158.801130 -2.775576 28.531695 150.942637 1.576817 9.270510 -154.878332 -4.159385 -28.531695 2.695409 0.471972 2.938926
1305.131836 395.180186 79.909616 0.000000 0.000000 0.000000 0.000000 0.000000 0.000000 -125.112810 -9.041103 7.362491 54.887190 7.670011 7.362491 -146.487292 -0.826808 29.468618 -175.167369 6.367483 5.621439 -159.224034 -4.331698 -29.468618 1.782042 0.417251 3.187120
1296.320457 392.734526 85.757428 0.000000 0.000000 0.000000 0.000000 0.000000 0.000000 -131.035750 23.959336 2.506665 48.964250 -23.155836 2.506665 -128.969563 -1.654807 29.940802 38.856147 -7.269672 1.883716 -134.776850 -4.224257 -29.940802 3.458429 0.246210 3.422736
1306.963577 386.612041 70.616159 0.000000 0.000000 0.000000 0.000000 0.000000 0.000000 -124.469622 -1.017766 -2.506665 55.530378 0.224536 -2.506665 -109.994856 1.579411 29.940802 37.691309 -1.187903 -1.883716 -118.274788 0.450103 -29.940802 5.098336 -0.020724 3.644843
969.892723 442.572198 58.412147 0.000000 0.000000 0.000000 0.000000 0.000000 0.000000 41.287575 36.711488 -7.362491 180.000000 -12.849568 -7.362491 30.974696 -6.342912 29.468618 149.025304 -9.415873 -5.621439 15.072869 2.612582 -29.468618 18.000000 -0.507971 3.852566
969.876883 442.545207 49.061114 0.000000 0.000000 0.000000 0.000000 0.000000 0.000000 42.241956 -10.816178 -11.755705 180.000000 -2.739454 -11.755705 30.826133 -6.616947 28.531695 149.173867 2.126354 -9.270510 14.823070 2.476293 -28.531695 18.000000 -0.312737 4.045085
969.859960 442.518116 67.007842 0.000000 0.000000 0.000000 0.000000 0.000000 0.000000 43.199779 16.612124 -15.410265 180.000000 -10.729065 -15.410265 30.649504 -1.395562 27.144812 149.350496 -0.063038 -12.773379 14.587557 -8.071719 -27.144812 18.000000 0.245319 4.221640
969.841956 442.490926 57.171812 0.000000 0.000000 0.000000 0.000000 0.000000 0.000000 44.157210 35.235635 -18.096541 180.000000 -2.927856 -18.096541 30.446417 -11.028178 25.329838 149.553583 -10.453724 -16.074804 14.366154 2.749133 -25.329838 18.000000 -0.359149 4.381533
969.822873 442.463637 29.437372 0.000000 0.000000 0.000000 0.000000 0.000000 0.000000 45.110117 28.802357 -19.645745 180.000000 -11.655420 -19.645745 30.218633 3.901847 23.115397 149.781367 -8.372493 -19.122720 14.158653 5.880195 -23.115397 18.000000 0.139301 4.524135
969.802712 442.436251 48.329933 0.000000 0.000000 0.000000 0.000000 0.000000 0.000000 46.054109 -22.056874 -19.960535 180.000000 6.575386 -19.960535 29.968037 13.841823 20.536413 150.031963 15.440031 -21.869059 13.964823 0.044586 -20.536413 18.000000 -0.415278 4.648882
1187.040939 541.658249 58.033478 0.000000 0.000000 0.000000 0.000000 0.000000 0.000000 82.806623 9.732404 -19.021130 -97.193377 -9.254427 -19.021130 45.395981 0.381500 17.633558 -156.144455 -2.910461 -24.270510 0.000000 0.000000 0.000000 0.000000 0.000000 0.000000
1182.242889 522.024286 29.898557 0.000000 0.000000 0.000000 0.000000 0.000000 0.000000 -105.721938 18.884367 -16.886559 74.278062 -21.723910 -16.886559 -155.708006 -1.946819 14.452610 -157.302521 -2.819427 -26.289200 0.000000 0.000000 0.000000 2.684983 0.224436 4.842916
1180.914459 527.065626 51.246848 0.000000 0.000000 0.000000 0.000000 0.000000 0.000000 88.055617 -8.543862 -13.690942 -91.944383 4.578076 -13.690942 -158.862018 -3.142742 11.043737 -151.747289 -2.336639 -27.893295 0.000000 0.000000 0.000000 0.000000 0.000000 0.000000
1236.800194 541.387432 47.129689 0.000000 0.000000 0.000000 0.000000 0.000000 0.000000 -85.588400 -6.479390 -9.635073 94.411600 8.582152 -9.635073 -159.297106 -8.119512 7.460697 -157.915391 -1.941905 -29.057495 26.607362 2.451250 -7.460697 14.926890 -0.272282 4.960574
1161.066513 575.006626 46.155385 0.000000 0.000000 0.000000 0.000000 0.000000 0.000000 -81.021168 -9.803257 -4.973798 98.978832 -8.043707 -4.973798 -102.851701 0.335269 3.759997 -157.041007 -2.722287 -29.763441 21.429890 2.564335 -3.759997 10.859432 -0.165056 4.990134
1255.636253 512.645942 51.022499 0.000000 0.000000 0.000000 0.000000 0.000000 0.000000 77.832564 -1.521556 -0.000000 -102.167436 2.783527 -0.000000 -158.264834 -2.396196 0.000000 -130.745502 -1.297828 -30.000000 -157.699225 -1.999563 -0.000000 0.000000 0.000000 0.000000
1265.118484 521.473864 56.640080 0.000000 0.000000 0.000000 0.000000 0.000000 0.000000 64.078276 5.088727 4.973798 -115.921724 -8.515926 4.973798 41.397952 4.746854 -3.759997 -139.329851 -0.401249 -29.763441 20.223252 1.777942 3.759997 -16.047574 -0.137786 4.990134
1228.099480 522.138258 61.418014 0.000000 0.000000 0.000000 0.000000 0.000000 0.000000 71.050901 9.660530 9.635073 -108.949099 -5.915267 9.635073 150.099970 -2.800031 -7.460697 -139.894702 -3.495121 -29.057495 -156.275691 -3.294083 7.460697 0.000000 0.000000 0.000000
1240.357246 528.695873 39.718183 0.000000 0.000000 0.000000 0.000000 0.000000 0.000000 65.413351 20.947668 13.690942 -114.586649 -14.774611 13.690942 147.242328 -2.906403 -11.043737 -154.470720 -3.365765 -27.893295 25.557225 1.820035 11.043737 -15.444278 -0.182004 4.911436
1231.815262 551.380248 48.022832 0.000000 0.000000 0.000000 0.000000 0.000000 0.000000 56.412506 -4.580185 16.886559 -123.587494 22.282293 16.886559 -153.392336 -2.536595 -14.452610 -154.784582 -2.248436 -26.289200 24.191555 3.024193 14.452610 -15.580844 -0.302419 4.842916
1221.475182 508.360147 72.028271 0.000000 0.000000 0.000000 0.000000 0.000000 0.000000 77.450622 -0.675753 19.021130 -102.549378 -4.196859 19.021130 -156.789784 -2.504166 -17.633558 -125.590168 -2.290500 -24.270510 -160.017240 -2.702170 17.633558 1.833434 0.442374 4.755283
969.477684 442.100429 86.272487 0.000000 0.000000 0.000000 0.000000 0.000000 0.000000 54.932575 -61.957756 19.960535 180.000000 21.752686 19.960535 25.919122 12.199458 -20.536413 154.080878 15.001978 -21.869059 12.612867 4.989538 20.536413 18.000000 -0.303758 4.648882
1480.140495 518.878891 65.882421 0.000000 0.000000 0.000000 0.000000 0.000000 0.000000 -110.621767 88.702486 19.645745 69.378233 -86.109472 19.645745 -158.235933 -2.888269 -23.115397 166.031448 -10.491147 -19.122720 -155.186432 -2.543900 23.115397 2.641553 0.264281 4.524135
1271.640472 556.840560 89.011901 0.000000 0.000000 0.000000 0.000000 0.000000 0.000000 -94.404719 25.972378 18.096541 85.595281 -23.075263 18.096541 -62.417786 4.306401 -25.329838 23.992813 -5.940165 -16.074804 -76.856107 -0.364984 25.329838 7.708835 -0.008415 4.381533
1258.556786 530.268441 70.316070 0.000000 0.000000 0.000000 0.000000 0.000000 0.000000 78.355945 -3.606096 15.410265 -101.644055 3.797255 15.410265 35.068294 4.554765 -27.144812 -54.090640 3.106611 -12.773379 35.848220 -4.249662 27.144812 -8.104639 0.987059 4.221640
1250.800209 527.150567 92.726343 0.000000 0.000000 0.000000 0.000000 0.000000 0.000000 72.417769 -8.515827 11.755705 -107.582231 6.558167 11.755705 24.571109 -1.267326 -28.531695 -39.196117 -0.212692 -9.270510 10.411117 7.755859 28.531695 -9.048616 -1.073524 4.045085
1243.466148 571.776259 72.363413 0.000000 0.000000 0.000000 0.000000 0.000000 0.000000 86.301473 -9.877404 7.362491 -93.698527 -0.625699 7.362491 24.553534 0.395881 -29.468618 -153.460385 -3.501864 -5.621439 19.510484 3.423147 29.468618 -10.109500 -1.792958 3.852566
1261.883812 566.052918 91.932157 0.000000 0.000000 0.000000 0.000000 0.000000 0.000000 94.015209 4.903004 2.506665 -85.984791 -1.678478 2.506665 38.959993 0.710111 -29.940802 -154.008305 -4.259857 -1.883716 20.870951 3.359997 29.940802 -10.872440 0.059642 3.644843
1284.436798 527.190542 100.236019 0.000000 0.000000 0.000000 0.000000 0.000000 0.000000 111.186365 6.152001 -2.506665 -68.813635 -8.905082 -2.506665 58.506163 6.388152 -29.940802 -19.138727 3.538953 1.883716 51.457372 -10.701973 29.940802 -5.203198 0.601767 3.422736
1272.860069 533.494012 101.794862 0.000000 0.000000 0.000000 0.000000 0.000000 0.000000 72.301471 -12.392526 -7.362491 -107.698529 8.873443 -7.362491 78.802573 0.836401 -29.468618 -154.772375 -4.275268 5.621439 26.927455 3.906360 29.468618 -15.307255 -0.390636 3.187120
1255.264664 498.243735 108.351341 0.000000 0.000000 0.000000 0.000000 0.000000 0.000000 164.596971 -3.542440 -11.755705 -15.403029 59.640017 -11.755705 125.849126 -1.438271 -28.531695 -156.067666 -4.947083 9.270510 33.087561 4.823507 28.531695 -14.691244 -0.482351 2.938926
1259.202232 470.407684 113.553382 0.000000 0.000000 0.000000 0.000000 0.000000 0.000000 -139.980397 14.396123 -15.410265 40.019603 -2.093672 -15.410265 165.887722 -2.274767 -27.144812 -157.901492 -5.586084 12.773379 35.196094 5.274844 27.144812 -14.480391 -0.527484 2.679134
1236.502075 429.951335 99.338926 0.000000 0.000000 0.000000 0.000000 0.000000 0.000000 -113.295066 11.348954 -18.096541 66.704934 -14.882806 -18.096541 -174.664169 -1.458713 -25.329838 -159.007335 -5.973990 16.074804 32.868990 5.979215 25.329838 -14.713101 -0.597922 2.408768
1253.359451 413.942538 117.253253 0.000000 0.000000 0.000000 0.000000 0.000000 0.000000 -123.348580 -7.228268 -19.645745 56.651420 14.320180 -19.645745 -167.815074 -4.105919 -23.115397 -159.603180 -4.809160 19.122720 32.791747 6.230668 23.115397 -14.720825 -0.623067 2.128896
1281.206589 405.664523 145.227352 0.000000 0.000000 0.000000 0.000000 0.000000 0.000000 -124.414271 2.053360 -19.960535 55.585729 -7.244065 -19.960535 -161.281803 -0.047985 -20.536413 28.568449 -0.478197 21.869059 -159.052798 -4.858159 20.536413 1.849141 0.491483 1.840623
1300.238571 418.760215 113.942183 0.000000 0.000000 0.000000 0.000000 0.000000 0.000000 -126.263092 -0.969804 -19.021130 53.736908 8.892855 -19.021130 -159.739358 -4.692072 -17.633558 31.487961 -0.405795 24.270510 -170.323915 0.680901 17.633558 0.671815 0.066379 1.545085
1321.889191 413.634385 152.826086 0.000000 0.000000 0.000000 0.000000 0.000000 0.000000 -133.874471 7.208758 -16.886559 46.125529 -4.505023 -16.886559 -159.376251 -0.951306 -14.452610 30.696824 -4.234228 26.289200 -164.929556 -0.092883 14.452610 1.089735 -0.049650 1.243449
1336.221428 432.881820 145.652047 0.000000 0.000000 0.000000 0.000000 0.000000 0.000000 -115.020798 -3.847265 -13.690942 64.979202 -8.990053 -13.690942 -135.609544 4.078608 -11.043737 -161.321630 -6.336062 27.893295 17.353502 9.234182 11.043737 -16.264650 -0.923418 0.936907
1329.124603 416.860342 120.805495 0.000000 0.000000 0.000000 0.000000 0.000000 0.000000 -134.023347 5.998924 -9.635073 45.976653 2.828127 -9.635073 -128.030830 0.623527 -7.460697 28.249885 1.429902 29.057495 -136.447985 -0.511609 7.460697 4.038834 -0.005841 0.626666
1343.366776 427.060794 129.348725 0.000000 0.000000 0.000000 0.000000 0.000000 0.000000 -130.153347 -4.643840 -4.973798 49.846653 -3.041972 -4.973798 -103.564435 1.442890 -3.759997 27.398095 -3.493670 29.763441 -115.461530 0.805676 3.759997 5.470063 0.184247 0.313953
1376.991005 465.829636 157.790387 0.000000 0.000000 0.000000 0.000000 0.000000 0.000000 -120.272352 -9.954326 0.000000 59.727648 4.513516 0.000000 -62.204131 -0.012065 -0.000000 27.740602 1.218437 30.000000 -80.461527 4.491415 0.000000 7.450891 -0.366282 0.000000
1384.978867 468.790376 148.617187 0.000000 0.000000 0.000000 0.000000 0.000000 0.000000 -93.720384 24.889223 4.973798 86.279616 7.015235 4.973798 3.847814 -0.449284 3.759997 -160.438787 -6.375732 29.763441 15.990976 5.136296 -3.759997 7.894783 0.631689 0.313953
1345.894547 516.257268 151.723812 0.000000 0.000000 0.000000 0.000000 0.000000 0.000000 127.577640 11.804027 9.635073 -52.422360 -3.090847 9.635073 53.096359 0.446590 7.460697 -159.021748 -6.845950 29.057495 18.308456 5.376929 -7.460697 -4.062191 0.240580 0.626666
968.498927 441.455181 149.438800 0.000000 0.000000 0.000000 0.000000 0.000000 0.000000 47.920147 -6.844586 13.690942 180.000000 -39.612967 13.690942 19.641385 11.846926 11.043737 160.358615 -9.639851 27.893295 13.993219 7.471124 -11.043737 18.000000 -0.558390 0.936907
1336.846733 493.527671 154.330276 0.000000 0.000000 0.000000 0.000000 0.000000 0.000000 102.681311 -26.107062 16.886559 -77.318689 -13.557342 16.886559 35.985219 9.231431 14.452610 -159.617763 -6.493725 26.289200 19.375410 5.448307 -14.452610 -16.062459 -0.544831 1.243449
968.386706 441.394956 171.760142 0.000000 0.000000 0.000000 0.000000 0.000000 0.000000 46.120581 9.740471 19.021130 180.000000 16.570041 19.021130 19.316787 -6.663612 17.633558 160.683213 -6.637575 24.270510 14.327067 6.437092 -17.633558 18.000000 0.279963 1.545085
1263.984947 433.341283 168.369447 0.000000 0.000000 0.000000 0.000000 0.000000 0.000000 -115.578373 7.580324 19.960535 64.421627 0.196095 19.960535 -82.396446 -10.831327 20.536413 25.733383 -7.312447 21.869059 -77.477544 -3.239190 -20.536413 5.836928 0.897538 1.840623
1352.596436 477.564354 127.833717 0.000000 0.000000 0.000000 0.000000 0.000000 0.000000 -99.196741 17.063223 19.645745 80.803259 -9.071118 19.645745 -125.272585 1.636003 23.115397 -162.405270 -7.651013 19.122720 17.377627 6.675408 -23.115397 -16.262237 -0.667541 2.128896
1384.326782 408.174427 155.992427 0.000000 0.000000 0.000000 0.000000 0.000000 0.000000 96.868601 20.428155 18.096541 -83.131399 0.689893 18.096541 -160.848957 -6.375692 25.329838 -137.255583 0.422464 16.074804 -162.076720 -7.168654 -25.329838 0.000000 0.000000 0.000000
1387.580223 387.128634 133.986099 0.000000 0.000000 0.000000 0.000000 0.000000 0.000000 78.087764 -18.225707 15.410265 -101.912236 -11.388963 15.410265 -161.807915 -5.799196 27.144812 -147.504361 -5.508061 12.773379 -162.566306 -6.144217 -27.144812 1.735427 0.780619 2.679134
1345.818558 392.423122 147.530201 0.000000 0.000000 0.000000 0.000000 0.000000 0.000000 71.782984 16.833288 11.755705 -108.217016 15.352098 11.755705 -169.469261 -9.890607 28.531695 -153.903088 2.201972 9.270510 -154.670689 -4.588835 -28.531695 15.277725 -1.326392 2.938926
1331.471329 361.814139 128.675499 0.000000 0.000000 0.000000 0.000000 0.000000 0.000000 53.586100 35.352660 7.362491 -126.413900 -28.139118 7.362491 -162.290330 -5.636934 29.468618 -154.912165 -6.062507 5.621439 -162.550394 -6.634804 -29.468618 1.742175 0.880441 3.187120
1354.413986 427.213873 127.963555 0.000000 0.000000 0.000000 0.000000 0.000000 0.000000 -131.358118 14.902559 2.506665 48.641882 -13.178438 2.506665 -142.488821 -0.646853 29.940802 -161.977882 -6.645776 1.883716 12.673705 8.206313 -29.940802 1.397524 0.095476 3.422736
1330.326691 347.207226 130.233662 0.000000 0.000000 0.000000 0.000000 0.000000 0.000000 52.464175 -2.035192 -2.506665 -127.535825 5.106889 -2.506665 14.270918 -3.236627 29.940802 -122.057234 -3.551845 -1.883716 22.820874 1.923338 -29.940802 -15.244909 -0.059354 3.644843
1317.103271 414.475805 122.208626 0.000000 0.000000 0.000000 0.000000 0.000000 0.000000 76.170457 -10.137351 -7.362491 -103.829543 11.204418 -7.362491 -50.250674 -7.125852 29.468618 -52.503744 2.243230 -5.621439 -92.793049 4.645606 -29.468618 3.303440 -0.386532 3.852566
1331.844635 430.291482 121.928572 0.000000 0.000000 0.000000 0.000000 0.000000 0.000000 79.985160 -0.160885 -11.755705 -100.014840 1.620480 -11.755705 25.995082 -0.798601 28.531695 -75.062603 2.262020 -9.270510 38.761234 0.132534 -28.531695 -11.442229 0.075159 4.045085
1359.462433 496.472383 113.867708 0.000000 0.000000 0.000000 0.000000 0.000000 0.000000 84.268829 2.467290 -15.410265 -95.731171 3.838198 -15.410265 30.279153 0.574615 27.144812 -63.318008 0.444093 -12.773379 39.457716 -1.395815 -27.144812 -9.485742 0.180416 4.221640
1323.514366 546.771398 108.923605 0.000000 0.000000 0.000000 0.000000 0.000000 0.000000 84.407325 8.334887 -18.096541 -95.592675 -5.350717 -18.096541 27.768249 3.686174 25.329838 -47.660055 3.184882 -16.074804 28.281511 -7.082363 -25.329838 -7.827901 1.473104 4.381533
1268.535347 591.567099 101.227078 0.000000 0.000000 0.000000 0.000000 0.000000 0.000000 90.890792 0.882856 -19.645745 -89.109208 4.276424 -19.645745 44.654760 -0.655119 23.115397 -48.200667 1.350544 -19.122720 43.369388 3.474548 -23.115397 -8.974980 -0.695420 4.524135
1303.157158 602.888768 115.946543 0.000000 0.000000 0.000000 0.000000 0.000000 0.000000 90.349289 1.797469 -19.960535 -89.650711 -2.514382 -19.960535 47.707312 -0.203168 20.536413 -53.918782 -2.466675 -21.869059 40.070965 2.007700 -20.536413 -9.318632 -0.501751 4.648882
1314.841690 613.141973 94.307124 0.000000 0.000000 0.000000 0.000000 0.000000 0.000000 94.480501 -4.843758 -19.021130 -85.519499 0.637794 -19.021130 58.462862 1.342948 17.633558 -52.020507 4.041274 -24.270510 55.276552 -3.724266 -17.633558 -7.777523 0.106781 4.755283
1327.521400 639.394319 96.849883 0.000000 0.000000 0.000000 0.000000 0.000000 0.000000 99.879576 5.623680 -16.886559 -80.120424 2.192232 -16.886559 69.161359 -7.390508 14.452610 -46.413613 -1.910009 -26.289200 76.680143 -0.450237 -14.452610 -6.257768 0.420365 4.842916
1277.812729 671.228578 97.323540 0.000000 0.000000 0.000000 0.000000 0.000000 0.000000 99.708534 -5.746704 -13.690942 -80.291466 -4.361943 -13.690942 92.239140 2.445172 11.043737 -26.764021 -4.115185 -27.893295 98.168457 -2.789545 -11.043737 -4.372074 0.262334 4.911436
1309.642181 690.479329 86.846201 0.000000 0.000000 0.000000 0.000000 0.000000 0.000000 117.292414 2.901563 -9.635073 -62.707586 -7.594994 -9.635073 137.002702 1.199304 7.460697 -32.045917 -1.717390 -29.057495 135.211322 -1.734102 -7.460697 -3.212944 0.018961 4.960574
1299.770966 664.126496 76.560153 0.000000 0.000000 0.000000 0.000000 0.000000 0.000000 158.531160 -7.352947 -4.973798 -21.468840 10.769134 -4.973798 161.478323 0.258943 3.759997 -12.838206 2.787765 -29.763441 151.269584 1.024858 -3.759997 -2.521934 0.057843 4.990134
1313.353729 643.668108 83.540351 0.000000 0.000000 0.000000 0.000000 0.000000 0.000000 -154.315892 7.409325 -0.000000 25.684108 -1.851419 -0.000000 173.459940 -0.240393 0.000000 1.519689 3.060904 -30.000000 164.244875 -2.343313 -0.000000 -1.552244 0.041116 5.000000
1342.841377 638.982847 60.581407 0.000000 0.000000 0.000000 0.000000 0.000000 0.000000 -138.993869 -0.738179 4.973798 41.006131 1.044556 4.973798 175.724056 7.854148 -3.759997 -151.723069 -2.766580 -29.763441 43.242568 3.518928 3.759997 -13.675743 -0.351893 4.990134
1350.000229 614.724133 53.266356 0.000000 0.000000 0.000000 0.000000 0.000000 0.000000 -144.248147 4.677429 9.635073 35.751853 1.676647 9.635073 177.069273 1.912354 -7.460697 -152.227621 -2.851459 -29.057495 43.136563 2.454943 7.460697 -13.686344 -0.245494 4.960574
1328.535919 624.780936 69.808409 0.000000 0.000000 0.000000 0.000000 0.000000 0.000000 -165.447222 -13.526968 13.690942 14.552778 12.926300 13.690942 169.657511 1.579173 -11.043737 -152.168050 -2.532928 -27.893295 41.929642 4.997952 11.043737 -13.807036 -0.499795 4.911436
1318.810501 615.688248 64.690931 0.000000 0.000000 0.000000 0.000000 0.000000 0.000000 -120.063657 -6.219995 16.886559 59.936343 15.587810 16.886559 -165.389465 -4.446884 -14.452610 -152.866764 -2.372912 -26.289200 39.162270 3.293065 14.452610 -14.083773 -0.329306 4.842916
1321.656418 659.275410 73.693209 0.000000 0.000000 0.000000 0.000000 0.000000 0.000000 -121.435085 -3.957340 19.021130 58.564915 9.287532 19.021130 -149.190712 -1.603735 -17.633558 -151.926374 -2.408942 -24.270510 33.097066 3.407325 17.633558 -14.690293 -0.340733 4.755283
1328.445511 687.490232 67.733954 0.000000 0.000000 0.000000 0.000000 0.000000 0.000000 -104.253419 -20.534499 19.960535 75.746581 9.749520 19.960535 -110.140878 2.014957 -20.536413 -152.911692 -1.730814 -21.869059 23.882145 2.899029 20.536413 3.694979 -0.091446 4.648882
966.534206 440.564282 47.495750 0.000000 0.000000 0.000000 0.000000 0.000000 0.000000 25.865486 -0.752656 19.645745 180.000000 7.251106 19.645745 18.728337 2.296396 -23.115397 161.271663 -2.003441 -19.122720 19.024234 -4.764549 23.115397 18.000000 1.278489 4.524135
966.454577 440.533056 46.477287 0.000000 0.000000 0.000000 0.000000 0.000000 0.000000 25.417507 -36.797136 18.096541 180.000000 13.440333 18.096541 18.825450 -8.299281 -25.329838 161.174550 11.660886 -16.074804 19.071566 -1.091073 25.329838 18.000000 -0.393787 4.381533
966.374240 440.501809 37.123190 0.000000 0.000000 0.000000 0.000000 0.000000 0.000000 24.990320 -9.543816 15.410265 180.000000 -4.814466 15.410265 18.929718 3.799697 -27.144812 161.070282 -2.106743 -12.773379 19.102411 7.540377 27.144812 18.000000 -1.840877 4.221640
966.293204 440.470542 64.697702 0.000000 0.000000 0.000000 0.000000 0.000000 0.000000 24.583377 15.029437 11.755705 180.000000 -2.788081 11.755705 19.040946 -6.869228 -28.531695 160.959054 -11.277433 -9.270510 19.116765 10.084342 28.531695 18.000000 -1.572034 4.045085
966.211478 440.439256 51.089479 0.000000 0.000000 0.000000 0.000000 0.000000 0.000000 24.196129 15.267226 7.362491 180.000000 -2.194355 7.362491 19.158923 -4.324090 -29.468618 160.841077 -12.078821 -5.621439 19.114778 14.649842 29.468618 18.000000 -0.180656 3.852566
644.985180 745.864069 39.343163 0.000000 0.000000 0.000000 0.000000 0.000000 0.000000 96.086415 18.442872 2.506665 -83.913585 -28.783795 2.506665 -159.662371 7.946604 -29.940802 -116.741565 -5.967655 -1.883716 -176.001217 -4.650555 29.940802 -1.006627 -0.087499 3.644843
1269.020119 699.025490 48.203482 0.000000 0.000000 0.000000 0.000000 0.000000 0.000000 83.810916 -3.288241 -2.506665 -96.189084 -4.990802 -2.506665 51.932890 -4.510975 -29.940802 -149.314466 -2.331048 1.883716 27.598511 1.971511 29.940802 -15.240149 -0.197151 3.422736
573.721218 678.450201 61.119854 0.000000 0.000000 0.000000 0.000000 0.000000 0.000000 18.756393 9.440803 -7.362491 -161.243607 -28.492249 -7.362491 -174.158094 7.354120 -29.468618 178.010322 -7.602766 5.621439 -154.394154 3.559926 29.468618 11.886524 -0.099462 3.187120
1261.580200 714.897366 61.548149 0.000000 0.000000 0.000000 0.000000 0.000000 0.000000 87.191276 14.606388 -11.755705 -92.808724 -8.298167 -11.755705 23.129119 -0.580737 -28.531695 -149.376238 -2.725318 9.270510 24.545507 2.363097 28.531695 13.583501 -4.853388 2.938926
1314.655838 684.171546 53.590726 0.000000 0.000000 0.000000 0.000000 0.000000 0.000000 61.219932 -0.196607 -15.410265 -118.780068 0.835741 -15.410265 25.476616 2.256623 -27.144812 -150.404247 -2.178074 12.773379 24.621454 2.320277 27.144812 -15.537855 -0.232028 2.679134
1319.638939 674.820013 56.675934 0.000000 0.000000 0.000000 0.000000 0.000000 0.000000 82.055377 -3.288727 -18.096541 -97.944623 -1.519195 -18.096541 17.325085 -5.229283 -25.329838 -60.067277 -2.130894 16.074804 23.747728 0.797688 25.329838 -13.005173 -0.118044 2.408768
1367.852325 659.536314 69.958033 0.000000 0.000000 0.000000 0.000000 0.000000 0.000000 -150.278430 8.893391 -19.645745 29.721570 -23.743292 -19.645745 -151.222797 -2.478700 -23.115397 18.758043 -7.965287 19.122720 -152.451920 -1.673863 23.115397 2.484143 0.217397 2.128896
1392.624664 638.981302 59.834127 0.000000 0.000000 0.000000 0.000000 0.000000 0.000000 -122.704248 -3.310521 -19.960535 57.295752 -1.116091 -19.960535 -134.513385 -3.641493 -20.536413 30.292627 -2.527606 21.869059 -146.694539 1.066715 20.536413 2.430965 0.026766 1.840623
1401.291389 646.422758 65.109204 0.000000 0.000000 0.000000 0.000000 0.000000 0.000000 83.316637 -8.923359 -19.021130 -96.683363 0.250941 -19.021130 29.335627 -3.600640 -17.633558 -136.281416 3.686737 24.270510 19.119183 -1.523544 17.633558 -15.871560 -0.024463 1.545085
1381.838951 663.410475 59.946504 0.000000 0.000000 0.000000 0.000000 0.000000 0.000000 79.215331 -2.781064 -16.886559 -100.784669 -1.000098 -16.886559 30.640455 1.843737 -14.452610 -139.113455 2.222657 26.289200 14.302413 -0.082759 14.452610 -16.408036 -0.094928 1.243449
1390.185928 664.248354 84.310182 0.000000 0.000000 0.000000 0.000000 0.000000 0.000000 75.546066 -5.364617 -13.690942 -104.453934 2.604714 -13.690942 38.995097 1.040755 -11.043737 -142.871297 3.457645 27.893295 14.209110 -0.927416 11.043737 -16.737090 -0.019229 0.936907
1393.889923 677.551103 73.419571 0.000000 0.000000 0.000000 0.000000 0.000000 0.000000 84.293627 -6.282661 -9.635073 -95.706373 -0.646724 -9.635073 -152.700272 -3.381240 -7.460697 -143.357755 1.482513 29.057495 -148.868889 -4.450401 7.460697 3.626268 0.374237 0.626666
905.601082 693.654528 76.438431 0.000000 0.000000 0.000000 0.000000 0.000000 0.000000 -84.410869 17.195981 -4.973798 95.589131 -4.306683 -4.973798 -139.498802 -4.822350 -3.759997 -178.556713 -44.601478 29.763441 -142.061844 -4.512139 3.759997 3.411456 0.407803 0.313953
1337.643929 680.318756 87.488228 0.000000 0.000000 0.000000 0.000000 0.000000 0.000000 78.192517 4.050413 0.000000 -101.807483 -1.673474 0.000000 48.289813 -4.542872 -0.000000 -140.291980 -5.331024 30.000000 13.663140 2.150669 0.000000 -17.395561 0.051042 0.000000
1322.670708 685.543334 112.129535 0.000000 0.000000 0.000000 0.000000 0.000000 0.000000 71.501063 -10.391468 4.973798 -108.498937 10.859600 4.973798 23.648228 5.175134 3.759997 -144.586500 6.383200 29.763441 14.578018 -0.603770 -3.759997 -16.885607 -0.325408 0.313953
1305.530548 682.910864 104.128961 0.000000 0.000000 0.000000 0.000000 0.000000 0.000000 72.979287 8.259766 9.635073 -107.020713 43.231554 9.635073 -148.728581 -4.637855 7.460697 -74.802907 3.205193 29.057495 -151.178244 -4.196248 -7.460697 2.601049 0.404495 0.626666
1359.363556 692.650115 115.405246 0.000000 0.000000 0.000000 0.000000 0.000000 0.000000 73.244804 5.113972 13.690942 -106.755196 -3.748869 13.690942 13.983499 6.999042 11.043737 -67.611809 2.392826 27.893295 13.130547 -3.745247 -11.043737 -11.004089 0.618481 0.936907
1299.495964 679.994059 124.301458 0.000000 0.000000 0.000000 0.000000 0.000000 0.000000 116.206779 -6.103209 16.886559 -63.793221 16.954955 16.886559 -150.858719 -4.807610 14.452610 -34.548592 2.064430 26.289200 60.366751 11.760109 -14.452610 -4.627493 -0.619477 1.243449
1306.260338 711.527116 110.902703 0.000000 0.000000 0.000000 0.000000 0.000000 0.000000 -85.758672 9.762955 19.021130 94.241328 -7.056402 19.021130 -31.461750 -0.738807 17.633558 -4.237664 -3.696253 24.270510 -15.215787 0.187010 -17.633558 7.867754 4.340017 1.545085
1272.614822 704.778571 143.676622 0.000000 0.000000 0.000000 0.000000 0.000000 0.000000 -78.634637 16.533119 19.960535 101.365363 -8.657912 19.960535 -34.118569 -3.377863 20.536413 22.539652 -3.031060 21.869059 -31.373170 -1.776113 -20.536413 11.310693 0.628482 1.840623
1310.345650 676.427021 126.719184 0.000000 0.000000 0.000000 0.000000 0.000000 0.000000 97.572435 0.103647 19.645745 -82.427565 -3.354797 19.645745 50.400703 0.579748 23.115397 -39.584286 -0.606048 19.122720 44.966766 2.690769 -23.115397 -8.852712 -1.502095 2.128896
1315.732956 671.025095 125.050621 0.000000 0.000000 0.000000 0.000000 0.000000 0.000000 97.797337 -4.878737 18.096541 -82.202663 2.281170 18.096541 49.825934 2.732023 25.329838 -39.162923 2.043625 16.074804 36.475631 0.956729 -25.329838 -8.191519 1.886626 2.408768
1329.935532 653.525419 155.193524 0.000000 0.000000 0.000000 0.000000 0.000000 0.000000 96.469555 -0.465655 15.410265 -83.530445 -6.350524 15.410265 63.882053 -1.115297 27.144812 -51.972064 -3.788311 12.773379 58.624362 0.640742 -27.144812 -8.239564 -0.109441 2.679134
1316.170578 674.246514 143.051283 0.000000 0.000000 0.000000 0.000000 0.000000 0.000000 -87.946330 1.437665 11.755705 92.053670 -1.860300 11.755705 -29.715798 3.253980 28.531695 54.212796 -2.971129 9.270510 -40.560774 1.117326 -28.531695 11.008015 -0.400859 2.938926
1317.367287 678.027205 126.933625 0.000000 0.000000 0.000000 0.000000 0.000000 0.000000 95.152942 0.912846 7.362491 -84.847058 2.334034 7.362491 98.792835 -5.637354 29.468618 -150.515547 -6.022168 5.621439 32.983753 5.382978 -29.468618 -14.701625 -0.538298 3.187120
1318.168488 670.157025 143.618465 0.000000 0.000000 0.000000 0.000000 0.000000 0.000000 -151.252255 62.959238 2.506665 28.747745 -46.176296 2.506665 138.896993 -3.577772 29.940802 -151.946620 -7.330208 1.883716 38.784684 5.354761 -29.940802 -14.121532 -0.535476 3.422736
1323.412628 644.667885 150.340144 0.000000 0.000000 0.000000 0.000000 0.000000 0.000000 -97.904066 3.454435 -2.506665 82.095934 -19.448327 -2.506665 155.695030 5.135919 29.940802 -152.500978 -6.316658 -1.883716 44.721081 6.414571 -29.940802 -13.527892 -0.641457 3.644843
1312.776718 630.059459 118.861546 0.000000 0.000000 0.000000 0.000000 0.000000 0.000000 -116.637972 -3.094571 -7.362491 63.362028 41.424436 -7.362491 171.094570 -6.399255 29.468618 -152.894064 -5.701017 -5.621439 43.947863 7.345806 -29.468618 -13.605214 -0.734581 3.852566
1316.420746 625.237019 155.591316 0.000000 0.000000 0.000000 0.000000 0.000000 0.000000 -136.254273 3.968484 -11.755705 43.745727 -3.034079 -11.755705 -177.663204 4.105721 28.531695 -153.006287 -6.355921 -9.270510 42.784597 7.232437 -28.531695 -13.721540 -0.723244 4.045085
1314.719925 628.818026 141.298970 0.000000 0.000000 0.000000 0.000000 0.000000 0.000000 -114.737929 2.985839 -15.410265 65.262071 -10.171109 -15.410265 -169.764314 1.930342 27.144812 -153.369487 -6.809989 -12.773379 41.498347 7.848838 -27.144812 -13.850165 -0.784884 4.221640
1334.396782 646.165652 160.257252 0.000000 0.000000 0.000000 0.000000 0.000000 0.000000 -116.903454 -9.251770 -18.096541 63.096546 3.545912 -18.096541 -154.594534 0.889599 25.329838 -153.225015 -6.201323 -16.074804 37.136182 7.706190 -25.329838 -14.286382 -0.770619 4.381533
1340.823784 648.244128 145.552591 0.000000 0.000000 0.000000 0.000000 0.000000 0.000000 -116.932323 -0.694557 -19.645745 63.067677 5.012203 -19.645745 -138.898656 -0.150981 23.115397 35.335752 3.222337 -19.122720 -153.336856 0.691317 -23.115397 2.206211 -0.244363 4.524135
1330.023880 654.599032 150.689870 0.000000 0.000000 0.000000 0.000000 0.000000 0.000000 -112.150704 -8.887391 -19.960535 67.849296 10.975017 -19.960535 -118.798313 2.520798 20.536413 -153.636372 -5.684072 -21.869059 16.691869 8.622381 -20.536413 -16.330813 -0.862238 4.648882
1337.431641 662.410698 138.063331 0.000000 0.000000 0.000000 0.000000 0.000000 0.000000 -109.111809 6.463401 -19.021130 70.888191 -2.393563 -19.021130 -91.144379 1.113669 17.633558 -154.448144 -6.940062 -24.270510 10.298202 6.128486 -17.633558 6.642051 -0.043726 4.755283
1324.339714 676.416593 143.059399 0.000000 0.000000 0.000000 0.000000 0.000000 0.000000 -104.120178 -10.480052 -16.886559 75.879822 6.696166 -16.886559 -57.095620 -0.283438 14.452610 38.799650 3.570581 -26.289200 -71.942639 1.008393 -14.452610 8.831938 -0.166596 4.842916
962.890318 439.311049 144.745648 0.000000 0.000000 0.000000 0.000000 0.000000 0.000000 19.986963 -15.768949 -13.690942 180.000000 14.783976 -13.690942 24.297229 -15.268787 11.043737 155.702771 10.284929 -27.893295 14.983342 -0.524399 -11.043737 18.000000 0.017376 4.911436
962.789911 439.279946 132.223740 0.000000 0.000000 0.000000 0.000000 0.000000 0.000000 20.089586 -6.434286 -9.635073 180.000000 -3.976041 -9.635073 24.330184 1.905002 7.460697 155.669816 -2.905507 -29.057495 14.926290 4.587248 -7.460697 18.000000 -0.020585 4.960574
641.318550 641.336324 140.101262 0.000000 0.000000 0.000000 0.000000 0.000000 0.000000 163.642929 23.563961 -4.973798 -16.357071 9.268848 -4.973798 -155.926011 -2.792182 3.759997 -130.644608 -8.547822 -29.763441 68.679337 11.941797 -3.759997 -11.132066 -1.194180 4.990134
1305.385551 662.289033 141.858319 0.000000 0.000000 0.000000 0.000000 0.000000 0.000000 -81.949824 -7.575963 -0.000000 98.050176 18.853424 -0.000000 9.536664 0.744636 0.000000 -153.586691 -5.427876 -30.000000 24.402531 4.694022 -0.000000 -15.559747 -0.469402 5.000000
962.486899 439.186814 128.812324 0.000000 0.000000 0.000000 0.000000 0.000000 0.000000 20.465882 21.329551 4.973798 180.000000 -16.303447 4.973798 24.357206 8.988142 -3.759997 155.642794 1.482611 -29.763441 14.800425 -2.085554 3.759997 18.000000 0.091581 4.990134
1216.314240 612.580640 126.636065 0.000000 0.000000 0.000000 0.000000 0.000000 0.000000 78.221991 -7.945177 9.635073 -101.778009 -0.386338 9.635073 46.689014 3.312382 -7.460697 -61.937558 3.211226 -29.057495 44.546377 -4.429308 7.460697 -10.771750 0.928427 4.960574
1273.897820 573.707514 114.998365 0.000000 0.000000 0.000000 0.000000 0.000000 0.000000 77.469628 8.735299 13.690942 -102.530372 1.952305 13.690942 -155.691164 -5.554295 -11.043737 -120.750172 -6.613649 -27.893295 -156.229293 -4.597372 11.043737 2.162203 0.514776 4.911436
1337.358742 570.303276 109.217451 0.000000 0.000000 0.000000 0.000000 0.000000 0.000000 73.705918 -3.158375 16.886559 -106.294082 -1.535541 16.886559 -155.918376 -4.560658 -14.452610 -149.887909 -4.340227 -26.289200 0.000000 0.000000 0.000000 0.000000 0.000000 0.000000
1342.446442 569.623497 112.123344 0.000000 0.000000 0.000000 0.000000 0.000000 0.000000 68.898287 -11.272190 19.021130 -111.101713 -3.019449 19.021130 39.314088 9.981929 -17.633558 -140.912764 0.068826 -24.270510 -153.216026 -5.378576 17.633558 2.759242 0.670888 4.755283
1335.759430 584.665475 99.499541 0.000000 0.000000 0.000000 0.000000 0.000000 0.000000 66.989329 -7.798862 19.960535 -113.010671 5.741177 19.960535 -154.807077 -4.751021 -20.536413 -142.328055 1.834187 -21.869059 -153.049156 -5.347035 20.536413 2.866457 0.694963 4.648882
1337.950974 598.074245 106.968758 0.000000 0.000000 0.000000 0.000000 0.000000 0.000000 62.697633 4.988294 19.645745 -117.302367 -9.407589 19.645745 19.366736 3.026801 -23.115397 -144.826223 -1.409086 -19.122720 9.911455 0.019487 23.115397 -17.004209 -0.053052 4.524135
1352.846489 601.043322 116.212064 0.000000 0.000000 0.000000 0.000000 0.000000 0.000000 59.083577 -0.143293 18.096541 -120.916423 -1.362810 18.096541 20.876734 0.577510 -25.329838 -142.301690 -1.198483 -16.074804 13.356960 1.088691 25.329838 -16.821524 0.035480 4.381533
1347.310982 587.475100 84.042584 0.000000 0.000000 0.000000 0.000000 0.000000 0.000000 56.169135 1.519940 15.410265 -123.830865 -1.340723 15.410265 21.172503 1.665793 -27.144812 -139.640745 3.904694 -12.773379 14.641496 -0.699596 27.144812 -16.282575 -0.059704 4.221640
1326.982155 606.886139 95.577069 0.000000 0.000000 0.000000 0.000000 0.000000 0.000000 70.119981 5.725546 11.755705 -109.880019 -4.577261 11.755705 26.511889 -0.036650 -28.531695 -111.264667 -1.545447 -9.270510 31.153840 2.501733 28.531695 -13.943905 -0.128018 4.045085
1354.391098 626.185555 73.727044 0.000000 0.000000 0.000000 0.000000 0.000000 0.000000 88.154395 7.771271 7.362491 -91.845605 -1.996825 7.362491 30.442275 -3.079645 -29.468618 -76.284233 -3.045213 -5.621439 43.854867 0.897300 29.468618 -10.818190 0.121166 3.852566
1370.667114 610.219567 92.976613 0.000000 0.000000 0.000000 0.000000 0.000000 0.000000 89.945118 4.977841 2.506665 -90.054882 0.998160 2.506665 44.053326 -7.180781 -29.940802 -56.238091 -2.501035 -1.883716 55.411270 -2.519126 29.940802 -7.805659 0.184534 3.644843
1372.834854 597.828534 74.642569 0.000000 0.000000 0.000000 0.000000 0.000000 0.000000 93.407992 2.824495 -2.506665 -86.592008 1.654792 -2.506665 54.165845 -5.282130 -29.940802 -47.239220 1.671938 1.883716 56.575186 -2.195905 29.940802 -6.344474 0.598730 3.422736
1336.554337 597.454848 61.288985 0.000000 0.000000 0.000000 0.000000 0.000000 0.000000 95.622643 -2.345661 -7.362491 -84.377357 -3.284071 -7.362491 56.597780 -0.257226 -29.468618 -45.108662 -0.241401 5.621439 55.386034 -2.218976 29.468618 -7.206870 0.418648 3.187120
1310.567093 590.844769 80.695581 0.000000 0.000000 0.000000 0.000000 0.000000 0.000000 100.193768 -7.321604 -11.755705 -79.806232 3.993253 -11.755705 61.986347 -1.914683 -28.531695 -37.593815 5.329125 9.270510 62.907615 -6.202686 28.531695 -6.637230 0.775767 2.938926
1328.574371 576.493385 83.955056 0.000000 0.000000 0.000000 0.000000 0.000000 0.000000 101.943783 -4.640535 -15.410265 -78.056217 5.834787 -15.410265 61.902838 -0.947221 -27.144812 -33.889586 -3.427419 12.773379 55.760387 4.912320 27.144812 -7.097415 0.020954 2.679134
1316.178360 595.500870 65.431425 0.000000 0.000000 0.000000 0.000000 0.000000 0.000000 103.792097 -1.781728 -18.096541 -76.207903 -4.381617 -18.096541 65.535198 3.952502 -25.329838 -28.739437 2.154325 16.074804 68.415337 0.022121 25.329838 -6.481753 -0.766501 2.408768
1302.343140 568.138025 68.111465 0.000000 0.000000 0.000000 0.000000 0.000000 0.000000 101.222717 6.892625 -19.645745 -78.777283 -11.166613 -19.645745 90.757296 -2.005566 -23.115397 -18.578033 -1.544915 19.122720 97.909038 0.520154 23.115397 -5.050134 0.097919 2.128896
1274.166183 540.660596 53.225477 0.000000 0.000000 0.000000 0.000000 0.000000 0.000000 -126.898591 1.883815 -19.960535 53.101409 -10.576588 -19.960535 127.276662 -0.126526 -20.536413 8.808645 -4.377282 21.869059 119.711272 -0.136047 20.536413 -4.115393 0.284880 1.840623
1268.557091 468.331075 47.787539 0.000000 0.000000 0.000000 0.000000 0.000000 0.000000 -124.112133 -2.036784 -19.021130 55.887867 -20.249432 -19.021130 163.344780 7.458234 -17.633558 38.476068 -4.094902 24.270510 145.889074 2.830878 17.633558 -1.929933 -0.177073 1.545085
1278.673096 454.375906 41.376420 0.000000 0.000000 0.000000 0.000000 0.000000 0.000000 -126.805061 15.662205 -16.886559 53.194939 -3.429581 -16.886559 -174.009950 -3.087892 -14.452610 27.419224 1.139433 26.289200 168.192977 -0.409755 14.452610 -0.976267 -0.148142 1.243449
1285.008774 434.700390 59.656432 0.000000 0.000000 0.000000 0.000000 0.000000 0.000000 -132.005120 -13.841215 -13.690942 47.994880 1.246170 -13.690942 -171.247775 -3.734185 -11.043737 26.625253 -1.239042 27.893295 178.805957 -2.111981 11.043737 0.023422 0.040189 0.936907
1288.157730 426.987666 54.667442 0.000000 0.000000 0.000000 0.000000 0.000000 0.000000 -123.987926 -5.765758 -9.635073 56.012074 10.621522 -9.635073 -166.356219 -3.498390 -7.460697 35.716336 -2.085180 29.057495 -172.960762 1.930480 7.460697 0.819533 0.055435 0.626666
1291.221657 420.425448 43.745555 0.000000 0.000000 0.000000 0.000000 0.000000 0.000000 -122.265643 -0.905414 -4.973798 57.734357 0.944344 -4.973798 -156.870161 -1.025116 -3.759997 38.220704 2.443092 29.763441 -165.716368 -2.141795 3.759997 1.405814 0.194758 0.313953
