HIERARCHY
ROOT Hips
{
    OFFSET 0.0 0.0 0.0
    CHANNELS 6 Xposition Yposition Zposition Zrotation Xrotation Yrotation
    JOINT Spine
    {
        OFFSET 0.0 5.0 0.0
        CHANNELS 3 Zrotation Xrotation Yrotation
        JOINT Chest
        {
            OFFSET 0.0 5.0 0.0
            CHANNELS 3 Zrotation Xrotation Yrotation
            JOINT Neck
            {
                OFFSET 0.0 8.0 0.0
                CHANNELS 3 Zrotation Xrotation Yrotation
                JOINT Head
                {
                    OFFSET 0.0 5.0 0.0
                    CHANNELS 3 Zrotation Xrotation Yrotation
                    End Site
                    {
                        OFFSET 0.0 3.0 0.0
                    }
                }
            }
            JOINT LeftShoulder
            {
                OFFSET -5.0 0.0 0.0
                CHANNELS 3 Zrotation Xrotation Yrotation
                JOINT LeftArm
                {
                    OFFSET 0.0 -10.0 0.0
                    CHANNELS 3 Zrotation Xrotation Yrotation
                    JOINT LeftForeArm
                    {
                        OFFSET 0.0 -10.0 0.0
                        CHANNELS 3 Zrotation Xrotation Yrotation
                        End Site
                        {
                            OFFSET 0.0 -3.0 0.0
                        }
                    }
                }
            }
        }
    }
}

MOTION
Frames: 300
Frame Time: 0.033333

960.000000 445.000000 117.244826 0.000000 0.000000 0.000000 0.000000 0.000000 0.000000 23.025492 33.648766 0.000000 180.000000 0.539340 0.000000 21.801409 -8.023919 -0.000000 158.198591 -6.948040 30.000000 15.945396 -5.887579 0.000000 18.000000 0.455150 0.000000
1691.525230 140.756605 110.125074 0.000000 0.000000 0.000000 0.000000 0.000000 0.000000 -163.376529 -7.162004 4.973798 16.623471 5.325677 4.973798 -171.853121 -3.825148 3.759997 99.744051 8.203217 29.763441 -171.126653 -3.908942 -3.759997 0.673538 0.418391 0.313953
1636.048050 128.802021 115.464509 0.000000 0.000000 0.000000 0.000000 0.000000 0.000000 157.904128 -18.658569 9.635073 -22.095872 44.387604 9.635073 -171.936471 -4.603027 7.460697 -143.675701 5.607515 29.057495 -173.500805 -4.292280 -7.460697 0.570999 0.464937 0.626666
1578.156967 80.474526 94.511114 0.000000 0.000000 0.000000 0.000000 0.000000 0.000000 -139.519796 -2.829064 13.690942 40.480204 -10.489484 13.690942 -174.507724 -3.274043 11.043737 119.111399 7.412622 27.893295 -173.607258 -4.494420 -11.043737 0.461920 0.406057 0.936907
960.418757 444.998421 130.414787 0.000000 0.000000 0.000000 0.000000 0.000000 0.000000 25.077893 -3.953270 16.886559 180.000000 -8.106888 16.886559 23.861935 -6.779268 14.452610 156.138065 0.988046 26.289200 17.903699 -0.579516 -14.452610 18.000000 -0.222438 1.243449
960.523360 444.997533 122.798240 0.000000 0.000000 0.000000 0.000000 0.000000 0.000000 25.638906 7.824062 19.021130 180.000000 -4.162801 19.021130 24.425035 9.659153 17.633558 155.574965 3.453790 24.270510 18.452907 -5.681610 -17.633558 18.000000 0.293556 1.545085
960.627905 444.996447 133.948552 0.000000 0.000000 0.000000 0.000000 0.000000 0.000000 26.219073 -35.343956 19.960535 180.000000 -2.082419 19.960535 25.006291 0.440213 20.536413 154.993709 -0.263916 21.869059 19.024920 6.197320 -20.536413 18.000000 -0.111418 1.840623
1126.242828 420.359820 131.264865 0.000000 0.000000 0.000000 0.000000 0.000000 0.000000 31.410514 -5.110766 19.645745 -148.589486 1.635849 19.645745 32.280463 2.152164 23.115397 -131.603972 -1.380176 19.122720 45.585331 2.376332 -23.115397 -13.449727 0.011739 2.128896
1257.895088 650.549197 158.247624 0.000000 0.000000 0.000000 0.000000 0.000000 0.000000 25.073180 -24.873904 18.096541 -154.926820 31.616261 18.096541 46.260945 -17.187175 25.329838 -154.651428 -5.000003 16.074804 27.339487 5.627946 -25.329838 -13.619892 -2.107310 2.408768
960.941083 444.992008 136.342759 0.000000 0.000000 0.000000 0.000000 0.000000 0.000000 28.072001 5.165373 15.410265 180.000000 -2.269085 15.410265 26.849221 -11.099709 27.144812 153.150779 0.295589 12.773379 20.864045 0.768811 -27.144812 18.000000 0.775984 2.679134
1163.815842 547.748709 126.438755 0.000000 0.000000 0.000000 0.000000 0.000000 0.000000 117.162728 -14.862814 11.755705 -62.837272 8.364240 11.755705 102.363764 -10.128122 28.531695 -47.376450 1.430593 9.270510 104.768601 3.402619 -28.531695 -6.003489 -0.016898 2.938926
961.149372 444.988063 148.705420 0.000000 0.000000 0.000000 0.000000 0.000000 0.000000 29.395983 37.552290 7.362491 180.000000 -19.936639 7.362491 28.146217 5.750397 29.468618 151.853783 -18.924733 5.621439 22.170006 9.167152 -29.468618 18.000000 -0.663057 3.187120
1136.717377 590.104480 138.945644 0.000000 0.000000 0.000000 0.000000 0.000000 0.000000 115.752126 2.820997 2.506665 -64.247874 4.891662 2.506665 73.638146 2.075899 29.940802 -21.842452 2.613699 1.883716 75.369282 -0.108968 -29.940802 -6.767207 -0.613830 3.422736
1163.079758 634.077559 144.973714 0.000000 0.000000 0.000000 0.000000 0.000000 0.000000 132.174340 6.088194 -2.506665 -47.825660 -8.463083 -2.506665 94.255711 0.169663 29.940802 -149.364979 -7.430852 -1.883716 30.021641 5.717141 -29.940802 -5.096180 -0.555848 3.644843
961.460830 444.980668 139.959231 0.000000 0.000000 0.000000 0.000000 0.000000 0.000000 31.497152 -33.572285 -7.362491 180.000000 16.453238 -7.362491 30.152455 -10.066233 29.468618 149.847545 -7.361656 -5.621439 24.175589 12.788990 -29.468618 18.000000 -0.208343 3.852566
1097.449951 565.089898 145.019475 0.000000 0.000000 0.000000 0.000000 0.000000 0.000000 -119.219568 2.339288 -11.755705 60.780432 -0.451307 -11.755705 -150.180642 -7.035221 28.531695 48.804955 -2.465240 -9.270510 -149.874178 -6.001545 -28.531695 2.713854 0.590358 4.045085
1114.140244 528.302071 152.173574 0.000000 0.000000 0.000000 0.000000 0.000000 0.000000 -142.671523 1.318523 -15.410265 37.328477 -0.454621 -15.410265 -177.395681 -2.070580 27.144812 34.687329 1.238540 -12.773379 161.894167 -4.255455 -27.144812 -0.910956 0.094709 4.221640
1116.433640 479.728639 124.953315 0.000000 0.000000 0.000000 0.000000 0.000000 0.000000 -102.267481 9.545488 -18.096541 77.732519 -3.575425 -18.096541 -163.695626 3.809510 25.329838 38.575767 0.241635 -16.074804 -176.001122 -0.213522 -25.329838 0.706594 -0.206943 4.381533
1135.931282 466.493965 152.700985 0.000000 0.000000 0.000000 0.000000 0.000000 0.000000 -112.868406 -12.460402 -19.645745 67.131594 3.699122 -19.645745 -159.517862 3.699840 23.115397 36.204678 1.297811 -19.122720 -154.426613 -5.932565 -23.115397 2.428729 0.591769 4.524135
1141.618767 467.420679 144.267781 0.000000 0.000000 0.000000 0.000000 0.000000 0.000000 -123.086385 -9.200735 -19.960535 56.913615 9.298372 -19.960535 -154.885724 -6.859185 20.536413 36.481623 3.852633 -21.869059 -153.965441 -6.477789 -20.536413 2.446728 0.535330 4.648882
1150.647926 469.370956 156.753571 0.000000 0.000000 0.000000 0.000000 0.000000 0.000000 -43.953779 8.614149 -19.021130 136.046221 5.694463 -19.021130 -154.327268 -7.102009 17.633558 60.745168 -1.811762 -24.270510 -153.350642 -6.421305 -17.633558 2.386216 0.591618 4.755283
1151.529922 496.420240 135.029314 0.000000 0.000000 0.000000 0.000000 0.000000 0.000000 -116.362129 -5.029382 -16.886559 63.637871 1.081237 -16.886559 -149.081043 7.089881 14.452610 35.941860 0.474306 -26.289200 -156.847177 0.863009 -14.452610 2.056513 0.019713 4.842916
1148.402367 515.713574 141.333206 0.000000 0.000000 0.000000 0.000000 0.000000 0.000000 -118.252650 -2.217612 -13.690942 61.747350 5.228553 -13.690942 -138.082896 -1.041131 11.043737 -156.312677 -6.746716 -27.893295 21.649626 9.483558 -11.043737 2.962417 0.100428 4.911436
1175.363617 533.368646 120.387835 0.000000 0.000000 0.000000 0.000000 0.000000 0.000000 -95.476638 21.992973 -9.635073 84.523362 -7.357303 -9.635073 -113.907461 -2.144052 7.460697 -155.995907 -7.384838 -29.057495 12.512064 8.606240 -7.460697 -16.748794 -0.860624 4.960574
1199.533310 485.991104 151.698662 0.000000 0.000000 0.000000 0.000000 0.000000 0.000000 -100.003195 -0.866218 -4.973798 79.996805 2.597808 -4.973798 -86.083188 -2.958250 3.759997 38.843754 -0.237528 -29.763441 -106.539452 0.974802 -3.759997 6.197806 -0.213416 4.990134
962.588190 444.938442 133.261239 0.000000 0.000000 0.000000 0.000000 0.000000 0.000000 39.579754 51.677063 -0.000000 180.000000 -3.307325 -0.000000 36.680773 2.403869 0.000000 143.319227 15.866444 -30.000000 29.388385 -17.734623 -0.000000 18.000000 1.198645 5.000000
1142.094727 445.716287 146.285818 0.000000 0.000000 0.000000 0.000000 0.000000 0.000000 -140.228454 6.291133 4.973798 39.771546 3.133250 4.973798 -156.118008 -6.054658 -3.759997 3.479189 -18.123787 -29.763441 -158.005660 -4.208662 3.759997 2.150019 0.522213 4.990134
1164.005928 424.847746 108.604591 0.000000 0.000000 0.000000 0.000000 0.000000 0.000000 -84.241076 -2.846344 9.635073 95.758924 25.697741 9.635073 -156.181584 -5.824758 -7.460697 166.928360 4.517692 -29.057495 -154.947270 -5.922167 7.460697 2.644196 0.556062 4.960574
1124.208755 418.286655 120.502344 0.000000 0.000000 0.000000 0.000000 0.000000 0.000000 -117.427077 6.275723 13.690942 62.572923 -7.178856 13.690942 -155.943063 -5.752873 -11.043737 14.023837 -8.149783 -27.893295 -157.382674 -5.437578 11.043737 2.188130 0.520054 4.911436
962.990408 444.917226 96.703296 0.000000 0.000000 0.000000 0.000000 0.000000 0.000000 42.110883 -11.073646 16.886559 180.000000 25.624944 16.886559 37.946959 -11.043430 -14.452610 142.053041 9.654284 -26.289200 29.293612 -2.190610 14.452610 18.000000 -0.158774 4.842916
963.090170 444.911436 105.284300 0.000000 0.000000 0.000000 0.000000 0.000000 0.000000 42.659200 10.801509 19.021130 180.000000 -36.916871 19.021130 38.119107 -2.605061 -17.633558 141.880893 -10.491605 -24.270510 29.068887 4.373005 17.633558 18.000000 -0.141633 4.755283
1186.646461 396.272757 103.457635 0.000000 0.000000 0.000000 0.000000 0.000000 0.000000 -72.847419 -10.246166 19.960535 107.152581 18.516379 19.960535 -156.703603 -5.252676 -20.536413 178.447294 5.982884 -21.869059 -157.212393 -5.295395 20.536413 1.964058 0.412350 4.648882
1313.051605 426.636125 103.383037 0.000000 0.000000 0.000000 0.000000 0.000000 0.000000 90.994869 8.287871 19.645745 -89.005131 9.789992 19.645745 -160.515303 -4.574416 -23.115397 -153.248861 -4.806791 -19.122720 -159.640525 -4.152603 23.115397 0.000000 0.000000 0.000000
1347.999344 420.772226 94.900107 0.000000 0.000000 0.000000 0.000000 0.000000 0.000000 90.154351 6.804298 18.096541 -89.845649 -1.261323 18.096541 -162.053401 -4.345093 -25.329838 -136.198880 0.329929 -16.074804 -160.991694 -5.135956 25.329838 0.000000 0.000000 0.000000
1344.315948 421.031681 88.486947 0.000000 0.000000 0.000000 0.000000 0.000000 0.000000 69.757587 -2.632867 15.410265 -110.242413 -1.468501 15.410265 25.616746 0.194632 -27.144812 -157.821005 -3.989197 -12.773379 17.214985 2.821064 27.144812 -16.704706 -0.013100 4.221640
1350.307617 440.309436 82.399490 0.000000 0.000000 0.000000 0.000000 0.000000 0.000000 71.124018 -21.634027 11.755705 -108.875982 8.133559 11.755705 42.739987 0.479871 -28.531695 -142.315466 4.964989 -9.270510 16.600926 0.493560 28.531695 -16.660102 0.021420 4.045085
1357.685051 430.688889 61.969819 0.000000 0.000000 0.000000 0.000000 0.000000 0.000000 77.656077 15.029629 7.362491 -102.343923 3.306205 7.362491 39.407151 2.506226 -29.468618 -136.343173 -1.287044 -5.621439 22.144452 2.730085 29.468618 -16.305135 -0.443294 3.852566
1369.482193 445.909406 60.645827 0.000000 0.000000 0.000000 0.000000 0.000000 0.000000 88.051188 -0.480791 2.506665 -91.948812 4.641984 2.506665 -161.283973 -3.046500 -29.940802 -119.799169 -2.931037 -1.883716 -164.575400 -2.588642 29.940802 1.401013 0.504683 3.644843
963.875156 444.858159 73.130842 0.000000 0.000000 0.000000 0.000000 0.000000 0.000000 45.304844 13.272553 -2.506665 180.000000 28.746392 -2.506665 37.252439 1.205411 -29.940802 142.747561 12.906482 1.883716 25.146244 8.173272 29.940802 18.000000 -1.142511 3.422736
963.971479 444.850633 53.668079 0.000000 0.000000 0.000000 0.000000 0.000000 0.000000 45.383640 3.761642 -7.362491 180.000000 1.649701 -7.362491 36.882310 0.909948 -29.468618 143.117690 -12.865262 5.621439 24.499789 7.251252 29.468618 18.000000 0.168092 3.187120
1336.629524 469.010178 71.005075 0.000000 0.000000 0.000000 0.000000 0.000000 0.000000 -72.390177 -10.742272 -11.755705 107.609823 -12.177822 -11.755705 -158.649984 -2.167945 -28.531695 2.583425 2.455876 9.270510 -39.658551 6.929077 28.531695 10.837181 -1.718772 2.938926
1311.966934 518.219100 58.993316 0.000000 0.000000 0.000000 0.000000 0.000000 0.000000 -63.565072 46.666227 -15.410265 116.434928 35.306281 -15.410265 -14.840750 -14.231129 -27.144812 -158.549348 -2.865295 12.773379 17.488774 2.556939 27.144812 7.174982 -3.504341 2.679134
964.257793 444.826908 71.227012 0.000000 0.000000 0.000000 0.000000 0.000000 0.000000 45.262206 -12.039710 -18.096541 180.000000 -0.299268 -18.096541 35.497192 0.512660 -25.329838 144.502808 7.477622 16.074804 22.522929 -2.734725 25.329838 18.000000 0.610011 2.408768
1275.921364 516.836239 60.694278 0.000000 0.000000 0.000000 0.000000 0.000000 0.000000 85.186295 8.506170 -19.645745 -94.813705 -6.844438 -19.645745 52.470689 -0.189089 -23.115397 -44.513683 -4.218616 19.122720 50.867598 0.191478 23.115397 -8.717188 0.641243 2.128896
1263.254128 546.875424 46.055627 0.000000 0.000000 0.000000 0.000000 0.000000 0.000000 34.848242 26.845645 -19.960535 -145.151758 -12.075491 -19.960535 42.487561 36.034791 -20.536413 -157.415675 -2.170117 21.869059 22.420880 2.637713 20.536413 -15.757912 -0.263771 1.840623
1258.788185 528.263061 40.110253 0.000000 0.000000 0.000000 0.000000 0.000000 0.000000 118.326865 27.102320 -19.021130 -61.673135 -19.398711 -19.021130 143.214759 1.616242 -17.633558 -156.228306 -2.577856 24.270510 28.173554 2.259764 17.633558 -15.182645 -0.225976 1.545085
1231.492081 471.383836 33.490571 0.000000 0.000000 0.000000 0.000000 0.000000 0.000000 -115.049381 35.239403 -16.886559 64.950619 -4.840947 -16.886559 172.843704 2.549321 -14.452610 -157.842300 -2.483665 26.289200 32.851042 2.949187 14.452610 -14.714896 -0.294919 1.243449
1223.928795 435.993515 40.670168 0.000000 0.000000 0.000000 0.000000 0.000000 0.000000 -115.322532 0.565170 -13.690942 64.677468 20.343940 -13.690942 -168.597862 -1.360838 -11.043737 -158.853816 -1.839369 27.893295 31.099266 2.162985 11.043737 -14.890073 -0.216298 0.936907
1223.669701 418.195664 50.873460 0.000000 0.000000 0.000000 0.000000 0.000000 0.000000 -102.084053 -1.278216 -9.635073 77.915947 1.598429 -9.635073 -171.103858 3.358762 -7.460697 162.056334 5.486818 29.057495 -153.594437 -3.109362 7.460697 2.968481 0.312381 0.626666
1216.486244 414.503002 51.936604 0.000000 0.000000 0.000000 0.000000 0.000000 0.000000 69.261091 20.380677 -4.973798 -110.738909 0.900477 -4.973798 -158.083722 -2.945542 -3.759997 -173.244581 0.923796 29.763441 -154.635509 -3.523279 3.759997 2.928763 0.289490 0.313953
1212.090225 434.550980 44.172067 0.000000 0.000000 0.000000 0.000000 0.000000 0.000000 -112.403932 -31.427620 0.000000 67.596068 34.779412 0.000000 -157.060799 -2.722291 -0.000000 173.400765 9.485852 30.000000 -154.473580 -3.176829 0.000000 2.734633 0.208465 0.000000
1214.024734 450.340490 40.421791 0.000000 0.000000 0.000000 0.000000 0.000000 0.000000 -110.634751 13.308052 4.973798 69.365249 -2.951093 4.973798 -137.583343 -0.116349 3.759997 -158.589698 -2.634131 29.763441 20.879446 3.238144 -3.759997 -15.912055 -0.323814 0.313953
1204.271393 440.192921 54.860198 0.000000 0.000000 0.000000 0.000000 0.000000 0.000000 -99.498286 -11.442718 9.635073 80.501714 13.805896 9.635073 -156.696469 -2.321930 7.460697 -178.487725 8.104868 29.057495 -157.318323 -2.398173 -7.460697 2.108583 0.279576 0.626666
965.269558 444.725315 62.065606 0.000000 0.000000 0.000000 0.000000 0.000000 0.000000 40.845461 -31.689855 13.690942 180.000000 15.980814 13.690942 28.615377 -9.754601 11.043737 151.384623 11.400877 27.893295 16.305092 -3.115455 -11.043737 18.000000 0.450257 0.936907
1182.456551 475.103824 57.892475 0.000000 0.000000 0.000000 0.000000 0.000000 0.000000 -168.146016 -79.229959 16.886559 11.853984 76.807861 16.886559 -63.802645 2.722443 14.452610 -61.114510 8.529292 26.289200 -47.869281 -3.336895 -14.452610 -13.834956 8.044474 1.243449
965.446390 444.704404 73.483174 0.000000 0.000000 0.000000 0.000000 0.000000 0.000000 39.578146 20.272771 19.021130 180.000000 -14.092971 19.021130 27.338029 6.110010 17.633558 152.661971 -0.092468 24.270510 15.463180 -2.596120 -17.633558 18.000000 0.714846 1.545085
965.533915 444.693669 74.112957 0.000000 0.000000 0.000000 0.000000 0.000000 0.000000 38.916706 -55.408179 19.960535 180.000000 20.434877 19.960535 26.716768 -0.004895 20.536413 153.283232 5.042470 21.869059 15.076605 1.697066 -20.536413 18.000000 -0.034524 1.840623
965.620834 444.682749 63.645758 0.000000 0.000000 0.000000 0.000000 0.000000 0.000000 38.241653 -36.833105 19.645745 180.000000 -11.986902 19.645745 26.109467 5.490979 23.115397 153.890533 -11.112916 19.122720 14.712258 9.588433 -23.115397 18.000000 -0.401250 2.128896
965.707136 444.671645 86.831779 0.000000 0.000000 0.000000 0.000000 0.000000 0.000000 37.556504 -25.395278 18.096541 180.000000 -16.000923 18.096541 25.517536 2.689971 25.329838 154.482464 4.740322 16.074804 14.369537 -4.506754 -25.329838 18.000000 0.070583 2.408768
965.792812 444.660356 90.208687 0.000000 0.000000 0.000000 0.000000 0.000000 0.000000 36.864608 29.878027 15.410265 180.000000 23.789653 15.410265 24.942131 -4.321557 27.144812 155.057869 9.381471 12.773379 14.047797 -4.826313 -27.144812 18.000000 0.774209 2.679134
965.877853 444.648882 107.023389 0.000000 0.000000 0.000000 0.000000 0.000000 0.000000 36.169118 4.416393 11.755705 180.000000 7.857568 11.755705 24.384173 -4.485620 28.531695 155.615827 5.858283 9.270510 13.746367 -8.699545 -28.531695 18.000000 0.243133 2.938926
965.962249 444.637226 90.402108 0.000000 0.000000 0.000000 0.000000 0.000000 0.000000 35.472980 -8.161928 7.362491 180.000000 -22.582569 7.362491 23.844373 17.079814 29.468618 156.155627 -9.020315 5.621439 13.464570 2.594835 -29.468618 18.000000 0.321212 3.187120
966.045991 444.625386 80.746263 0.000000 0.000000 0.000000 0.000000 0.000000 0.000000 34.778913 19.565088 2.506665 180.000000 -19.679704 2.506665 23.323250 10.882634 29.940802 156.676750 -4.888025 1.883716 13.201728 -1.071222 -29.940802 18.000000 0.376976 3.422736
966.129071 444.613364 108.321984 0.000000 0.000000 0.000000 0.000000 0.000000 0.000000 34.089406 -1.338744 -2.506665 180.000000 -1.820250 -2.506665 22.821158 4.041025 29.940802 157.178842 0.345294 -1.883716 12.957175 1.794486 -29.940802 18.000000 -0.289048 3.644843
966.211478 444.601159 102.135846 0.000000 0.000000 0.000000 0.000000 0.000000 0.000000 33.406712 19.384720 -7.362491 180.000000 -7.240300 -7.362491 22.338307 6.049849 29.468618 157.661693 4.332580 -5.621439 12.730264 -4.934389 -29.468618 18.000000 0.421897 3.852566
1171.486244 534.946783 102.083484 0.000000 0.000000 0.000000 0.000000 0.000000 0.000000 70.594720 -4.818272 -11.755705 -109.405280 10.515864 -11.755705 49.953444 -5.015907 28.531695 -151.467583 -4.387732 -9.270510 0.000000 0.000000 0.000000 0.000000 0.000000 0.000000
966.374240 444.576206 126.026868 0.000000 0.000000 0.000000 0.000000 0.000000 0.000000 32.069603 -25.070733 -15.410265 180.000000 14.221022 -15.410265 21.430544 -1.826243 27.144812 158.569456 -1.809128 -12.773379 12.326901 5.548706 -27.144812 18.000000 -0.499936 4.221640
1172.156410 555.047708 135.658755 0.000000 0.000000 0.000000 0.000000 0.000000 0.000000 -121.065102 4.762789 -18.096541 58.934898 -2.806320 -18.096541 -151.641456 -5.900522 25.329838 -177.360623 0.789669 -16.074804 -149.076048 -7.047968 -25.329838 0.000000 0.000000 0.000000
1161.826630 552.360713 135.169068 0.000000 0.000000 0.000000 0.000000 0.000000 0.000000 69.958407 64.021533 -19.645745 -110.041593 -66.722005 -19.645745 -152.437496 -5.312147 23.115397 -158.790607 -8.119475 -19.122720 -150.591725 -7.148414 -23.115397 3.219062 0.802571 4.524135
1165.827255 569.832902 121.224322 0.000000 0.000000 0.000000 0.000000 0.000000 0.000000 25.594208 -17.950515 -19.960535 -154.405792 -4.778768 -19.960535 11.723883 11.708339 20.536413 -161.543160 3.410672 -21.869059 7.769582 0.482764 -20.536413 -17.248199 0.065178 4.648882
1165.555573 565.067046 133.945355 0.000000 0.000000 0.000000 0.000000 0.000000 0.000000 43.355707 4.029782 -19.021130 -136.644293 2.403695 -19.021130 15.984329 -1.704932 17.633558 -140.773833 -1.349209 -24.270510 13.679449 0.225798 -17.633558 -16.392157 -0.082586 4.755283
1290.255775 608.533316 140.314300 0.000000 0.000000 0.000000 0.000000 0.000000 0.000000 -153.952071 3.618570 -16.886559 26.047929 -7.376234 -16.886559 -152.683807 -5.425613 14.452610 4.794196 2.883077 -26.289200 -154.287190 -5.731911 -14.452610 2.418080 0.528788 4.842916
1180.398903 551.817470 133.504841 0.000000 0.000000 0.000000 0.000000 0.000000 0.000000 51.640104 -7.052657 -13.690942 -128.359896 17.906045 -13.690942 14.419400 -10.966255 11.043737 -33.521359 2.938431 -27.893295 -34.277510 -4.060872 -11.043737 5.235387 1.570869 4.911436
1162.708626 619.419501 140.327065 0.000000 0.000000 0.000000 0.000000 0.000000 0.000000 -88.968325 -9.454347 -9.635073 91.031675 13.710217 -9.635073 -52.690088 2.669756 7.460697 25.015222 -2.857558 -29.057495 -72.561734 2.299438 -7.460697 8.557489 -0.196981 4.960574
1110.899391 602.919216 161.480252 0.000000 0.000000 0.000000 0.000000 0.000000 0.000000 -86.972237 12.219410 -4.973798 93.027763 -17.436804 -4.973798 -39.551144 11.052478 3.759997 34.838085 -5.099497 -29.763441 -44.185810 1.836785 -3.759997 10.000609 0.698675 4.990134
1150.187302 553.686991 156.045543 0.000000 0.000000 0.000000 0.000000 0.000000 0.000000 -116.065142 4.471708 -0.000000 63.934858 -21.811003 -0.000000 -151.059314 -5.916859 0.000000 -0.492058 -0.689397 -30.000000 -14.044098 10.554123 -0.000000 1.929760 -0.910930 5.000000
967.144727 444.440682 160.020615 0.000000 0.000000 0.000000 0.000000 0.000000 0.000000 26.270296 19.770989 4.973798 180.000000 -6.162344 4.973798 17.996647 0.698824 -3.759997 162.003353 -8.851116 -29.763441 11.189167 1.371149 3.759997 18.000000 -0.184258 4.990134
1213.452644 620.002785 132.879828 0.000000 0.000000 0.000000 0.000000 0.000000 0.000000 140.390379 10.985876 9.635073 -39.609621 36.034872 9.635073 77.724607 -24.788337 -7.460697 -153.982965 -6.491001 -29.057495 24.142749 5.501497 7.460697 -0.833727 0.161219 4.960574
1124.373779 618.464527 152.879734 0.000000 0.000000 0.000000 0.000000 0.000000 0.000000 99.329635 1.214599 13.690942 -80.670365 -9.427186 13.690942 85.960927 9.500936 -11.043737 -150.875293 -7.223320 -27.893295 31.644098 6.069591 11.043737 -14.835590 -0.606959 4.911436
967.360971 444.396582 138.244858 0.000000 0.000000 0.000000 0.000000 0.000000 0.000000 24.874716 3.357397 16.886559 180.000000 -3.690049 16.886559 17.291102 -0.676495 -14.452610 162.708898 0.798456 -26.289200 11.098846 1.838921 14.452610 18.000000 0.161822 4.842916
1107.875175 542.453964 154.015758 0.000000 0.000000 0.000000 0.000000 0.000000 0.000000 -128.741314 -0.442297 19.021130 51.258686 4.302306 19.021130 -177.225595 -4.717131 -17.633558 19.954750 5.033379 -24.270510 162.677362 -4.258248 17.633558 -1.443098 0.173887 4.755283
1119.652290 522.766346 162.533282 0.000000 0.000000 0.000000 0.000000 0.000000 0.000000 -99.017754 -6.854578 19.960535 80.982246 -1.299464 19.960535 -150.289603 -6.804393 -20.536413 -152.613833 -7.084521 -21.869059 0.000000 0.000000 0.000000 0.000000 0.000000 0.000000
1132.908783 538.229613 152.256621 0.000000 0.000000 0.000000 0.000000 0.000000 0.000000 -127.874185 6.273237 19.645745 52.125815 -2.342241 19.645745 -165.450188 0.646811 -23.115397 -152.521515 -7.625943 -19.122720 40.606225 8.575077 23.115397 -13.939378 -0.857508 4.524135
1146.969337 541.828065 150.048700 0.000000 0.000000 0.000000 0.000000 0.000000 0.000000 -113.631604 -1.781331 18.096541 66.368396 -6.787806 18.096541 -159.067475 3.480578 -25.329838 113.981862 -0.737082 -16.074804 -145.449815 -6.990877 25.329838 0.000000 0.000000 0.000000
1165.252304 561.329677 141.733340 0.000000 0.000000 0.000000 0.000000 0.000000 0.000000 -112.861399 -5.704565 15.410265 67.138601 -0.150332 15.410265 -159.396543 -0.302777 -27.144812 -151.967552 -6.540460 -12.773379 38.422588 8.065535 27.144812 -14.157741 -0.806554 4.221640
1174.726181 592.839689 147.603983 0.000000 0.000000 0.000000 0.000000 0.000000 0.000000 -110.369899 -5.202406 11.755705 69.630101 5.961561 11.755705 -148.108768 -1.836139 -28.531695 -151.515612 -6.355915 -9.270510 34.277732 9.689619 28.531695 -14.572227 -0.968962 4.045085
1167.352524 605.194867 134.415856 0.000000 0.000000 0.000000 0.000000 0.000000 0.000000 -113.828445 2.163728 7.362491 66.171555 11.113234 7.362491 -131.688453 -0.347212 -29.468618 -151.045756 -5.874142 -5.621439 27.200835 8.922101 29.468618 -15.279916 -0.892210 3.852566
1139.678879 602.981014 139.180041 0.000000 0.000000 0.000000 0.000000 0.000000 0.000000 -97.599684 -43.136042 2.506665 82.400316 50.474733 2.506665 -113.965806 -12.005368 -29.940802 -121.058781 4.679024 -1.883716 -118.492407 2.449661 29.940802 10.137620 -3.391541 3.644843
1165.830002 580.020189 124.039409 0.000000 0.000000 0.000000 0.000000 0.000000 0.000000 -28.085052 22.812696 -2.506665 151.914948 -16.607737 -2.506665 -150.589103 -5.810038 -29.940802 -172.678414 2.234627 1.883716 -149.717924 -6.821183 29.940802 0.000000 0.000000 0.000000
1184.501953 619.872494 139.671464 0.000000 0.000000 0.000000 0.000000 0.000000 0.000000 -113.790307 -6.913896 -7.362491 66.209693 -15.622930 -7.362491 -59.272274 7.267077 -29.468618 29.476823 -3.117036 5.621439 -88.148483 -2.115563 29.468618 7.414604 -0.060929 3.187120
968.090170 444.221640 132.284488 0.000000 0.000000 0.000000 0.000000 0.000000 0.000000 21.092887 -1.286653 -11.755705 180.000000 -6.441088 -11.755705 15.757771 7.184862 -28.531695 164.242229 -9.253017 9.270510 11.678908 9.595972 28.531695 18.000000 -0.048693 2.938926
968.151278 444.204723 117.376657 0.000000 0.000000 0.000000 0.000000 0.000000 0.000000 20.844337 0.532830 -15.410265 180.000000 -2.554986 -15.410265 15.691895 4.693247 -27.144812 164.308105 -1.526013 12.773379 11.804629 4.650533 27.144812 18.000000 -0.010094 2.679134
968.211492 444.187640 100.569794 0.000000 0.000000 0.000000 0.000000 0.000000 0.000000 20.610265 -13.993558 -18.096541 180.000000 4.821005 -18.096541 15.637361 -8.346096 -25.329838 164.362639 -1.493486 16.074804 11.943263 2.833963 25.329838 18.000000 -0.056694 2.408768
968.270806 444.170392 103.074478 0.000000 0.000000 0.000000 0.000000 0.000000 0.000000 20.390366 -29.521133 -19.645745 180.000000 12.756845 -19.645745 15.594026 -6.884547 -23.115397 164.405974 2.066124 19.122720 12.095062 1.754070 23.115397 18.000000 -0.257106 2.128896
968.329212 444.152979 109.961824 0.000000 0.000000 0.000000 0.000000 0.000000 0.000000 20.184343 27.164181 -19.960535 180.000000 9.475377 -19.960535 15.561766 -8.924121 -20.536413 164.438234 -9.044383 21.869059 12.260289 3.671224 20.536413 18.000000 0.672250 1.840623
968.386706 444.135403 106.303633 0.000000 0.000000 0.000000 0.000000 0.000000 0.000000 19.991916 -11.395322 -19.021130 180.000000 -2.856062 -19.021130 15.540476 3.567747 -17.633558 164.459524 11.724736 24.270510 12.439222 -7.498066 17.633558 18.000000 0.408844 1.545085
968.443279 444.117663 87.370783 0.000000 0.000000 0.000000 0.000000 0.000000 0.000000 19.812814 -12.885210 -16.886559 180.000000 -7.638734 -16.886559 15.530069 5.149204 -14.452610 164.469931 -0.465990 26.289200 12.632146 0.235779 14.452610 18.000000 0.121002 1.243449
968.498927 444.099761 90.313175 0.000000 0.000000 0.000000 0.000000 0.000000 0.000000 19.646785 6.012968 -13.690942 180.000000 -1.308435 -13.690942 15.530474 -0.506938 -11.043737 164.469526 2.136333 27.893295 12.839349 -3.356882 11.043737 18.000000 -0.204456 0.936907
968.553643 444.081696 78.673063 0.000000 0.000000 0.000000 0.000000 0.000000 0.000000 19.493591 9.275053 -9.635073 180.000000 -1.263019 -9.635073 15.541640 -7.032397 -7.460697 164.458360 -4.253635 29.057495 13.061119 4.105185 7.460697 18.000000 -0.516647 0.626666
1051.772690 653.004448 77.313196 0.000000 0.000000 0.000000 0.000000 0.000000 0.000000 -79.007834 -12.217620 -4.973798 100.992166 -5.314915 -4.973798 -126.715299 4.625157 -3.759997 -149.991181 -3.753574 29.763441 31.772279 5.312666 3.759997 -14.822772 -0.531267 0.313953
1061.669197 624.716241 83.634266 0.000000 0.000000 0.000000 0.000000 0.000000 0.000000 -94.718359 14.648129 0.000000 85.281641 3.438352 0.000000 -144.150484 -3.071532 -0.000000 60.155085 -10.115861 30.000000 -152.711462 -1.201576 0.000000 1.815393 0.163010 0.000000
1072.053337 571.032879 56.866624 0.000000 0.000000 0.000000 0.000000 0.000000 0.000000 71.424080 -9.983258 4.973798 -108.575920 -4.092734 4.973798 -149.042361 -3.548525 3.759997 -149.913636 -5.114663 29.763441 -145.792107 -3.265085 -3.759997 3.947623 0.506734 0.313953
1070.057373 572.884376 79.015560 0.000000 0.000000 0.000000 0.000000 0.000000 0.000000 -80.850201 -5.832859 9.635073 99.149799 -14.176767 9.635073 -147.567525 -3.466942 7.460697 -164.443014 -3.519740 29.057495 -145.447997 -3.752029 -7.460697 4.032371 0.502126 0.626666
968.813035 443.988972 69.724650 0.000000 0.000000 0.000000 0.000000 0.000000 0.000000 18.912944 -7.079427 13.690942 180.000000 5.415430 13.690942 15.758200 -7.548950 11.043737 164.241800 4.456342 27.893295 14.397395 2.620563 -11.043737 18.000000 -0.210191 0.936907
968.862036 443.969952 35.905290 0.000000 0.000000 0.000000 0.000000 0.000000 0.000000 18.832684 2.937966 16.886559 180.000000 1.028839 16.886559 15.833735 -0.754548 14.452610 164.166265 4.370338 26.289200 14.711463 -4.219914 -14.452610 18.000000 -0.460659 1.243449
968.910065 443.950775 74.405128 0.000000 0.000000 0.000000 0.000000 0.000000 0.000000 18.764066 27.385440 19.021130 180.000000 -10.985319 19.021130 15.920102 3.947198 17.633558 164.079898 -11.428043 24.270510 15.041323 2.090996 -17.633558 18.000000 0.709707 1.545085
968.957118 443.931442 55.688643 0.000000 0.000000 0.000000 0.000000 0.000000 0.000000 18.706990 13.709700 19.960535 180.000000 0.868178 19.960535 16.017366 0.117814 20.536413 163.982634 -2.222922 21.869059 15.386894 -3.572102 -20.536413 18.000000 -0.275018 1.840623
969.003188 443.911954 55.108842 0.000000 0.000000 0.000000 0.000000 0.000000 0.000000 18.661377 14.173653 19.645745 180.000000 -2.905670 19.645745 16.125602 -7.371254 23.115397 163.874398 -9.765443 19.122720 15.747980 0.664740 -23.115397 18.000000 1.050940 2.128896
969.048271 443.892312 42.819529 0.000000 0.000000 0.000000 0.000000 0.000000 0.000000 18.627165 1.577405 18.096541 180.000000 7.685032 18.096541 16.244896 0.013592 25.329838 163.755104 -0.879305 16.074804 16.124252 4.706517 -25.329838 18.000000 0.308333 2.408768
969.092361 443.872515 46.197014 0.000000 0.000000 0.000000 0.000000 0.000000 0.000000 18.604312 4.167338 15.410265 180.000000 -6.867574 15.410265 16.375340 -0.957863 27.144812 163.624660 -3.047983 12.773379 16.515224 2.957762 -27.144812 18.000000 0.041797 2.679134
1055.186234 577.357593 34.018534 0.000000 0.000000 0.000000 0.000000 0.000000 0.000000 85.510211 1.911138 11.755705 -94.489789 1.382328 11.755705 37.103410 -0.807415 28.531695 -148.111343 -2.634993 9.270510 24.294182 1.900711 -28.531695 -8.601915 1.005967 2.938926
1122.856522 566.714029 60.419723 0.000000 0.000000 0.000000 0.000000 0.000000 0.000000 96.216240 9.897318 7.362491 -83.783760 -7.306558 7.362491 46.189625 -0.886638 29.468618 -149.396962 -2.881982 5.621439 24.670091 2.452061 -29.468618 -7.107716 -1.372473 3.187120
969.218632 443.812213 27.794172 0.000000 0.000000 0.000000 0.000000 0.000000 0.000000 18.603763 -11.285441 2.506665 180.000000 7.251720 2.506665 16.834613 -4.699031 29.940802 163.165387 6.309890 1.883716 17.768624 -4.161697 -29.940802 18.000000 0.174739 3.422736
1112.757797 605.798106 40.055039 0.000000 0.000000 0.000000 0.000000 0.000000 0.000000 110.914625 7.444996 -2.506665 -69.085375 16.150737 -2.506665 67.769469 -14.860485 29.940802 -149.822316 -2.589715 -1.883716 29.049901 2.982027 -29.940802 -3.625079 -0.468250 3.644843
1086.733246 592.557156 53.926417 0.000000 0.000000 0.000000 0.000000 0.000000 0.000000 -80.132323 64.262926 -7.362491 99.867677 -46.534081 -7.362491 36.201564 3.803472 29.468618 -13.679556 -1.682935 -5.621439 78.049842 -2.905129 -29.468618 -5.127460 -0.102485 3.852566
1081.109390 570.394492 60.426639 0.000000 0.000000 0.000000 0.000000 0.000000 0.000000 -175.864613 -3.474887 -11.755705 4.135387 -13.781748 -11.755705 134.713876 3.124650 28.531695 -10.005873 -3.728974 -9.270510 135.737755 -0.409591 -28.531695 -3.389365 0.279356 4.045085
1089.776802 536.594539 61.943549 0.000000 0.000000 0.000000 0.000000 0.000000 0.000000 -139.033903 -10.466753 -15.410265 40.966097 15.122829 -15.410265 161.695972 -2.338622 27.144812 3.114398 5.284323 -12.773379 148.805610 0.160409 -27.144812 -2.611636 0.071635 4.221640
1114.282036 523.965647 55.166290 0.000000 0.000000 0.000000 0.000000 0.000000 0.000000 -156.073983 7.760781 -18.096541 23.926017 -9.952471 -18.096541 174.825807 -0.512747 25.329838 5.093343 -0.467502 -16.074804 161.266817 -2.929084 -25.329838 -1.814366 0.061978 4.381533
1122.145157 503.425248 68.678164 0.000000 0.000000 0.000000 0.000000 0.000000 0.000000 -144.538174 8.412580 -19.645745 35.461826 -25.561109 -19.645745 174.215003 6.378156 23.115397 -151.750905 -3.943547 -19.122720 43.887064 4.745702 -23.115397 -13.611294 -0.474570 4.524135
1134.158249 484.688419 63.226623 0.000000 0.000000 0.000000 0.000000 0.000000 0.000000 -142.311443 5.763040 -19.960535 37.688557 9.820275 -19.960535 -174.407776 -1.899159 20.536413 14.121014 1.073669 -21.869059 176.737053 0.772320 -20.536413 -0.386439 -0.129381 4.648882
1156.756668 500.025387 74.263551 0.000000 0.000000 0.000000 0.000000 0.000000 0.000000 -140.140767 10.871979 -19.021130 39.859233 -14.052751 -19.021130 -176.866589 -1.699302 17.633558 -153.177991 -4.294180 -24.270510 40.555680 4.567501 -17.633558 -13.944432 -0.456750 4.755283
1163.818588 490.292573 75.135460 0.000000 0.000000 0.000000 0.000000 0.000000 0.000000 -126.918075 17.078881 -16.886559 53.081925 -21.760238 -16.886559 -163.374411 7.011938 14.452610 -153.952175 -4.836633 -26.289200 36.914642 5.050029 -14.452610 0.798233 0.005191 4.842916
1176.523705 490.346003 80.300222 0.000000 0.000000 0.000000 0.000000 0.000000 0.000000 -130.072590 8.232157 -13.690942 49.927410 -7.339898 -13.690942 -150.224616 -1.554992 11.043737 24.749952 -0.516908 -27.893295 -162.219632 -1.985469 -11.043737 1.550269 0.034460 4.911436
1165.045052 489.521159 87.911230 0.000000 0.000000 0.000000 0.000000 0.000000 0.000000 -134.421293 2.261314 -9.635073 45.578707 -1.456866 -9.635073 -138.114962 -4.027861 7.460697 20.347125 -0.395279 -29.057495 -149.675125 -1.498534 -7.460697 1.919618 0.082031 4.960574
1186.003189 485.341580 93.228984 0.000000 0.000000 0.000000 0.000000 0.000000 0.000000 151.263424 -76.769310 -4.973798 -28.736576 -55.382286 -4.973798 -155.571724 -3.762164 3.759997 -114.944239 8.353969 -29.763441 -157.446860 -4.531056 -3.759997 2.096391 0.408998 4.990134
1190.285912 497.609435 110.937394 0.000000 0.000000 0.000000 0.000000 0.000000 0.000000 -104.331435 31.380860 -0.000000 75.668565 -3.567491 -0.000000 -153.934692 -4.773486 0.000000 -67.465008 0.658543 -30.000000 -71.629168 -5.454826 -0.000000 -13.965204 8.497993 5.000000
846.875610 502.341399 105.207321 0.000000 0.000000 0.000000 0.000000 0.000000 0.000000 -153.358185 0.602498 4.973798 26.641815 -21.136503 4.973798 -147.628169 -4.853759 -3.759997 -147.401289 -5.914781 -29.763441 0.000000 0.000000 0.000000 0.000000 0.000000 0.000000
969.711343 443.490827 116.242579 0.000000 0.000000 0.000000 0.000000 0.000000 0.000000 20.204512 25.580835 9.635073 180.000000 -15.320401 9.635073 20.733157 10.993474 -7.460697 159.266843 -11.322011 -29.057495 24.065833 -1.292409 7.460697 18.000000 0.373829 4.960574
969.735789 443.468267 101.296082 0.000000 0.000000 0.000000 0.000000 0.000000 0.000000 20.415894 14.776877 13.690942 180.000000 -7.602059 13.690942 21.087741 11.236453 -11.043737 158.912259 1.114772 -27.893295 24.320336 9.150207 11.043737 18.000000 -1.355802 4.911436
969.759168 443.445569 112.914206 0.000000 0.000000 0.000000 0.000000 0.000000 0.000000 20.642061 11.896293 16.886559 180.000000 -4.195472 16.886559 21.453029 3.142252 -14.452610 158.546971 -7.150365 -26.289200 24.533304 2.400002 14.452610 18.000000 0.649220 4.842916
585.252171 514.469179 121.709386 0.000000 0.000000 0.000000 0.000000 0.000000 0.000000 74.723181 -46.445385 19.021130 -105.276819 -20.233936 19.021130 119.807175 1.492584 -17.633558 165.825978 5.102721 -24.270510 138.012220 -11.586049 17.633558 -12.357653 0.283357 4.755283
624.843979 517.601860 127.430662 0.000000 0.000000 0.000000 0.000000 0.000000 0.000000 103.202449 13.106621 19.960535 -76.797551 -6.554293 19.960535 114.381580 -0.791473 -20.536413 -53.015473 -74.113528 -21.869059 145.467160 -1.667531 20.536413 -4.173333 -0.064677 4.648882
969.822873 443.376664 133.677724 0.000000 0.000000 0.000000 0.000000 0.000000 0.000000 21.413420 20.175538 19.645745 180.000000 -11.921822 19.645745 22.607712 9.313058 -23.115397 157.392288 -6.566231 -19.122720 24.899813 -9.509253 23.115397 18.000000 1.414010 4.524135
969.841956 443.353428 137.417769 0.000000 0.000000 0.000000 0.000000 0.000000 0.000000 21.702987 -25.282938 18.096541 180.000000 6.712462 18.096541 23.009909 -3.007542 -25.329838 156.990091 12.186984 -16.074804 24.926562 3.409720 25.329838 18.000000 0.382588 4.381533
969.859960 443.330059 161.747744 0.000000 0.000000 0.000000 0.000000 0.000000 0.000000 22.009579 -4.124002 15.410265 180.000000 11.145873 15.410265 23.419334 -3.432073 -27.144812 156.580666 5.021410 -12.773379 24.904993 -4.286945 27.144812 18.000000 0.589214 4.221640
594.905148 538.048757 136.656024 0.000000 0.000000 0.000000 0.000000 0.000000 0.000000 -57.080480 -19.014357 11.755705 122.919520 6.939214 11.755705 -12.750556 -0.800357 -28.531695 149.841027 21.938726 -9.270510 -8.274090 -3.098145 28.531695 17.596979 -0.153521 4.045085
969.892723 443.282929 129.243325 0.000000 0.000000 0.000000 0.000000 0.000000 0.000000 22.675903 -27.758909 7.362491 180.000000 11.057869 7.362491 24.255612 -5.780982 -29.468618 155.744388 5.021820 -5.621439 24.720303 -6.943745 29.468618 18.000000 0.214029 3.852566
1257.001877 499.708382 153.179968 0.000000 0.000000 0.000000 0.000000 0.000000 0.000000 52.818511 -0.412548 2.506665 -127.181489 -1.772953 2.506665 25.369497 2.777429 -29.940802 -143.914951 4.652034 -1.883716 14.556766 -3.062974 29.940802 -16.686776 0.154569 3.644843
1279.050064 493.773898 152.041101 0.000000 0.000000 0.000000 0.000000 0.000000 0.000000 56.685213 -4.430698 -2.506665 -123.314787 15.043670 -2.506665 24.065452 -2.374226 -29.940802 -146.540317 5.314895 1.883716 13.097461 -1.058855 29.940802 -16.716891 0.196848 3.422736
1295.108986 477.099677 155.180296 0.000000 0.000000 0.000000 0.000000 0.000000 0.000000 65.723361 6.297271 -7.362491 -114.276639 -8.021469 -7.362491 23.725299 4.827976 -29.468618 -147.984281 -0.758750 5.621439 13.187557 -0.476102 29.468618 -16.751134 -0.122752 3.187120
1289.065018 496.763316 148.464732 0.000000 0.000000 0.000000 0.000000 0.000000 0.000000 61.662232 -6.702762 -11.755705 -118.337768 0.568630 -11.755705 31.397757 4.904033 -28.531695 -148.047797 4.853557 9.270510 12.491083 -1.605261 28.531695 -16.898368 0.079661 2.938926
1285.337105 480.691112 157.047035 0.000000 0.000000 0.000000 0.000000 0.000000 0.000000 58.021980 -6.370064 -15.410265 -121.978020 8.899875 -15.410265 31.705930 -1.894750 -27.144812 -157.028684 -2.430497 12.773379 11.107306 1.415732 27.144812 -17.140016 -0.013218 2.679134
1276.453171 465.093691 149.088224 0.000000 0.000000 0.000000 0.000000 0.000000 0.000000 70.157145 -21.981346 -18.096541 -109.842855 12.878171 -18.096541 40.303764 5.047548 -25.329838 -145.293609 7.231992 16.074804 10.431204 0.980999 25.329838 -17.100572 -0.112877 2.408768
1253.658714 472.768564 156.044229 0.000000 0.000000 0.000000 0.000000 0.000000 0.000000 65.087926 -21.618572 -19.645745 -114.912074 -5.235318 -19.645745 -157.680356 -6.760234 -23.115397 -137.727082 -1.382275 19.122720 -153.053596 1.827168 23.115397 -16.054219 -0.845278 2.128896
1366.101608 507.691247 142.727745 0.000000 0.000000 0.000000 0.000000 0.000000 0.000000 108.715100 29.117945 -19.960535 -71.284900 37.511901 -19.960535 156.661132 -24.623115 -20.536413 -158.224303 -6.030136 21.869059 0.000000 0.000000 0.000000 0.000000 0.000000 0.000000
969.986295 443.064535 139.391625 0.000000 0.000000 0.000000 0.000000 0.000000 0.000000 26.662144 3.112871 -19.021130 180.000000 7.553727 -19.021130 28.015351 -11.008620 -17.633558 151.984649 -7.715694 24.270510 22.068935 11.847330 17.633558 18.000000 0.518185 1.545085
1282.107124 481.511257 139.797986 0.000000 0.000000 0.000000 0.000000 0.000000 0.000000 80.650781 -20.895232 -16.886559 -99.349219 24.365895 -16.886559 1.511604 -4.379131 -14.452610 -32.896908 -4.352897 26.289200 -7.727072 1.584577 14.452610 13.531851 7.140246 1.243449
1282.921486 484.777769 136.244267 0.000000 0.000000 0.000000 0.000000 0.000000 0.000000 -81.737646 20.633445 -13.690942 98.262354 -30.313714 -13.690942 -23.867101 0.102584 -11.043737 12.655668 -2.766425 27.893295 -29.454911 -1.423574 11.043737 9.861248 -1.586234 0.936907
1290.933037 513.180238 132.983498 0.000000 0.000000 0.000000 0.000000 0.000000 0.000000 -91.387864 -11.688398 -9.635073 88.612136 -10.012635 -9.635073 -41.685392 3.021032 -7.460697 -161.156957 -6.265878 29.057495 15.157863 5.553935 7.460697 10.543436 -2.070398 0.626666
969.999452 442.964284 120.812636 0.000000 0.000000 0.000000 0.000000 0.000000 0.000000 29.025427 2.707038 -4.973798 180.000000 3.265948 -4.973798 29.437993 -0.250183 -3.759997 150.562007 19.586462 29.763441 20.404746 -12.526044 3.759997 18.000000 -0.034169 0.313953
970.000000 442.938926 123.106050 0.000000 0.000000 0.000000 0.000000 0.000000 0.000000 29.678605 29.111201 0.000000 180.000000 -0.770889 0.000000 29.744881 6.014917 -0.000000 150.255119 -12.496250 30.000000 19.983107 16.900258 0.000000 18.000000 -0.510995 0.000000
1354.522934 467.411410 133.989113 0.000000 0.000000 0.000000 0.000000 0.000000 0.000000 150.622570 0.591509 4.973798 -29.377430 12.879488 4.973798 140.176400 -3.696475 3.759997 -12.221629 -0.275731 29.763441 132.794256 0.357229 -3.759997 -2.626015 0.045153 0.313953
969.997807 442.887864 127.876759 0.000000 0.000000 0.000000 0.000000 0.000000 0.000000 31.061399 -23.615092 9.635073 180.000000 11.957330 9.635073 30.285790 1.266653 7.460697 149.714210 -8.498761 29.057495 19.151579 11.364936 -7.460697 18.000000 0.042296 0.626666
1246.736984 514.278152 125.227984 0.000000 0.000000 0.000000 0.000000 0.000000 0.000000 143.557092 -9.513764 13.690942 -36.442908 3.568381 13.690942 133.761037 -1.028724 11.043737 -156.950665 -5.341860 27.893295 0.000000 0.000000 0.000000 1.928484 0.426095 0.936907
1245.221100 458.637464 135.737316 0.000000 0.000000 0.000000 0.000000 0.000000 0.000000 160.701064 10.279207 16.886559 -19.298936 -24.913737 16.886559 140.193827 1.406674 14.452610 -157.554825 -5.920230 26.289200 29.500467 5.292856 -14.452610 -15.049953 -0.529286 1.243449
1257.365570 418.514181 94.894027 0.000000 0.000000 0.000000 0.000000 0.000000 0.000000 -143.710676 9.844511 19.021130 36.289324 0.229652 19.021130 163.220413 5.053440 17.633558 11.688054 -3.627271 24.270510 152.038385 3.576624 -17.633558 -2.339948 -0.074857 1.545085
1275.099564 408.163741 84.000597 0.000000 0.000000 0.000000 0.000000 0.000000 0.000000 -132.929531 13.221835 19.960535 47.070469 -4.741801 19.960535 173.491912 0.289635 20.536413 -160.709681 -5.346468 21.869059 33.138793 6.400611 -20.536413 -14.686121 -0.640061 1.840623
1290.611115 384.880857 92.857077 0.000000 0.000000 0.000000 0.000000 0.000000 0.000000 -132.705235 7.981700 19.645745 47.294765 4.444630 19.645745 -173.778854 -4.826886 23.115397 20.496835 0.806884 19.122720 -161.220290 -4.342570 -23.115397 1.723235 0.395327 2.128896
1302.817154 380.305352 98.214176 0.000000 0.000000 0.000000 0.000000 0.000000 0.000000 -131.493915 1.840233 18.096541 48.506085 -5.260552 18.096541 -165.393697 -0.662216 25.329838 23.154815 -1.899689 16.074804 -178.200316 3.603886 -25.329838 0.138141 -0.327604 2.408768
1304.997711 379.563582 96.944369 0.000000 0.000000 0.000000 0.000000 0.000000 0.000000 -126.727972 -5.278129 15.410265 53.272028 -0.687917 15.410265 -160.219593 -2.639847 27.144812 28.448880 -0.933194 12.773379 -174.368770 1.425192 -27.144812 0.079526 -0.168488 2.679134
1311.668472 386.890390 80.592715 0.000000 0.000000 0.000000 0.000000 0.000000 0.000000 -122.308728 -6.712370 11.755705 57.691272 10.633773 11.755705 -158.801130 -5.953221 28.531695 150.942637 0.723237 9.270510 -154.878332 -4.330511 -28.531695 2.695409 0.555323 2.938926
1305.131836 395.180186 70.954032 0.000000 0.000000 0.000000 0.000000 0.000000 0.000000 -125.112810 -20.302595 7.362491 54.887190 14.238630 7.362491 -146.487292 0.761415 29.468618 -175.167369 8.615767 5.621439 -159.224034 -4.855955 -29.468618 1.782042 0.416887 3.187120
1296.320457 392.734526 65.784545 0.000000 0.000000 0.000000 0.000000 0.000000 0.000000 -131.035750 1.595921 2.506665 48.964250 8.922353 2.506665 -128.969563 0.905297 29.940802 38.856147 3.758643 1.883716 -134.776850 -0.567549 -29.940802 3.458429 0.071565 3.422736
1306.963577 386.612041 78.472718 0.000000 0.000000 0.000000 0.000000 0.000000 0.000000 -124.469622 7.604713 -2.506665 55.530378 -7.374032 -2.506665 -109.994856 -2.524568 29.940802 37.691309 -3.068021 -1.883716 -118.274788 -2.028728 -29.940802 5.098336 0.156036 3.644843
969.892723 442.572198 61.511201 0.000000 0.000000 0.000000 0.000000 0.000000 0.000000 41.287575 4.673078 -7.362491 180.000000 -14.600867 -7.362491 30.974696 8.230322 29.468618 149.025304 -10.848988 -5.621439 15.072869 -1.392760 -29.468618 18.000000 0.192050 3.852566
969.876883 442.545207 62.339335 0.000000 0.000000 0.000000 0.000000 0.000000 0.000000 42.241956 10.145808 -11.755705 180.000000 -3.846007 -11.755705 30.826133 -5.168880 28.531695 149.173867 -4.542615 -9.270510 14.823070 7.182806 -28.531695 18.000000 -0.290006 4.045085
969.859960 442.518116 58.869275 0.000000 0.000000 0.000000 0.000000 0.000000 0.000000 43.199779 -30.512961 -15.410265 180.000000 4.511415 -15.410265 30.649504 -1.335073 27.144812 149.350496 0.810146 -12.773379 14.587557 5.916377 -27.144812 18.000000 0.072527 4.221640
969.841956 442.490926 50.125608 0.000000 0.000000 0.000000 0.000000 0.000000 0.000000 44.157210 25.293581 -18.096541 180.000000 -7.205066 -18.096541 30.446417 7.918525 25.329838 149.553583 -11.508230 -16.074804 14.366154 8.574955 -25.329838 18.000000 -0.154476 4.381533
969.822873 442.463637 49.966979 0.000000 0.000000 0.000000 0.000000 0.000000 0.000000 45.110117 -32.497989 -19.645745 180.000000 -3.667972 -19.645745 30.218633 12.489056 23.115397 149.781367 7.054231 -19.122720 14.158653 -2.813132 -23.115397 18.000000 -0.370821 4.524135
969.802712 442.436251 48.955370 0.000000 0.000000 0.000000 0.000000 0.000000 0.000000 46.054109 -16.595090 -19.960535 180.000000 -2.814806 -19.960535 29.968037 4.049933 20.536413 150.031963 2.882034 -21.869059 13.964823 -10.331801 -20.536413 18.000000 -0.166420 4.648882
1187.040939 541.658249 37.148248 0.000000 0.000000 0.000000 0.000000 0.000000 0.000000 82.806623 12.509990 -19.021130 -97.193377 -18.806091 -19.021130 45.395981 2.090260 17.633558 -156.144455 -2.945976 -24.270510 0.000000 0.000000 0.000000 0.000000 0.000000 0.000000
1182.242889 522.024286 66.913925 0.000000 0.000000 0.000000 0.000000 0.000000 0.000000 -105.721938 -2.783439 -16.886559 74.278062 2.727157 -16.886559 -155.708006 -2.627754 14.452610 -157.302521 -2.589087 -26.289200 0.000000 0.000000 0.000000 2.684983 0.242142 4.842916
1180.914459 527.065626 45.591699 0.000000 0.000000 0.000000 0.000000 0.000000 0.000000 88.055617 -3.162980 -13.690942 -91.944383 -3.190813 -13.690942 -158.862018 -2.074842 11.043737 -151.747289 -2.378872 -27.893295 0.000000 0.000000 0.000000 0.000000 0.000000 0.000000
1236.800194 541.387432 44.419162 0.000000 0.000000 0.000000 0.000000 0.000000 0.000000 -85.588400 7.358825 -9.635073 94.411600 5.315953 -9.635073 -159.297106 -13.028688 7.460697 -157.915391 -2.726103 -29.057495 26.607362 2.100408 -7.460697 14.926890 0.685581 4.960574
1161.066513 575.006626 51.520273 0.000000 0.000000 0.000000 0.000000 0.000000 0.000000 -81.021168 17.634208 -4.973798 98.978832 -6.686551 -4.973798 -102.851701 -3.613438 3.759997 -157.041007 -3.219287 -29.763441 21.429890 2.194214 -3.759997 10.859432 -0.478574 4.990134
1255.636253 512.645942 69.156728 0.000000 0.000000 0.000000 0.000000 0.000000 0.000000 77.832564 0.627050 -0.000000 -102.167436 8.803528 -0.000000 -158.264834 -4.056952 0.000000 -130.745502 -3.575024 -30.000000 -157.699225 -2.463883 -0.000000 0.000000 0.000000 0.000000
1265.118484 521.473864 44.588050 0.000000 0.000000 0.000000 0.000000 0.000000 0.000000 64.078276 -3.700932 4.973798 -115.921724 -5.531720 4.973798 41.397952 4.521878 -3.759997 -139.329851 -2.354991 -29.763441 20.223252 -1.113240 3.759997 -16.047574 0.207583 4.990134
1228.099480 522.138258 58.457200 0.000000 0.000000 0.000000 0.000000 0.000000 0.000000 71.050901 0.953942 9.635073 -108.949099 -0.410368 9.635073 150.099970 0.262373 -7.460697 -139.894702 4.772497 -29.057495 -156.275691 -3.520607 7.460697 0.000000 0.000000 0.000000
1240.357246 528.695873 58.904510 0.000000 0.000000 0.000000 0.000000 0.000000 0.000000 65.413351 12.929531 13.690942 -114.586649 -0.581205 13.690942 147.242328 -6.015108 -11.043737 -154.470720 -2.813975 -27.893295 25.557225 2.706511 11.043737 -15.444278 -0.270651 4.911436
1231.815262 551.380248 66.612808 0.000000 0.000000 0.000000 0.000000 0.000000 0.000000 56.412506 -2.822902 16.886559 -123.587494 4.973433 16.886559 -153.392336 -7.670931 -14.452610 -154.784582 -2.408420 -26.289200 24.191555 4.502719 14.452610 -15.580844 -0.450272 4.842916
1221.475182 508.360147 64.068302 0.000000 0.000000 0.000000 0.000000 0.000000 0.000000 77.450622 0.238047 19.021130 -102.549378 1.824089 19.021130 -156.789784 -2.916443 -17.633558 -125.590168 -2.288150 -24.270510 -160.017240 -2.655640 17.633558 1.833434 0.310971 4.755283
969.477684 442.100429 57.940990 0.000000 0.000000 0.000000 0.000000 0.000000 0.000000 54.932575 14.001574 19.960535 180.000000 -6.080995 19.960535 25.919122 -2.412838 -20.536413 154.080878 -15.034602 -21.869059 12.612867 5.723295 20.536413 18.000000 0.102884 4.648882
1480.140495 518.878891 91.692989 0.000000 0.000000 0.000000 0.000000 0.000000 0.000000 -110.621767 85.861706 19.645745 69.378233 -86.246051 19.645745 -158.235933 -2.743311 -23.115397 166.031448 -3.644176 -19.122720 -155.186432 -3.040359 23.115397 2.641553 0.375987 4.524135
1271.640472 556.840560 92.955718 0.000000 0.000000 0.000000 0.000000 0.000000 0.000000 -94.404719 11.285400 18.096541 85.595281 -8.307766 18.096541 -62.417786 -4.103225 -25.329838 23.992813 0.860415 -16.074804 -76.856107 -3.678169 25.329838 7.708835 0.052269 4.381533
1258.556786 530.268441 77.583564 0.000000 0.000000 0.000000 0.000000 0.000000 0.000000 78.355945 -8.017188 15.410265 -101.644055 10.420154 15.410265 35.068294 -7.023817 -27.144812 -54.090640 4.705606 -12.773379 35.848220 6.973670 27.144812 -8.104639 0.018106 4.221640
1250.800209 527.150567 78.165218 0.000000 0.000000 0.000000 0.000000 0.000000 0.000000 72.417769 -1.380558 11.755705 -107.582231 7.895005 11.755705 24.571109 -8.736059 -28.531695 -39.196117 -7.559979 -9.270510 10.411117 8.268499 28.531695 -9.048616 4.134662 4.045085
1243.466148 571.776259 87.048025 0.000000 0.000000 0.000000 0.000000 0.000000 0.000000 86.301473 17.569881 7.362491 -93.698527 -16.964734 7.362491 24.553534 4.698935 -29.468618 -153.460385 -4.494066 -5.621439 19.510484 2.785396 29.468618 -10.109500 2.593842 3.852566
1261.883812 566.052918 96.945942 0.000000 0.000000 0.000000 0.000000 0.000000 0.000000 94.015209 -23.634269 2.506665 -85.984791 11.639207 2.506665 38.959993 -9.149400 -29.940802 -154.008305 -4.257112 -1.883716 20.870951 3.238873 29.940802 -10.872440 2.261270 3.644843
1284.436798 527.190542 89.929880 0.000000 0.000000 0.000000 0.000000 0.000000 0.000000 111.186365 4.543831 -2.506665 -68.813635 -8.390376 -2.506665 58.506163 -4.693017 -29.940802 -19.138727 -3.920765 1.883716 51.457372 2.996743 29.940802 -5.203198 0.081823 3.422736
1272.860069 533.494012 106.403215 0.000000 0.000000 0.000000 0.000000 0.000000 0.000000 72.301471 11.917524 -7.362491 -107.698529 16.795179 -7.362491 78.802573 -1.408877 -29.468618 -154.772375 -4.271849 5.621439 26.927455 4.504177 29.468618 -15.307255 -0.450418 3.187120
1255.264664 498.243735 106.380320 0.000000 0.000000 0.000000 0.000000 0.000000 0.000000 164.596971 -34.541634 -11.755705 -15.403029 3.225777 -11.755705 125.849126 -1.280826 -28.531695 -156.067666 -5.003882 9.270510 33.087561 4.608997 28.531695 -14.691244 -0.460900 2.938926
1259.202232 470.407684 116.517564 0.000000 0.000000 0.000000 0.000000 0.000000 0.000000 -139.980397 -18.861925 -15.410265 40.019603 -4.027465 -15.410265 165.887722 4.359341 -27.144812 -157.901492 -4.508728 12.773379 35.196094 5.864760 27.144812 -14.480391 -0.586476 2.679134
1236.502075 429.951335 102.618050 0.000000 0.000000 0.000000 0.000000 0.000000 0.000000 -113.295066 -10.482541 -18.096541 66.704934 -13.244302 -18.096541 -174.664169 8.907795 -25.329838 -159.007335 -5.483153 16.074804 32.868990 5.631320 25.329838 -14.713101 -0.563132 2.408768
1253.359451 413.942538 122.112491 0.000000 0.000000 0.000000 0.000000 0.000000 0.000000 -123.348580 8.397452 -19.645745 56.651420 -2.324627 -19.645745 -167.815074 -0.977944 -23.115397 -159.603180 -6.173296 19.122720 32.791747 6.462093 23.115397 -14.720825 -0.646209 2.128896
1281.206589 405.664523 104.099269 0.000000 0.000000 0.000000 0.000000 0.000000 0.000000 -124.414271 5.122747 -19.960535 55.585729 -5.384299 -19.960535 -161.281803 -0.599314 -20.536413 28.568449 -5.875148 21.869059 -159.052798 -4.240853 20.536413 1.849141 0.410810 1.840623
1300.238571 418.760215 139.442046 0.000000 0.000000 0.000000 0.000000 0.000000 0.000000 -126.263092 -3.290468 -19.021130 53.736908 8.710330 -19.021130 -159.739358 -3.465589 -17.633558 31.487961 3.490188 24.270510 -170.323915 -0.962657 17.633558 0.671815 -0.104465 1.545085
1321.889191 413.634385 137.960900 0.000000 0.000000 0.000000 0.000000 0.000000 0.000000 -133.874471 -6.965707 -16.886559 46.125529 -4.593797 -16.886559 -159.376251 3.379417 -14.452610 30.696824 4.750554 26.289200 -164.929556 -1.834758 14.452610 1.089735 0.058341 1.243449
1336.221428 432.881820 145.084481 0.000000 0.000000 0.000000 0.000000 0.000000 0.000000 -115.020798 -9.117836 -13.690942 64.979202 -1.989393 -13.690942 -135.609544 3.870524 -11.043737 -161.321630 -5.966940 27.893295 17.353502 8.119263 11.043737 -16.264650 -0.811926 0.936907
1329.124603 416.860342 141.449750 0.000000 0.000000 0.000000 0.000000 0.000000 0.000000 -134.023347 1.702972 -9.635073 45.976653 -3.352693 -9.635073 -128.030830 -0.613635 -7.460697 28.249885 -0.357409 29.057495 -136.447985 -0.246430 7.460697 4.038834 0.057565 0.626666
1343.366776 427.060794 131.350527 0.000000 0.000000 0.000000 0.000000 0.000000 0.000000 -130.153347 -3.923038 -4.973798 49.846653 1.796813 -4.973798 -103.564435 1.483240 -3.759997 27.398095 0.955924 29.763441 -115.461530 1.314847 3.759997 5.470063 0.193464 0.313953
1376.991005 465.829636 154.437874 0.000000 0.000000 0.000000 0.000000 0.000000 0.000000 -120.272352 1.837368 0.000000 59.727648 1.785290 0.000000 -62.204131 -0.874149 -0.000000 27.740602 1.622660 30.000000 -80.461527 3.192786 0.000000 7.450891 -0.333022 0.000000
1384.978867 468.790376 151.604717 0.000000 0.000000 0.000000 0.000000 0.000000 0.000000 -93.720384 -6.916904 4.973798 86.279616 35.021534 4.973798 3.847814 5.852785 3.759997 -160.438787 -5.432670 29.763441 15.990976 5.735457 -3.759997 7.894783 -2.785376 0.313953
1345.894547 516.257268 158.998415 0.000000 0.000000 0.000000 0.000000 0.000000 0.000000 127.577640 -7.584232 9.635073 -52.422360 4.811432 9.635073 53.096359 4.981923 7.460697 -159.021748 -6.623572 29.057495 18.308456 4.947941 -7.460697 -4.062191 2.741986 0.626666
968.498927 441.455181 151.218215 0.000000 0.000000 0.000000 0.000000 0.000000 0.000000 47.920147 -21.504917 13.690942 180.000000 11.570195 13.690942 19.641385 -6.018716 11.043737 160.358615 3.203273 27.893295 13.993219 -7.002384 -11.043737 18.000000 0.413981 0.936907
1336.846733 493.527671 138.493177 0.000000 0.000000 0.000000 0.000000 0.000000 0.000000 102.681311 4.621333 16.886559 -77.318689 0.684916 16.886559 35.985219 6.427500 14.452610 -159.617763 -6.206147 26.289200 19.375410 5.684225 -14.452610 -16.062459 -0.568423 1.243449
968.386706 441.394956 156.514087 0.000000 0.000000 0.000000 0.000000 0.000000 0.000000 46.120581 -18.507623 19.021130 180.000000 13.040776 19.021130 19.316787 2.886660 17.633558 160.683213 10.002742 24.270510 14.327067 -5.418136 -17.633558 18.000000 0.186510 1.545085
1263.984947 433.341283 149.621179 0.000000 0.000000 0.000000 0.000000 0.000000 0.000000 -115.578373 14.973757 19.960535 64.421627 -21.324710 19.960535 -82.396446 10.259850 20.536413 25.733383 -5.669154 21.869059 -77.477544 -5.474235 -20.536413 5.836928 1.520472 1.840623
1352.596436 477.564354 153.999310 0.000000 0.000000 0.000000 0.000000 0.000000 0.000000 -99.196741 4.646229 19.645745 80.803259 8.458376 19.645745 -125.272585 -6.749223 23.115397 -162.405270 -6.745879 19.122720 17.377627 6.306577 -23.115397 -16.262237 -0.630658 2.128896
1384.326782 408.174427 156.604939 0.000000 0.000000 0.000000 0.000000 0.000000 0.000000 96.868601 20.050137 18.096541 -83.131399 7.506003 18.096541 -160.848957 -6.564271 25.329838 -137.255583 0.957659 16.074804 -162.076720 -7.214806 -25.329838 0.000000 0.000000 0.000000
1387.580223 387.128634 141.560006 0.000000 0.000000 0.000000 0.000000 0.000000 0.000000 78.087764 -12.846818 15.410265 -101.912236 -0.070017 15.410265 -161.807915 -5.785247 27.144812 -147.504361 -2.011555 12.773379 -162.566306 -6.345168 -27.144812 1.735427 0.775040 2.679134
1345.818558 392.423122 158.185440 0.000000 0.000000 0.000000 0.000000 0.000000 0.000000 71.782984 -2.082272 11.755705 -108.217016 14.023183 11.755705 -169.469261 1.190800 28.531695 -153.903088 2.537808 9.270510 -154.670689 -8.880276 -28.531695 15.277725 2.620101 2.938926
1331.471329 361.814139 144.955958 0.000000 0.000000 0.000000 0.000000 0.000000 0.000000 53.586100 -26.520893 7.362491 -126.413900 7.827227 7.362491 -162.290330 -5.306447 29.468618 -154.912165 6.336292 5.621439 -162.550394 -7.449568 -29.468618 1.742175 0.813355 3.187120
1354.413986 427.213873 147.186619 0.000000 0.000000 0.000000 0.000000 0.000000 0.000000 -131.358118 4.467641 2.506665 48.641882 -17.805580 2.506665 -142.488821 -2.011474 29.940802 -161.977882 -6.445231 1.883716 12.673705 9.785704 -29.940802 1.397524 -0.408605 3.422736
1330.326691 347.207226 132.210113 0.000000 0.000000 0.000000 0.000000 0.000000 0.000000 52.464175 16.833135 -2.506665 -127.535825 -1.190420 -2.506665 14.270918 -4.032707 29.940802 -122.057234 0.310314 -1.883716 22.820874 -1.996448 -29.940802 -15.244909 0.091360 3.644843
1317.103271 414.475805 119.680597 0.000000 0.000000 0.000000 0.000000 0.000000 0.000000 76.170457 19.792186 -7.362491 -103.829543 -8.756065 -7.362491 -50.250674 -0.723400 29.468618 -52.503744 -3.321488 -5.621439 -92.793049 -2.808602 -29.468618 3.303440 0.478324 3.852566
1331.844635 430.291482 118.976937 0.000000 0.000000 0.000000 0.000000 0.000000 0.000000 79.985160 -2.804546 -11.755705 -100.014840 -3.799297 -11.755705 25.995082 1.828794 28.531695 -75.062603 3.620764 -9.270510 38.761234 0.279096 -28.531695 -11.442229 -0.417758 4.045085
1359.462433 496.472383 113.554037 0.000000 0.000000 0.000000 0.000000 0.000000 0.000000 84.268829 5.583012 -15.410265 -95.731171 0.514774 -15.410265 30.279153 -0.747304 27.144812 -63.318008 -1.021016 -12.773379 39.457716 -1.236875 -27.144812 -9.485742 0.523967 4.221640
1323.514366 546.771398 133.797773 0.000000 0.000000 0.000000 0.000000 0.000000 0.000000 84.407325 -0.889919 -18.096541 -95.592675 -1.054269 -18.096541 27.768249 4.486184 25.329838 -47.660055 5.286625 -16.074804 28.281511 -6.700387 -25.329838 -7.827901 -0.547447 4.381533
1268.535347 591.567099 101.589159 0.000000 0.000000 0.000000 0.000000 0.000000 0.000000 90.890792 6.229077 -19.645745 -89.109208 -7.209975 -19.645745 44.654760 1.208878 23.115397 -48.200667 -1.767001 -19.122720 43.369388 -4.033350 -23.115397 -8.974980 0.710284 4.524135
1303.157158 602.888768 81.189078 0.000000 0.000000 0.000000 0.000000 0.000000 0.000000 90.349289 2.825473 -19.960535 -89.650711 -7.010431 -19.960535 47.707312 0.364029 20.536413 -53.918782 -1.199412 -21.869059 40.070965 -0.010126 -20.536413 -9.318632 0.556493 4.648882
1314.841690 613.141973 88.171607 0.000000 0.000000 0.000000 0.000000 0.000000 0.000000 94.480501 1.253072 -19.021130 -85.519499 1.978729 -19.021130 58.462862 -4.633970 17.633558 -52.020507 -2.790433 -24.270510 55.276552 -2.197821 -17.633558 -7.777523 1.024302 4.755283
1327.521400 639.394319 100.416111 0.000000 0.000000 0.000000 0.000000 0.000000 0.000000 99.879576 -4.363953 -16.886559 -80.120424 2.660732 -16.886559 69.161359 0.042087 14.452610 -46.413613 0.300611 -26.289200 76.680143 4.546659 -14.452610 -6.257768 -0.056829 4.842916
1277.812729 671.228578 89.652896 0.000000 0.000000 0.000000 0.000000 0.000000 0.000000 99.708534 -0.330690 -13.690942 -80.291466 -6.012299 -13.690942 92.239140 2.538522 11.043737 -26.764021 -1.760579 -27.893295 98.168457 6.084845 -11.043737 -4.372074 -0.038744 4.911436
1309.642181 690.479329 90.961249 0.000000 0.000000 0.000000 0.000000 0.000000 0.000000 117.292414 6.234561 -9.635073 -62.707586 -1.872303 -9.635073 137.002702 -0.541994 7.460697 -32.045917 -0.657393 -29.057495 135.211322 0.643296 -7.460697 -3.212944 -0.167356 4.960574
1299.770966 664.126496 75.162271 0.000000 0.000000 0.000000 0.000000 0.000000 0.000000 158.531160 11.857975 -4.973798 -21.468840 -5.446507 -4.973798 161.478323 -3.150890 3.759997 -12.838206 -4.116131 -29.763441 151.269584 1.133229 -3.759997 -2.521934 -0.037895 4.990134
1313.353729 643.668108 76.339646 0.000000 0.000000 0.000000 0.000000 0.000000 0.000000 -154.315892 5.725175 -0.000000 25.684108 -3.400960 -0.000000 173.459940 1.961809 0.000000 1.519689 2.159210 -30.000000 164.244875 -0.350246 -0.000000 -1.552244 0.178440 5.000000
1342.841377 638.982847 85.370226 0.000000 0.000000 0.000000 0.000000 0.000000 0.000000 -138.993869 15.543034 4.973798 41.006131 -37.916448 4.973798 175.724056 1.519678 -3.759997 -151.723069 -4.147880 -29.763441 43.242568 3.701528 3.759997 -13.675743 -0.370153 4.990134
1350.000229 614.724133 60.616351 0.000000 0.000000 0.000000 0.000000 0.000000 0.000000 -144.248147 9.521740 9.635073 35.751853 -2.455360 9.635073 177.069273 2.246919 -7.460697 -152.227621 -3.196937 -29.057495 43.136563 3.246859 7.460697 -13.686344 -0.324686 4.960574
1328.535919 624.780936 67.466982 0.000000 0.000000 0.000000 0.000000 0.000000 0.000000 -165.447222 -1.316117 13.690942 14.552778 -11.764042 13.690942 169.657511 2.718589 -11.043737 -152.168050 -2.692978 -27.893295 41.929642 3.886833 11.043737 -13.807036 -0.388683 4.911436
1318.810501 615.688248 67.395631 0.000000 0.000000 0.000000 0.000000 0.000000 0.000000 -120.063657 1.421328 16.886559 59.936343 2.749197 16.886559 -165.389465 -1.280572 -14.452610 -152.866764 -2.363118 -26.289200 39.162270 3.259550 14.452610 -14.083773 -0.325955 4.842916
1321.656418 659.275410 61.209062 0.000000 0.000000 0.000000 0.000000 0.000000 0.000000 -121.435085 -5.480455 19.021130 58.564915 -13.617551 19.021130 -149.190712 4.208460 -17.633558 -151.926374 -2.599450 -24.270510 33.097066 3.735859 17.633558 -14.690293 -0.373586 4.755283
1328.445511 687.490232 60.792734 0.000000 0.000000 0.000000 0.000000 0.000000 0.000000 -104.253419 -7.725666 19.960535 75.746581 7.450833 19.960535 -110.140878 3.340694 -20.536413 -152.911692 -2.126165 -21.869059 23.882145 1.806852 20.536413 3.694979 0.315456 4.648882
966.534206 440.564282 67.627359 0.000000 0.000000 0.000000 0.000000 0.000000 0.000000 25.865486 1.890419 19.645745 180.000000 -1.496218 19.645745 18.728337 2.603809 -23.115397 161.271663 -1.069382 -19.122720 19.024234 5.540309 23.115397 18.000000 -1.426468 4.524135
966.454577 440.533056 53.810083 0.000000 0.000000 0.000000 0.000000 0.000000 0.000000 25.417507 -6.620749 18.096541 180.000000 -2.133469 18.096541 18.825450 -4.686976 -25.329838 161.174550 -9.567239 -16.074804 19.071566 14.997975 25.329838 18.000000 -1.715931 4.381533
966.374240 440.501809 42.682204 0.000000 0.000000 0.000000 0.000000 0.000000 0.000000 24.990320 -7.319145 15.410265 180.000000 2.863205 15.410265 18.929718 0.811942 -27.144812 161.070282 -5.574498 -12.773379 19.102411 7.468821 27.144812 18.000000 0.548312 4.221640
966.293204 440.470542 53.508253 0.000000 0.000000 0.000000 0.000000 0.000000 0.000000 24.583377 0.827919 11.755705 180.000000 -5.174132 11.755705 19.040946 -2.454233 -28.531695 160.959054 -6.841798 -9.270510 19.116765 1.813505 28.531695 18.000000 0.179625 4.045085
966.211478 440.439256 36.499577 0.000000 0.000000 0.000000 0.000000 0.000000 0.000000 24.196129 19.285107 7.362491 180.000000 -12.298321 7.362491 19.158923 0.773014 -29.468618 160.841077 -4.292415 -5.621439 19.114778 -9.036199 29.468618 18.000000 0.656598 3.852566
644.985180 745.864069 53.636345 0.000000 0.000000 0.000000 0.000000 0.000000 0.000000 96.086415 -3.554642 2.506665 -83.913585 15.659392 2.506665 -159.662371 -10.673251 -29.940802 -116.741565 1.406431 -1.883716 -176.001217 6.407431 29.940802 -1.006627 -0.565706 3.644843
1269.020119 699.025490 75.073697 0.000000 0.000000 0.000000 0.000000 0.000000 0.000000 83.810916 -4.206869 -2.506665 -96.189084 3.243124 -2.506665 51.932890 4.265004 -29.940802 -149.314466 -1.544684 1.883716 27.598511 1.739771 29.940802 -15.240149 -0.173977 3.422736
573.721218 678.450201 45.013000 0.000000 0.000000 0.000000 0.000000 0.000000 0.000000 18.756393 28.235536 -7.362491 -161.243607 3.539937 -7.362491 -174.158094 13.146586 -29.468618 178.010322 2.968377 5.621439 -154.394154 5.210308 29.468618 11.886524 -3.885194 3.187120
1261.580200 714.897366 77.153859 0.000000 0.000000 0.000000 0.000000 0.000000 0.000000 87.191276 8.364454 -11.755705 -92.808724 -3.207497 -11.755705 23.129119 1.498098 -28.531695 -149.376238 -2.506493 9.270510 24.545507 2.453908 28.531695 13.583501 -1.566837 2.938926
1314.655838 684.171546 56.441189 0.000000 0.000000 0.000000 0.000000 0.000000 0.000000 61.219932 -6.707062 -15.410265 -118.780068 -2.165126 -15.410265 25.476616 2.583198 -27.144812 -150.404247 -2.178367 12.773379 24.621454 1.834945 27.144812 -15.537855 -0.183494 2.679134
1319.638939 674.820013 56.903037 0.000000 0.000000 0.000000 0.000000 0.000000 0.000000 82.055377 -17.646730 -18.096541 -97.944623 15.301338 -18.096541 17.325085 -3.918210 -25.329838 -60.067277 6.962409 16.074804 23.747728 -2.184679 25.329838 -13.005173 0.388748 2.408768
1367.852325 659.536314 86.865634 0.000000 0.000000 0.000000 0.000000 0.000000 0.000000 -150.278430 -31.123322 -19.645745 29.721570 29.462376 -19.645745 -151.222797 -2.720521 -23.115397 18.758043 1.915479 19.122720 -152.451920 -2.127225 23.115397 2.484143 0.209952 2.128896
1392.624664 638.981302 73.610168 0.000000 0.000000 0.000000 0.000000 0.000000 0.000000 -122.704248 -8.528129 -19.960535 57.295752 -10.385391 -19.960535 -134.513385 5.115035 -20.536413 30.292627 1.867778 21.869059 -146.694539 -2.308812 20.536413 2.430965 0.009732 1.840623
1401.291389 646.422758 72.975804 0.000000 0.000000 0.000000 0.000000 0.000000 0.000000 83.316637 -5.219381 -19.021130 -96.683363 1.033063 -19.021130 29.335627 4.189211 -17.633558 -136.281416 0.151756 24.270510 19.119183 -2.390380 17.633558 -15.871560 0.245267 1.545085
1381.838951 663.410475 84.292281 0.000000 0.000000 0.000000 0.000000 0.000000 0.000000 79.215331 2.288424 -16.886559 -100.784669 7.624515 -16.886559 30.640455 -5.991900 -14.452610 -139.113455 1.124966 26.289200 14.302413 -0.246533 14.452610 -16.408036 -0.056875 1.243449
1390.185928 664.248354 67.217187 0.000000 0.000000 0.000000 0.000000 0.000000 0.000000 75.546066 7.551558 -13.690942 -104.453934 -6.651321 -13.690942 38.995097 -1.310302 -11.043737 -142.871297 -0.933366 27.893295 14.209110 -1.653697 11.043737 -16.737090 0.049383 0.936907
1393.889923 677.551103 86.680657 0.000000 0.000000 0.000000 0.000000 0.000000 0.000000 84.293627 -1.056342 -9.635073 -95.706373 1.686716 -9.635073 -152.700272 -3.373581 -7.460697 -143.357755 5.354635 29.057495 -148.868889 -5.131422 7.460697 3.626268 0.493733 0.626666
905.601082 693.654528 98.474042 0.000000 0.000000 0.000000 0.000000 0.000000 0.000000 -84.410869 -9.902855 -4.973798 95.589131 9.949756 -4.973798 -139.498802 -4.844677 -3.759997 -178.556713 -0.459455 29.763441 -142.061844 -4.412739 3.759997 3.411456 0.413778 0.313953
1337.643929 680.318756 94.285647 0.000000 0.000000 0.000000 0.000000 0.000000 0.000000 78.192517 -1.054197 0.000000 -101.807483 5.342450 0.000000 48.289813 -1.652225 -0.000000 -140.291980 -1.891294 30.000000 13.663140 1.391128 0.000000 -17.395561 0.070200 0.000000
1322.670708 685.543334 90.799978 0.000000 0.000000 0.000000 0.000000 0.000000 0.000000 71.501063 -3.242364 4.973798 -108.498937 15.110536 4.973798 23.648228 -15.483063 3.759997 -144.586500 -2.046458 29.763441 14.578018 0.164638 -3.759997 -16.885607 0.207606 0.313953
1305.530548 682.910864 104.506405 0.000000 0.000000 0.000000 0.000000 0.000000 0.000000 72.979287 -3.480870 9.635073 -107.020713 -38.041256 9.635073 -148.728581 -3.813264 7.460697 -74.802907 -0.850023 29.057495 -151.178244 -4.313641 -7.460697 2.601049 0.349419 0.626666
1359.363556 692.650115 90.886918 0.000000 0.000000 0.000000 0.000000 0.000000 0.000000 73.244804 7.523793 13.690942 -106.755196 -16.406391 13.690942 13.983499 13.975211 11.043737 -67.611809 -0.884117 27.893295 13.130547 3.515129 -11.043737 -11.004089 0.017242 0.936907
1299.495964 679.994059 115.763542 0.000000 0.000000 0.000000 0.000000 0.000000 0.000000 116.206779 -3.532621 16.886559 -63.793221 2.776172 16.886559 -150.858719 -4.607370 14.452610 -34.548592 1.090059 26.289200 60.366751 -3.925085 -14.452610 -4.627493 -0.457622 1.243449
1306.260338 711.527116 132.129658 0.000000 0.000000 0.000000 0.000000 0.000000 0.000000 -85.758672 -1.763242 19.021130 94.241328 11.290184 19.021130 -31.461750 -3.903402 17.633558 -4.237664 -2.111045 24.270510 -15.215787 4.939752 -17.633558 7.867754 -2.691860 1.545085
1272.614822 704.778571 122.157903 0.000000 0.000000 0.000000 0.000000 0.000000 0.000000 -78.634637 4.804615 19.960535 101.365363 -7.186794 19.960535 -34.118569 -2.824809 20.536413 22.539652 -8.713600 21.869059 -31.373170 5.677469 -20.536413 11.310693 -0.879939 1.840623
1310.345650 676.427021 124.673961 0.000000 0.000000 0.000000 0.000000 0.000000 0.000000 97.572435 -6.888554 19.645745 -82.427565 3.483726 19.645745 50.400703 5.124453 23.115397 -39.584286 3.674095 19.122720 44.966766 -1.016080 -23.115397 -8.852712 -0.684110 2.128896
1315.732956 671.025095 131.726772 0.000000 0.000000 0.000000 0.000000 0.000000 0.000000 97.797337 2.485918 18.096541 -82.202663 7.714179 18.096541 49.825934 -1.029651 25.329838 -39.162923 -0.689222 16.074804 36.475631 4.659003 -25.329838 -8.191519 0.169801 2.408768
1329.935532 653.525419 126.073685 0.000000 0.000000 0.000000 0.000000 0.000000 0.000000 96.469555 -1.232581 15.410265 -83.530445 -0.564557 15.410265 63.882053 -2.433840 27.144812 -51.972064 -2.315547 12.773379 58.624362 3.168356 -27.144812 -8.239564 0.054013 2.679134
1316.170578 674.246514 142.018041 0.000000 0.000000 0.000000 0.000000 0.000000 0.000000 -87.946330 -7.848016 11.755705 92.053670 -0.101822 11.755705 -29.715798 6.345892 28.531695 54.212796 5.393494 9.270510 -40.560774 -2.211803 -28.531695 11.008015 0.047016 2.938926
1317.367287 678.027205 128.449738 0.000000 0.000000 0.000000 0.000000 0.000000 0.000000 95.152942 9.368608 7.362491 -84.847058 -11.464971 7.362491 98.792835 2.480170 29.468618 -150.515547 -6.442362 5.621439 32.983753 5.423829 -29.468618 -14.701625 -0.542383 3.187120
1318.168488 670.157025 137.826020 0.000000 0.000000 0.000000 0.000000 0.000000 0.000000 -151.252255 -44.614439 2.506665 28.747745 66.048811 2.506665 138.896993 1.690031 29.940802 -151.946620 -5.401716 1.883716 38.784684 5.979415 -29.940802 -14.121532 -0.597942 3.422736
1323.412628 644.667885 145.975676 0.000000 0.000000 0.000000 0.000000 0.000000 0.000000 -97.904066 17.754893 -2.506665 82.095934 -9.770039 -2.506665 155.695030 -1.572792 29.940802 -152.500978 -6.416848 -1.883716 44.721081 6.387233 -29.940802 -13.527892 -0.638723 3.644843
1312.776718 630.059459 143.349919 0.000000 0.000000 0.000000 0.000000 0.000000 0.000000 -116.637972 -3.457974 -7.362491 63.362028 -20.255896 -7.362491 171.094570 2.149337 29.468618 -152.894064 -6.406854 -5.621439 43.947863 7.294901 -29.468618 -13.605214 -0.729490 3.852566
1316.420746 625.237019 166.716580 0.000000 0.000000 0.000000 0.000000 0.000000 0.000000 -136.254273 -2.900630 -11.755705 43.745727 -4.776223 -11.755705 -177.663204 1.464261 28.531695 -153.006287 -6.779794 -9.270510 42.784597 8.750943 -28.531695 -13.721540 -0.875094 4.045085
1314.719925 628.818026 156.260425 0.000000 0.000000 0.000000 0.000000 0.000000 0.000000 -114.737929 7.807636 -15.410265 65.262071 -12.274294 -15.410265 -169.764314 3.875063 27.144812 -153.369487 -7.116689 -12.773379 41.498347 8.602415 -27.144812 -13.850165 -0.860241 4.221640
1334.396782 646.165652 153.346542 0.000000 0.000000 0.000000 0.000000 0.000000 0.000000 -116.903454 2.359605 -18.096541 63.096546 3.382960 -18.096541 -154.594534 -5.327184 25.329838 -153.225015 -6.394961 -16.074804 37.136182 8.881360 -25.329838 -14.286382 -0.888136 4.381533
1340.823784 648.244128 164.522829 0.000000 0.000000 0.000000 0.000000 0.000000 0.000000 -116.932323 2.690870 -19.645745 63.067677 5.796902 -19.645745 -138.898656 -2.656382 23.115397 35.335752 1.718376 -19.122720 -153.336856 -1.794096 -23.115397 2.206211 0.061234 4.524135
1330.023880 654.599032 145.784746 0.000000 0.000000 0.000000 0.000000 0.000000 0.000000 -112.150704 0.031508 -19.960535 67.849296 -4.857841 -19.960535 -118.798313 1.849443 20.536413 -153.636372 -6.590792 -21.869059 16.691869 6.835940 -20.536413 -16.330813 -0.683594 4.648882
1337.431641 662.410698 145.004285 0.000000 0.000000 0.000000 0.000000 0.000000 0.000000 -109.111809 -3.840255 -19.021130 70.888191 0.050114 -19.021130 -91.144379 2.987190 17.633558 -154.448144 -5.806919 -24.270510 10.298202 6.504116 -17.633558 6.642051 -0.204130 4.755283
1324.339714 676.416593 130.591986 0.000000 0.000000 0.000000 0.000000 0.000000 0.000000 -104.120178 6.197263 -16.886559 75.879822 -0.344948 -16.886559 -57.095620 4.038762 14.452610 38.799650 3.656797 -26.289200 -71.942639 -1.075780 -14.452610 8.831938 0.173036 4.842916
962.890318 439.311049 148.131005 0.000000 0.000000 0.000000 0.000000 0.000000 0.000000 19.986963 -0.935970 -13.690942 180.000000 -7.880672 -13.690942 24.297229 5.038279 11.043737 155.702771 -7.673337 -27.893295 14.983342 3.234681 -11.043737 18.000000 0.173695 4.911436
962.789911 439.279946 139.119889 0.000000 0.000000 0.000000 0.000000 0.000000 0.000000 20.089586 9.268350 -9.635073 180.000000 -0.630671 -9.635073 24.330184 -5.858504 7.460697 155.669816 -15.613039 -29.057495 14.926290 8.707013 -7.460697 18.000000 -0.533354 4.960574
641.318550 641.336324 145.177168 0.000000 0.000000 0.000000 0.000000 0.000000 0.000000 163.642929 17.546300 -4.973798 -16.357071 -4.459189 -4.973798 -155.926011 -6.712900 3.759997 -130.644608 -8.959477 -29.763441 68.679337 11.159591 -3.759997 -11.132066 -1.115959 4.990134
1305.385551 662.289033 132.179699 0.000000 0.000000 0.000000 0.000000 0.000000 0.000000 -81.949824 -13.321021 -0.000000 98.050176 14.279540 -0.000000 9.536664 -0.103958 0.000000 -153.586691 -5.325373 -30.000000 24.402531 5.367487 -0.000000 -15.559747 -0.536749 5.000000
962.486899 439.186814 114.994641 0.000000 0.000000 0.000000 0.000000 0.000000 0.000000 20.465882 -16.948961 4.973798 180.000000 2.099793 4.973798 24.357206 -4.090621 -3.759997 155.642794 7.266698 -29.763441 14.800425 -5.376931 3.759997 18.000000 0.102991 4.990134
1216.314240 612.580640 127.480166 0.000000 0.000000 0.000000 0.000000 0.000000 0.000000 78.221991 3.833945 9.635073 -101.778009 -1.570548 9.635073 46.689014 0.280409 -7.460697 -61.937558 -0.675443 -29.057495 44.546377 -1.958133 7.460697 -10.771750 0.376785 4.960574
1273.897820 573.707514 121.877248 0.000000 0.000000 0.000000 0.000000 0.000000 0.000000 77.469628 -9.249430 13.690942 -102.530372 12.592303 13.690942 -155.691164 -5.872665 -11.043737 -120.750172 4.992484 -27.893295 -156.229293 -5.741309 11.043737 2.162203 0.554413 4.911436
1337.358742 570.303276 100.653879 0.000000 0.000000 0.000000 0.000000 0.000000 0.000000 73.705918 -9.772462 16.886559 -106.294082 0.991322 16.886559 -155.918376 -5.017224 -14.452610 -149.887909 -4.407459 -26.289200 0.000000 0.000000 0.000000 0.000000 0.000000 0.000000
1342.446442 569.623497 114.959486 0.000000 0.000000 0.000000 0.000000 0.000000 0.000000 68.898287 7.799096 19.021130 -111.101713 -2.570583 19.021130 39.314088 -1.794028 -17.633558 -140.912764 -1.267952 -24.270510 -153.216026 -6.302392 17.633558 2.759242 0.778260 4.755283
1335.759430 584.665475 118.966515 0.000000 0.000000 0.000000 0.000000 0.000000 0.000000 66.989329 -8.510288 19.960535 -113.010671 7.408906 19.960535 -154.807077 -4.438709 -20.536413 -142.328055 5.982550 -21.869059 -153.049156 -5.968897 20.536413 2.866457 0.543613 4.648882
1337.950974 598.074245 108.634894 0.000000 0.000000 0.000000 0.000000 0.000000 0.000000 62.697633 -8.111932 19.645745 -117.302367 7.204869 19.645745 19.366736 2.301094 -23.115397 -144.826223 3.740010 -19.122720 9.911455 -1.565650 23.115397 -17.004209 -0.035303 4.524135
1352.846489 601.043322 92.915871 0.000000 0.000000 0.000000 0.000000 0.000000 0.000000 59.083577 -1.252533 18.096541 -120.916423 1.426474 18.096541 20.876734 -2.735907 -25.329838 -142.301690 -2.523299 -16.074804 13.356960 0.426939 25.329838 -16.821524 0.059285 4.381533
1347.310982 587.475100 92.831821 0.000000 0.000000 0.000000 0.000000 0.000000 0.000000 56.169135 0.854576 15.410265 -123.830865 5.213413 15.410265 21.172503 -4.724479 -27.144812 -139.640745 3.223904 -12.773379 14.641496 -1.312834 27.144812 -16.282575 -0.055041 4.221640
1326.982155 606.886139 84.281647 0.000000 0.000000 0.000000 0.000000 0.000000 0.000000 70.119981 -6.547400 11.755705 -109.880019 -5.439676 11.755705 26.511889 3.329210 -28.531695 -111.264667 0.181714 -9.270510 31.153840 1.569695 28.531695 -13.943905 -0.209949 4.045085
1354.391098 626.185555 72.704701 0.000000 0.000000 0.000000 0.000000 0.000000 0.000000 88.154395 9.556910 7.362491 -91.845605 -2.298410 7.362491 30.442275 1.266807 -29.468618 -76.284233 -2.654074 -5.621439 43.854867 4.343949 29.468618 -10.818190 -0.234481 3.852566
1370.667114 610.219567 77.345788 0.000000 0.000000 0.000000 0.000000 0.000000 0.000000 89.945118 3.031151 2.506665 -90.054882 -9.186950 2.506665 44.053326 2.766271 -29.940802 -56.238091 -2.340481 -1.883716 55.411270 1.964956 29.940802 -7.805659 -0.296016 3.644843
1372.834854 597.828534 77.769361 0.000000 0.000000 0.000000 0.000000 0.000000 0.000000 93.407992 1.568008 -2.506665 -86.592008 4.496477 -2.506665 54.165845 -1.509763 -29.940802 -47.239220 0.113527 1.883716 56.575186 4.753687 29.940802 -6.344474 -0.702660 3.422736
1336.554337 597.454848 66.401043 0.000000 0.000000 0.000000 0.000000 0.000000 0.000000 95.622643 0.110216 -7.362491 -84.377357 -3.725477 -7.362491 56.597780 -1.525022 -29.468618 -45.108662 -1.531939 5.621439 55.386034 3.972479 29.468618 -7.206870 -0.940496 3.187120
1310.567093 590.844769 71.808780 0.000000 0.000000 0.000000 0.000000 0.000000 0.000000 100.193768 2.736121 -11.755705 -79.806232 -4.883256 -11.755705 61.986347 3.981368 -28.531695 -37.593815 -1.071939 9.270510 62.907615 2.446003 28.531695 -6.637230 -0.456512 2.938926
1328.574371 576.493385 72.712302 0.000000 0.000000 0.000000 0.000000 0.000000 0.000000 101.943783 4.192082 -15.410265 -78.056217 -7.208099 -15.410265 61.902838 5.760099 -27.144812 -33.889586 3.228552 12.773379 55.760387 -4.651449 27.144812 -7.097415 -0.981198 2.679134
1316.178360 595.500870 59.138281 0.000000 0.000000 0.000000 0.000000 0.000000 0.000000 103.792097 4.724484 -18.096541 -76.207903 3.505244 -18.096541 65.535198 -0.862305 -25.329838 -28.739437 5.234511 16.074804 68.415337 -5.423411 25.329838 -6.481753 -0.024038 2.408768
1302.343140 568.138025 58.245865 0.000000 0.000000 0.000000 0.000000 0.000000 0.000000 101.222717 -11.030915 -19.645745 -78.777283 -3.946508 -19.645745 90.757296 3.739516 -23.115397 -18.578033 6.765229 19.122720 97.909038 -1.490750 23.115397 -5.050134 0.149749 2.128896
1274.166183 540.660596 50.256220 0.000000 0.000000 0.000000 0.000000 0.000000 0.000000 -126.898591 -12.538284 -19.960535 53.101409 9.016826 -19.960535 127.276662 -0.812678 -20.536413 8.808645 5.826672 21.869059 119.711272 -6.869509 20.536413 -4.115393 0.206966 1.840623
1268.557091 468.331075 60.308967 0.000000 0.000000 0.000000 0.000000 0.000000 0.000000 -124.112133 -10.179834 -19.021130 55.887867 8.166677 -19.021130 163.344780 -2.906605 -17.633558 38.476068 3.288926 24.270510 145.889074 -2.414260 17.633558 -1.929933 0.101802 1.545085
1278.673096 454.375906 28.018835 0.000000 0.000000 0.000000 0.000000 0.000000 0.000000 -126.805061 -3.901533 -16.886559 53.194939 8.156047 -16.886559 -174.009950 1.177626 -14.452610 27.419224 1.726370 26.289200 168.192977 1.022455 14.452610 -0.976267 -0.091564 1.243449
1285.008774 434.700390 47.865075 0.000000 0.000000 0.000000 0.000000 0.000000 0.000000 -132.005120 -2.892039 -13.690942 47.994880 -2.885241 -13.690942 -171.247775 4.275653 -11.043737 26.625253 2.794517 27.893295 178.805957 -0.550569 11.043737 0.023422 -0.099356 0.936907
1288.157730 426.987666 39.402480 0.000000 0.000000 0.000000 0.000000 0.000000 0.000000 -123.987926 5.295376 -9.635073 56.012074 -3.702454 -9.635073 -166.356219 2.735547 -7.460697 35.716336 -3.237414 29.057495 -172.960762 1.722686 7.460697 0.819533 0.102183 0.626666
1291.221657 420.425448 57.127899 0.000000 0.000000 0.000000 0.000000 0.000000 0.000000 -122.265643 -3.879789 -4.973798 57.734357 3.244303 -4.973798 -156.870161 -1.100208 -3.759997 38.220704 1.448584 29.763441 -165.716368 0.481939 3.759997 1.405814 -0.162068 0.313953
