HIERARCHY
ROOT Hips
{
    OFFSET 0.0 0.0 0.0
    CHANNELS 6 Xposition Yposition Zposition Zrotation Xrotation Yrotation
    JOINT Spine
    {
        OFFSET 0.0 5.0 0.0
        CHANNELS 3 Zrotation Xrotation Yrotation
        JOINT Chest
        {
            OFFSET 0.0 5.0 0.0
            CHANNELS 3 Zrotation Xrotation Yrotation
            JOINT Neck
            {
                OFFSET 0.0 8.0 0.0
                CHANNELS 3 Zrotation Xrotation Yrotation
                JOINT Head
                {
                    OFFSET 0.0 5.0 0.0
                    CHANNELS 3 Zrotation Xrotation Yrotation
                    End Site
                    {
                        OFFSET 0.0 3.0 0.0
                    }
                }
            }
            JOINT LeftShoulder
            {
                OFFSET -5.0 0.0 0.0
                CHANNELS 3 Zrotation Xrotation Yrotation
                JOINT LeftArm
                {
                    OFFSET 0.0 -10.0 0.0
                    CHANNELS 3 Zrotation Xrotation Yrotation
                    JOINT LeftForeArm
                    {
                        OFFSET 0.0 -10.0 0.0
                        CHANNELS 3 Zrotation Xrotation Yrotation
                        End Site
                        {
                            OFFSET 0.0 -3.0 0.0
                        }
                    }
                }
            }
        }
    }
}

MOTION
Frames: 300
Frame Time: 0.033333

960.000000 445.000000 84.173728 0.000000 0.000000 0.000000 0.000000 0.000000 0.000000 23.025492 3.836942 0.000000 180.000000 -7.412453 0.000000 21.801409 -5.960361 -0.000000 158.198591 -7.099661 30.000000 15.945396 4.493199 0.000000 18.000000 -0.168130 0.000000
1691.525230 140.756605 122.062942 0.000000 0.000000 0.000000 0.000000 0.000000 0.000000 -163.376529 3.419654 4.973798 16.623471 -5.208417 4.973798 -171.853121 -3.437435 3.759997 99.744051 -5.066624 29.763441 -171.126653 -3.908358 -3.759997 0.673538 0.470064 0.313953
1636.048050 128.802021 119.276658 0.000000 0.000000 0.000000 0.000000 0.000000 0.000000 157.904128 -13.089605 9.635073 -22.095872 14.748592 9.635073 -171.936471 -3.870539 7.460697 -143.675701 7.678487 29.057495 -173.500805 -4.509730 -7.460697 0.570999 0.466491 0.626666
1578.156967 80.474526 123.362623 0.000000 0.000000 0.000000 0.000000 0.000000 0.000000 -139.519796 0.888801 13.690942 40.480204 -11.838311 13.690942 -174.507724 -3.729812 11.043737 119.111399 0.918091 27.893295 -173.607258 -4.715414 -11.043737 0.461920 0.426153 0.936907
960.418757 444.998421 119.437737 0.000000 0.000000 0.000000 0.000000 0.000000 0.000000 25.077893 12.796683 16.886559 180.000000 -12.054926 16.886559 23.861935 0.582531 14.452610 156.138065 -14.681727 26.289200 17.903699 8.162717 -14.452610 18.000000 -0.267093 1.243449
960.523360 444.997533 125.469908 0.000000 0.000000 0.000000 0.000000 0.000000 0.000000 25.638906 20.885360 19.021130 180.000000 -8.556041 19.021130 24.425035 -8.291197 17.633558 155.574965 -8.458707 24.270510 18.452907 2.122749 -17.633558 18.000000 -0.088082 1.545085
960.627905 444.996447 130.958520 0.000000 0.000000 0.000000 0.000000 0.000000 0.000000 26.219073 24.655422 19.960535 180.000000 -3.194243 19.960535 25.006291 -2.408100 20.536413 154.993709 -0.938042 21.869059 19.024920 -7.402904 -20.536413 18.000000 0.905459 1.840623
1126.242828 420.359820 116.897928 0.000000 0.000000 0.000000 0.000000 0.000000 0.000000 31.410514 2.389057 19.645745 -148.589486 0.120664 19.645745 32.280463 -1.529441 23.115397 -131.603972 -1.434892 19.122720 45.585331 -0.026167 -23.115397 -13.449727 -0.170376 2.128896
1257.895088 650.549197 124.626419 0.000000 0.000000 0.000000 0.000000 0.000000 0.000000 25.073180 12.991050 18.096541 -154.926820 -6.458172 18.096541 46.260945 0.867073 25.329838 -154.651428 -5.570164 16.074804 27.339487 4.735575 -25.329838 -13.619892 0.352429 2.408768
960.941083 444.992008 136.279682 0.000000 0.000000 0.000000 0.000000 0.000000 0.000000 28.072001 -7.921608 15.410265 180.000000 18.991563 15.410265 26.849221 -20.778295 27.144812 153.150779 -1.706040 12.773379 20.864045 -4.973297 -27.144812 18.000000 0.397313 2.679134
1163.815842 547.748709 149.845690 0.000000 0.000000 0.000000 0.000000 0.000000 0.000000 117.162728 -6.151461 11.755705 -62.837272 -1.312578 11.755705 102.363764 -3.312168 28.531695 -47.376450 7.131008 9.270510 104.768601 -7.898921 -28.531695 -6.003489 0.214182 2.938926
961.149372 444.988063 142.453583 0.000000 0.000000 0.000000 0.000000 0.000000 0.000000 29.395983 -23.572298 7.362491 180.000000 21.252049 7.362491 28.146217 -0.660840 29.468618 151.853783 12.735569 5.621439 22.170006 7.076737 -29.468618 18.000000 0.163932 3.187120
1136.717377 590.104480 153.004387 0.000000 0.000000 0.000000 0.000000 0.000000 0.000000 115.752126 0.974505 2.506665 -64.247874 4.441551 2.506665 73.638146 -3.756914 29.940802 -21.842452 3.157958 1.883716 75.369282 -0.466175 -29.940802 -6.767207 -0.757319 3.422736
1163.079758 634.077559 156.025710 0.000000 0.000000 0.000000 0.000000 0.000000 0.000000 132.174340 4.239083 -2.506665 -47.825660 7.483867 -2.506665 94.255711 -2.726411 29.940802 -149.364979 -6.375575 -1.883716 30.021641 5.020271 -29.940802 -5.096180 0.674124 3.644843
961.460830 444.980668 159.010726 0.000000 0.000000 0.000000 0.000000 0.000000 0.000000 31.497152 -19.594685 -7.362491 180.000000 13.867355 -7.362491 30.152455 -9.397380 29.468618 149.847545 -5.494710 -5.621439 24.175589 3.923014 -29.468618 18.000000 0.766493 3.852566
1097.449951 565.089898 167.192991 0.000000 0.000000 0.000000 0.000000 0.000000 0.000000 -119.219568 3.301097 -11.755705 60.780432 -1.849847 -11.755705 -150.180642 -7.502245 28.531695 48.804955 -5.083976 -9.270510 -149.874178 -6.079563 -28.531695 2.713854 0.548288 4.045085
1114.140244 528.302071 153.404197 0.000000 0.000000 0.000000 0.000000 0.000000 0.000000 -142.671523 5.157529 -15.410265 37.328477 -11.444381 -15.410265 -177.395681 -0.193160 27.144812 34.687329 -6.689193 -12.773379 161.894167 2.639822 -27.144812 -0.910956 -0.028940 4.221640
1116.433640 479.728639 161.315890 0.000000 0.000000 0.000000 0.000000 0.000000 0.000000 -102.267481 -8.308815 -18.096541 77.732519 4.143182 -18.096541 -163.695626 1.116777 25.329838 38.575767 3.698497 -16.074804 -176.001122 -1.337662 -25.329838 0.706594 0.087378 4.381533
1135.931282 466.493965 149.803494 0.000000 0.000000 0.000000 0.000000 0.000000 0.000000 -112.868406 -4.483589 -19.645745 67.131594 9.356020 -19.645745 -159.517862 -0.881909 23.115397 36.204678 -3.070819 -19.122720 -154.426613 -5.160852 -23.115397 2.428729 0.518215 4.524135
1141.618767 467.420679 136.125644 0.000000 0.000000 0.000000 0.000000 0.000000 0.000000 -123.086385 -7.721409 -19.960535 56.913615 0.619523 -19.960535 -154.885724 -0.611498 20.536413 36.481623 1.451945 -21.869059 -153.965441 -6.136492 -20.536413 2.446728 0.585495 4.648882
1150.647926 469.370956 161.596394 0.000000 0.000000 0.000000 0.000000 0.000000 0.000000 -43.953779 5.737970 -19.021130 136.046221 -16.519504 -19.021130 -154.327268 -6.900964 17.633558 60.745168 0.058375 -24.270510 -153.350642 -6.854991 -17.633558 2.386216 0.619822 4.755283
1151.529922 496.420240 143.135220 0.000000 0.000000 0.000000 0.000000 0.000000 0.000000 -116.362129 -1.042613 -16.886559 63.637871 2.451369 -16.886559 -149.081043 3.214704 14.452610 35.941860 -1.694346 -26.289200 -156.847177 0.757481 -14.452610 2.056513 0.077889 4.842916
1148.402367 515.713574 125.424941 0.000000 0.000000 0.000000 0.000000 0.000000 0.000000 -118.252650 -2.645799 -13.690942 61.747350 -2.200626 -13.690942 -138.082896 6.789060 11.043737 -156.312677 -6.674463 -27.893295 21.649626 8.843806 -11.043737 2.962417 0.260697 4.911436
1175.363617 533.368646 124.877007 0.000000 0.000000 0.000000 0.000000 0.000000 0.000000 -95.476638 -11.835466 -9.635073 84.523362 10.237671 -9.635073 -113.907461 2.031519 7.460697 -155.995907 -6.283991 -29.057495 12.512064 7.373663 -7.460697 -16.748794 -0.737366 4.960574
1199.533310 485.991104 138.566010 0.000000 0.000000 0.000000 0.000000 0.000000 0.000000 -100.003195 1.626076 -4.973798 79.996805 -9.318899 -4.973798 -86.083188 3.380500 3.759997 38.843754 1.083213 -29.763441 -106.539452 -1.436631 -3.759997 6.197806 0.054260 4.990134
962.588190 444.938442 134.412878 0.000000 0.000000 0.000000 0.000000 0.000000 0.000000 39.579754 -16.671890 -0.000000 180.000000 18.047700 -0.000000 36.680773 -4.693827 0.000000 143.319227 3.375710 -30.000000 29.388385 4.410485 -0.000000 18.000000 -1.657351 5.000000
1142.094727 445.716287 153.486738 0.000000 0.000000 0.000000 0.000000 0.000000 0.000000 -140.228454 0.093114 4.973798 39.771546 19.231570 4.973798 -156.118008 -6.192438 -3.759997 3.479189 6.382252 -29.763441 -158.005660 -5.948131 3.759997 2.150019 0.519597 4.990134
1164.005928 424.847746 116.458089 0.000000 0.000000 0.000000 0.000000 0.000000 0.000000 -84.241076 16.823783 9.635073 95.758924 -5.346309 9.635073 -156.181584 -5.882718 -7.460697 166.928360 -2.113975 -29.057495 -154.947270 -6.204458 7.460697 2.644196 0.661911 4.960574
1124.208755 418.286655 130.999370 0.000000 0.000000 0.000000 0.000000 0.000000 0.000000 -117.427077 -15.649581 13.690942 62.572923 6.063925 13.690942 -155.943063 -5.542384 -11.043737 14.023837 15.465835 -27.893295 -157.382674 -5.965977 11.043737 2.188130 0.518316 4.911436
962.990408 444.917226 140.993123 0.000000 0.000000 0.000000 0.000000 0.000000 0.000000 42.110883 -29.047888 16.886559 180.000000 30.552120 16.886559 37.946959 -15.158368 -14.452610 142.053041 12.001472 -26.289200 29.293612 1.947563 14.452610 18.000000 -0.691684 4.842916
963.090170 444.911436 104.648941 0.000000 0.000000 0.000000 0.000000 0.000000 0.000000 42.659200 2.409702 19.021130 180.000000 -11.687728 19.021130 38.119107 3.050722 -17.633558 141.880893 -7.491918 -24.270510 29.068887 2.547625 17.633558 18.000000 -0.460094 4.755283
1186.646461 396.272757 95.741746 0.000000 0.000000 0.000000 0.000000 0.000000 0.000000 -72.847419 -40.268827 19.960535 107.152581 10.645275 19.960535 -156.703603 -4.031056 -20.536413 178.447294 6.938234 -21.869059 -157.212393 -4.387760 20.536413 1.964058 0.586580 4.648882
1313.051605 426.636125 101.039273 0.000000 0.000000 0.000000 0.000000 0.000000 0.000000 90.994869 -18.991281 19.645745 -89.005131 25.630735 19.645745 -160.515303 -4.595396 -23.115397 -153.248861 4.238880 -19.122720 -159.640525 -4.797491 23.115397 0.000000 0.000000 0.000000
1347.999344 420.772226 111.418923 0.000000 0.000000 0.000000 0.000000 0.000000 0.000000 90.154351 2.240469 18.096541 -89.845649 -0.377870 18.096541 -162.053401 -4.139047 -25.329838 -136.198880 -1.572111 -16.074804 -160.991694 -4.450959 25.329838 0.000000 0.000000 0.000000
1344.315948 421.031681 95.038686 0.000000 0.000000 0.000000 0.000000 0.000000 0.000000 69.757587 4.958909 15.410265 -110.242413 -0.247936 15.410265 25.616746 5.679452 -27.144812 -157.821005 -3.679544 -12.773379 17.214985 3.275541 27.144812 -16.704706 -0.065912 4.221640
1350.307617 440.309436 87.486586 0.000000 0.000000 0.000000 0.000000 0.000000 0.000000 71.124018 2.252271 11.755705 -108.875982 -0.085247 11.755705 42.739987 -3.342873 -28.531695 -142.315466 0.864348 -9.270510 16.600926 -1.650007 28.531695 -16.660102 0.076285 4.045085
1357.685051 430.688889 81.238045 0.000000 0.000000 0.000000 0.000000 0.000000 0.000000 77.656077 -0.060043 7.362491 -102.343923 7.627634 7.362491 39.407151 -4.814991 -29.468618 -136.343173 2.130622 -5.621439 22.144452 0.538130 29.468618 -16.305135 -0.151233 3.852566
1369.482193 445.909406 87.525809 0.000000 0.000000 0.000000 0.000000 0.000000 0.000000 88.051188 -2.725963 2.506665 -91.948812 1.263905 2.506665 -161.283973 -3.208433 -29.940802 -119.799169 -0.229073 -1.883716 -164.575400 -3.431608 29.940802 1.401013 0.341663 3.644843
963.875156 444.858159 71.131163 0.000000 0.000000 0.000000 0.000000 0.000000 0.000000 45.304844 -35.043657 -2.506665 180.000000 15.356075 -2.506665 37.252439 -5.661979 -29.940802 142.747561 7.570345 1.883716 25.146244 0.238924 29.940802 18.000000 -0.618076 3.422736
963.971479 444.850633 69.874456 0.000000 0.000000 0.000000 0.000000 0.000000 0.000000 45.383640 -9.667056 -7.362491 180.000000 -34.208692 -7.362491 36.882310 31.786906 -29.468618 143.117690 1.380173 5.621439 24.499789 -10.301951 29.468618 18.000000 1.102209 3.187120
1336.629524 469.010178 60.798642 0.000000 0.000000 0.000000 0.000000 0.000000 0.000000 -72.390177 22.329754 -11.755705 107.609823 37.551647 -11.755705 -158.649984 -3.114654 -28.531695 2.583425 15.523188 9.270510 -39.658551 -2.161258 28.531695 10.837181 -1.672289 2.938926
1311.966934 518.219100 60.650719 0.000000 0.000000 0.000000 0.000000 0.000000 0.000000 -63.565072 -29.607420 -15.410265 116.434928 32.410838 -15.410265 -14.840750 1.586530 -27.144812 -158.549348 -2.220352 12.773379 17.488774 2.172650 27.144812 7.174982 0.039828 2.679134
964.257793 444.826908 54.891896 0.000000 0.000000 0.000000 0.000000 0.000000 0.000000 45.262206 -55.473955 -18.096541 180.000000 21.602008 -18.096541 35.497192 -0.577844 -25.329838 144.502808 17.317882 16.074804 22.522929 -1.986031 25.329838 18.000000 0.318126 2.408768
1275.921364 516.836239 56.088914 0.000000 0.000000 0.000000 0.000000 0.000000 0.000000 85.186295 -3.261745 -19.645745 -94.813705 -6.637348 -19.645745 52.470689 8.377759 -23.115397 -44.513683 5.845997 19.122720 50.867598 -1.108281 23.115397 -8.717188 -0.496698 2.128896
1263.254128 546.875424 61.305741 0.000000 0.000000 0.000000 0.000000 0.000000 0.000000 34.848242 47.347043 -19.960535 -145.151758 -35.100981 -19.960535 42.487561 43.705920 -20.536413 -157.415675 -2.981224 21.869059 22.420880 2.453333 20.536413 -15.757912 -0.245333 1.840623
1258.788185 528.263061 53.817738 0.000000 0.000000 0.000000 0.000000 0.000000 0.000000 118.326865 -33.053453 -19.021130 -61.673135 25.822768 -19.021130 143.214759 -1.514607 -17.633558 -156.228306 -1.538540 24.270510 28.173554 2.599240 17.633558 -15.182645 -0.259924 1.545085
1231.492081 471.383836 47.902830 0.000000 0.000000 0.000000 0.000000 0.000000 0.000000 -115.049381 -27.425729 -16.886559 64.950619 31.721327 -16.886559 172.843704 2.190332 -14.452610 -157.842300 -1.885033 26.289200 32.851042 2.959717 14.452610 -14.714896 -0.295972 1.243449
1223.928795 435.993515 57.464243 0.000000 0.000000 0.000000 0.000000 0.000000 0.000000 -115.322532 12.895636 -13.690942 64.677468 2.724693 -13.690942 -168.597862 -4.956997 -11.043737 -158.853816 -2.509006 27.893295 31.099266 2.845984 11.043737 -14.890073 -0.284598 0.936907
1223.669701 418.195664 60.392834 0.000000 0.000000 0.000000 0.000000 0.000000 0.000000 -102.084053 8.649620 -9.635073 77.915947 -10.203546 -9.635073 -171.103858 -0.689418 -7.460697 162.056334 -2.302479 29.057495 -153.594437 -2.208060 7.460697 2.968481 0.383913 0.626666
1216.486244 414.503002 40.374240 0.000000 0.000000 0.000000 0.000000 0.000000 0.000000 69.261091 53.888433 -4.973798 -110.738909 -9.079790 -4.973798 -158.083722 -2.450731 -3.759997 -173.244581 -2.793689 29.763441 -154.635509 -2.529239 3.759997 2.928763 0.293386 0.313953
1212.090225 434.550980 47.520621 0.000000 0.000000 0.000000 0.000000 0.000000 0.000000 -112.403932 -2.913786 0.000000 67.596068 35.590004 0.000000 -157.060799 -3.749342 -0.000000 173.400765 0.451861 30.000000 -154.473580 -3.081086 0.000000 2.734633 0.302743 0.000000
1214.024734 450.340490 59.628835 0.000000 0.000000 0.000000 0.000000 0.000000 0.000000 -110.634751 -10.544687 4.973798 69.365249 2.498463 4.973798 -137.583343 3.863033 3.759997 -158.589698 -2.011442 29.763441 20.879446 3.440536 -3.759997 -15.912055 -0.344054 0.313953
1204.271393 440.192921 55.173934 0.000000 0.000000 0.000000 0.000000 0.000000 0.000000 -99.498286 -19.111589 9.635073 80.501714 10.595757 9.635073 -156.696469 -2.756408 7.460697 -178.487725 13.103164 29.057495 -157.318323 -3.250723 -7.460697 2.108583 0.327507 0.626666
965.269558 444.725315 57.079080 0.000000 0.000000 0.000000 0.000000 0.000000 0.000000 40.845461 -9.796739 13.690942 180.000000 3.078284 13.690942 28.615377 -16.351020 11.043737 151.384623 13.974377 27.893295 16.305092 -2.874002 -11.043737 18.000000 -0.067834 0.936907
1182.456551 475.103824 54.289049 0.000000 0.000000 0.000000 0.000000 0.000000 0.000000 -168.146016 -62.899234 16.886559 11.853984 -71.564102 16.886559 -63.802645 7.706204 14.452610 -61.114510 -4.156044 26.289200 -47.869281 5.024785 -14.452610 -13.834956 -7.613904 1.243449
965.446390 444.704404 63.760662 0.000000 0.000000 0.000000 0.000000 0.000000 0.000000 39.578146 26.657785 19.021130 180.000000 -10.293706 19.021130 27.338029 -1.783190 17.633558 152.661971 -4.533494 24.270510 15.463180 -2.472433 -17.633558 18.000000 0.483636 1.545085
965.533915 444.693669 62.409905 0.000000 0.000000 0.000000 0.000000 0.000000 0.000000 38.916706 3.132514 19.960535 180.000000 -10.286265 19.960535 26.716768 19.476800 20.536413 153.283232 -2.582742 21.869059 15.076605 -3.441134 -20.536413 18.000000 0.399605 1.840623
965.620834 444.682749 67.897549 0.000000 0.000000 0.000000 0.000000 0.000000 0.000000 38.241653 24.922348 19.645745 180.000000 3.270104 19.645745 26.109467 -6.345312 23.115397 153.890533 -3.027915 19.122720 14.712258 3.631246 -23.115397 18.000000 -0.832866 2.128896
965.707136 444.671645 62.902309 0.000000 0.000000 0.000000 0.000000 0.000000 0.000000 37.556504 18.752379 18.096541 180.000000 11.569027 18.096541 25.517536 -7.999480 25.329838 154.482464 13.935565 16.074804 14.369537 -8.693725 -25.329838 18.000000 0.263915 2.408768
965.792812 444.660356 89.901597 0.000000 0.000000 0.000000 0.000000 0.000000 0.000000 36.864608 23.271308 15.410265 180.000000 3.595689 15.410265 24.942131 4.767311 27.144812 155.057869 -14.763211 12.773379 14.047797 7.743375 -27.144812 18.000000 0.859566 2.679134
965.877853 444.648882 62.914188 0.000000 0.000000 0.000000 0.000000 0.000000 0.000000 36.169118 -22.041285 11.755705 180.000000 -19.136425 11.755705 24.384173 14.257350 28.531695 155.615827 2.635462 9.270510 13.746367 -1.713627 -28.531695 18.000000 0.325011 2.938926
965.962249 444.637226 80.447361 0.000000 0.000000 0.000000 0.000000 0.000000 0.000000 35.472980 24.769857 7.362491 180.000000 7.425437 7.362491 23.844373 -5.302593 29.468618 156.155627 1.599050 5.621439 13.464570 0.671864 -29.468618 18.000000 -0.238861 3.187120
966.045991 444.625386 83.070035 0.000000 0.000000 0.000000 0.000000 0.000000 0.000000 34.778913 31.275968 2.506665 180.000000 -4.751365 2.506665 23.323250 2.996309 29.940802 156.676750 -8.743271 1.883716 13.201728 8.339679 -29.940802 18.000000 -0.929347 3.422736
966.129071 444.613364 96.855526 0.000000 0.000000 0.000000 0.000000 0.000000 0.000000 34.089406 -0.144386 -2.506665 180.000000 4.415128 -2.506665 22.821158 -1.630481 29.940802 157.178842 10.119704 -1.883716 12.957175 -2.235721 -29.940802 18.000000 0.353305 3.644843
966.211478 444.601159 102.615002 0.000000 0.000000 0.000000 0.000000 0.000000 0.000000 33.406712 -0.794873 -7.362491 180.000000 17.819343 -7.362491 22.338307 0.765241 29.468618 157.661693 -6.286003 -5.621439 12.730264 4.599696 -29.468618 18.000000 -0.057798 3.852566
1171.486244 534.946783 116.118633 0.000000 0.000000 0.000000 0.000000 0.000000 0.000000 70.594720 3.593649 -11.755705 -109.405280 -4.734979 -11.755705 49.953444 8.125767 28.531695 -151.467583 -4.937454 -9.270510 0.000000 0.000000 0.000000 0.000000 0.000000 0.000000
966.374240 444.576206 108.479091 0.000000 0.000000 0.000000 0.000000 0.000000 0.000000 32.069603 9.513931 -15.410265 180.000000 3.341311 -15.410265 21.430544 0.287778 27.144812 158.569456 5.689237 -12.773379 12.326901 1.544342 -27.144812 18.000000 -0.360547 4.221640
1172.156410 555.047708 131.802245 0.000000 0.000000 0.000000 0.000000 0.000000 0.000000 -121.065102 1.216192 -18.096541 58.934898 -4.019402 -18.096541 -151.641456 -5.433326 25.329838 -177.360623 5.362363 -16.074804 -149.076048 -7.205986 -25.329838 0.000000 0.000000 0.000000
1161.826630 552.360713 133.163345 0.000000 0.000000 0.000000 0.000000 0.000000 0.000000 69.958407 -23.986185 -19.645745 -110.041593 54.222937 -19.645745 -152.437496 -6.682014 23.115397 -158.790607 1.170042 -19.122720 -150.591725 -6.531220 -23.115397 3.219062 0.767539 4.524135
1165.827255 569.832902 126.520055 0.000000 0.000000 0.000000 0.000000 0.000000 0.000000 25.594208 9.658112 -19.960535 -154.405792 5.313088 -19.960535 11.723883 1.303815 20.536413 -161.543160 -0.639500 -21.869059 7.769582 0.858487 -20.536413 -17.248199 -0.012354 4.648882
1165.555573 565.067046 133.890564 0.000000 0.000000 0.000000 0.000000 0.000000 0.000000 43.355707 -7.624581 -19.021130 -136.644293 10.211788 -19.021130 15.984329 -2.437750 17.633558 -140.773833 1.495247 -24.270510 13.679449 0.160436 -17.633558 -16.392157 0.015855 4.755283
1290.255775 608.533316 142.113733 0.000000 0.000000 0.000000 0.000000 0.000000 0.000000 -153.952071 -11.111921 -16.886559 26.047929 17.919672 -16.886559 -152.683807 -5.598636 14.452610 4.794196 -0.917148 -26.289200 -154.287190 -4.670663 -14.452610 2.418080 0.532790 4.842916
1180.398903 551.817470 140.663038 0.000000 0.000000 0.000000 0.000000 0.000000 0.000000 51.640104 1.873761 -13.690942 -128.359896 -5.570681 -13.690942 14.419400 0.315154 11.043737 -33.521359 -16.451406 -27.893295 -34.277510 9.850082 -11.043737 5.235387 -0.310893 4.911436
1162.708626 619.419501 151.975694 0.000000 0.000000 0.000000 0.000000 0.000000 0.000000 -88.968325 -32.818836 -9.635073 91.031675 13.907617 -9.635073 -52.690088 10.812103 7.460697 25.015222 3.055967 -29.057495 -72.561734 4.380912 -7.460697 8.557489 -0.186991 4.960574
1110.899391 602.919216 147.574831 0.000000 0.000000 0.000000 0.000000 0.000000 0.000000 -86.972237 3.729499 -4.973798 93.027763 -3.116334 -4.973798 -39.551144 0.045865 3.759997 34.838085 0.044996 -29.763441 -44.185810 -1.022239 -3.759997 10.000609 -0.038242 4.990134
1150.187302 553.686991 133.383206 0.000000 0.000000 0.000000 0.000000 0.000000 0.000000 -116.065142 -4.371591 -0.000000 63.934858 11.981914 -0.000000 -151.059314 -7.114208 0.000000 -0.492058 1.680219 -30.000000 -14.044098 -4.192331 -0.000000 1.929760 -0.106362 5.000000
967.144727 444.440682 134.513441 0.000000 0.000000 0.000000 0.000000 0.000000 0.000000 26.270296 31.819564 4.973798 180.000000 -10.675741 4.973798 17.996647 -3.174263 -3.759997 162.003353 1.175795 -29.763441 11.189167 -7.418514 3.759997 18.000000 0.522614 4.990134
1213.452644 620.002785 148.674301 0.000000 0.000000 0.000000 0.000000 0.000000 0.000000 140.390379 0.482236 9.635073 -39.609621 -20.718187 9.635073 77.724607 2.267159 -7.460697 -153.982965 -7.042766 -29.057495 24.142749 6.511375 7.460697 -0.833727 -0.092976 4.960574
1124.373779 618.464527 147.665698 0.000000 0.000000 0.000000 0.000000 0.000000 0.000000 99.329635 47.904965 13.690942 -80.670365 -25.840946 13.690942 85.960927 -2.823141 -11.043737 -150.875293 -7.742583 -27.893295 31.644098 5.778059 11.043737 -14.835590 -0.577806 4.911436
967.360971 444.396582 142.451600 0.000000 0.000000 0.000000 0.000000 0.000000 0.000000 24.874716 -6.392781 16.886559 180.000000 4.592790 16.886559 17.291102 -1.790704 -14.452610 162.708898 1.921541 -26.289200 11.098846 -3.747490 14.452610 18.000000 0.701295 4.842916
1107.875175 542.453964 140.334262 0.000000 0.000000 0.000000 0.000000 0.000000 0.000000 -128.741314 10.312867 19.021130 51.258686 -10.644950 19.021130 -177.225595 2.446518 -17.633558 19.954750 2.528071 -24.270510 162.677362 1.068778 17.633558 -1.443098 -0.234671 4.755283
1119.652290 522.766346 151.700865 0.000000 0.000000 0.000000 0.000000 0.000000 0.000000 -99.017754 -10.435859 19.960535 80.982246 16.841145 19.960535 -150.289603 -7.449400 -20.536413 -152.613833 -6.795509 -21.869059 0.000000 0.000000 0.000000 0.000000 0.000000 0.000000
1132.908783 538.229613 142.196277 0.000000 0.000000 0.000000 0.000000 0.000000 0.000000 -127.874185 -16.974062 19.645745 52.125815 -0.818784 19.645745 -165.450188 5.050348 -23.115397 -152.521515 -6.520345 -19.122720 40.606225 9.239276 23.115397 -13.939378 -0.923928 4.524135
1146.969337 541.828065 145.395370 0.000000 0.000000 0.000000 0.000000 0.000000 0.000000 -113.631604 5.876874 18.096541 66.368396 2.939347 18.096541 -159.067475 -2.524181 -25.329838 113.981862 -8.198498 -16.074804 -145.449815 -6.295958 25.329838 0.000000 0.000000 0.000000
1165.252304 561.329677 140.015959 0.000000 0.000000 0.000000 0.000000 0.000000 0.000000 -112.861399 1.813287 15.410265 67.138601 -10.153228 15.410265 -159.396543 3.214566 -27.144812 -151.967552 -6.848311 -12.773379 38.422588 8.660136 27.144812 -14.157741 -0.866014 4.221640
1174.726181 592.839689 143.465896 0.000000 0.000000 0.000000 0.000000 0.000000 0.000000 -110.369899 -17.847988 11.755705 69.630101 21.092831 11.755705 -148.108768 -5.321489 -28.531695 -151.515612 -5.646701 -9.270510 34.277732 9.573031 28.531695 -14.572227 -0.957303 4.045085
1167.352524 605.194867 137.682849 0.000000 0.000000 0.000000 0.000000 0.000000 0.000000 -113.828445 3.794750 7.362491 66.171555 -0.772792 7.362491 -131.688453 -0.672413 -29.468618 -151.045756 -6.992665 -5.621439 27.200835 7.626370 29.468618 -15.279916 -0.762637 3.852566
1139.678879 602.981014 126.930977 0.000000 0.000000 0.000000 0.000000 0.000000 0.000000 -97.599684 -14.669399 2.506665 82.400316 8.716897 2.506665 -113.965806 -1.853510 -29.940802 -121.058781 8.254903 -1.883716 -118.492407 -5.245470 29.940802 10.137620 -6.050073 3.644843
1165.830002 580.020189 119.866766 0.000000 0.000000 0.000000 0.000000 0.000000 0.000000 -28.085052 31.161519 -2.506665 151.914948 -44.043975 -2.506665 -150.589103 -5.439213 -29.940802 -172.678414 -20.156158 1.883716 -149.717924 -5.178221 29.940802 0.000000 0.000000 0.000000
1184.501953 619.872494 121.913120 0.000000 0.000000 0.000000 0.000000 0.000000 0.000000 -113.790307 4.629568 -7.362491 66.209693 -28.981371 -7.362491 -59.272274 5.453535 -29.468618 29.476823 -4.366684 5.621439 -88.148483 1.361391 29.468618 7.414604 0.162222 3.187120
968.090170 444.221640 134.194077 0.000000 0.000000 0.000000 0.000000 0.000000 0.000000 21.092887 -8.218841 -11.755705 180.000000 5.060216 -11.755705 15.757771 -2.217664 -28.531695 164.242229 -0.250039 9.270510 11.678908 3.920456 28.531695 18.000000 -0.007485 2.938926
968.151278 444.204723 111.790469 0.000000 0.000000 0.000000 0.000000 0.000000 0.000000 20.844337 -23.163242 -15.410265 180.000000 6.908181 -15.410265 15.691895 0.984247 -27.144812 164.308105 12.417681 12.773379 11.804629 -8.483608 27.144812 18.000000 0.507204 2.679134
968.211492 444.187640 110.931725 0.000000 0.000000 0.000000 0.000000 0.000000 0.000000 20.610265 -14.623213 -18.096541 180.000000 9.397279 -18.096541 15.637361 -7.422795 -25.329838 164.362639 -1.057075 16.074804 11.943263 -0.942387 25.329838 18.000000 -0.171821 2.408768
968.270806 444.170392 94.772378 0.000000 0.000000 0.000000 0.000000 0.000000 0.000000 20.390366 16.214767 -19.645745 180.000000 -3.523791 -19.645745 15.594026 -1.412880 -23.115397 164.405974 -6.925163 19.122720 12.095062 0.799852 23.115397 18.000000 0.398494 2.128896
968.329212 444.152979 110.017098 0.000000 0.000000 0.000000 0.000000 0.000000 0.000000 20.184343 -1.581784 -19.960535 180.000000 8.557926 -19.960535 15.561766 -5.949225 -20.536413 164.438234 7.268214 21.869059 12.260289 -4.474733 20.536413 18.000000 0.410017 1.840623
968.386706 444.135403 100.736184 0.000000 0.000000 0.000000 0.000000 0.000000 0.000000 19.991916 -4.902434 -19.021130 180.000000 5.037902 -19.021130 15.540476 -0.055629 -17.633558 164.459524 0.353928 24.270510 12.439222 -3.030485 17.633558 18.000000 -0.183290 1.545085
968.443279 444.117663 70.127549 0.000000 0.000000 0.000000 0.000000 0.000000 0.000000 19.812814 -4.570064 -16.886559 180.000000 10.729099 -16.886559 15.530069 -7.404497 -14.452610 164.469931 7.367248 26.289200 12.632146 -6.817980 14.452610 18.000000 0.397186 1.243449
968.498927 444.099761 81.453209 0.000000 0.000000 0.000000 0.000000 0.000000 0.000000 19.646785 -21.787769 -13.690942 180.000000 7.327352 -13.690942 15.530474 1.466621 -11.043737 164.469526 4.872274 27.893295 12.839349 3.327680 11.043737 18.000000 0.026534 0.936907
968.553643 444.081696 93.720300 0.000000 0.000000 0.000000 0.000000 0.000000 0.000000 19.493591 -21.886015 -9.635073 180.000000 15.716814 -9.635073 15.541640 -8.475300 -7.460697 164.458360 12.166448 29.057495 13.061119 -7.475283 7.460697 18.000000 0.349954 0.626666
1051.772690 653.004448 69.622941 0.000000 0.000000 0.000000 0.000000 0.000000 0.000000 -79.007834 3.732641 -4.973798 100.992166 -3.635366 -4.973798 -126.715299 2.095872 -3.759997 -149.991181 -3.894200 29.763441 31.772279 5.239530 3.759997 -14.822772 -0.523953 0.313953
1061.669197 624.716241 62.849215 0.000000 0.000000 0.000000 0.000000 0.000000 0.000000 -94.718359 17.500213 0.000000 85.281641 -29.693905 0.000000 -144.150484 4.824180 -0.000000 60.155085 -19.586301 30.000000 -152.711462 0.784180 0.000000 1.815393 0.211942 0.000000
1072.053337 571.032879 80.542267 0.000000 0.000000 0.000000 0.000000 0.000000 0.000000 71.424080 1.299241 4.973798 -108.575920 -11.803217 4.973798 -149.042361 -3.115031 3.759997 -149.913636 0.658912 29.763441 -145.792107 -4.825330 -3.759997 3.947623 0.406182 0.313953
1070.057373 572.884376 73.343946 0.000000 0.000000 0.000000 0.000000 0.000000 0.000000 -80.850201 8.677032 9.635073 99.149799 12.974598 9.635073 -147.567525 -3.639601 7.460697 -164.443014 2.084294 29.057495 -145.447997 -4.464389 -7.460697 4.032371 0.388629 0.626666
968.813035 443.988972 55.160539 0.000000 0.000000 0.000000 0.000000 0.000000 0.000000 18.912944 -25.020086 13.690942 180.000000 0.020769 13.690942 15.758200 3.969684 11.043737 164.241800 -2.205460 27.893295 14.397395 3.851520 -11.043737 18.000000 -0.419613 0.936907
968.862036 443.969952 49.854055 0.000000 0.000000 0.000000 0.000000 0.000000 0.000000 18.832684 3.122933 16.886559 180.000000 -9.528256 16.886559 15.833735 5.302598 14.452610 164.166265 -3.155593 26.289200 14.711463 -0.294727 -14.452610 18.000000 0.190155 1.243449
968.910065 443.950775 55.754643 0.000000 0.000000 0.000000 0.000000 0.000000 0.000000 18.764066 5.078194 19.021130 180.000000 1.438328 19.021130 15.920102 -0.421801 17.633558 164.079898 1.880084 24.270510 15.041323 -4.688837 -17.633558 18.000000 0.590706 1.545085
968.957118 443.931442 69.357171 0.000000 0.000000 0.000000 0.000000 0.000000 0.000000 18.706990 15.285987 19.960535 180.000000 8.917209 19.960535 16.017366 -17.770752 20.536413 163.982634 3.568467 21.869059 15.386894 1.150490 -20.536413 18.000000 -0.531186 1.840623
969.003188 443.911954 51.871589 0.000000 0.000000 0.000000 0.000000 0.000000 0.000000 18.661377 14.408929 19.645745 180.000000 -4.904447 19.645745 16.125602 -0.564835 23.115397 163.874398 -12.564640 19.122720 15.747980 10.308049 -23.115397 18.000000 -0.916101 2.128896
969.048271 443.892312 46.278069 0.000000 0.000000 0.000000 0.000000 0.000000 0.000000 18.627165 -0.014751 18.096541 180.000000 1.347286 18.096541 16.244896 0.472244 25.329838 163.755104 -7.374445 16.074804 16.124252 6.720316 -25.329838 18.000000 0.236447 2.408768
969.092361 443.872515 51.841131 0.000000 0.000000 0.000000 0.000000 0.000000 0.000000 18.604312 -3.488253 15.410265 180.000000 10.568081 15.410265 16.375340 -18.354980 27.144812 163.624660 -5.697646 12.773379 16.515224 1.013361 -27.144812 18.000000 0.403465 2.679134
1055.186234 577.357593 53.006853 0.000000 0.000000 0.000000 0.000000 0.000000 0.000000 85.510211 6.262202 11.755705 -94.489789 -0.254961 11.755705 37.103410 -1.927149 28.531695 -148.111343 -2.731456 9.270510 24.294182 1.881716 -28.531695 -8.601915 0.460260 2.938926
1122.856522 566.714029 58.858081 0.000000 0.000000 0.000000 0.000000 0.000000 0.000000 96.216240 -5.148813 7.362491 -83.783760 0.978111 7.362491 46.189625 1.492295 29.468618 -149.396962 -2.176983 5.621439 24.670091 1.489715 -29.468618 -7.107716 0.462599 3.187120
969.218632 443.812213 59.618375 0.000000 0.000000 0.000000 0.000000 0.000000 0.000000 18.603763 7.412103 2.506665 180.000000 -3.826168 2.506665 16.834613 -1.283517 29.940802 163.165387 -0.905889 1.883716 17.768624 -7.918395 -29.940802 18.000000 0.020003 3.422736
1112.757797 605.798106 52.353268 0.000000 0.000000 0.000000 0.000000 0.000000 0.000000 110.914625 4.702905 -2.506665 -69.085375 -13.688216 -2.506665 67.769469 2.827559 29.940802 -149.822316 -3.031998 -1.883716 29.049901 2.041516 -29.940802 -3.625079 -0.089861 3.644843
1086.733246 592.557156 80.666346 0.000000 0.000000 0.000000 0.000000 0.000000 0.000000 -80.132323 49.120028 -7.362491 99.867677 58.995400 -7.362491 36.201564 -11.477393 29.468618 -13.679556 4.400453 -5.621439 78.049842 -1.692208 -29.468618 -5.127460 -0.580960 3.852566
1081.109390 570.394492 50.300956 0.000000 0.000000 0.000000 0.000000 0.000000 0.000000 -175.864613 -14.906169 -11.755705 4.135387 2.171036 -11.755705 134.713876 4.606111 28.531695 -10.005873 6.911495 -9.270510 135.737755 0.101503 -28.531695 -3.389365 -0.041757 4.045085
1089.776802 536.594539 42.888045 0.000000 0.000000 0.000000 0.000000 0.000000 0.000000 -139.033903 18.295828 -15.410265 40.966097 -16.662455 -15.410265 161.695972 1.192498 27.144812 3.114398 -3.572433 -12.773379 148.805610 -0.857364 -27.144812 -2.611636 0.015238 4.221640
1114.282036 523.965647 66.727432 0.000000 0.000000 0.000000 0.000000 0.000000 0.000000 -156.073983 5.251186 -18.096541 23.926017 -3.605133 -18.096541 174.825807 1.031734 25.329838 5.093343 -0.648803 -16.074804 161.266817 0.975734 -25.329838 -1.814366 -0.114795 4.381533
1122.145157 503.425248 56.280588 0.000000 0.000000 0.000000 0.000000 0.000000 0.000000 -144.538174 3.828703 -19.645745 35.461826 -12.498775 -19.645745 174.215003 4.376205 23.115397 -151.750905 -4.142717 -19.122720 43.887064 3.424814 -23.115397 -13.611294 -0.342481 4.524135
1134.158249 484.688419 65.603910 0.000000 0.000000 0.000000 0.000000 0.000000 0.000000 -142.311443 -1.349359 -19.960535 37.688557 3.445694 -19.960535 -174.407776 1.624130 20.536413 14.121014 4.251260 -21.869059 176.737053 -0.306428 -20.536413 -0.386439 0.013687 4.648882
1156.756668 500.025387 93.162798 0.000000 0.000000 0.000000 0.000000 0.000000 0.000000 -140.140767 -1.421019 -19.021130 39.859233 -5.300066 -19.021130 -176.866589 -0.427447 17.633558 -153.177991 -4.142421 -24.270510 40.555680 4.965843 -17.633558 -13.944432 -0.496584 4.755283
1163.818588 490.292573 73.464731 0.000000 0.000000 0.000000 0.000000 0.000000 0.000000 -126.918075 14.761150 -16.886559 53.081925 -11.819972 -16.886559 -163.374411 -1.935241 14.452610 -153.952175 -4.521179 -26.289200 36.914642 5.948976 -14.452610 0.798233 -0.228591 4.842916
1176.523705 490.346003 75.893079 0.000000 0.000000 0.000000 0.000000 0.000000 0.000000 -130.072590 6.441212 -13.690942 49.927410 -7.194470 -13.690942 -150.224616 6.903893 11.043737 24.749952 -0.489627 -27.893295 -162.219632 0.812394 -11.043737 1.550269 -0.155964 4.911436
1165.045052 489.521159 64.870109 0.000000 0.000000 0.000000 0.000000 0.000000 0.000000 -134.421293 -6.692155 -9.635073 45.578707 -1.645310 -9.635073 -138.114962 -2.608544 7.460697 20.347125 5.591069 -29.057495 -149.675125 -2.881005 -7.460697 1.919618 -0.031232 4.960574
1186.003189 485.341580 86.020913 0.000000 0.000000 0.000000 0.000000 0.000000 0.000000 151.263424 77.987020 -4.973798 -28.736576 -82.635895 -4.973798 -155.571724 -3.507323 3.759997 -114.944239 -10.450461 -29.763441 -157.446860 -4.022473 -3.759997 2.096391 0.416875 4.990134
1190.285912 497.609435 86.815318 0.000000 0.000000 0.000000 0.000000 0.000000 0.000000 -104.331435 -20.610023 -0.000000 75.668565 8.601075 -0.000000 -153.934692 -4.515631 0.000000 -67.465008 -3.728712 -30.000000 -71.629168 6.069722 -0.000000 -13.965204 -4.413563 5.000000
846.875610 502.341399 114.105470 0.000000 0.000000 0.000000 0.000000 0.000000 0.000000 -153.358185 -19.327220 4.973798 26.641815 18.762936 4.973798 -147.628169 -5.607243 -3.759997 -147.401289 -5.061993 -29.763441 0.000000 0.000000 0.000000 0.000000 0.000000 0.000000
969.711343 443.490827 97.003316 0.000000 0.000000 0.000000 0.000000 0.000000 0.000000 20.204512 -11.464703 9.635073 180.000000 8.756577 9.635073 20.733157 -2.363667 -7.460697 159.266843 7.948582 -29.057495 24.065833 -6.789330 7.460697 18.000000 0.077930 4.960574
969.735789 443.468267 113.383784 0.000000 0.000000 0.000000 0.000000 0.000000 0.000000 20.415894 -3.971406 13.690942 180.000000 6.308356 13.690942 21.087741 0.196310 -11.043737 158.912259 8.042558 -27.893295 24.320336 6.400880 11.043737 18.000000 -1.236714 4.911436
969.759168 443.445569 99.892739 0.000000 0.000000 0.000000 0.000000 0.000000 0.000000 20.642061 -1.109448 16.886559 180.000000 -6.170576 16.886559 21.453029 -1.117176 -14.452610 158.546971 -6.045492 -26.289200 24.533304 16.704759 14.452610 18.000000 -1.202736 4.842916
585.252171 514.469179 121.309082 0.000000 0.000000 0.000000 0.000000 0.000000 0.000000 74.723181 -51.506003 19.021130 -105.276819 34.610286 19.021130 119.807175 0.087888 -17.633558 165.825978 8.673432 -24.270510 138.012220 9.017144 17.633558 -12.357653 -0.734627 4.755283
624.843979 517.601860 128.134179 0.000000 0.000000 0.000000 0.000000 0.000000 0.000000 103.202449 0.592894 19.960535 -76.797551 -19.336826 19.960535 114.381580 4.961585 -20.536413 -53.015473 16.942929 -21.869059 145.467160 -3.638066 20.536413 -4.173333 -1.417398 4.648882
969.822873 443.376664 142.298896 0.000000 0.000000 0.000000 0.000000 0.000000 0.000000 21.413420 -0.234217 19.645745 180.000000 -7.484305 19.645745 22.607712 4.504952 -23.115397 157.392288 4.127382 -19.122720 24.899813 -1.718487 23.115397 18.000000 0.416325 4.524135
969.841956 443.353428 148.103422 0.000000 0.000000 0.000000 0.000000 0.000000 0.000000 21.702987 -13.465124 18.096541 180.000000 4.367304 18.096541 23.009909 3.549166 -25.329838 156.990091 1.680681 -16.074804 24.926562 15.621028 25.329838 18.000000 -0.915354 4.381533
969.859960 443.330059 134.393269 0.000000 0.000000 0.000000 0.000000 0.000000 0.000000 22.009579 7.403170 15.410265 180.000000 -7.797172 15.410265 23.419334 -1.954762 -27.144812 156.580666 0.298333 -12.773379 24.904993 -13.397068 27.144812 18.000000 1.105054 4.221640
594.905148 538.048757 146.919657 0.000000 0.000000 0.000000 0.000000 0.000000 0.000000 -57.080480 3.210243 11.755705 122.919520 11.331466 11.755705 -12.750556 6.399215 -28.531695 149.841027 -4.995028 -9.270510 -8.274090 -0.834429 28.531695 17.596979 -0.230942 4.045085
969.892723 443.282929 138.601629 0.000000 0.000000 0.000000 0.000000 0.000000 0.000000 22.675903 -3.728521 7.362491 180.000000 -1.521442 7.362491 24.255612 -1.499501 -29.468618 155.744388 -10.200764 -5.621439 24.720303 22.765590 29.468618 18.000000 -0.904319 3.852566
1257.001877 499.708382 137.664600 0.000000 0.000000 0.000000 0.000000 0.000000 0.000000 52.818511 -10.087696 2.506665 -127.181489 9.018800 2.506665 25.369497 -0.907522 -29.940802 -143.914951 7.207480 -1.883716 14.556766 -2.689916 29.940802 -16.686776 0.085208 3.644843
1279.050064 493.773898 146.053338 0.000000 0.000000 0.000000 0.000000 0.000000 0.000000 56.685213 -2.026612 -2.506665 -123.314787 0.876366 -2.506665 24.065452 -0.741693 -29.940802 -146.540317 -3.052126 1.883716 13.097461 1.279124 29.940802 -16.716891 -0.245146 3.422736
1295.108986 477.099677 166.536852 0.000000 0.000000 0.000000 0.000000 0.000000 0.000000 65.723361 -1.707556 -7.362491 -114.276639 1.448034 -7.362491 23.725299 1.685785 -29.468618 -147.984281 3.440575 5.621439 13.187557 -0.208897 29.468618 -16.751134 -0.001723 3.187120
1289.065018 496.763316 158.920199 0.000000 0.000000 0.000000 0.000000 0.000000 0.000000 61.662232 1.139358 -11.755705 -118.337768 -2.395066 -11.755705 31.397757 4.320227 -28.531695 -148.047797 -1.040967 9.270510 12.491083 0.878804 28.531695 -16.898368 0.060077 2.938926
1285.337105 480.691112 153.462916 0.000000 0.000000 0.000000 0.000000 0.000000 0.000000 58.021980 6.772282 -15.410265 -121.978020 -1.680806 -15.410265 31.705930 3.416039 -27.144812 -157.028684 -2.414349 12.773379 11.107306 -0.218647 27.144812 -17.140016 0.171911 2.679134
1276.453171 465.093691 151.617109 0.000000 0.000000 0.000000 0.000000 0.000000 0.000000 70.157145 0.685733 -18.096541 -109.842855 6.692596 -18.096541 40.303764 0.812491 -25.329838 -145.293609 2.151647 16.074804 10.431204 2.698653 25.329838 -17.100572 -0.361089 2.408768
1253.658714 472.768564 146.832971 0.000000 0.000000 0.000000 0.000000 0.000000 0.000000 65.087926 -11.352679 -19.645745 -114.912074 -12.996401 -19.645745 -157.680356 -6.246287 -23.115397 -137.727082 -1.059069 19.122720 -153.053596 6.186582 23.115397 -16.054219 -0.852685 2.128896
1366.101608 507.691247 142.232457 0.000000 0.000000 0.000000 0.000000 0.000000 0.000000 108.715100 -4.848616 -19.960535 -71.284900 11.142709 -19.960535 156.661132 23.560649 -20.536413 -158.224303 -5.623905 21.869059 0.000000 0.000000 0.000000 0.000000 0.000000 0.000000
969.986295 443.064535 149.413745 0.000000 0.000000 0.000000 0.000000 0.000000 0.000000 26.662144 10.361957 -19.021130 180.000000 -15.698554 -19.021130 28.015351 2.164362 -17.633558 151.984649 -13.779799 24.270510 22.068935 -0.677126 17.633558 18.000000 0.696632 1.545085
1282.107124 481.511257 140.927949 0.000000 0.000000 0.000000 0.000000 0.000000 0.000000 80.650781 -24.999933 -16.886559 -99.349219 30.878184 -16.886559 1.511604 -7.982251 -14.452610 -32.896908 1.813426 26.289200 -7.727072 4.807338 14.452610 13.531851 -5.098819 1.243449
1282.921486 484.777769 148.316120 0.000000 0.000000 0.000000 0.000000 0.000000 0.000000 -81.737646 -9.895439 -13.690942 98.262354 -10.769514 -13.690942 -23.867101 -3.057260 -11.043737 12.655668 -2.521532 27.893295 -29.454911 -6.185432 11.043737 9.861248 0.636874 0.936907
1290.933037 513.180238 142.107607 0.000000 0.000000 0.000000 0.000000 0.000000 0.000000 -91.387864 -1.006662 -9.635073 88.612136 -3.100796 -9.635073 -41.685392 -7.634456 -7.460697 -161.156957 -6.487137 29.057495 15.157863 5.939737 7.460697 10.543436 -1.684562 0.626666
969.999452 442.964284 116.992365 0.000000 0.000000 0.000000 0.000000 0.000000 0.000000 29.025427 10.834646 -4.973798 180.000000 -17.586153 -4.973798 29.437993 12.634783 -3.759997 150.562007 -11.703377 29.763441 20.404746 5.836391 3.759997 18.000000 -0.651226 0.313953
970.000000 442.938926 149.285925 0.000000 0.000000 0.000000 0.000000 0.000000 0.000000 29.678605 3.309728 0.000000 180.000000 -3.538714 0.000000 29.744881 -7.352740 -0.000000 150.255119 0.094376 30.000000 19.983107 -6.636834 0.000000 18.000000 -0.092281 0.000000
1354.522934 467.411410 127.848347 0.000000 0.000000 0.000000 0.000000 0.000000 0.000000 150.622570 2.652813 4.973798 -29.377430 -5.862283 4.973798 140.176400 0.500146 3.759997 -12.221629 -2.567001 29.763441 132.794256 -2.116809 -3.759997 -2.626015 0.469020 0.313953
969.997807 442.887864 128.274141 0.000000 0.000000 0.000000 0.000000 0.000000 0.000000 31.061399 -13.368944 9.635073 180.000000 -5.616894 9.635073 30.285790 -0.756588 7.460697 149.714210 -4.782600 29.057495 19.151579 8.784902 -7.460697 18.000000 -0.472789 0.626666
1246.736984 514.278152 119.788727 0.000000 0.000000 0.000000 0.000000 0.000000 0.000000 143.557092 -1.872777 13.690942 -36.442908 22.027006 13.690942 133.761037 -13.700774 11.043737 -156.950665 -5.050481 27.893295 0.000000 0.000000 0.000000 1.928484 0.517928 0.936907
1245.221100 458.637464 117.770596 0.000000 0.000000 0.000000 0.000000 0.000000 0.000000 160.701064 -7.158782 16.886559 -19.298936 1.639105 16.886559 140.193827 -0.676465 14.452610 -157.554825 -5.248934 26.289200 29.500467 5.477777 -14.452610 -15.049953 -0.547778 1.243449
1257.365570 418.514181 112.113130 0.000000 0.000000 0.000000 0.000000 0.000000 0.000000 -143.710676 0.866639 19.021130 36.289324 -1.423191 19.021130 163.220413 0.638577 17.633558 11.688054 -2.117049 24.270510 152.038385 2.419777 -17.633558 -2.339948 -0.111806 1.545085
1275.099564 408.163741 107.333539 0.000000 0.000000 0.000000 0.000000 0.000000 0.000000 -132.929531 12.726436 19.960535 47.070469 -7.594950 19.960535 173.491912 3.834323 20.536413 -160.709681 -5.422757 21.869059 33.138793 5.683329 -20.536413 -14.686121 -0.568333 1.840623
1290.611115 384.880857 114.978864 0.000000 0.000000 0.000000 0.000000 0.000000 0.000000 -132.705235 3.122238 19.645745 47.294765 14.853100 19.645745 -173.778854 -7.663761 23.115397 20.496835 4.884437 19.122720 -161.220290 -4.491686 -23.115397 1.723235 0.370476 2.128896
1302.817154 380.305352 95.348970 0.000000 0.000000 0.000000 0.000000 0.000000 0.000000 -131.493915 3.114688 18.096541 48.506085 0.275990 18.096541 -165.393697 -1.643922 25.329838 23.154815 -1.945283 16.074804 -178.200316 2.743615 -25.329838 0.138141 -0.233901 2.408768
1304.997711 379.563582 81.282411 0.000000 0.000000 0.000000 0.000000 0.000000 0.000000 -126.727972 -8.717448 15.410265 53.272028 5.475898 15.410265 -160.219593 0.432723 27.144812 28.448880 -0.763041 12.773379 -174.368770 1.637677 -27.144812 0.079526 -0.182666 2.679134
1311.668472 386.890390 92.918653 0.000000 0.000000 0.000000 0.000000 0.000000 0.000000 -122.308728 -22.289962 11.755705 57.691272 7.264825 11.755705 -158.801130 -7.298049 28.531695 150.942637 -0.861947 9.270510 -154.878332 -4.043812 -28.531695 2.695409 0.410405 2.938926
1305.131836 395.180186 65.419132 0.000000 0.000000 0.000000 0.000000 0.000000 0.000000 -125.112810 15.469790 7.362491 54.887190 -15.835448 7.362491 -146.487292 3.992629 29.468618 -175.167369 8.476572 5.621439 -159.224034 -5.480179 -29.468618 1.782042 0.505208 3.187120
1296.320457 392.734526 74.610296 0.000000 0.000000 0.000000 0.000000 0.000000 0.000000 -131.035750 11.680021 2.506665 48.964250 -7.038852 2.506665 -128.969563 4.855529 29.940802 38.856147 -2.180501 1.883716 -134.776850 0.203664 -29.940802 3.458429 0.025075 3.422736
1306.963577 386.612041 71.573590 0.000000 0.000000 0.000000 0.000000 0.000000 0.000000 -124.469622 -7.867252 -2.506665 55.530378 5.291851 -2.506665 -109.994856 0.906169 29.940802 37.691309 5.993162 -1.883716 -118.274788 -1.270941 -29.940802 5.098336 -0.157523 3.644843
969.892723 442.572198 70.567111 0.000000 0.000000 0.000000 0.000000 0.000000 0.000000 41.287575 33.322970 -7.362491 180.000000 -5.670935 -7.362491 30.974696 6.213195 29.468618 149.025304 -2.017757 -5.621439 15.072869 -1.082164 -29.468618 18.000000 0.887054 3.852566
969.876883 442.545207 67.678462 0.000000 0.000000 0.000000 0.000000 0.000000 0.000000 42.241956 -32.336296 -11.755705 180.000000 11.420389 -11.755705 30.826133 4.787558 28.531695 149.173867 3.755668 -9.270510 14.823070 -1.616705 -28.531695 18.000000 -0.320620 4.045085
969.859960 442.518116 65.103490 0.000000 0.000000 0.000000 0.000000 0.000000 0.000000 43.199779 -31.391829 -15.410265 180.000000 -9.001190 -15.410265 30.649504 13.025937 27.144812 149.350496 18.515992 -12.773379 14.587557 -7.252628 -27.144812 18.000000 -0.139729 4.221640
969.841956 442.490926 66.819968 0.000000 0.000000 0.000000 0.000000 0.000000 0.000000 44.157210 0.106088 -18.096541 180.000000 14.779623 -18.096541 30.446417 3.791991 25.329838 149.553583 -2.799551 -16.074804 14.366154 5.378074 -25.329838 18.000000 -0.250249 4.381533
969.822873 442.463637 45.990869 0.000000 0.000000 0.000000 0.000000 0.000000 0.000000 45.110117 20.286274 -19.645745 180.000000 -9.349681 -19.645745 30.218633 8.086791 23.115397 149.781367 -7.300910 -19.122720 14.158653 -1.762998 -23.115397 18.000000 0.371463 4.524135
969.802712 442.436251 47.774234 0.000000 0.000000 0.000000 0.000000 0.000000 0.000000 46.054109 -29.111822 -19.960535 180.000000 16.531392 -19.960535 29.968037 -8.578903 20.536413 150.031963 -7.180403 -21.869059 13.964823 -0.655083 -20.536413 18.000000 0.293660 4.648882
1187.040939 541.658249 59.162092 0.000000 0.000000 0.000000 0.000000 0.000000 0.000000 82.806623 22.932541 -19.021130 -97.193377 -12.000932 -19.021130 45.395981 1.615373 17.633558 -156.144455 -2.937240 -24.270510 0.000000 0.000000 0.000000 0.000000 0.000000 0.000000
1182.242889 522.024286 62.307354 0.000000 0.000000 0.000000 0.000000 0.000000 0.000000 -105.721938 -2.796092 -16.886559 74.278062 -7.239457 -16.886559 -155.708006 -1.985018 14.452610 -157.302521 -2.294635 -26.289200 0.000000 0.000000 0.000000 2.684983 0.250468 4.842916
1180.914459 527.065626 44.911124 0.000000 0.000000 0.000000 0.000000 0.000000 0.000000 88.055617 -3.671902 -13.690942 -91.944383 -1.193095 -13.690942 -158.862018 -2.609199 11.043737 -151.747289 -2.611924 -27.893295 0.000000 0.000000 0.000000 0.000000 0.000000 0.000000
1236.800194 541.387432 61.282803 0.000000 0.000000 0.000000 0.000000 0.000000 0.000000 -85.588400 23.311153 -9.635073 94.411600 -9.138357 -9.635073 -159.297106 0.548231 7.460697 -157.915391 -2.971660 -29.057495 26.607362 1.847163 -7.460697 14.926890 1.008527 4.960574
1161.066513 575.006626 47.565294 0.000000 0.000000 0.000000 0.000000 0.000000 0.000000 -81.021168 8.460213 -4.973798 98.978832 -11.757355 -4.973798 -102.851701 -0.193259 3.759997 -157.041007 -2.779877 -29.763441 21.429890 1.794246 -3.759997 10.859432 0.692206 4.990134
1255.636253 512.645942 49.924975 0.000000 0.000000 0.000000 0.000000 0.000000 0.000000 77.832564 5.974948 -0.000000 -102.167436 1.708067 -0.000000 -158.264834 -2.845889 0.000000 -130.745502 -5.265608 -30.000000 -157.699225 -1.719313 -0.000000 0.000000 0.000000 0.000000
1265.118484 521.473864 55.945359 0.000000 0.000000 0.000000 0.000000 0.000000 0.000000 64.078276 -11.265568 4.973798 -115.921724 15.719201 4.973798 41.397952 0.240204 -3.759997 -139.329851 7.283006 -29.763441 20.223252 0.899333 3.759997 -16.047574 -0.124786 4.990134
1228.099480 522.138258 52.615334 0.000000 0.000000 0.000000 0.000000 0.000000 0.000000 71.050901 -3.008902 9.635073 -108.949099 -0.215119 9.635073 150.099970 0.300925 -7.460697 -139.894702 5.827964 -29.057495 -156.275691 -4.150654 7.460697 0.000000 0.000000 0.000000
1240.357246 528.695873 71.044408 0.000000 0.000000 0.000000 0.000000 0.000000 0.000000 65.413351 15.548220 13.690942 -114.586649 2.112456 13.690942 147.242328 -13.148303 -11.043737 -154.470720 -3.075868 -27.893295 25.557225 1.951773 11.043737 -15.444278 -0.195177 4.911436
1231.815262 551.380248 66.683901 0.000000 0.000000 0.000000 0.000000 0.000000 0.000000 56.412506 14.334394 16.886559 -123.587494 -18.319938 16.886559 -153.392336 8.975027 -14.452610 -154.784582 -2.984199 -26.289200 24.191555 3.943984 14.452610 -15.580844 -0.394398 4.842916
1221.475182 508.360147 62.502948 0.000000 0.000000 0.000000 0.000000 0.000000 0.000000 77.450622 5.352083 19.021130 -102.549378 -7.965767 19.021130 -156.789784 -2.229807 -17.633558 -125.590168 -1.977994 -24.270510 -160.017240 -2.792929 17.633558 1.833434 0.312311 4.755283
969.477684 442.100429 72.436656 0.000000 0.000000 0.000000 0.000000 0.000000 0.000000 54.932575 -4.622337 19.960535 180.000000 -22.778100 19.960535 25.919122 4.474514 -20.536413 154.080878 -14.443279 -21.869059 12.612867 5.704759 20.536413 18.000000 -0.143077 4.648882
1480.140495 518.878891 59.338106 0.000000 0.000000 0.000000 0.000000 0.000000 0.000000 -110.621767 88.273143 19.645745 69.378233 85.385652 19.645745 -158.235933 -3.184992 -23.115397 166.031448 -1.777377 -19.122720 -155.186432 -2.906200 23.115397 2.641553 0.285531 4.524135
1271.640472 556.840560 52.770992 0.000000 0.000000 0.000000 0.000000 0.000000 0.000000 -94.404719 10.809239 18.096541 85.595281 -13.654442 18.096541 -62.417786 5.364184 -25.329838 23.992813 -1.075034 -16.074804 -76.856107 1.874596 25.329838 7.708835 -0.093696 4.381533
1258.556786 530.268441 60.057622 0.000000 0.000000 0.000000 0.000000 0.000000 0.000000 78.355945 -1.900268 15.410265 -101.644055 -5.973782 15.410265 35.068294 2.823085 -27.144812 -54.090640 -2.340373 -12.773379 35.848220 10.177232 27.144812 -8.104639 -0.688322 4.221640
1250.800209 527.150567 90.076347 0.000000 0.000000 0.000000 0.000000 0.000000 0.000000 72.417769 6.153638 11.755705 -107.582231 -3.707045 11.755705 24.571109 -1.993782 -28.531695 -39.196117 -0.645083 -9.270510 10.411117 -7.635102 28.531695 -9.048616 4.252576 4.045085
1243.466148 571.776259 96.975020 0.000000 0.000000 0.000000 0.000000 0.000000 0.000000 86.301473 -20.820800 7.362491 -93.698527 14.075928 7.362491 24.553534 0.204254 -29.468618 -153.460385 -3.378787 -5.621439 19.510484 3.203018 29.468618 -10.109500 0.245871 3.852566
1261.883812 566.052918 106.141008 0.000000 0.000000 0.000000 0.000000 0.000000 0.000000 94.015209 6.047249 2.506665 -85.984791 -0.008670 2.506665 38.959993 -4.977941 -29.940802 -154.008305 -4.558242 -1.883716 20.870951 3.568594 29.940802 -10.872440 -2.012609 3.644843
1284.436798 527.190542 85.325366 0.000000 0.000000 0.000000 0.000000 0.000000 0.000000 111.186365 4.290984 -2.506665 -68.813635 3.834002 -2.506665 58.506163 -1.064666 -29.940802 -19.138727 -5.425481 1.883716 51.457372 16.673375 29.940802 -5.203198 -0.276334 3.422736
1272.860069 533.494012 110.511742 0.000000 0.000000 0.000000 0.000000 0.000000 0.000000 72.301471 -8.694399 -7.362491 -107.698529 4.476413 -7.362491 78.802573 -3.030441 -29.468618 -154.772375 -4.507242 5.621439 26.927455 4.281167 29.468618 -15.307255 -0.428117 3.187120
1255.264664 498.243735 107.399096 0.000000 0.000000 0.000000 0.000000 0.000000 0.000000 164.596971 44.458115 -11.755705 -15.403029 -54.512435 -11.755705 125.849126 0.011694 -28.531695 -156.067666 -5.408815 9.270510 33.087561 4.382080 28.531695 -14.691244 -0.438208 2.938926
1259.202232 470.407684 126.710270 0.000000 0.000000 0.000000 0.000000 0.000000 0.000000 -139.980397 -8.052536 -15.410265 40.019603 -1.746655 -15.410265 165.887722 -2.917511 -27.144812 -157.901492 -5.692449 12.773379 35.196094 4.832360 27.144812 -14.480391 -0.483236 2.679134
1236.502075 429.951335 122.053563 0.000000 0.000000 0.000000 0.000000 0.000000 0.000000 -113.295066 -5.678079 -18.096541 66.704934 -1.550871 -18.096541 -174.664169 -2.767550 -25.329838 -159.007335 -5.667284 16.074804 32.868990 6.934175 25.329838 -14.713101 -0.693417 2.408768
1253.359451 413.942538 114.200801 0.000000 0.000000 0.000000 0.000000 0.000000 0.000000 -123.348580 -3.480742 -19.645745 56.651420 12.065303 -19.645745 -167.815074 -1.740468 -23.115397 -159.603180 -5.036217 19.122720 32.791747 6.447596 23.115397 -14.720825 -0.644760 2.128896
1281.206589 405.664523 127.031265 0.000000 0.000000 0.000000 0.000000 0.000000 0.000000 -124.414271 8.116090 -19.960535 55.585729 -2.708903 -19.960535 -161.281803 2.538391 -20.536413 28.568449 -0.943633 21.869059 -159.052798 -4.912393 20.536413 1.849141 0.509470 1.840623
1300.238571 418.760215 133.843816 0.000000 0.000000 0.000000 0.000000 0.000000 0.000000 -126.263092 -0.486716 -19.021130 53.736908 7.071172 -19.021130 -159.739358 -1.982556 -17.633558 31.487961 2.398233 24.270510 -170.323915 0.918824 17.633558 0.671815 -0.155847 1.545085
1321.889191 413.634385 131.684091 0.000000 0.000000 0.000000 0.000000 0.000000 0.000000 -133.874471 0.628958 -16.886559 46.125529 6.791969 -16.886559 -159.376251 -2.509285 -14.452610 30.696824 0.795647 26.289200 -164.929556 -1.031517 14.452610 1.089735 -0.006388 1.243449
1336.221428 432.881820 135.341478 0.000000 0.000000 0.000000 0.000000 0.000000 0.000000 -115.020798 5.755336 -13.690942 64.979202 -10.786190 -13.690942 -135.609544 -0.725954 -11.043737 -161.321630 -7.091163 27.893295 17.353502 7.947778 11.043737 -16.264650 -0.794778 0.936907
1329.124603 416.860342 142.348888 0.000000 0.000000 0.000000 0.000000 0.000000 0.000000 -134.023347 -5.437096 -9.635073 45.976653 -1.820957 -9.635073 -128.030830 0.015248 -7.460697 28.249885 -1.548826 29.057495 -136.447985 0.457226 7.460697 4.038834 0.037320 0.626666
1343.366776 427.060794 130.792472 0.000000 0.000000 0.000000 0.000000 0.000000 0.000000 -130.153347 3.517408 -4.973798 49.846653 4.815587 -4.973798 -103.564435 -1.629359 -3.759997 27.398095 -0.027014 29.763441 -115.461530 -1.552966 3.759997 5.470063 0.284046 0.313953
1376.991005 465.829636 150.379021 0.000000 0.000000 0.000000 0.000000 0.000000 0.000000 -120.272352 3.065590 0.000000 59.727648 -5.530626 0.000000 -62.204131 5.150316 -0.000000 27.740602 0.726811 30.000000 -80.461527 -3.212666 0.000000 7.450891 0.177835 0.000000
1384.978867 468.790376 150.450575 0.000000 0.000000 0.000000 0.000000 0.000000 0.000000 -93.720384 7.380420 4.973798 86.279616 -3.971004 4.973798 3.847814 1.740163 3.759997 -160.438787 -6.109200 29.763441 15.990976 4.795220 -3.759997 7.894783 1.148066 0.313953
1345.894547 516.257268 162.947569 0.000000 0.000000 0.000000 0.000000 0.000000 0.000000 127.577640 24.905183 9.635073 -52.422360 -19.176769 9.635073 53.096359 0.062865 7.460697 -159.021748 -7.081680 29.057495 18.308456 5.175053 -7.460697 -4.062191 2.246697 0.626666
968.498927 441.455181 153.375308 0.000000 0.000000 0.000000 0.000000 0.000000 0.000000 47.920147 -19.931767 13.690942 180.000000 -0.390405 13.690942 19.641385 -2.666386 11.043737 160.358615 -3.235204 27.893295 13.993219 1.738868 -11.043737 18.000000 -0.102021 0.936907
1336.846733 493.527671 148.765128 0.000000 0.000000 0.000000 0.000000 0.000000 0.000000 102.681311 -30.052353 16.886559 -77.318689 34.370735 16.886559 35.985219 -5.440683 14.452610 -159.617763 -5.623380 26.289200 19.375410 5.600679 -14.452610 -16.062459 -0.560068 1.243449
968.386706 441.394956 132.611620 0.000000 0.000000 0.000000 0.000000 0.000000 0.000000 46.120581 -35.189082 19.021130 180.000000 23.305732 19.021130 19.316787 -6.167842 17.633558 160.683213 6.106552 24.270510 14.327067 2.509448 -17.633558 18.000000 0.360587 1.545085
1263.984947 433.341283 157.504335 0.000000 0.000000 0.000000 0.000000 0.000000 0.000000 -115.578373 5.264853 19.960535 64.421627 -6.106904 19.960535 -82.396446 1.728009 20.536413 25.733383 -11.605174 21.869059 -77.477544 4.326012 -20.536413 5.836928 2.188787 1.840623
1352.596436 477.564354 156.409226 0.000000 0.000000 0.000000 0.000000 0.000000 0.000000 -99.196741 -5.183806 19.645745 80.803259 -4.409801 19.645745 -125.272585 5.190585 23.115397 -162.405270 -6.490451 19.122720 17.377627 7.314058 -23.115397 -16.262237 -0.731406 2.128896
1384.326782 408.174427 157.931561 0.000000 0.000000 0.000000 0.000000 0.000000 0.000000 96.868601 17.552695 18.096541 -83.131399 -6.123643 18.096541 -160.848957 -6.484889 25.329838 -137.255583 2.812537 16.074804 -162.076720 -7.855535 -25.329838 0.000000 0.000000 0.000000
1387.580223 387.128634 121.510177 0.000000 0.000000 0.000000 0.000000 0.000000 0.000000 78.087764 39.623709 15.410265 -101.912236 -24.621345 15.410265 -161.807915 -5.824095 27.144812 -147.504361 -2.007027 12.773379 -162.566306 -7.373142 -27.144812 1.735427 0.663208 2.679134
1345.818558 392.423122 132.508154 0.000000 0.000000 0.000000 0.000000 0.000000 0.000000 71.782984 7.575256 11.755705 -108.217016 -15.130147 11.755705 -169.469261 -1.410084 28.531695 -153.903088 0.617836 9.270510 -154.670689 -0.897094 -28.531695 15.277725 -0.278712 2.938926
1331.471329 361.814139 134.575637 0.000000 0.000000 0.000000 0.000000 0.000000 0.000000 53.586100 -14.648816 7.362491 -126.413900 -15.522159 7.362491 -162.290330 -5.518438 29.468618 -154.912165 -0.300043 5.621439 -162.550394 -7.189710 -29.468618 1.742175 0.845310 3.187120
1354.413986 427.213873 136.146928 0.000000 0.000000 0.000000 0.000000 0.000000 0.000000 -131.358118 38.008300 2.506665 48.641882 -12.355412 2.506665 -142.488821 -4.974865 29.940802 -161.977882 -6.814011 1.883716 12.673705 8.415444 -29.940802 1.397524 0.213327 3.422736
1330.326691 347.207226 143.399160 0.000000 0.000000 0.000000 0.000000 0.000000 0.000000 52.464175 -6.264031 -2.506665 -127.535825 7.705383 -2.506665 14.270918 -1.851860 29.940802 -122.057234 0.193423 -1.883716 22.820874 1.980427 -29.940802 -15.244909 -0.224834 3.644843
1317.103271 414.475805 131.416281 0.000000 0.000000 0.000000 0.000000 0.000000 0.000000 76.170457 7.442901 -7.362491 -103.829543 -2.909342 -7.362491 -50.250674 -2.292391 29.468618 -52.503744 -0.594921 -5.621439 -92.793049 -9.397206 -29.468618 3.303440 0.485505 3.852566
1331.844635 430.291482 140.909377 0.000000 0.000000 0.000000 0.000000 0.000000 0.000000 79.985160 1.123570 -11.755705 -100.014840 4.145494 -11.755705 25.995082 -2.662352 28.531695 -75.062603 -0.933223 -9.270510 38.761234 1.447731 -28.531695 -11.442229 -0.199674 4.045085
1359.462433 496.472383 108.871876 0.000000 0.000000 0.000000 0.000000 0.000000 0.000000 84.268829 1.097634 -15.410265 -95.731171 -3.634612 -15.410265 30.279153 0.103367 27.144812 -63.318008 2.184960 -12.773379 39.457716 -1.044211 -27.144812 -9.485742 -0.217779 4.221640
1323.514366 546.771398 109.515902 0.000000 0.000000 0.000000 0.000000 0.000000 0.000000 84.407325 -0.432878 -18.096541 -95.592675 5.152309 -18.096541 27.768249 -4.925869 25.329838 -47.660055 -4.676492 -16.074804 28.281511 7.544002 -25.329838 -7.827901 0.639275 4.381533
1268.535347 591.567099 109.670158 0.000000 0.000000 0.000000 0.000000 0.000000 0.000000 90.890792 0.640769 -19.645745 -89.109208 8.280677 -19.645745 44.654760 -3.407911 23.115397 -48.200667 -1.100950 -19.122720 43.369388 -1.395536 -23.115397 -8.974980 0.884774 4.524135
1303.157158 602.888768 117.791148 0.000000 0.000000 0.000000 0.000000 0.000000 0.000000 90.349289 -2.395735 -19.960535 -89.650711 1.439900 -19.960535 47.707312 5.528503 20.536413 -53.918782 -0.017752 -21.869059 40.070965 -0.115928 -20.536413 -9.318632 1.167364 4.648882
1314.841690 613.141973 101.344069 0.000000 0.000000 0.000000 0.000000 0.000000 0.000000 94.480501 -2.234661 -19.021130 -85.519499 -3.008691 -19.021130 58.462862 4.750453 17.633558 -52.020507 -1.471732 -24.270510 55.276552 0.766496 -17.633558 -7.777523 -0.559195 4.755283
1327.521400 639.394319 104.523078 0.000000 0.000000 0.000000 0.000000 0.000000 0.000000 99.879576 0.096369 -16.886559 -80.120424 1.459529 -16.886559 69.161359 -1.371683 14.452610 -46.413613 2.411319 -26.289200 76.680143 -0.141122 -14.452610 -6.257768 -0.774528 4.842916
1277.812729 671.228578 84.842707 0.000000 0.000000 0.000000 0.000000 0.000000 0.000000 99.708534 -13.228272 -13.690942 -80.291466 11.363111 -13.690942 92.239140 -2.383635 11.043737 -26.764021 4.499899 -27.893295 98.168457 3.945813 -11.043737 -4.372074 -0.608718 4.911436
1309.642181 690.479329 71.509736 0.000000 0.000000 0.000000 0.000000 0.000000 0.000000 117.292414 0.887539 -9.635073 -62.707586 1.378514 -9.635073 137.002702 -6.567042 7.460697 -32.045917 0.823781 -29.057495 135.211322 -2.146696 -7.460697 -3.212944 0.204972 4.960574
1299.770966 664.126496 95.499975 0.000000 0.000000 0.000000 0.000000 0.000000 0.000000 158.531160 -3.487785 -4.973798 -21.468840 -4.596692 -4.973798 161.478323 2.677778 3.759997 -12.838206 0.225523 -29.763441 151.269584 -2.101142 -3.759997 -2.521934 0.063194 4.990134
1313.353729 643.668108 72.014221 0.000000 0.000000 0.000000 0.000000 0.000000 0.000000 -154.315892 16.227105 -0.000000 25.684108 -8.783868 -0.000000 173.459940 2.211862 0.000000 1.519689 -0.285562 -30.000000 164.244875 -1.340490 -0.000000 -1.552244 0.024904 5.000000
1342.841377 638.982847 79.173827 0.000000 0.000000 0.000000 0.000000 0.000000 0.000000 -138.993869 1.846062 4.973798 41.006131 -15.693021 4.973798 175.724056 5.437661 -3.759997 -151.723069 -3.120798 -29.763441 43.242568 3.519883 3.759997 -13.675743 -0.351988 4.990134
1350.000229 614.724133 78.733386 0.000000 0.000000 0.000000 0.000000 0.000000 0.000000 -144.248147 -7.035153 9.635073 35.751853 -7.089866 9.635073 177.069273 -3.514914 -7.460697 -152.227621 -2.800443 -29.057495 43.136563 4.111520 7.460697 -13.686344 -0.411152 4.960574
1328.535919 624.780936 58.619483 0.000000 0.000000 0.000000 0.000000 0.000000 0.000000 -165.447222 -13.951513 13.690942 14.552778 19.739132 13.690942 169.657511 -4.070346 -11.043737 -152.168050 -2.411824 -27.893295 41.929642 3.453291 11.043737 -13.807036 -0.345329 4.911436
1318.810501 615.688248 54.247753 0.000000 0.000000 0.000000 0.000000 0.000000 0.000000 -120.063657 -4.546941 16.886559 59.936343 3.586892 16.886559 -165.389465 0.712869 -14.452610 -152.866764 -2.902982 -26.289200 39.162270 2.896937 14.452610 -14.083773 -0.289694 4.842916
1321.656418 659.275410 54.381233 0.000000 0.000000 0.000000 0.000000 0.000000 0.000000 -121.435085 0.881539 19.021130 58.564915 12.666613 19.021130 -149.190712 -8.375229 -17.633558 -151.926374 -2.546012 -24.270510 33.097066 2.684560 17.633558 -14.690293 -0.268456 4.755283
1328.445511 687.490232 52.577667 0.000000 0.000000 0.000000 0.000000 0.000000 0.000000 -104.253419 -9.624881 19.960535 75.746581 8.968996 19.960535 -110.140878 -4.806404 -20.536413 -152.911692 -1.696278 -21.869059 23.882145 2.747167 20.536413 3.694979 0.058247 4.648882
966.534206 440.564282 45.560247 0.000000 0.000000 0.000000 0.000000 0.000000 0.000000 25.865486 19.178937 19.645745 180.000000 -17.065827 19.645745 18.728337 -3.079801 -23.115397 161.271663 -0.513471 -19.122720 19.024234 -13.338387 23.115397 18.000000 1.054764 4.524135
966.454577 440.533056 39.462980 0.000000 0.000000 0.000000 0.000000 0.000000 0.000000 25.417507 30.996309 18.096541 180.000000 -1.194914 18.096541 18.825450 -1.069418 -25.329838 161.174550 -3.164965 -16.074804 19.071566 7.775518 25.329838 18.000000 -0.847873 4.381533
966.374240 440.501809 60.637996 0.000000 0.000000 0.000000 0.000000 0.000000 0.000000 24.990320 -7.762004 15.410265 180.000000 1.325178 15.410265 18.929718 0.301805 -27.144812 161.070282 6.838397 -12.773379 19.102411 -1.582606 27.144812 18.000000 0.109355 4.221640
966.293204 440.470542 34.633956 0.000000 0.000000 0.000000 0.000000 0.000000 0.000000 24.583377 -7.407546 11.755705 180.000000 4.991151 11.755705 19.040946 -2.083595 -28.531695 160.959054 -4.531755 -9.270510 19.116765 4.521982 28.531695 18.000000 0.172638 4.045085
966.211478 440.439256 42.585957 0.000000 0.000000 0.000000 0.000000 0.000000 0.000000 24.196129 27.384869 7.362491 180.000000 2.133676 7.362491 19.158923 0.004959 -29.468618 160.841077 -9.708297 -5.621439 19.114778 15.376950 29.468618 18.000000 -0.920066 3.852566
644.985180 745.864069 28.797524 0.000000 0.000000 0.000000 0.000000 0.000000 0.000000 96.086415 -47.146783 2.506665 -83.913585 0.607590 2.506665 -159.662371 -3.534718 -29.940802 -116.741565 2.192613 -1.883716 -176.001217 3.273973 29.940802 -1.006627 -0.205624 3.644843
1269.020119 699.025490 50.470213 0.000000 0.000000 0.000000 0.000000 0.000000 0.000000 83.810916 -4.743229 -2.506665 -96.189084 -4.104891 -2.506665 51.932890 4.557173 -29.940802 -149.314466 -2.042291 1.883716 27.598511 2.007169 29.940802 -15.240149 -0.200717 3.422736
573.721218 678.450201 54.525829 0.000000 0.000000 0.000000 0.000000 0.000000 0.000000 18.756393 50.998767 -7.362491 -161.243607 -35.831282 -7.362491 -174.158094 5.924271 -29.468618 178.010322 -4.637286 5.621439 -154.394154 1.982887 29.468618 11.886524 -0.893046 3.187120
1261.580200 714.897366 41.706465 0.000000 0.000000 0.000000 0.000000 0.000000 0.000000 87.191276 12.943894 -11.755705 -92.808724 0.830511 -11.755705 23.129119 -2.963606 -28.531695 -149.376238 -2.562853 9.270510 24.545507 1.982675 28.531695 13.583501 3.043896 2.938926
1314.655838 684.171546 48.384535 0.000000 0.000000 0.000000 0.000000 0.000000 0.000000 61.219932 8.651651 -15.410265 -118.780068 -5.354859 -15.410265 25.476616 7.267108 -27.144812 -150.404247 -2.621936 12.773379 24.621454 1.692766 27.144812 -15.537855 -0.169277 2.679134
1319.638939 674.820013 65.673794 0.000000 0.000000 0.000000 0.000000 0.000000 0.000000 82.055377 -4.050062 -18.096541 -97.944623 11.711605 -18.096541 17.325085 -4.167516 -25.329838 -60.067277 -0.488653 16.074804 23.747728 1.352368 25.329838 -13.005173 0.080222 2.408768
1367.852325 659.536314 48.109441 0.000000 0.000000 0.000000 0.000000 0.000000 0.000000 -150.278430 -8.159328 -19.645745 29.721570 2.192147 -19.645745 -151.222797 -2.517488 -23.115397 18.758043 -0.708474 19.122720 -152.451920 -2.134928 23.115397 2.484143 0.183554 2.128896
1392.624664 638.981302 79.606610 0.000000 0.000000 0.000000 0.000000 0.000000 0.000000 -122.704248 -7.615816 -19.960535 57.295752 4.236440 -19.960535 -134.513385 -0.581344 -20.536413 30.292627 -0.712893 21.869059 -146.694539 -0.492915 20.536413 2.430965 0.195371 1.840623
1401.291389 646.422758 56.919007 0.000000 0.000000 0.000000 0.000000 0.000000 0.000000 83.316637 2.531707 -19.021130 -96.683363 -4.728627 -19.021130 29.335627 3.920510 -17.633558 -136.281416 -0.751167 24.270510 19.119183 1.685508 17.633558 -15.871560 -0.094101 1.545085
1381.838951 663.410475 70.951014 0.000000 0.000000 0.000000 0.000000 0.000000 0.000000 79.215331 4.763763 -16.886559 -100.784669 -13.067302 -16.886559 30.640455 7.909870 -14.452610 -139.113455 0.322934 26.289200 14.302413 -1.940494 14.452610 -16.408036 0.001849 1.243449
1390.185928 664.248354 79.867556 0.000000 0.000000 0.000000 0.000000 0.000000 0.000000 75.546066 -2.060438 -13.690942 -104.453934 -7.823639 -13.690942 38.995097 6.701835 -11.043737 -142.871297 2.216748 27.893295 14.209110 0.130328 11.043737 -16.737090 -0.106295 0.936907
1393.889923 677.551103 87.486333 0.000000 0.000000 0.000000 0.000000 0.000000 0.000000 84.293627 -6.171630 -9.635073 -95.706373 4.762201 -9.635073 -152.700272 -3.660574 -7.460697 -143.357755 4.352922 29.057495 -148.868889 -4.816095 7.460697 3.626268 0.388031 0.626666
905.601082 693.654528 73.669658 0.000000 0.000000 0.000000 0.000000 0.000000 0.000000 -84.410869 2.890394 -4.973798 95.589131 -8.609939 -4.973798 -139.498802 -3.940591 -3.759997 -178.556713 -22.851670 29.763441 -142.061844 -4.344900 3.759997 3.411456 0.408662 0.313953
1337.643929 680.318756 91.389807 0.000000 0.000000 0.000000 0.000000 0.000000 0.000000 78.192517 5.850410 0.000000 -101.807483 -0.152961 0.000000 48.289813 -9.542663 -0.000000 -140.291980 2.163287 30.000000 13.663140 -2.060359 0.000000 -17.395561 -0.128946 0.000000
1322.670708 685.543334 108.936430 0.000000 0.000000 0.000000 0.000000 0.000000 0.000000 71.501063 10.895084 4.973798 -108.498937 -18.684957 4.973798 23.648228 10.914434 3.759997 -144.586500 -0.343698 29.763441 14.578018 -2.297103 -3.759997 -16.885607 0.079280 0.313953
1305.530548 682.910864 107.632004 0.000000 0.000000 0.000000 0.000000 0.000000 0.000000 72.979287 -18.032569 9.635073 -107.020713 18.537200 9.635073 -148.728581 -4.378814 7.460697 -74.802907 -7.371235 29.057495 -151.178244 -3.786101 -7.460697 2.601049 0.398482 0.626666
1359.363556 692.650115 113.999267 0.000000 0.000000 0.000000 0.000000 0.000000 0.000000 73.244804 -8.327903 13.690942 -106.755196 1.560119 13.690942 13.983499 -0.119303 11.043737 -67.611809 1.966358 27.893295 13.130547 1.291391 -11.043737 -11.004089 0.410996 0.936907
1299.495964 679.994059 111.280220 0.000000 0.000000 0.000000 0.000000 0.000000 0.000000 116.206779 6.706509 16.886559 -63.793221 -6.205094 16.886559 -150.858719 -4.502985 14.452610 -34.548592 -0.310230 26.289200 60.366751 -10.547742 -14.452610 -4.627493 0.324595 1.243449
1306.260338 711.527116 110.774011 0.000000 0.000000 0.000000 0.000000 0.000000 0.000000 -85.758672 4.479585 19.021130 94.241328 0.773358 19.021130 -31.461750 3.289349 17.633558 -4.237664 -2.956250 24.270510 -15.215787 1.033193 -17.633558 7.867754 0.360856 1.545085
1272.614822 704.778571 136.351654 0.000000 0.000000 0.000000 0.000000 0.000000 0.000000 -78.634637 -33.048436 19.960535 101.365363 22.044533 19.960535 -34.118569 -2.582179 20.536413 22.539652 5.590548 21.869059 -31.373170 1.033793 -20.536413 11.310693 -0.363608 1.840623
1310.345650 676.427021 133.832606 0.000000 0.000000 0.000000 0.000000 0.000000 0.000000 97.572435 3.036270 19.645745 -82.427565 1.160893 19.645745 50.400703 4.174547 23.115397 -39.584286 3.230300 19.122720 44.966766 1.033829 -23.115397 -8.852712 0.313803 2.128896
1315.732956 671.025095 126.527469 0.000000 0.000000 0.000000 0.000000 0.000000 0.000000 97.797337 -2.886597 18.096541 -82.202663 -1.128353 18.096541 49.825934 3.567363 25.329838 -39.162923 -0.815274 16.074804 36.475631 -3.720183 -25.329838 -8.191519 3.073259 2.408768
1329.935532 653.525419 133.004440 0.000000 0.000000 0.000000 0.000000 0.000000 0.000000 96.469555 -3.478559 15.410265 -83.530445 -4.887426 15.410265 63.882053 5.414762 27.144812 -51.972064 3.328983 12.773379 58.624362 0.722025 -27.144812 -8.239564 -0.622176 2.679134
1316.170578 674.246514 145.319843 0.000000 0.000000 0.000000 0.000000 0.000000 0.000000 -87.946330 8.109105 11.755705 92.053670 -0.740755 11.755705 -29.715798 0.053233 28.531695 54.212796 0.002090 9.270510 -40.560774 -3.026653 -28.531695 11.008015 0.872892 2.938926
1317.367287 678.027205 143.905288 0.000000 0.000000 0.000000 0.000000 0.000000 0.000000 95.152942 -7.484594 7.362491 -84.847058 -5.511594 7.362491 98.792835 3.758606 29.468618 -150.515547 -5.879641 5.621439 32.983753 5.263968 -29.468618 -14.701625 -0.526397 3.187120
1318.168488 670.157025 144.360920 0.000000 0.000000 0.000000 0.000000 0.000000 0.000000 -151.252255 8.059629 2.506665 28.747745 67.745656 2.506665 138.896993 -2.394408 29.940802 -151.946620 -5.853061 1.883716 38.784684 5.279245 -29.940802 -14.121532 -0.527925 3.422736
1323.412628 644.667885 134.634102 0.000000 0.000000 0.000000 0.000000 0.000000 0.000000 -97.904066 19.088420 -2.506665 82.095934 -16.267790 -2.506665 155.695030 -5.289385 29.940802 -152.500978 -6.687447 -1.883716 44.721081 6.016371 -29.940802 -13.527892 -0.601637 3.644843
1312.776718 630.059459 158.112438 0.000000 0.000000 0.000000 0.000000 0.000000 0.000000 -116.637972 1.961299 -7.362491 63.362028 9.200352 -7.362491 171.094570 2.627324 29.468618 -152.894064 -6.303624 -5.621439 43.947863 7.238839 -29.468618 -13.605214 -0.723884 3.852566
1316.420746 625.237019 129.772963 0.000000 0.000000 0.000000 0.000000 0.000000 0.000000 -136.254273 -5.396863 -11.755705 43.745727 8.204533 -11.755705 -177.663204 -3.673474 28.531695 -153.006287 -6.065837 -9.270510 42.784597 8.294462 -28.531695 -13.721540 -0.829446 4.045085
1314.719925 628.818026 154.109647 0.000000 0.000000 0.000000 0.000000 0.000000 0.000000 -114.737929 0.607485 -15.410265 65.262071 -7.497513 -15.410265 -169.764314 0.384498 27.144812 -153.369487 -7.082510 -12.773379 41.498347 8.083956 -27.144812 -13.850165 -0.808396 4.221640
1334.396782 646.165652 146.167933 0.000000 0.000000 0.000000 0.000000 0.000000 0.000000 -116.903454 -6.331172 -18.096541 63.096546 3.265445 -18.096541 -154.594534 -2.895447 25.329838 -153.225015 -5.786536 -16.074804 37.136182 9.224348 -25.329838 -14.286382 -0.922435 4.381533
1340.823784 648.244128 150.491970 0.000000 0.000000 0.000000 0.000000 0.000000 0.000000 -116.932323 4.362204 -19.645745 63.067677 -9.864057 -19.645745 -138.898656 3.398154 23.115397 35.335752 -3.221746 -19.122720 -153.336856 1.713901 -23.115397 2.206211 -0.155810 4.524135
1330.023880 654.599032 144.972929 0.000000 0.000000 0.000000 0.000000 0.000000 0.000000 -112.150704 -0.016952 -19.960535 67.849296 -2.657799 -19.960535 -118.798313 -2.952639 20.536413 -153.636372 -6.852330 -21.869059 16.691869 8.183789 -20.536413 -16.330813 -0.818379 4.648882
1337.431641 662.410698 164.948922 0.000000 0.000000 0.000000 0.000000 0.000000 0.000000 -109.111809 1.567440 -19.021130 70.888191 -1.127096 -19.021130 -91.144379 -0.886694 17.633558 -154.448144 -6.228869 -24.270510 10.298202 6.551328 -17.633558 6.642051 -0.059913 4.755283
1324.339714 676.416593 142.033868 0.000000 0.000000 0.000000 0.000000 0.000000 0.000000 -104.120178 2.542368 -16.886559 75.879822 -14.898734 -16.886559 -57.095620 8.044035 14.452610 38.799650 -2.947074 -26.289200 -71.942639 2.033129 -14.452610 8.831938 -0.422838 4.842916
962.890318 439.311049 145.109129 0.000000 0.000000 0.000000 0.000000 0.000000 0.000000 19.986963 0.263524 -13.690942 180.000000 0.847224 -13.690942 24.297229 -2.350408 11.043737 155.702771 1.814884 -27.893295 14.983342 -7.442886 -11.043737 18.000000 0.331382 4.911436
962.789911 439.279946 140.971079 0.000000 0.000000 0.000000 0.000000 0.000000 0.000000 20.089586 22.609073 -9.635073 180.000000 9.502539 -9.635073 24.330184 -11.527217 7.460697 155.669816 14.575094 -29.057495 14.926290 -10.070301 -7.460697 18.000000 0.401425 4.960574
641.318550 641.336324 135.218092 0.000000 0.000000 0.000000 0.000000 0.000000 0.000000 163.642929 -19.510501 -4.973798 -16.357071 14.462570 -4.973798 -155.926011 -3.957571 3.759997 -130.644608 -7.974624 -29.763441 68.679337 10.450269 -3.759997 -11.132066 -1.045027 4.990134
1305.385551 662.289033 146.235811 0.000000 0.000000 0.000000 0.000000 0.000000 0.000000 -81.949824 10.144788 -0.000000 98.050176 -14.527927 -0.000000 9.536664 -5.627772 0.000000 -153.586691 -6.169519 -30.000000 24.402531 4.571647 -0.000000 -15.559747 -0.457165 5.000000
962.486899 439.186814 136.947044 0.000000 0.000000 0.000000 0.000000 0.000000 0.000000 20.465882 -0.239022 4.973798 180.000000 -21.033545 4.973798 24.357206 19.625209 -3.759997 155.642794 -12.074059 -29.763441 14.800425 4.297043 3.759997 18.000000 -0.025790 4.990134
1216.314240 612.580640 130.505321 0.000000 0.000000 0.000000 0.000000 0.000000 0.000000 78.221991 14.324025 9.635073 -101.778009 -2.665186 9.635073 46.689014 -3.619006 -7.460697 -61.937558 -9.111742 -29.057495 44.546377 -0.379024 7.460697 -10.771750 -0.052856 4.960574
1273.897820 573.707514 130.135285 0.000000 0.000000 0.000000 0.000000 0.000000 0.000000 77.469628 1.155782 13.690942 -102.530372 -4.130718 13.690942 -155.691164 -4.875142 -11.043737 -120.750172 -3.976777 -27.893295 -156.229293 -5.014989 11.043737 2.162203 0.568386 4.911436
1337.358742 570.303276 125.657717 0.000000 0.000000 0.000000 0.000000 0.000000 0.000000 73.705918 1.268014 16.886559 -106.294082 1.320294 16.886559 -155.918376 -5.110234 -14.452610 -149.887909 -4.446686 -26.289200 0.000000 0.000000 0.000000 0.000000 0.000000 0.000000
1342.446442 569.623497 111.429310 0.000000 0.000000 0.000000 0.000000 0.000000 0.000000 68.898287 -0.894776 19.021130 -111.101713 4.892595 19.021130 39.314088 -10.848391 -17.633558 -140.912764 -0.392245 -24.270510 -153.216026 -5.695263 17.633558 2.759242 0.739111 4.755283
1335.759430 584.665475 107.748986 0.000000 0.000000 0.000000 0.000000 0.000000 0.000000 66.989329 3.154877 19.960535 -113.010671 -0.821511 19.960535 -154.807077 -4.896487 -20.536413 -142.328055 -4.434644 -21.869059 -153.049156 -4.595671 20.536413 2.866457 0.753635 4.648882
1337.950974 598.074245 99.585505 0.000000 0.000000 0.000000 0.000000 0.000000 0.000000 62.697633 13.954502 19.645745 -117.302367 -9.719288 19.645745 19.366736 4.948741 -23.115397 -144.826223 -3.303335 -19.122720 9.911455 -0.229552 23.115397 -17.004209 0.037338 4.524135
1352.846489 601.043322 112.651144 0.000000 0.000000 0.000000 0.000000 0.000000 0.000000 59.083577 -0.687668 18.096541 -120.916423 6.091506 18.096541 20.876734 -9.604949 -25.329838 -142.301690 0.358108 -16.074804 13.356960 -1.503668 25.329838 -16.821524 0.077990 4.381533
1347.310982 587.475100 106.976774 0.000000 0.000000 0.000000 0.000000 0.000000 0.000000 56.169135 -9.515466 15.410265 -123.830865 -2.096690 15.410265 21.172503 2.464679 -27.144812 -139.640745 -1.091106 -12.773379 14.641496 0.703316 27.144812 -16.282575 0.093892 4.221640
1326.982155 606.886139 86.380117 0.000000 0.000000 0.000000 0.000000 0.000000 0.000000 70.119981 4.893668 11.755705 -109.880019 -11.197457 11.755705 26.511889 3.800373 -28.531695 -111.264667 -5.350197 -9.270510 31.153840 2.947643 28.531695 -13.943905 -0.101815 4.045085
1354.391098 626.185555 102.604364 0.000000 0.000000 0.000000 0.000000 0.000000 0.000000 88.154395 4.546165 7.362491 -91.845605 -0.345680 7.362491 30.442275 -1.355272 -29.468618 -76.284233 -1.144775 -5.621439 43.854867 -1.420680 29.468618 -10.818190 0.110189 3.852566
1370.667114 610.219567 70.070093 0.000000 0.000000 0.000000 0.000000 0.000000 0.000000 89.945118 4.432934 2.506665 -90.054882 -4.871485 2.506665 44.053326 1.406634 -29.940802 -56.238091 -5.424001 -1.883716 55.411270 7.834288 29.940802 -7.805659 -0.009880 3.644843
1372.834854 597.828534 70.567222 0.000000 0.000000 0.000000 0.000000 0.000000 0.000000 93.407992 5.213849 -2.506665 -86.592008 -2.636335 -2.506665 54.165845 2.415964 -29.940802 -47.239220 2.533632 1.883716 56.575186 -2.897797 29.940802 -6.344474 -0.192723 3.422736
1336.554337 597.454848 67.965908 0.000000 0.000000 0.000000 0.000000 0.000000 0.000000 95.622643 0.342844 -7.362491 -84.377357 -0.173167 -7.362491 56.597780 2.964324 -29.468618 -45.108662 -2.167976 5.621439 55.386034 2.324194 29.468618 -7.206870 0.593679 3.187120
1310.567093 590.844769 70.146201 0.000000 0.000000 0.000000 0.000000 0.000000 0.000000 100.193768 -7.883077 -11.755705 -79.806232 9.031211 -11.755705 61.986347 0.749027 -28.531695 -37.593815 7.333356 9.270510 62.907615 -3.572241 28.531695 -6.637230 -0.119347 2.938926
1328.574371 576.493385 63.003498 0.000000 0.000000 0.000000 0.000000 0.000000 0.000000 101.943783 -3.472626 -15.410265 -78.056217 4.655361 -15.410265 61.902838 -5.296914 -27.144812 -33.889586 -0.834423 12.773379 55.760387 5.670330 27.144812 -7.097415 -1.521446 2.679134
1316.178360 595.500870 72.330499 0.000000 0.000000 0.000000 0.000000 0.000000 0.000000 103.792097 -3.649674 -18.096541 -76.207903 -3.342533 -18.096541 65.535198 4.988100 -25.329838 -28.739437 -0.763587 16.074804 68.415337 0.329641 25.329838 -6.481753 0.123947 2.408768
1302.343140 568.138025 54.084124 0.000000 0.000000 0.000000 0.000000 0.000000 0.000000 101.222717 -14.108177 -19.645745 -78.777283 1.760165 -19.645745 90.757296 -1.506655 -23.115397 -18.578033 -0.832740 19.122720 97.909038 3.351837 23.115397 -5.050134 -0.261269 2.128896
1274.166183 540.660596 35.907316 0.000000 0.000000 0.000000 0.000000 0.000000 0.000000 -126.898591 6.379353 -19.960535 53.101409 -20.273686 -19.960535 127.276662 -3.994329 -20.536413 8.808645 -3.239820 21.869059 119.711272 1.086026 20.536413 -4.115393 -0.080151 1.840623
1268.557091 468.331075 44.246227 0.000000 0.000000 0.000000 0.000000 0.000000 0.000000 -124.112133 7.654576 -19.021130 55.887867 -5.761040 -19.021130 163.344780 2.895646 -17.633558 38.476068 1.197099 24.270510 145.889074 0.504966 17.633558 -1.929933 -0.062448 1.545085
1278.673096 454.375906 62.931119 0.000000 0.000000 0.000000 0.000000 0.000000 0.000000 -126.805061 6.185950 -16.886559 53.194939 0.334584 -16.886559 -174.009950 -1.385262 -14.452610 27.419224 0.123803 26.289200 168.192977 -0.069750 14.452610 -0.976267 0.038605 1.243449
1285.008774 434.700390 66.766681 0.000000 0.000000 0.000000 0.000000 0.000000 0.000000 -132.005120 9.249745 -13.690942 47.994880 3.023134 -13.690942 -171.247775 1.298609 -11.043737 26.625253 0.526790 27.893295 178.805957 -2.067448 11.043737 0.023422 0.103700 0.936907
1288.157730 426.987666 35.207729 0.000000 0.000000 0.000000 0.000000 0.000000 0.000000 -123.987926 -0.125626 -9.635073 56.012074 -1.284807 -9.635073 -166.356219 0.348249 -7.460697 35.716336 -2.195717 29.057495 -172.960762 0.657298 7.460697 0.819533 -0.099565 0.626666
1291.221657 420.425448 46.323512 0.000000 0.000000 0.000000 0.000000 0.000000 0.000000 -122.265643 -1.566462 -4.973798 57.734357 0.211898 -4.973798 -156.870161 0.385439 -3.759997 38.220704 -3.132052 29.763441 -165.716368 0.748227 3.759997 1.405814 0.002302 0.313953
