HIERARCHY
ROOT Hips
{
    OFFSET 0.0 0.0 0.0
    CHANNELS 6 Xposition Yposition Zposition Zrotation Xrotation Yrotation
    JOINT Spine
    {
        OFFSET 0.0 5.0 0.0
        CHANNELS 3 Zrotation Xrotation Yrotation
        JOINT Chest
        {
            OFFSET 0.0 5.0 0.0
            CHANNELS 3 Zrotation Xrotation Yrotation
            JOINT Neck
            {
                OFFSET 0.0 8.0 0.0
                CHANNELS 3 Zrotation Xrotation Yrotation
                JOINT Head
                {
                    OFFSET 0.0 5.0 0.0
                    CHANNELS 3 Zrotation Xrotation Yrotation
                    End Site
                    {
                        OFFSET 0.0 3.0 0.0
                    }
                }
            }
            JOINT LeftShoulder
            {
                OFFSET -5.0 0.0 0.0
                CHANNELS 3 Zrotation Xrotation Yrotation
                JOINT LeftArm
                {
                    OFFSET 0.0 -10.0 0.0
                    CHANNELS 3 Zrotation Xrotation Yrotation
                    JOINT LeftForeArm
                    {
                        OFFSET 0.0 -10.0 0.0
                        CHANNELS 3 Zrotation Xrotation Yrotation
                        End Site
                        {
                            OFFSET 0.0 -3.0 0.0
                        }
                    }
                }
            }
        }
    }
}

MOTION
Frames: 300
Frame Time: 0.033333

960.000000 445.000000 98.672120 0.000000 0.000000 0.000000 0.000000 0.000000 0.000000 23.025492 14.937596 0.000000 180.000000 -11.273910 0.000000 21.801409 5.961180 -0.000000 158.198591 -2.547840 30.000000 15.945396 -1.197318 0.000000 18.000000 0.247186 0.000000
1691.525230 140.756605 109.056312 0.000000 0.000000 0.000000 0.000000 0.000000 0.000000 -163.376529 12.332506 4.973798 16.623471 -11.575185 4.973798 -171.853121 -3.280883 3.759997 99.744051 -26.062651 29.763441 -171.126653 -3.663368 -3.759997 0.673538 0.368269 0.313953
1636.048050 128.802021 110.513814 0.000000 0.000000 0.000000 0.000000 0.000000 0.000000 157.904128 -33.979856 9.635073 -22.095872 -10.421631 9.635073 -171.936471 -3.506220 7.460697 -143.675701 6.657548 29.057495 -173.500805 -4.561540 -7.460697 0.570999 0.496058 0.626666
1578.156967 80.474526 117.595264 0.000000 0.000000 0.000000 0.000000 0.000000 0.000000 -139.519796 2.802531 13.690942 40.480204 -2.171852 13.690942 -174.507724 -3.921135 11.043737 119.111399 -1.454254 27.893295 -173.607258 -4.234218 -11.043737 0.461920 0.458494 0.936907
960.418757 444.998421 118.544406 0.000000 0.000000 0.000000 0.000000 0.000000 0.000000 25.077893 16.918152 16.886559 180.000000 2.384540 16.886559 23.861935 -5.107542 14.452610 156.138065 9.846300 26.289200 17.903699 -0.464617 -14.452610 18.000000 -1.406168 1.243449
960.523360 444.997533 120.527362 0.000000 0.000000 0.000000 0.000000 0.000000 0.000000 25.638906 -11.564734 19.021130 180.000000 -6.599372 19.021130 24.425035 10.780010 17.633558 155.574965 4.881567 24.270510 18.452907 -8.324146 -17.633558 18.000000 1.439973 1.545085
960.627905 444.996447 125.108674 0.000000 0.000000 0.000000 0.000000 0.000000 0.000000 26.219073 4.055574 19.960535 180.000000 13.335094 19.960535 25.006291 -0.504035 20.536413 154.993709 3.386200 21.869059 19.024920 2.826986 -20.536413 18.000000 -0.682797 1.840623
1126.242828 420.359820 124.141867 0.000000 0.000000 0.000000 0.000000 0.000000 0.000000 31.410514 2.328556 19.645745 -148.589486 0.331646 19.645745 32.280463 -3.171947 23.115397 -131.603972 -0.048316 19.122720 45.585331 0.160920 -23.115397 -13.449727 -0.178832 2.128896
1257.895088 650.549197 134.665518 0.000000 0.000000 0.000000 0.000000 0.000000 0.000000 25.073180 36.517180 18.096541 -154.926820 -34.011000 18.096541 46.260945 11.085924 25.329838 -154.651428 -6.511343 16.074804 27.339487 4.949354 -25.329838 -13.619892 -0.188782 2.408768
960.941083 444.992008 133.746124 0.000000 0.000000 0.000000 0.000000 0.000000 0.000000 28.072001 5.163135 15.410265 180.000000 7.970741 15.410265 26.849221 -13.950046 27.144812 153.150779 -2.201309 12.773379 20.864045 3.636412 -27.144812 18.000000 -0.233245 2.679134
1163.815842 547.748709 130.513488 0.000000 0.000000 0.000000 0.000000 0.000000 0.000000 117.162728 1.787637 11.755705 -62.837272 0.828525 11.755705 102.363764 -4.771415 28.531695 -47.376450 -4.631908 9.270510 104.768601 2.669847 -28.531695 -6.003489 0.202007 2.938926
961.149372 444.988063 138.397757 0.000000 0.000000 0.000000 0.000000 0.000000 0.000000 29.395983 2.228240 7.362491 180.000000 -2.435736 7.362491 28.146217 -5.202648 29.468618 151.853783 3.310407 5.621439 22.170006 2.028996 -29.468618 18.000000 -0.343985 3.187120
1136.717377 590.104480 142.186711 0.000000 0.000000 0.000000 0.000000 0.000000 0.000000 115.752126 5.742017 2.506665 -64.247874 0.905794 2.506665 73.638146 -5.515961 29.940802 -21.842452 -1.098199 1.883716 75.369282 -0.382834 -29.940802 -6.767207 0.582795 3.422736
1163.079758 634.077559 157.379758 0.000000 0.000000 0.000000 0.000000 0.000000 0.000000 132.174340 0.405925 -2.506665 -47.825660 -1.821723 -2.506665 94.255711 1.314664 29.940802 -149.364979 -7.028755 -1.883716 30.021641 6.085500 -29.940802 -5.096180 -1.554734 3.644843
961.460830 444.980668 161.148475 0.000000 0.000000 0.000000 0.000000 0.000000 0.000000 31.497152 -11.029862 -7.362491 180.000000 8.902551 -7.362491 30.152455 -20.109625 29.468618 149.847545 -0.352260 -5.621439 24.175589 0.078015 -29.468618 18.000000 -0.353529 3.852566
1097.449951 565.089898 140.623917 0.000000 0.000000 0.000000 0.000000 0.000000 0.000000 -119.219568 8.523695 -11.755705 60.780432 -4.382651 -11.755705 -150.180642 -6.780985 28.531695 48.804955 -1.098004 -9.270510 -149.874178 -6.470670 -28.531695 2.713854 0.537300 4.045085
1114.140244 528.302071 166.730700 0.000000 0.000000 0.000000 0.000000 0.000000 0.000000 -142.671523 -1.614267 -15.410265 37.328477 -1.260755 -15.410265 -177.395681 -0.519271 27.144812 34.687329 -3.796859 -12.773379 161.894167 3.123411 -27.144812 -0.910956 -0.053351 4.221640
1116.433640 479.728639 150.777400 0.000000 0.000000 0.000000 0.000000 0.000000 0.000000 -102.267481 0.793520 -18.096541 77.732519 -8.477548 -18.096541 -163.695626 4.089319 25.329838 38.575767 -3.222888 -16.074804 -176.001122 0.761285 -25.329838 0.706594 -0.038689 4.381533
1135.931282 466.493965 139.420288 0.000000 0.000000 0.000000 0.000000 0.000000 0.000000 -112.868406 6.510814 -19.645745 67.131594 -3.629168 -19.645745 -159.517862 2.471099 23.115397 36.204678 -2.615431 -19.122720 -154.426613 -5.559395 -23.115397 2.428729 0.540341 4.524135
1141.618767 467.420679 152.124411 0.000000 0.000000 0.000000 0.000000 0.000000 0.000000 -123.086385 -0.507951 -19.960535 56.913615 -4.190934 -19.960535 -154.885724 2.733694 20.536413 36.481623 -0.907863 -21.869059 -153.965441 -5.580478 -20.536413 2.446728 0.565170 4.648882
1150.647926 469.370956 158.283673 0.000000 0.000000 0.000000 0.000000 0.000000 0.000000 -43.953779 -13.807646 -19.021130 136.046221 1.784776 -19.021130 -154.327268 -7.143926 17.633558 60.745168 7.066527 -24.270510 -153.350642 -7.128390 -17.633558 2.386216 0.584121 4.755283
1151.529922 496.420240 146.332305 0.000000 0.000000 0.000000 0.000000 0.000000 0.000000 -116.362129 6.640837 -16.886559 63.637871 7.949686 -16.886559 -149.081043 0.457099 14.452610 35.941860 3.057811 -26.289200 -156.847177 0.192164 -14.452610 2.056513 0.143309 4.842916
1148.402367 515.713574 139.073680 0.000000 0.000000 0.000000 0.000000 0.000000 0.000000 -118.252650 7.657386 -13.690942 61.747350 5.324949 -13.690942 -138.082896 -1.612927 11.043737 -156.312677 -6.829189 -27.893295 21.649626 9.867089 -11.043737 2.962417 -0.206483 4.911436
1175.363617 533.368646 135.610866 0.000000 0.000000 0.000000 0.000000 0.000000 0.000000 -95.476638 -5.358110 -9.635073 84.523362 0.634798 -9.635073 -113.907461 4.252687 7.460697 -155.995907 -6.894251 -29.057495 12.512064 8.299356 -7.460697 -16.748794 -0.829936 4.960574
1199.533310 485.991104 128.974168 0.000000 0.000000 0.000000 0.000000 0.000000 0.000000 -100.003195 6.703988 -4.973798 79.996805 -11.584484 -4.973798 -86.083188 3.366550 3.759997 38.843754 -4.547143 -29.763441 -106.539452 1.192097 -3.759997 6.197806 -0.044459 4.990134
962.588190 444.938442 136.326527 0.000000 0.000000 0.000000 0.000000 0.000000 0.000000 39.579754 -20.713851 -0.000000 180.000000 22.560343 -0.000000 36.680773 -1.921059 0.000000 143.319227 -1.167194 -30.000000 29.388385 8.544152 -0.000000 18.000000 -1.129019 5.000000
1142.094727 445.716287 120.703054 0.000000 0.000000 0.000000 0.000000 0.000000 0.000000 -140.228454 -23.471781 4.973798 39.771546 -27.937736 4.973798 -156.118008 -5.531180 -3.759997 3.479189 3.487457 -29.763441 -158.005660 -6.125825 3.759997 2.150019 0.484863 4.990134
1164.005928 424.847746 130.627424 0.000000 0.000000 0.000000 0.000000 0.000000 0.000000 -84.241076 18.621257 9.635073 95.758924 -18.367227 9.635073 -156.181584 -5.786114 -7.460697 166.928360 -9.082347 -29.057495 -154.947270 -5.903095 7.460697 2.644196 0.624179 4.960574
1124.208755 418.286655 97.673769 0.000000 0.000000 0.000000 0.000000 0.000000 0.000000 -117.427077 -21.415025 13.690942 62.572923 44.991115 13.690942 -155.943063 -6.418293 -11.043737 14.023837 35.690399 -27.893295 -157.382674 -6.580158 11.043737 2.188130 0.563907 4.911436
962.990408 444.917226 112.740306 0.000000 0.000000 0.000000 0.000000 0.000000 0.000000 42.110883 21.751434 16.886559 180.000000 4.204400 16.886559 37.946959 14.708517 -14.452610 142.053041 23.336032 -26.289200 29.293612 -16.070818 14.452610 18.000000 -0.211600 4.842916
963.090170 444.911436 113.553586 0.000000 0.000000 0.000000 0.000000 0.000000 0.000000 42.659200 45.705259 19.021130 180.000000 -36.976105 19.021130 38.119107 -0.438684 -17.633558 141.880893 -16.030304 -24.270510 29.068887 -4.617237 17.633558 18.000000 1.048577 4.755283
1186.646461 396.272757 112.618411 0.000000 0.000000 0.000000 0.000000 0.000000 0.000000 -72.847419 15.551242 19.960535 107.152581 -10.038321 19.960535 -156.703603 -4.454944 -20.536413 178.447294 0.519771 -21.869059 -157.212393 -5.196422 20.536413 1.964058 0.531901 4.648882
1313.051605 426.636125 100.348403 0.000000 0.000000 0.000000 0.000000 0.000000 0.000000 90.994869 -3.032078 19.645745 -89.005131 -3.499122 19.645745 -160.515303 -4.250269 -23.115397 -153.248861 -1.592670 -19.122720 -159.640525 -4.676497 23.115397 0.000000 0.000000 0.000000
1347.999344 420.772226 96.201603 0.000000 0.000000 0.000000 0.000000 0.000000 0.000000 90.154351 4.274015 18.096541 -89.845649 -9.186097 18.096541 -162.053401 -3.336115 -25.329838 -136.198880 -3.468544 -16.074804 -160.991694 -4.119267 25.329838 0.000000 0.000000 0.000000
1344.315948 421.031681 96.926807 0.000000 0.000000 0.000000 0.000000 0.000000 0.000000 69.757587 3.156745 15.410265 -110.242413 0.285035 15.410265 25.616746 2.883172 -27.144812 -157.821005 -3.622703 -12.773379 17.214985 3.463418 27.144812 -16.704706 -0.251390 4.221640
1350.307617 440.309436 87.450464 0.000000 0.000000 0.000000 0.000000 0.000000 0.000000 71.124018 0.020924 11.755705 -108.875982 5.441176 11.755705 42.739987 4.384919 -28.531695 -142.315466 1.120066 -9.270510 16.600926 -1.505469 28.531695 -16.660102 0.272199 4.045085
1357.685051 430.688889 79.625794 0.000000 0.000000 0.000000 0.000000 0.000000 0.000000 77.656077 -0.205852 7.362491 -102.343923 -2.092240 7.362491 39.407151 1.577636 -29.468618 -136.343173 0.954895 -5.621439 22.144452 0.706237 29.468618 -16.305135 -0.067440 3.852566
1369.482193 445.909406 69.969489 0.000000 0.000000 0.000000 0.000000 0.000000 0.000000 88.051188 0.740209 2.506665 -91.948812 -5.511398 2.506665 -161.283973 -2.761469 -29.940802 -119.799169 -0.533313 -1.883716 -164.575400 -3.291029 29.940802 1.401013 0.416364 3.644843
963.875156 444.858159 67.762329 0.000000 0.000000 0.000000 0.000000 0.000000 0.000000 45.304844 10.314584 -2.506665 180.000000 -28.176325 -2.506665 37.252439 -0.968057 -29.940802 142.747561 5.046282 1.883716 25.146244 0.610593 29.940802 18.000000 -0.591322 3.422736
963.971479 444.850633 74.304862 0.000000 0.000000 0.000000 0.000000 0.000000 0.000000 45.383640 11.303953 -7.362491 180.000000 10.112334 -7.362491 36.882310 -4.043392 -29.468618 143.117690 -15.352806 5.621439 24.499789 13.944043 29.468618 18.000000 0.308803 3.187120
1336.629524 469.010178 61.232731 0.000000 0.000000 0.000000 0.000000 0.000000 0.000000 -72.390177 1.037709 -11.755705 107.609823 9.311794 -11.755705 -158.649984 -2.550115 -28.531695 2.583425 1.609400 9.270510 -39.658551 3.816914 28.531695 10.837181 -1.137721 2.938926
1311.966934 518.219100 61.441382 0.000000 0.000000 0.000000 0.000000 0.000000 0.000000 -63.565072 33.597911 -15.410265 116.434928 -27.326284 -15.410265 -14.840750 -3.184640 -27.144812 -158.549348 -2.600446 12.773379 17.488774 2.998937 27.144812 7.174982 -5.894138 2.679134
964.257793 444.826908 45.444321 0.000000 0.000000 0.000000 0.000000 0.000000 0.000000 45.262206 6.387646 -18.096541 180.000000 9.461895 -18.096541 35.497192 -5.168896 -25.329838 144.502808 6.300619 16.074804 22.522929 -8.156630 25.329838 18.000000 -0.975064 2.408768
1275.921364 516.836239 47.953558 0.000000 0.000000 0.000000 0.000000 0.000000 0.000000 85.186295 8.947139 -19.645745 -94.813705 -6.851169 -19.645745 52.470689 0.346581 -23.115397 -44.513683 -3.855232 19.122720 50.867598 2.689570 23.115397 -8.717188 0.030092 2.128896
1263.254128 546.875424 32.775041 0.000000 0.000000 0.000000 0.000000 0.000000 0.000000 34.848242 32.300532 -19.960535 -145.151758 -5.601485 -19.960535 42.487561 -59.606665 -20.536413 -157.415675 -2.848368 21.869059 22.420880 1.835685 20.536413 -15.757912 -0.183568 1.840623
1258.788185 528.263061 49.852194 0.000000 0.000000 0.000000 0.000000 0.000000 0.000000 118.326865 19.385211 -19.021130 -61.673135 -44.913397 -19.021130 143.214759 16.614106 -17.633558 -156.228306 -2.690041 24.270510 28.173554 2.040896 17.633558 -15.182645 -0.204090 1.545085
1231.492081 471.383836 62.164925 0.000000 0.000000 0.000000 0.000000 0.000000 0.000000 -115.049381 5.541158 -16.886559 64.950619 -37.853216 -16.886559 172.843704 1.496288 -14.452610 -157.842300 -2.902424 26.289200 32.851042 3.069440 14.452610 -14.714896 -0.306944 1.243449
1223.928795 435.993515 43.413657 0.000000 0.000000 0.000000 0.000000 0.000000 0.000000 -115.322532 -2.531573 -13.690942 64.677468 11.518318 -13.690942 -168.597862 -0.487174 -11.043737 -158.853816 -1.708257 27.893295 31.099266 2.609144 11.043737 -14.890073 -0.260914 0.936907
1223.669701 418.195664 55.934920 0.000000 0.000000 0.000000 0.000000 0.000000 0.000000 -102.084053 26.721130 -9.635073 77.915947 -8.400229 -9.635073 -171.103858 -0.253997 -7.460697 162.056334 1.399468 29.057495 -153.594437 -3.553176 7.460697 2.968481 0.282701 0.626666
1216.486244 414.503002 67.327866 0.000000 0.000000 0.000000 0.000000 0.000000 0.000000 69.261091 12.826414 -4.973798 -110.738909 30.143575 -4.973798 -158.083722 -2.791754 -3.759997 -173.244581 -4.243431 29.763441 -154.635509 -1.787593 3.759997 2.928763 0.323517 0.313953
1212.090225 434.550980 55.653107 0.000000 0.000000 0.000000 0.000000 0.000000 0.000000 -112.403932 -1.673941 0.000000 67.596068 32.639297 0.000000 -157.060799 -3.384469 -0.000000 173.400765 -0.005018 30.000000 -154.473580 -2.734727 0.000000 2.734633 0.317721 0.000000
1214.024734 450.340490 64.283015 0.000000 0.000000 0.000000 0.000000 0.000000 0.000000 -110.634751 3.284581 4.973798 69.365249 -3.721090 4.973798 -137.583343 3.352013 3.759997 -158.589698 -2.967968 29.763441 20.879446 2.989155 -3.759997 -15.912055 -0.298915 0.313953
1204.271393 440.192921 70.724778 0.000000 0.000000 0.000000 0.000000 0.000000 0.000000 -99.498286 9.898903 9.635073 80.501714 10.118946 9.635073 -156.696469 -2.677540 7.460697 -178.487725 -16.706950 29.057495 -157.318323 -1.599131 -7.460697 2.108583 0.363662 0.626666
965.269558 444.725315 53.130696 0.000000 0.000000 0.000000 0.000000 0.000000 0.000000 40.845461 1.758290 13.690942 180.000000 1.186416 13.690942 28.615377 2.032805 11.043737 151.384623 3.944782 27.893295 16.305092 -1.737893 -11.043737 18.000000 -0.306677 0.936907
1182.456551 475.103824 56.892129 0.000000 0.000000 0.000000 0.000000 0.000000 0.000000 -168.146016 79.278177 16.886559 11.853984 -58.736300 16.886559 -63.802645 -0.335945 14.452610 -61.114510 0.550669 26.289200 -47.869281 0.301217 -14.452610 -13.834956 8.289644 1.243449
965.446390 444.704404 44.847872 0.000000 0.000000 0.000000 0.000000 0.000000 0.000000 39.578146 -34.192159 19.021130 180.000000 31.229178 19.021130 27.338029 -1.660910 17.633558 152.661971 22.885441 24.270510 15.463180 -2.244145 -17.633558 18.000000 -0.222996 1.545085
965.533915 444.693669 70.079482 0.000000 0.000000 0.000000 0.000000 0.000000 0.000000 38.916706 16.526067 19.960535 180.000000 -8.469815 19.960535 26.716768 13.293551 20.536413 153.283232 -1.031561 21.869059 15.076605 -2.277900 -20.536413 18.000000 -0.229890 1.840623
965.620834 444.682749 66.554021 0.000000 0.000000 0.000000 0.000000 0.000000 0.000000 38.241653 -56.966353 19.645745 180.000000 14.926738 19.645745 26.109467 -1.214095 23.115397 153.890533 -5.522269 19.122720 14.712258 2.510256 -23.115397 18.000000 0.501393 2.128896
965.707136 444.671645 84.660402 0.000000 0.000000 0.000000 0.000000 0.000000 0.000000 37.556504 5.241664 18.096541 180.000000 3.039775 18.096541 25.517536 -5.354732 25.329838 154.482464 -9.581012 16.074804 14.369537 1.999213 -25.329838 18.000000 0.324096 2.408768
965.792812 444.660356 81.024383 0.000000 0.000000 0.000000 0.000000 0.000000 0.000000 36.864608 -1.342595 15.410265 180.000000 -2.219762 15.410265 24.942131 -4.368073 27.144812 155.057869 -4.036547 12.773379 14.047797 4.470361 -27.144812 18.000000 -0.332229 2.679134
965.877853 444.648882 86.176381 0.000000 0.000000 0.000000 0.000000 0.000000 0.000000 36.169118 1.222610 11.755705 180.000000 -1.613106 11.755705 24.384173 0.826920 28.531695 155.615827 7.713076 9.270510 13.746367 -2.416461 -28.531695 18.000000 0.299799 2.938926
965.962249 444.637226 91.904918 0.000000 0.000000 0.000000 0.000000 0.000000 0.000000 35.472980 -12.710190 7.362491 180.000000 6.512201 7.362491 23.844373 1.333624 29.468618 156.155627 6.629933 5.621439 13.464570 0.573193 -29.468618 18.000000 0.227703 3.187120
966.045991 444.625386 88.864911 0.000000 0.000000 0.000000 0.000000 0.000000 0.000000 34.778913 12.723325 2.506665 180.000000 -10.557952 2.506665 23.323250 4.242137 29.940802 156.676750 -6.065800 1.883716 13.201728 4.695481 -29.940802 18.000000 0.023397 3.422736
966.129071 444.613364 103.713129 0.000000 0.000000 0.000000 0.000000 0.000000 0.000000 34.089406 30.092969 -2.506665 180.000000 -4.811178 -2.506665 22.821158 -10.225620 29.940802 157.178842 0.917692 -1.883716 12.957175 0.406264 -29.940802 18.000000 -0.299831 3.644843
966.211478 444.601159 92.375318 0.000000 0.000000 0.000000 0.000000 0.000000 0.000000 33.406712 8.029250 -7.362491 180.000000 -4.461112 -7.362491 22.338307 -16.263447 29.468618 157.661693 -2.186877 -5.621439 12.730264 4.532338 -29.468618 18.000000 -0.535654 3.852566
1171.486244 534.946783 107.144826 0.000000 0.000000 0.000000 0.000000 0.000000 0.000000 70.594720 4.418301 -11.755705 -109.405280 -12.703502 -11.755705 49.953444 2.975493 28.531695 -151.467583 -5.392864 -9.270510 0.000000 0.000000 0.000000 0.000000 0.000000 0.000000
966.374240 444.576206 123.432363 0.000000 0.000000 0.000000 0.000000 0.000000 0.000000 32.069603 -5.754244 -15.410265 180.000000 8.716215 -15.410265 21.430544 -1.984756 27.144812 158.569456 -4.828357 -12.773379 12.326901 5.737436 -27.144812 18.000000 0.129274 4.221640
1172.156410 555.047708 116.630122 0.000000 0.000000 0.000000 0.000000 0.000000 0.000000 -121.065102 7.147197 -18.096541 58.934898 -4.471995 -18.096541 -151.641456 -5.606204 25.329838 -177.360623 1.333497 -16.074804 -149.076048 -6.844355 -25.329838 0.000000 0.000000 0.000000
1161.826630 552.360713 128.414510 0.000000 0.000000 0.000000 0.000000 0.000000 0.000000 69.958407 -25.079334 -19.645745 -110.041593 33.456990 -19.645745 -152.437496 -6.227131 23.115397 -158.790607 -0.985973 -19.122720 -150.591725 -6.376808 -23.115397 3.219062 0.744286 4.524135
1165.827255 569.832902 147.789025 0.000000 0.000000 0.000000 0.000000 0.000000 0.000000 25.594208 -17.761472 -19.960535 -154.405792 5.701763 -19.960535 11.723883 3.902362 20.536413 -161.543160 0.347301 -21.869059 7.769582 1.623776 -20.536413 -17.248199 -0.077725 4.648882
1165.555573 565.067046 155.315764 0.000000 0.000000 0.000000 0.000000 0.000000 0.000000 43.355707 7.004707 -19.021130 -136.644293 10.261985 -19.021130 15.984329 -3.424029 17.633558 -140.773833 1.175862 -24.270510 13.679449 -0.001730 -17.633558 -16.392157 -0.072267 4.755283
1290.255775 608.533316 154.434454 0.000000 0.000000 0.000000 0.000000 0.000000 0.000000 -153.952071 -30.466582 -16.886559 26.047929 17.967326 -16.886559 -152.683807 -5.364877 14.452610 4.794196 6.950534 -26.289200 -154.287190 -5.032036 -14.452610 2.418080 0.603856 4.842916
1180.398903 551.817470 140.429117 0.000000 0.000000 0.000000 0.000000 0.000000 0.000000 51.640104 5.098482 -13.690942 -128.359896 4.457686 -13.690942 14.419400 -3.732249 11.043737 -33.521359 -35.818462 -27.893295 -34.277510 15.527921 -11.043737 5.235387 -0.600487 4.911436
1162.708626 619.419501 129.560417 0.000000 0.000000 0.000000 0.000000 0.000000 0.000000 -88.968325 22.235500 -9.635073 91.031675 -34.029724 -9.635073 -52.690088 -0.953282 7.460697 25.015222 -7.687889 -29.057495 -72.561734 1.049648 -7.460697 8.557489 0.000015 4.960574
1110.899391 602.919216 125.506893 0.000000 0.000000 0.000000 0.000000 0.000000 0.000000 -86.972237 7.808037 -4.973798 93.027763 -1.781695 -4.973798 -39.551144 2.098846 3.759997 34.838085 -1.611754 -29.763441 -44.185810 5.097467 -3.759997 10.000609 -1.397073 4.990134
1150.187302 553.686991 138.099587 0.000000 0.000000 0.000000 0.000000 0.000000 0.000000 -116.065142 4.155596 -0.000000 63.934858 3.542046 -0.000000 -151.059314 -7.414127 0.000000 -0.492058 -10.078666 -30.000000 -14.044098 14.700965 -0.000000 1.929760 0.176895 5.000000
967.144727 444.440682 145.080774 0.000000 0.000000 0.000000 0.000000 0.000000 0.000000 26.270296 8.944035 4.973798 180.000000 -19.356263 4.973798 17.996647 7.156265 -3.759997 162.003353 -8.646862 -29.763441 11.189167 0.852744 3.759997 18.000000 -0.184587 4.990134
1213.452644 620.002785 136.107078 0.000000 0.000000 0.000000 0.000000 0.000000 0.000000 140.390379 3.449485 9.635073 -39.609621 -10.370990 9.635073 77.724607 6.955910 -7.460697 -153.982965 -6.429681 -29.057495 24.142749 6.175442 7.460697 -0.833727 1.287543 4.960574
1124.373779 618.464527 138.218147 0.000000 0.000000 0.000000 0.000000 0.000000 0.000000 99.329635 -37.160057 13.690942 -80.670365 31.796545 13.690942 85.960927 3.045737 -11.043737 -150.875293 -6.535819 -27.893295 31.644098 6.328247 11.043737 -14.835590 -0.632825 4.911436
967.360971 444.396582 169.020777 0.000000 0.000000 0.000000 0.000000 0.000000 0.000000 24.874716 9.653401 16.886559 180.000000 2.664189 16.886559 17.291102 1.416740 -14.452610 162.708898 4.751931 -26.289200 11.098846 -4.475835 14.452610 18.000000 0.004369 4.842916
1107.875175 542.453964 159.045587 0.000000 0.000000 0.000000 0.000000 0.000000 0.000000 -128.741314 -2.630316 19.021130 51.258686 3.085004 19.021130 -177.225595 -3.973187 -17.633558 19.954750 -5.781755 -24.270510 162.677362 2.292172 17.633558 -1.443098 0.005664 4.755283
1119.652290 522.766346 151.807544 0.000000 0.000000 0.000000 0.000000 0.000000 0.000000 -99.017754 32.313468 19.960535 80.982246 -20.486710 19.960535 -150.289603 -7.345104 -20.536413 -152.613833 -8.665869 -21.869059 0.000000 0.000000 0.000000 0.000000 0.000000 0.000000
1132.908783 538.229613 155.788766 0.000000 0.000000 0.000000 0.000000 0.000000 0.000000 -127.874185 -13.841557 19.645745 52.125815 9.157075 19.645745 -165.450188 -2.311810 -23.115397 -152.521515 -6.173476 -19.122720 40.606225 7.972768 23.115397 -13.939378 -0.797277 4.524135
1146.969337 541.828065 143.691575 0.000000 0.000000 0.000000 0.000000 0.000000 0.000000 -113.631604 -5.133560 18.096541 66.368396 -2.338606 18.096541 -159.067475 -2.525176 -25.329838 113.981862 1.568675 -16.074804 -145.449815 -7.293768 25.329838 0.000000 0.000000 0.000000
1165.252304 561.329677 126.554475 0.000000 0.000000 0.000000 0.000000 0.000000 0.000000 -112.861399 -4.054406 15.410265 67.138601 -1.436598 15.410265 -159.396543 2.617071 -27.144812 -151.967552 -6.507561 -12.773379 38.422588 9.340864 27.144812 -14.157741 -0.934086 4.221640
1174.726181 592.839689 132.404087 0.000000 0.000000 0.000000 0.000000 0.000000 0.000000 -110.369899 -6.557328 11.755705 69.630101 3.870008 11.755705 -148.108768 -2.324662 -28.531695 -151.515612 -6.890677 -9.270510 34.277732 7.805243 28.531695 -14.572227 -0.780524 4.045085
1167.352524 605.194867 140.390001 0.000000 0.000000 0.000000 0.000000 0.000000 0.000000 -113.828445 6.011539 7.362491 66.171555 2.583251 7.362491 -131.688453 1.092556 -29.468618 -151.045756 -6.533870 -5.621439 27.200835 8.966515 29.468618 -15.279916 -0.896652 3.852566
1139.678879 602.981014 127.655238 0.000000 0.000000 0.000000 0.000000 0.000000 0.000000 -97.599684 5.288628 2.506665 82.400316 -6.754041 2.506665 -113.965806 2.686895 -29.940802 -121.058781 -2.974120 -1.883716 -118.492407 -0.055523 29.940802 10.137620 -5.066863 3.644843
1165.830002 580.020189 117.467258 0.000000 0.000000 0.000000 0.000000 0.000000 0.000000 -28.085052 -36.319905 -2.506665 151.914948 21.800416 -2.506665 -150.589103 -5.914318 -29.940802 -172.678414 0.705703 1.883716 -149.717924 -5.884304 29.940802 0.000000 0.000000 0.000000
1184.501953 619.872494 135.634771 0.000000 0.000000 0.000000 0.000000 0.000000 0.000000 -113.790307 -24.513136 -7.362491 66.209693 8.418495 -7.362491 -59.272274 6.866131 -29.468618 29.476823 1.220641 5.621439 -88.148483 1.736742 29.468618 7.414604 -0.224770 3.187120
968.090170 444.221640 121.517247 0.000000 0.000000 0.000000 0.000000 0.000000 0.000000 21.092887 21.032339 -11.755705 180.000000 -5.841379 -11.755705 15.757771 -5.292059 -28.531695 164.242229 -3.858754 9.270510 11.678908 1.135461 28.531695 18.000000 -0.239301 2.938926
968.151278 444.204723 119.965192 0.000000 0.000000 0.000000 0.000000 0.000000 0.000000 20.844337 7.075620 -15.410265 180.000000 9.161496 -15.410265 15.691895 -7.295571 -27.144812 164.308105 4.144381 12.773379 11.804629 -2.018821 27.144812 18.000000 -0.171460 2.679134
968.211492 444.187640 129.017121 0.000000 0.000000 0.000000 0.000000 0.000000 0.000000 20.610265 -14.549524 -18.096541 180.000000 -0.415785 -18.096541 15.637361 -0.062075 -25.329838 164.362639 4.877811 16.074804 11.943263 -3.246827 25.329838 18.000000 -0.244216 2.408768
968.270806 444.170392 98.678596 0.000000 0.000000 0.000000 0.000000 0.000000 0.000000 20.390366 6.274975 -19.645745 180.000000 -10.978078 -19.645745 15.594026 -5.879308 -23.115397 164.405974 -7.314861 19.122720 12.095062 -1.908679 23.115397 18.000000 0.472726 2.128896
968.329212 444.152979 90.228982 0.000000 0.000000 0.000000 0.000000 0.000000 0.000000 20.184343 18.177328 -19.960535 180.000000 -7.481627 -19.960535 15.561766 2.954434 -20.536413 164.438234 -3.110478 21.869059 12.260289 -3.231371 20.536413 18.000000 0.434345 1.840623
968.386706 444.135403 107.825378 0.000000 0.000000 0.000000 0.000000 0.000000 0.000000 19.991916 8.141421 -19.021130 180.000000 -0.260185 -19.021130 15.540476 -3.689058 -17.633558 164.459524 2.628436 24.270510 12.439222 -7.457232 17.633558 18.000000 0.302920 1.545085
968.443279 444.117663 99.472535 0.000000 0.000000 0.000000 0.000000 0.000000 0.000000 19.812814 -16.096159 -16.886559 180.000000 -6.418923 -16.886559 15.530069 4.258586 -14.452610 164.469931 -0.751529 26.289200 12.632146 -1.905588 14.452610 18.000000 0.592813 1.243449
968.498927 444.099761 90.349818 0.000000 0.000000 0.000000 0.000000 0.000000 0.000000 19.646785 10.076970 -13.690942 180.000000 -12.735697 -13.690942 15.530474 4.209706 -11.043737 164.469526 -2.360268 27.893295 12.839349 -0.377020 11.043737 18.000000 0.038136 0.936907
968.553643 444.081696 91.435210 0.000000 0.000000 0.000000 0.000000 0.000000 0.000000 19.493591 25.981670 -9.635073 180.000000 -2.670654 -9.635073 15.541640 -8.320383 -7.460697 164.458360 -6.139174 29.057495 13.061119 0.955498 7.460697 18.000000 -0.150885 0.626666
1051.772690 653.004448 75.379835 0.000000 0.000000 0.000000 0.000000 0.000000 0.000000 -79.007834 -12.662364 -4.973798 100.992166 6.467820 -4.973798 -126.715299 -4.272604 -3.759997 -149.991181 -3.526109 29.763441 31.772279 5.170065 3.759997 -14.822772 -0.517006 0.313953
1061.669197 624.716241 73.861238 0.000000 0.000000 0.000000 0.000000 0.000000 0.000000 -94.718359 -6.261668 0.000000 85.281641 10.963048 0.000000 -144.150484 -3.890374 -0.000000 60.155085 2.403472 30.000000 -152.711462 2.907460 0.000000 1.815393 -0.148855 0.000000
1072.053337 571.032879 60.301034 0.000000 0.000000 0.000000 0.000000 0.000000 0.000000 71.424080 7.375205 4.973798 -108.575920 -4.024927 4.973798 -149.042361 -3.613924 3.759997 -149.913636 -1.843436 29.763441 -145.792107 -4.151912 -3.759997 3.947623 0.424027 0.313953
1070.057373 572.884376 57.274928 0.000000 0.000000 0.000000 0.000000 0.000000 0.000000 -80.850201 12.209141 9.635073 99.149799 21.658727 9.635073 -147.567525 -3.629990 7.460697 -164.443014 -2.328283 29.057495 -145.447997 -3.409096 -7.460697 4.032371 0.511465 0.626666
968.813035 443.988972 56.347803 0.000000 0.000000 0.000000 0.000000 0.000000 0.000000 18.912944 -17.870816 13.690942 180.000000 1.711806 13.690942 15.758200 10.197206 11.043737 164.241800 7.061237 27.893295 14.397395 3.644966 -11.043737 18.000000 -0.270704 0.936907
968.862036 443.969952 50.773223 0.000000 0.000000 0.000000 0.000000 0.000000 0.000000 18.832684 4.196843 16.886559 180.000000 -1.032857 16.886559 15.833735 -1.470047 14.452610 164.166265 -3.061842 26.289200 14.711463 0.749517 -14.452610 18.000000 0.141324 1.243449
968.910065 443.950775 67.221083 0.000000 0.000000 0.000000 0.000000 0.000000 0.000000 18.764066 0.190208 19.021130 180.000000 3.387441 19.021130 15.920102 1.516968 17.633558 164.079898 -2.117017 24.270510 15.041323 6.359864 -17.633558 18.000000 0.158568 1.545085
968.957118 443.931442 65.235663 0.000000 0.000000 0.000000 0.000000 0.000000 0.000000 18.706990 12.594319 19.960535 180.000000 1.204419 19.960535 16.017366 -7.981254 20.536413 163.982634 6.787558 21.869059 15.386894 -8.487166 -20.536413 18.000000 -0.623453 1.840623
969.003188 443.911954 31.211351 0.000000 0.000000 0.000000 0.000000 0.000000 0.000000 18.661377 9.717571 19.645745 180.000000 -4.451875 19.645745 16.125602 7.587500 23.115397 163.874398 -5.375427 19.122720 15.747980 5.090396 -23.115397 18.000000 0.586324 2.128896
969.048271 443.892312 50.650004 0.000000 0.000000 0.000000 0.000000 0.000000 0.000000 18.627165 6.981453 18.096541 180.000000 -2.242541 18.096541 16.244896 7.874871 25.329838 163.755104 2.297843 16.074804 16.124252 -2.599797 -25.329838 18.000000 0.284262 2.408768
969.092361 443.872515 63.996195 0.000000 0.000000 0.000000 0.000000 0.000000 0.000000 18.604312 16.316683 15.410265 180.000000 -1.384949 15.410265 16.375340 1.670356 27.144812 163.624660 -1.568607 12.773379 16.515224 -1.049489 -27.144812 18.000000 0.822380 2.679134
1055.186234 577.357593 52.352825 0.000000 0.000000 0.000000 0.000000 0.000000 0.000000 85.510211 7.272107 11.755705 -94.489789 9.150922 11.755705 37.103410 -4.173785 28.531695 -148.111343 -2.322104 9.270510 24.294182 1.920077 -28.531695 -8.601915 1.361246 2.938926
1122.856522 566.714029 62.669471 0.000000 0.000000 0.000000 0.000000 0.000000 0.000000 96.216240 -1.907136 7.362491 -83.783760 3.323632 7.362491 46.189625 1.834256 29.468618 -149.396962 -2.399010 5.621439 24.670091 1.922314 -29.468618 -7.107716 -0.826624 3.187120
969.218632 443.812213 43.354060 0.000000 0.000000 0.000000 0.000000 0.000000 0.000000 18.603763 -1.392710 2.506665 180.000000 11.647051 2.506665 16.834613 -9.837320 29.940802 163.165387 3.324969 1.883716 17.768624 4.576987 -29.940802 18.000000 -1.303361 3.422736
1112.757797 605.798106 57.375285 0.000000 0.000000 0.000000 0.000000 0.000000 0.000000 110.914625 15.210578 -2.506665 -69.085375 -12.803703 -2.506665 67.769469 10.904581 29.940802 -149.822316 -2.756331 -1.883716 29.049901 2.287976 -29.940802 -3.625079 -0.326577 3.644843
1086.733246 592.557156 58.097724 0.000000 0.000000 0.000000 0.000000 0.000000 0.000000 -80.132323 -44.249579 -7.362491 99.867677 41.289844 -7.362491 36.201564 -13.053074 29.468618 -13.679556 9.870398 -5.621439 78.049842 -3.363874 -29.468618 -5.127460 -0.825515 3.852566
1081.109390 570.394492 55.692252 0.000000 0.000000 0.000000 0.000000 0.000000 0.000000 -175.864613 -20.589153 -11.755705 4.135387 19.110981 -11.755705 134.713876 1.758040 28.531695 -10.005873 1.114544 -9.270510 135.737755 0.016432 -28.531695 -3.389365 0.096937 4.045085
1089.776802 536.594539 43.859046 0.000000 0.000000 0.000000 0.000000 0.000000 0.000000 -139.033903 -5.490382 -15.410265 40.966097 -3.683277 -15.410265 161.695972 2.313048 27.144812 3.114398 -0.768174 -12.773379 148.805610 1.967872 -27.144812 -2.611636 0.000271 4.221640
1114.282036 523.965647 69.143707 0.000000 0.000000 0.000000 0.000000 0.000000 0.000000 -156.073983 8.458893 -18.096541 23.926017 -4.666219 -18.096541 174.825807 0.582324 25.329838 5.093343 -0.800256 -16.074804 161.266817 0.625120 -25.329838 -1.814366 -0.196696 4.381533
1122.145157 503.425248 68.644940 0.000000 0.000000 0.000000 0.000000 0.000000 0.000000 -144.538174 6.003158 -19.645745 35.461826 -1.266677 -19.645745 174.215003 2.488651 23.115397 -151.750905 -3.149749 -19.122720 43.887064 4.989243 -23.115397 -13.611294 -0.498924 4.524135
1134.158249 484.688419 77.031002 0.000000 0.000000 0.000000 0.000000 0.000000 0.000000 -142.311443 -5.397908 -19.960535 37.688557 5.252757 -19.960535 -174.407776 -0.662067 20.536413 14.121014 2.884798 -21.869059 176.737053 -1.061614 -20.536413 -0.386439 0.041872 4.648882
1156.756668 500.025387 72.308357 0.000000 0.000000 0.000000 0.000000 0.000000 0.000000 -140.140767 -1.761918 -19.021130 39.859233 8.721346 -19.021130 -176.866589 -1.583408 17.633558 -153.177991 -3.318915 -24.270510 40.555680 3.672716 -17.633558 -13.944432 -0.367272 4.755283
1163.818588 490.292573 50.200077 0.000000 0.000000 0.000000 0.000000 0.000000 0.000000 -126.918075 3.044121 -16.886559 53.081925 7.856319 -16.886559 -163.374411 1.450403 14.452610 -153.952175 -3.268425 -26.289200 36.914642 4.918852 -14.452610 0.798233 -0.041464 4.842916
1176.523705 490.346003 68.470749 0.000000 0.000000 0.000000 0.000000 0.000000 0.000000 -130.072590 -4.438691 -13.690942 49.927410 4.272241 -13.690942 -150.224616 -0.105750 11.043737 24.749952 2.392523 -27.893295 -162.219632 0.353040 -11.043737 1.550269 -0.217199 4.911436
1165.045052 489.521159 75.749051 0.000000 0.000000 0.000000 0.000000 0.000000 0.000000 -134.421293 2.573162 -9.635073 45.578707 0.254434 -9.635073 -138.114962 1.625416 7.460697 20.347125 0.186876 -29.057495 -149.675125 0.666087 -7.460697 1.919618 -0.104070 4.960574
1186.003189 485.341580 79.827067 0.000000 0.000000 0.000000 0.000000 0.000000 0.000000 151.263424 -68.823077 -4.973798 -28.736576 -68.560416 -4.973798 -155.571724 -3.596665 3.759997 -114.944239 14.699801 -29.763441 -157.446860 -4.837974 -3.759997 2.096391 0.492360 4.990134
1190.285912 497.609435 87.456580 0.000000 0.000000 0.000000 0.000000 0.000000 0.000000 -104.331435 32.588419 -0.000000 75.668565 -17.180211 -0.000000 -153.934692 -4.394821 0.000000 -67.465008 1.287998 -30.000000 -71.629168 -9.044131 -0.000000 -13.965204 8.664963 5.000000
846.875610 502.341399 94.135433 0.000000 0.000000 0.000000 0.000000 0.000000 0.000000 -153.358185 15.663229 4.973798 26.641815 15.253233 4.973798 -147.628169 -5.837164 -3.759997 -147.401289 -5.452362 -29.763441 0.000000 0.000000 0.000000 0.000000 0.000000 0.000000
969.711343 443.490827 114.469258 0.000000 0.000000 0.000000 0.000000 0.000000 0.000000 20.204512 -4.472912 9.635073 180.000000 3.933417 9.635073 20.733157 -7.570225 -7.460697 159.266843 0.892548 -29.057495 24.065833 -5.436287 7.460697 18.000000 0.450834 4.960574
969.735789 443.468267 113.218311 0.000000 0.000000 0.000000 0.000000 0.000000 0.000000 20.415894 17.124933 13.690942 180.000000 -0.172526 13.690942 21.087741 -11.445972 -11.043737 158.912259 -12.799378 -27.893295 24.320336 1.949576 11.043737 18.000000 -0.238868 4.911436
969.759168 443.445569 118.280128 0.000000 0.000000 0.000000 0.000000 0.000000 0.000000 20.642061 6.936555 16.886559 180.000000 -1.326239 16.886559 21.453029 11.817347 -14.452610 158.546971 8.055436 -26.289200 24.533304 0.446424 14.452610 18.000000 -0.911063 4.842916
585.252171 514.469179 116.106197 0.000000 0.000000 0.000000 0.000000 0.000000 0.000000 74.723181 48.191214 19.021130 -105.276819 -25.324030 19.021130 119.807175 3.650441 -17.633558 165.825978 12.188670 -24.270510 138.012220 -15.923226 17.633558 -12.357653 -0.665485 4.755283
624.843979 517.601860 118.220720 0.000000 0.000000 0.000000 0.000000 0.000000 0.000000 103.202449 7.049997 19.960535 -76.797551 -5.311143 19.960535 114.381580 -3.040523 -20.536413 -53.015473 -74.186930 -21.869059 145.467160 5.434734 20.536413 -4.173333 0.805796 4.648882
969.822873 443.376664 126.783683 0.000000 0.000000 0.000000 0.000000 0.000000 0.000000 21.413420 5.394312 19.645745 180.000000 -9.998858 19.645745 22.607712 6.162506 -23.115397 157.392288 -6.970959 -19.122720 24.899813 4.722798 23.115397 18.000000 -0.356616 4.524135
969.841956 443.353428 128.411248 0.000000 0.000000 0.000000 0.000000 0.000000 0.000000 21.702987 -23.413522 18.096541 180.000000 13.310581 18.096541 23.009909 -0.813797 -25.329838 156.990091 8.541841 -16.074804 24.926562 10.961127 25.329838 18.000000 -0.213024 4.381533
969.859960 443.330059 149.963103 0.000000 0.000000 0.000000 0.000000 0.000000 0.000000 22.009579 3.223717 15.410265 180.000000 5.244923 15.410265 23.419334 -15.979356 -27.144812 156.580666 -1.939701 -12.773379 24.904993 -0.782727 27.144812 18.000000 0.631782 4.221640
594.905148 538.048757 146.985847 0.000000 0.000000 0.000000 0.000000 0.000000 0.000000 -57.080480 14.618938 11.755705 122.919520 -26.287414 11.755705 -12.750556 1.077888 -28.531695 149.841027 7.435269 -9.270510 -8.274090 -9.796921 28.531695 17.596979 0.762206 4.045085
969.892723 443.282929 138.381878 0.000000 0.000000 0.000000 0.000000 0.000000 0.000000 22.675903 -8.971929 7.362491 180.000000 -16.135654 7.362491 24.255612 14.676831 -29.468618 155.744388 -5.819335 -5.621439 24.720303 -6.879544 29.468618 18.000000 -0.083518 3.852566
1257.001877 499.708382 143.658455 0.000000 0.000000 0.000000 0.000000 0.000000 0.000000 52.818511 -9.086945 2.506665 -127.181489 -8.597866 2.506665 25.369497 4.577588 -29.940802 -143.914951 -6.146201 -1.883716 14.556766 3.645649 29.940802 -16.686776 -0.086735 3.644843
1279.050064 493.773898 152.182991 0.000000 0.000000 0.000000 0.000000 0.000000 0.000000 56.685213 -9.128039 -2.506665 -123.314787 -6.246643 -2.506665 24.065452 4.781595 -29.940802 -146.540317 -2.062104 1.883716 13.097461 -0.393497 29.940802 -16.716891 0.022338 3.422736
1295.108986 477.099677 147.237808 0.000000 0.000000 0.000000 0.000000 0.000000 0.000000 65.723361 17.158883 -7.362491 -114.276639 -8.637913 -7.362491 23.725299 0.727712 -29.468618 -147.984281 -1.739136 5.621439 13.187557 0.928185 29.468618 -16.751134 -0.135821 3.187120
1289.065018 496.763316 147.005359 0.000000 0.000000 0.000000 0.000000 0.000000 0.000000 61.662232 -0.423108 -11.755705 -118.337768 -1.704659 -11.755705 31.397757 -1.512196 -28.531695 -148.047797 -1.875515 9.270510 12.491083 0.506642 28.531695 -16.898368 -0.068562 2.938926
1285.337105 480.691112 148.604947 0.000000 0.000000 0.000000 0.000000 0.000000 0.000000 58.021980 6.317598 -15.410265 -121.978020 -0.736819 -15.410265 31.705930 -0.009681 -27.144812 -157.028684 -3.119653 12.773379 11.107306 2.269079 27.144812 -17.140016 -0.155788 2.679134
1276.453171 465.093691 147.035389 0.000000 0.000000 0.000000 0.000000 0.000000 0.000000 70.157145 1.744537 -18.096541 -109.842855 -12.779119 -18.096541 40.303764 1.019789 -25.329838 -145.293609 -2.691007 16.074804 10.431204 -1.729833 25.329838 -17.100572 -0.132460 2.408768
1253.658714 472.768564 166.016313 0.000000 0.000000 0.000000 0.000000 0.000000 0.000000 65.087926 3.141250 -19.645745 -114.912074 19.273227 -19.645745 -157.680356 -6.943479 -23.115397 -137.727082 0.175678 19.122720 -153.053596 3.963815 23.115397 -16.054219 -0.828218 2.128896
1366.101608 507.691247 150.897650 0.000000 0.000000 0.000000 0.000000 0.000000 0.000000 108.715100 -31.257200 -19.960535 -71.284900 2.704689 -19.960535 156.661132 5.406702 -20.536413 -158.224303 -5.774234 21.869059 0.000000 0.000000 0.000000 0.000000 0.000000 0.000000
969.986295 443.064535 141.431823 0.000000 0.000000 0.000000 0.000000 0.000000 0.000000 26.662144 10.279061 -19.021130 180.000000 -7.413052 -19.021130 28.015351 -4.852885 -17.633558 151.984649 -12.251146 24.270510 22.068935 3.667527 17.633558 18.000000 -0.036527 1.545085
1282.107124 481.511257 159.546461 0.000000 0.000000 0.000000 0.000000 0.000000 0.000000 80.650781 -3.742451 -16.886559 -99.349219 -0.513644 -16.886559 1.511604 3.088007 -14.452610 -32.896908 7.215051 26.289200 -7.727072 -10.264643 14.452610 13.531851 3.079978 1.243449
1282.921486 484.777769 137.017141 0.000000 0.000000 0.000000 0.000000 0.000000 0.000000 -81.737646 8.474679 -13.690942 98.262354 -25.729899 -13.690942 -23.867101 1.736735 -11.043737 12.655668 -0.815212 27.893295 -29.454911 -8.689943 11.043737 9.861248 1.363357 0.936907
1290.933037 513.180238 135.217208 0.000000 0.000000 0.000000 0.000000 0.000000 0.000000 -91.387864 2.031403 -9.635073 88.612136 -5.670317 -9.635073 -41.685392 5.590798 -7.460697 -161.156957 -6.062456 29.057495 15.157863 5.652534 7.460697 10.543436 0.929264 0.626666
969.999452 442.964284 132.792367 0.000000 0.000000 0.000000 0.000000 0.000000 0.000000 29.025427 -9.640716 -4.973798 180.000000 -2.051657 -4.973798 29.437993 3.757835 -3.759997 150.562007 3.873567 29.763441 20.404746 -8.095220 3.759997 18.000000 0.666545 0.313953
970.000000 442.938926 126.343713 0.000000 0.000000 0.000000 0.000000 0.000000 0.000000 29.678605 -0.255073 0.000000 180.000000 0.346949 0.000000 29.744881 7.568346 -0.000000 150.255119 -0.201016 30.000000 19.983107 -2.233367 0.000000 18.000000 0.122908 0.000000
1354.522934 467.411410 139.682478 0.000000 0.000000 0.000000 0.000000 0.000000 0.000000 150.622570 8.869118 4.973798 -29.377430 -5.613433 4.973798 140.176400 -3.332401 3.759997 -12.221629 -8.776978 29.763441 132.794256 4.905863 -3.759997 -2.626015 0.068344 0.313953
969.997807 442.887864 121.824921 0.000000 0.000000 0.000000 0.000000 0.000000 0.000000 31.061399 4.826542 9.635073 180.000000 4.748113 9.635073 30.285790 -9.079400 7.460697 149.714210 -1.111968 29.057495 19.151579 2.090062 -7.460697 18.000000 0.068910 0.626666
1246.736984 514.278152 106.775657 0.000000 0.000000 0.000000 0.000000 0.000000 0.000000 143.557092 5.425748 13.690942 -36.442908 4.013670 13.690942 133.761037 -7.255552 11.043737 -156.950665 -5.665820 27.893295 0.000000 0.000000 0.000000 1.928484 0.459911 0.936907
1245.221100 458.637464 97.837696 0.000000 0.000000 0.000000 0.000000 0.000000 0.000000 160.701064 0.944746 16.886559 -19.298936 -14.750667 16.886559 140.193827 2.840509 14.452610 -157.554825 -5.324083 26.289200 29.500467 5.096742 -14.452610 -15.049953 -0.509674 1.243449
1257.365570 418.514181 129.334499 0.000000 0.000000 0.000000 0.000000 0.000000 0.000000 -143.710676 -1.927396 19.021130 36.289324 5.556223 19.021130 163.220413 0.363451 17.633558 11.688054 3.050326 24.270510 152.038385 -1.692976 -17.633558 -2.339948 0.138100 1.545085
1275.099564 408.163741 124.514236 0.000000 0.000000 0.000000 0.000000 0.000000 0.000000 -132.929531 7.515064 19.960535 47.070469 -8.086737 19.960535 173.491912 0.096081 20.536413 -160.709681 -5.253591 21.869059 33.138793 6.245364 -20.536413 -14.686121 -0.624536 1.840623
1290.611115 384.880857 106.946154 0.000000 0.000000 0.000000 0.000000 0.000000 0.000000 -132.705235 13.199844 19.645745 47.294765 -15.737051 19.645745 -173.778854 1.269742 23.115397 20.496835 -5.112993 19.122720 -161.220290 -4.192842 -23.115397 1.723235 0.339339 2.128896
1302.817154 380.305352 102.477908 0.000000 0.000000 0.000000 0.000000 0.000000 0.000000 -131.493915 -4.209644 18.096541 48.506085 -4.172421 18.096541 -165.393697 0.112993 25.329838 23.154815 -4.541477 16.074804 -178.200316 1.731702 -25.329838 0.138141 -0.003742 2.408768
1304.997711 379.563582 98.365750 0.000000 0.000000 0.000000 0.000000 0.000000 0.000000 -126.727972 1.436437 15.410265 53.272028 -5.527809 15.410265 -160.219593 3.024631 27.144812 28.448880 3.263483 12.773379 -174.368770 -2.316126 -27.144812 0.079526 0.028108 2.679134
1311.668472 386.890390 80.404765 0.000000 0.000000 0.000000 0.000000 0.000000 0.000000 -122.308728 2.812306 11.755705 57.691272 6.431748 11.755705 -158.801130 -2.362737 28.531695 150.942637 -4.121785 9.270510 -154.878332 -3.838915 -28.531695 2.695409 0.476008 2.938926
1305.131836 395.180186 87.245892 0.000000 0.000000 0.000000 0.000000 0.000000 0.000000 -125.112810 -2.797470 7.362491 54.887190 -7.604914 7.362491 -146.487292 6.532201 29.468618 -175.167369 -6.775846 5.621439 -159.224034 -3.359499 -29.468618 1.782042 0.501780 3.187120
1296.320457 392.734526 81.945181 0.000000 0.000000 0.000000 0.000000 0.000000 0.000000 -131.035750 -5.015537 2.506665 48.964250 -8.235286 2.506665 -128.969563 4.208327 29.940802 38.856147 -4.308278 1.883716 -134.776850 0.023347 -29.940802 3.458429 0.111602 3.422736
1306.963577 386.612041 73.959831 0.000000 0.000000 0.000000 0.000000 0.000000 0.000000 -124.469622 1.999232 -2.506665 55.530378 -2.135837 -2.506665 -109.994856 2.170415 29.940802 37.691309 -2.058583 -1.883716 -118.274788 0.650730 -29.940802 5.098336 -0.098801 3.644843
969.892723 442.572198 72.777177 0.000000 0.000000 0.000000 0.000000 0.000000 0.000000 41.287575 5.562681 -7.362491 180.000000 -9.178281 -7.362491 30.974696 2.470047 29.468618 149.025304 0.719110 -5.621439 15.072869 -5.259411 -29.468618 18.000000 0.338380 3.852566
969.876883 442.545207 82.599694 0.000000 0.000000 0.000000 0.000000 0.000000 0.000000 42.241956 -21.932905 -11.755705 180.000000 -7.981335 -11.755705 30.826133 2.540347 28.531695 149.173867 2.061380 -9.270510 14.823070 -1.251655 -28.531695 18.000000 0.216557 4.045085
969.859960 442.518116 74.902118 0.000000 0.000000 0.000000 0.000000 0.000000 0.000000 43.199779 -44.065221 -15.410265 180.000000 33.456130 -15.410265 30.649504 -10.215593 27.144812 149.350496 22.315741 -12.773379 14.587557 1.394030 -27.144812 18.000000 0.112090 4.221640
969.841956 442.490926 84.475763 0.000000 0.000000 0.000000 0.000000 0.000000 0.000000 44.157210 32.700469 -18.096541 180.000000 -1.476928 -18.096541 30.446417 5.787000 25.329838 149.553583 3.448076 -16.074804 14.366154 -0.522082 -25.329838 18.000000 0.284817 4.381533
969.822873 442.463637 59.899238 0.000000 0.000000 0.000000 0.000000 0.000000 0.000000 45.110117 -33.460232 -19.645745 180.000000 -9.781775 -19.645745 30.218633 -5.629892 23.115397 149.781367 1.855565 -19.122720 14.158653 -1.824487 -23.115397 18.000000 0.229142 4.524135
969.802712 442.436251 56.088856 0.000000 0.000000 0.000000 0.000000 0.000000 0.000000 46.054109 -9.912688 -19.960535 180.000000 -11.059957 -19.960535 29.968037 1.244670 20.536413 150.031963 -8.845220 -21.869059 13.964823 1.554794 -20.536413 18.000000 0.032992 4.648882
1187.040939 541.658249 56.570119 0.000000 0.000000 0.000000 0.000000 0.000000 0.000000 82.806623 -12.228480 -19.021130 -97.193377 16.329722 -19.021130 45.395981 -8.912521 17.633558 -156.144455 -1.829325 -24.270510 0.000000 0.000000 0.000000 0.000000 0.000000 0.000000
1182.242889 522.024286 50.750051 0.000000 0.000000 0.000000 0.000000 0.000000 0.000000 -105.721938 -39.544884 -16.886559 74.278062 34.650818 -16.886559 -155.708006 -2.845292 14.452610 -157.302521 -1.473968 -26.289200 0.000000 0.000000 0.000000 2.684983 0.192898 4.842916
1180.914459 527.065626 41.634340 0.000000 0.000000 0.000000 0.000000 0.000000 0.000000 88.055617 -5.814934 -13.690942 -91.944383 9.223074 -13.690942 -158.862018 -3.312562 11.043737 -151.747289 -1.862432 -27.893295 0.000000 0.000000 0.000000 0.000000 0.000000 0.000000
1236.800194 541.387432 51.285200 0.000000 0.000000 0.000000 0.000000 0.000000 0.000000 -85.588400 3.951527 -9.635073 94.411600 -10.495071 -9.635073 -159.297106 13.640633 7.460697 -157.915391 -2.503856 -29.057495 26.607362 1.954512 -7.460697 14.926890 0.868772 4.960574
1161.066513 575.006626 62.073158 0.000000 0.000000 0.000000 0.000000 0.000000 0.000000 -81.021168 1.753534 -4.973798 98.978832 1.435163 -4.973798 -102.851701 -0.347102 3.759997 -157.041007 -2.186200 -29.763441 21.429890 1.806735 -3.759997 10.859432 0.946276 4.990134
1255.636253 512.645942 54.887500 0.000000 0.000000 0.000000 0.000000 0.000000 0.000000 77.832564 0.302582 -0.000000 -102.167436 -2.674744 -0.000000 -158.264834 -2.238431 0.000000 -130.745502 -1.583416 -30.000000 -157.699225 -2.538786 -0.000000 0.000000 0.000000 0.000000
1265.118484 521.473864 47.528029 0.000000 0.000000 0.000000 0.000000 0.000000 0.000000 64.078276 -2.161340 4.973798 -115.921724 -1.045396 4.973798 41.397952 -3.708691 -3.759997 -139.329851 -3.331688 -29.763441 20.223252 -0.741663 3.759997 -16.047574 0.268403 4.990134
1228.099480 522.138258 34.565143 0.000000 0.000000 0.000000 0.000000 0.000000 0.000000 71.050901 8.759310 9.635073 -108.949099 -3.602962 9.635073 150.099970 1.620297 -7.460697 -139.894702 0.681917 -29.057495 -156.275691 -3.312154 7.460697 0.000000 0.000000 0.000000
1240.357246 528.695873 57.580470 0.000000 0.000000 0.000000 0.000000 0.000000 0.000000 65.413351 7.933088 13.690942 -114.586649 -0.699422 13.690942 147.242328 -7.693457 -11.043737 -154.470720 -2.710699 -27.893295 25.557225 2.854278 11.043737 -15.444278 -0.285428 4.911436
1231.815262 551.380248 52.788805 0.000000 0.000000 0.000000 0.000000 0.000000 0.000000 56.412506 -11.859764 16.886559 -123.587494 4.730323 16.886559 -153.392336 -1.090173 -14.452610 -154.784582 -2.352001 -26.289200 24.191555 3.454393 14.452610 -15.580844 -0.345439 4.842916
1221.475182 508.360147 65.511810 0.000000 0.000000 0.000000 0.000000 0.000000 0.000000 77.450622 -5.959521 19.021130 -102.549378 -7.325114 19.021130 -156.789784 -1.838341 -17.633558 -125.590168 3.826844 -24.270510 -160.017240 -3.704417 17.633558 1.833434 0.382019 4.755283
969.477684 442.100429 67.489829 0.000000 0.000000 0.000000 0.000000 0.000000 0.000000 54.932575 54.040278 19.960535 180.000000 -4.561596 19.960535 25.919122 -7.182390 -20.536413 154.080878 -14.817872 -21.869059 12.612867 1.649435 20.536413 18.000000 -0.165695 4.648882
1480.140495 518.878891 78.682512 0.000000 0.000000 0.000000 0.000000 0.000000 0.000000 -110.621767 68.858304 19.645745 69.378233 -86.029472 19.645745 -158.235933 -2.602218 -23.115397 166.031448 -0.374249 -19.122720 -155.186432 -3.164995 23.115397 2.641553 0.317032 4.524135
1271.640472 556.840560 67.287462 0.000000 0.000000 0.000000 0.000000 0.000000 0.000000 -94.404719 -12.643634 18.096541 85.595281 -4.388738 18.096541 -62.417786 3.204117 -25.329838 23.992813 -3.572585 -16.074804 -76.856107 6.126637 25.329838 7.708835 -0.332874 4.381533
1258.556786 530.268441 71.496102 0.000000 0.000000 0.000000 0.000000 0.000000 0.000000 78.355945 11.281582 15.410265 -101.644055 -2.302407 15.410265 35.068294 -8.428655 -27.144812 -54.090640 -7.181150 -12.773379 35.848220 2.025087 27.144812 -8.104639 0.417627 4.221640
1250.800209 527.150567 71.513042 0.000000 0.000000 0.000000 0.000000 0.000000 0.000000 72.417769 4.177276 11.755705 -107.582231 -5.157377 11.755705 24.571109 -2.050115 -28.531695 -39.196117 -0.659432 -9.270510 10.411117 4.441411 28.531695 -9.048616 -3.761893 4.045085
1243.466148 571.776259 68.840627 0.000000 0.000000 0.000000 0.000000 0.000000 0.000000 86.301473 -3.530667 7.362491 -93.698527 -11.344310 7.362491 24.553534 2.213770 -29.468618 -153.460385 -3.806151 -5.621439 19.510484 2.591706 29.468618 -10.109500 4.315185 3.852566
1261.883812 566.052918 92.827048 0.000000 0.000000 0.000000 0.000000 0.000000 0.000000 94.015209 -9.899515 2.506665 -85.984791 19.951590 2.506665 38.959993 -6.926739 -29.940802 -154.008305 -3.768142 -1.883716 20.870951 3.465021 29.940802 -10.872440 -1.429114 3.644843
1284.436798 527.190542 83.641061 0.000000 0.000000 0.000000 0.000000 0.000000 0.000000 111.186365 8.501955 -2.506665 -68.813635 -2.997721 -2.506665 58.506163 2.768240 -29.940802 -19.138727 1.576820 1.883716 51.457372 -0.327835 29.940802 -5.203198 0.154172 3.422736
1272.860069 533.494012 94.132796 0.000000 0.000000 0.000000 0.000000 0.000000 0.000000 72.301471 -24.521355 -7.362491 -107.698529 -2.733408 -7.362491 78.802573 3.278515 -29.468618 -154.772375 -4.572005 5.621439 26.927455 4.469072 29.468618 -15.307255 -0.446907 3.187120
1255.264664 498.243735 116.019267 0.000000 0.000000 0.000000 0.000000 0.000000 0.000000 164.596971 36.787819 -11.755705 -15.403029 65.938010 -11.755705 125.849126 -4.146066 -28.531695 -156.067666 -4.713673 9.270510 33.087561 3.898040 28.531695 -14.691244 -0.389804 2.938926
1259.202232 470.407684 102.076127 0.000000 0.000000 0.000000 0.000000 0.000000 0.000000 -139.980397 13.547041 -15.410265 40.019603 1.681119 -15.410265 165.887722 -0.876583 -27.144812 -157.901492 -5.274962 12.773379 35.196094 5.571968 27.144812 -14.480391 -0.557197 2.679134
1236.502075 429.951335 113.828273 0.000000 0.000000 0.000000 0.000000 0.000000 0.000000 -113.295066 2.124326 -18.096541 66.704934 4.779679 -18.096541 -174.664169 -6.790355 -25.329838 -159.007335 -5.257352 16.074804 32.868990 5.705979 25.329838 -14.713101 -0.570598 2.408768
1253.359451 413.942538 140.552856 0.000000 0.000000 0.000000 0.000000 0.000000 0.000000 -123.348580 4.262067 -19.645745 56.651420 -0.425682 -19.645745 -167.815074 2.669513 -23.115397 -159.603180 -5.788677 19.122720 32.791747 6.755109 23.115397 -14.720825 -0.675511 2.128896
1281.206589 405.664523 123.032148 0.000000 0.000000 0.000000 0.000000 0.000000 0.000000 -124.414271 11.196255 -19.960535 55.585729 -7.265258 -19.960535 -161.281803 0.186222 -20.536413 28.568449 -3.380180 21.869059 -159.052798 -4.716366 20.536413 1.849141 0.475930 1.840623
1300.238571 418.760215 133.722483 0.000000 0.000000 0.000000 0.000000 0.000000 0.000000 -126.263092 -3.959364 -19.021130 53.736908 3.679121 -19.021130 -159.739358 -1.376168 -17.633558 31.487961 -2.530268 24.270510 -170.323915 3.888400 17.633558 0.671815 -0.281008 1.545085
1321.889191 413.634385 135.810526 0.000000 0.000000 0.000000 0.000000 0.000000 0.000000 -133.874471 1.533276 -16.886559 46.125529 6.464666 -16.886559 -159.376251 -4.286719 -14.452610 30.696824 0.905395 26.289200 -164.929556 2.118824 14.452610 1.089735 -0.217297 1.243449
1336.221428 432.881820 149.194483 0.000000 0.000000 0.000000 0.000000 0.000000 0.000000 -115.020798 -6.374258 -13.690942 64.979202 1.305914 -13.690942 -135.609544 2.900128 -11.043737 -161.321630 -5.951027 27.893295 17.353502 7.610554 11.043737 -16.264650 -0.761055 0.936907
1329.124603 416.860342 132.708277 0.000000 0.000000 0.000000 0.000000 0.000000 0.000000 -134.023347 6.476221 -9.635073 45.976653 -0.093501 -9.635073 -128.030830 -0.673617 -7.460697 28.249885 1.669607 29.057495 -136.447985 -0.276904 7.460697 4.038834 -0.071751 0.626666
1343.366776 427.060794 152.680557 0.000000 0.000000 0.000000 0.000000 0.000000 0.000000 -130.153347 -11.708758 -4.973798 49.846653 1.072276 -4.973798 -103.564435 0.039786 -3.759997 27.398095 1.715903 29.763441 -115.461530 -0.829190 3.759997 5.470063 -0.071066 0.313953
1376.991005 465.829636 136.285844 0.000000 0.000000 0.000000 0.000000 0.000000 0.000000 -120.272352 -7.249415 0.000000 59.727648 4.563662 0.000000 -62.204131 0.715823 -0.000000 27.740602 4.107590 30.000000 -80.461527 1.734817 0.000000 7.450891 0.075361 0.000000
1384.978867 468.790376 136.084873 0.000000 0.000000 0.000000 0.000000 0.000000 0.000000 -93.720384 -31.640605 4.973798 86.279616 15.467604 4.973798 3.847814 2.239026 3.759997 -160.438787 -5.892395 29.763441 15.990976 4.545160 -3.759997 7.894783 1.084108 0.313953
1345.894547 516.257268 156.561379 0.000000 0.000000 0.000000 0.000000 0.000000 0.000000 127.577640 4.506054 9.635073 -52.422360 -4.635126 9.635073 53.096359 7.370377 7.460697 -159.021748 -6.797244 29.057495 18.308456 4.991041 -7.460697 -4.062191 0.724715 0.626666
968.498927 441.455181 162.989118 0.000000 0.000000 0.000000 0.000000 0.000000 0.000000 47.920147 -5.901194 13.690942 180.000000 0.207316 13.690942 19.641385 5.059573 11.043737 160.358615 -8.909623 27.893295 13.993219 8.755625 -11.043737 18.000000 -0.304058 0.936907
1336.846733 493.527671 144.717157 0.000000 0.000000 0.000000 0.000000 0.000000 0.000000 102.681311 38.285933 16.886559 -77.318689 -18.118860 16.886559 35.985219 -5.903235 14.452610 -159.617763 -7.163493 26.289200 19.375410 5.948534 -14.452610 -16.062459 -0.594853 1.243449
968.386706 441.394956 149.797461 0.000000 0.000000 0.000000 0.000000 0.000000 0.000000 46.120581 -41.555737 19.021130 180.000000 0.158227 19.021130 19.316787 3.819395 17.633558 160.683213 0.089620 24.270510 14.327067 5.937933 -17.633558 18.000000 0.213635 1.545085
1263.984947 433.341283 142.253079 0.000000 0.000000 0.000000 0.000000 0.000000 0.000000 -115.578373 8.672878 19.960535 64.421627 4.778971 19.960535 -82.396446 0.681456 20.536413 25.733383 2.376731 21.869059 -77.477544 -10.178286 -20.536413 5.836928 1.375751 1.840623
1352.596436 477.564354 139.974623 0.000000 0.000000 0.000000 0.000000 0.000000 0.000000 -99.196741 -2.350167 19.645745 80.803259 -4.801851 19.645745 -125.272585 1.913750 23.115397 -162.405270 -6.251336 19.122720 17.377627 6.441163 -23.115397 -16.262237 -0.644116 2.128896
1384.326782 408.174427 152.491425 0.000000 0.000000 0.000000 0.000000 0.000000 0.000000 96.868601 -6.448734 18.096541 -83.131399 -11.346731 18.096541 -160.848957 -5.953767 25.329838 -137.255583 -5.865810 16.074804 -162.076720 -6.252153 -25.329838 0.000000 0.000000 0.000000
1387.580223 387.128634 156.070178 0.000000 0.000000 0.000000 0.000000 0.000000 0.000000 78.087764 -6.610348 15.410265 -101.912236 12.225668 15.410265 -161.807915 -6.658016 27.144812 -147.504361 -5.788954 12.773379 -162.566306 -6.188921 -27.144812 1.735427 0.838712 2.679134
1345.818558 392.423122 131.734889 0.000000 0.000000 0.000000 0.000000 0.000000 0.000000 71.782984 -16.694899 11.755705 -108.217016 6.454179 11.755705 -169.469261 -0.645714 28.531695 -153.903088 2.838122 9.270510 -154.670689 -13.711969 -28.531695 15.277725 3.895648 2.938926
1331.471329 361.814139 133.340310 0.000000 0.000000 0.000000 0.000000 0.000000 0.000000 53.586100 7.520376 7.362491 -126.413900 3.815544 7.362491 -162.290330 -5.618020 29.468618 -154.912165 4.500773 5.621439 -162.550394 -7.568711 -29.468618 1.742175 0.879610 3.187120
1354.413986 427.213873 136.310040 0.000000 0.000000 0.000000 0.000000 0.000000 0.000000 -131.358118 23.845022 2.506665 48.641882 11.419535 2.506665 -142.488821 -5.508955 29.940802 -161.977882 -6.097983 1.883716 12.673705 9.332794 -29.940802 1.397524 -0.345803 3.422736
1330.326691 347.207226 123.071579 0.000000 0.000000 0.000000 0.000000 0.000000 0.000000 52.464175 3.105783 -2.506665 -127.535825 -4.787226 -2.506665 14.270918 2.407027 29.940802 -122.057234 -0.800619 -1.883716 22.820874 -2.471604 -29.940802 -15.244909 0.223935 3.644843
1317.103271 414.475805 119.430317 0.000000 0.000000 0.000000 0.000000 0.000000 0.000000 76.170457 -14.930378 -7.362491 -103.829543 1.136718 -7.362491 -50.250674 5.300688 29.468618 -52.503744 2.037028 -5.621439 -92.793049 2.168935 -29.468618 3.303440 0.216602 3.852566
1331.844635 430.291482 123.148434 0.000000 0.000000 0.000000 0.000000 0.000000 0.000000 79.985160 -1.094794 -11.755705 -100.014840 -2.775894 -11.755705 25.995082 -3.544237 28.531695 -75.062603 -2.483175 -9.270510 38.761234 -0.608005 -28.531695 -11.442229 -0.173427 4.045085
1359.462433 496.472383 136.687425 0.000000 0.000000 0.000000 0.000000 0.000000 0.000000 84.268829 -2.768977 -15.410265 -95.731171 5.226762 -15.410265 30.279153 2.021097 27.144812 -63.318008 4.084773 -12.773379 39.457716 -2.931951 -27.144812 -9.485742 -0.033654 4.221640
1323.514366 546.771398 112.418778 0.000000 0.000000 0.000000 0.000000 0.000000 0.000000 84.407325 -1.051927 -18.096541 -95.592675 -0.200325 -18.096541 27.768249 2.356013 25.329838 -47.660055 1.522245 -16.074804 28.281511 -8.602509 -25.329838 -7.827901 1.961790 4.381533
1268.535347 591.567099 124.122436 0.000000 0.000000 0.000000 0.000000 0.000000 0.000000 90.890792 -4.371331 -19.645745 -89.109208 0.121061 -19.645745 44.654760 -5.558947 23.115397 -48.200667 1.476668 -19.122720 43.369388 -3.796061 -23.115397 -8.974980 0.563645 4.524135
1303.157158 602.888768 78.980180 0.000000 0.000000 0.000000 0.000000 0.000000 0.000000 90.349289 -2.610786 -19.960535 -89.650711 -4.892687 -19.960535 47.707312 3.374000 20.536413 -53.918782 -2.510357 -21.869059 40.070965 8.183545 -20.536413 -9.318632 -1.076414 4.648882
1314.841690 613.141973 83.504989 0.000000 0.000000 0.000000 0.000000 0.000000 0.000000 94.480501 -2.178788 -19.021130 -85.519499 -0.585509 -19.021130 58.462862 2.085588 17.633558 -52.020507 3.615855 -24.270510 55.276552 -4.534547 -17.633558 -7.777523 0.262729 4.755283
1327.521400 639.394319 93.568377 0.000000 0.000000 0.000000 0.000000 0.000000 0.000000 99.879576 0.915875 -16.886559 -80.120424 0.721762 -16.886559 69.161359 -0.093470 14.452610 -46.413613 1.504163 -26.289200 76.680143 0.557428 -14.452610 -6.257768 0.253076 4.842916
1277.812729 671.228578 99.946596 0.000000 0.000000 0.000000 0.000000 0.000000 0.000000 99.708534 2.624924 -13.690942 -80.291466 -7.598218 -13.690942 92.239140 1.452076 11.043737 -26.764021 -5.833586 -27.893295 98.168457 -1.859149 -11.043737 -4.372074 0.130119 4.911436
1309.642181 690.479329 72.508061 0.000000 0.000000 0.000000 0.000000 0.000000 0.000000 117.292414 -11.173669 -9.635073 -62.707586 3.641357 -9.635073 137.002702 3.533341 7.460697 -32.045917 5.374761 -29.057495 135.211322 1.104722 -7.460697 -3.212944 -0.244324 4.960574
1299.770966 664.126496 95.212705 0.000000 0.000000 0.000000 0.000000 0.000000 0.000000 158.531160 6.485313 -4.973798 -21.468840 -3.345989 -4.973798 161.478323 0.834470 3.759997 -12.838206 1.882060 -29.763441 151.269584 -0.113451 -3.759997 -2.521934 -0.192500 4.990134
1313.353729 643.668108 92.358713 0.000000 0.000000 0.000000 0.000000 0.000000 0.000000 -154.315892 -3.917968 -0.000000 25.684108 7.037533 -0.000000 173.459940 -3.198467 0.000000 1.519689 3.191525 -30.000000 164.244875 -2.041622 -0.000000 -1.552244 0.014297 5.000000
1342.841377 638.982847 78.718724 0.000000 0.000000 0.000000 0.000000 0.000000 0.000000 -138.993869 16.822195 4.973798 41.006131 -9.693401 4.973798 175.724056 -4.370555 -3.759997 -151.723069 -3.557521 -29.763441 43.242568 3.673902 3.759997 -13.675743 -0.367390 4.990134
1350.000229 614.724133 63.820358 0.000000 0.000000 0.000000 0.000000 0.000000 0.000000 -144.248147 4.513453 9.635073 35.751853 8.959938 9.635073 177.069273 0.541343 -7.460697 -152.227621 -2.639384 -29.057495 43.136563 3.792811 7.460697 -13.686344 -0.379281 4.960574
1328.535919 624.780936 57.631841 0.000000 0.000000 0.000000 0.000000 0.000000 0.000000 -165.447222 7.921890 13.690942 14.552778 -4.377816 13.690942 169.657511 1.997436 -11.043737 -152.168050 -2.837224 -27.893295 41.929642 3.109850 11.043737 -13.807036 -0.310985 4.911436
1318.810501 615.688248 63.810734 0.000000 0.000000 0.000000 0.000000 0.000000 0.000000 -120.063657 3.164452 16.886559 59.936343 -13.126563 16.886559 -165.389465 3.200974 -14.452610 -152.866764 -2.762711 -26.289200 39.162270 3.011941 14.452610 -14.083773 -0.301194 4.842916
1321.656418 659.275410 75.404531 0.000000 0.000000 0.000000 0.000000 0.000000 0.000000 -121.435085 -3.612384 19.021130 58.564915 -6.515806 19.021130 -149.190712 4.500018 -17.633558 -151.926374 -2.597187 -24.270510 33.097066 3.791176 17.633558 -14.690293 -0.379118 4.755283
1328.445511 687.490232 59.127714 0.000000 0.000000 0.000000 0.000000 0.000000 0.000000 -104.253419 -8.370547 19.960535 75.746581 5.402585 19.960535 -110.140878 3.963638 -20.536413 -152.911692 -2.094576 -21.869059 23.882145 2.009335 20.536413 3.694979 0.282753 4.648882
966.534206 440.564282 72.189524 0.000000 0.000000 0.000000 0.000000 0.000000 0.000000 25.865486 2.614140 19.645745 180.000000 2.035658 19.645745 18.728337 -4.126348 -23.115397 161.271663 0.470941 -19.122720 19.024234 -0.713926 23.115397 18.000000 -1.407930 4.524135
966.454577 440.533056 50.058502 0.000000 0.000000 0.000000 0.000000 0.000000 0.000000 25.417507 -9.184624 18.096541 180.000000 13.347312 18.096541 18.825450 -8.016354 -25.329838 161.174550 -0.868678 -16.074804 19.071566 -1.306457 25.329838 18.000000 1.140392 4.381533
966.374240 440.501809 55.525396 0.000000 0.000000 0.000000 0.000000 0.000000 0.000000 24.990320 14.042027 15.410265 180.000000 -14.009686 15.410265 18.929718 -2.935087 -27.144812 161.070282 -9.630287 -12.773379 19.102411 5.212486 27.144812 18.000000 -0.133472 4.221640
966.293204 440.470542 27.353877 0.000000 0.000000 0.000000 0.000000 0.000000 0.000000 24.583377 -28.123147 11.755705 180.000000 3.691782 11.755705 19.040946 4.200003 -28.531695 160.959054 9.014079 -9.270510 19.116765 -1.946901 28.531695 18.000000 -0.587561 4.045085
966.211478 440.439256 63.394330 0.000000 0.000000 0.000000 0.000000 0.000000 0.000000 24.196129 -2.322522 7.362491 180.000000 3.864570 7.362491 19.158923 -9.954712 -29.468618 160.841077 3.769389 -5.621439 19.114778 0.681908 29.468618 18.000000 -0.898102 3.852566
644.985180 745.864069 50.836263 0.000000 0.000000 0.000000 0.000000 0.000000 0.000000 96.086415 -33.774155 2.506665 -83.913585 51.155598 2.506665 -159.662371 4.528044 -29.940802 -116.741565 10.315120 -1.883716 -176.001217 6.144841 29.940802 -1.006627 -1.115997 3.644843
1269.020119 699.025490 56.378280 0.000000 0.000000 0.000000 0.000000 0.000000 0.000000 83.810916 -1.046565 -2.506665 -96.189084 5.889410 -2.506665 51.932890 -4.895410 -29.940802 -149.314466 -1.931003 1.883716 27.598511 2.017950 29.940802 -15.240149 -0.201795 3.422736
573.721218 678.450201 66.174778 0.000000 0.000000 0.000000 0.000000 0.000000 0.000000 18.756393 29.299180 -7.362491 -161.243607 -50.026670 -7.362491 -174.158094 19.023052 -29.468618 178.010322 -3.052310 5.621439 -154.394154 -1.427077 29.468618 11.886524 -1.349613 3.187120
1261.580200 714.897366 20.485269 0.000000 0.000000 0.000000 0.000000 0.000000 0.000000 87.191276 -10.505631 -11.755705 -92.808724 14.813641 -11.755705 23.129119 -0.269034 -28.531695 -149.376238 -1.622154 9.270510 24.545507 2.364474 28.531695 13.583501 -1.525378 2.938926
1314.655838 684.171546 34.225447 0.000000 0.000000 0.000000 0.000000 0.000000 0.000000 61.219932 -3.534288 -15.410265 -118.780068 0.916932 -15.410265 25.476616 4.028681 -27.144812 -150.404247 -1.922624 12.773379 24.621454 2.323953 27.144812 -15.537855 -0.232395 2.679134
1319.638939 674.820013 59.588259 0.000000 0.000000 0.000000 0.000000 0.000000 0.000000 82.055377 -14.101375 -18.096541 -97.944623 17.894305 -18.096541 17.325085 1.374066 -25.329838 -60.067277 15.024073 16.074804 23.747728 -6.936229 25.329838 -13.005173 0.053218 2.408768
1367.852325 659.536314 62.949161 0.000000 0.000000 0.000000 0.000000 0.000000 0.000000 -150.278430 -17.943209 -19.645745 29.721570 -10.288660 -19.645745 -151.222797 -2.395358 -23.115397 18.758043 2.163418 19.122720 -152.451920 -2.586749 23.115397 2.484143 0.184218 2.128896
1392.624664 638.981302 67.052793 0.000000 0.000000 0.000000 0.000000 0.000000 0.000000 -122.704248 10.052223 -19.960535 57.295752 -6.097950 -19.960535 -134.513385 -3.777373 -20.536413 30.292627 -6.421893 21.869059 -146.694539 1.724125 20.536413 2.430965 0.063840 1.840623
1401.291389 646.422758 64.490647 0.000000 0.000000 0.000000 0.000000 0.000000 0.000000 83.316637 4.708169 -19.021130 -96.683363 -0.365478 -19.021130 29.335627 -7.068835 -17.633558 -136.281416 -2.691450 24.270510 19.119183 1.509728 17.633558 -15.871560 -0.008892 1.545085
1381.838951 663.410475 76.682566 0.000000 0.000000 0.000000 0.000000 0.000000 0.000000 79.215331 -7.962829 -16.886559 -100.784669 3.458320 -16.886559 30.640455 2.202668 -14.452610 -139.113455 3.281040 26.289200 14.302413 -3.047202 14.452610 -16.408036 0.196433 1.243449
1390.185928 664.248354 95.212567 0.000000 0.000000 0.000000 0.000000 0.000000 0.000000 75.546066 -2.019164 -13.690942 -104.453934 -0.374117 -13.690942 38.995097 8.410027 -11.043737 -142.871297 1.929265 27.893295 14.209110 -0.658294 11.043737 -16.737090 0.041645 0.936907
1393.889923 677.551103 86.501129 0.000000 0.000000 0.000000 0.000000 0.000000 0.000000 84.293627 -4.057420 -9.635073 -95.706373 1.940885 -9.635073 -152.700272 -3.233633 -7.460697 -143.357755 5.147253 29.057495 -148.868889 -4.881091 7.460697 3.626268 0.446160 0.626666
905.601082 693.654528 101.218689 0.000000 0.000000 0.000000 0.000000 0.000000 0.000000 -84.410869 -9.971312 -4.973798 95.589131 -16.436431 -4.973798 -139.498802 -3.750205 -3.759997 -178.556713 -9.121896 29.763441 -142.061844 -4.901289 3.759997 3.411456 0.474054 0.313953
1337.643929 680.318756 95.600674 0.000000 0.000000 0.000000 0.000000 0.000000 0.000000 78.192517 0.833269 0.000000 -101.807483 3.206481 0.000000 48.289813 -9.918469 -0.000000 -140.291980 -1.403584 30.000000 13.663140 0.032514 0.000000 -17.395561 -0.092264 0.000000
1322.670708 685.543334 105.233992 0.000000 0.000000 0.000000 0.000000 0.000000 0.000000 71.501063 15.395781 4.973798 -108.498937 0.146566 4.973798 23.648228 -2.196904 3.759997 -144.586500 -1.880177 29.763441 14.578018 -0.204050 -3.759997 -16.885607 0.104130 0.313953
1305.530548 682.910864 119.033907 0.000000 0.000000 0.000000 0.000000 0.000000 0.000000 72.979287 43.871809 9.635073 -107.020713 13.760600 9.635073 -148.728581 -4.705406 7.460697 -74.802907 -14.704413 29.057495 -151.178244 -3.776126 -7.460697 2.601049 0.418499 0.626666
1359.363556 692.650115 121.339052 0.000000 0.000000 0.000000 0.000000 0.000000 0.000000 73.244804 -2.008960 13.690942 -106.755196 -6.347229 13.690942 13.983499 5.644967 11.043737 -67.611809 0.755537 27.893295 13.130547 0.133770 -11.043737 -11.004089 -0.241720 0.936907
1299.495964 679.994059 117.795081 0.000000 0.000000 0.000000 0.000000 0.000000 0.000000 116.206779 -11.618895 16.886559 -63.793221 7.320006 16.886559 -150.858719 -4.354298 14.452610 -34.548592 2.300129 26.289200 60.366751 -2.396349 -14.452610 -4.627493 0.271669 1.243449
1306.260338 711.527116 120.274243 0.000000 0.000000 0.000000 0.000000 0.000000 0.000000 -85.758672 -3.144863 19.021130 94.241328 5.199176 19.021130 -31.461750 -4.892801 17.633558 -4.237664 1.782242 24.270510 -15.215787 1.463050 -17.633558 7.867754 -2.470343 1.545085
1272.614822 704.778571 130.887940 0.000000 0.000000 0.000000 0.000000 0.000000 0.000000 -78.634637 -9.693743 19.960535 101.365363 -9.134684 19.960535 -34.118569 -0.961136 20.536413 22.539652 -3.139878 21.869059 -31.373170 1.045327 -20.536413 11.310693 0.859038 1.840623
1310.345650 676.427021 140.957815 0.000000 0.000000 0.000000 0.000000 0.000000 0.000000 97.572435 1.014658 19.645745 -82.427565 0.856112 19.645745 50.400703 2.453937 23.115397 -39.584286 -2.648798 19.122720 44.966766 -1.889298 -23.115397 -8.852712 0.212298 2.128896
1315.732956 671.025095 131.146974 0.000000 0.000000 0.000000 0.000000 0.000000 0.000000 97.797337 -2.390769 18.096541 -82.202663 0.858142 18.096541 49.825934 1.407225 25.329838 -39.162923 1.049513 16.074804 36.475631 -5.770035 -25.329838 -8.191519 0.894221 2.408768
1329.935532 653.525419 134.700506 0.000000 0.000000 0.000000 0.000000 0.000000 0.000000 96.469555 1.821332 15.410265 -83.530445 -3.154755 15.410265 63.882053 0.489175 27.144812 -51.972064 -1.572743 12.773379 58.624362 -2.967810 -27.144812 -8.239564 0.553134 2.679134
1316.170578 674.246514 143.920749 0.000000 0.000000 0.000000 0.000000 0.000000 0.000000 -87.946330 12.449472 11.755705 92.053670 -10.361564 11.755705 -29.715798 -0.088270 28.531695 54.212796 -7.503152 9.270510 -40.560774 -1.580532 -28.531695 11.008015 0.994439 2.938926
1317.367287 678.027205 147.396974 0.000000 0.000000 0.000000 0.000000 0.000000 0.000000 95.152942 11.519700 7.362491 -84.847058 -11.131719 7.362491 98.792835 -4.376043 29.468618 -150.515547 -6.852019 5.621439 32.983753 5.263599 -29.468618 -14.701625 -0.526360 3.187120
1318.168488 670.157025 148.099797 0.000000 0.000000 0.000000 0.000000 0.000000 0.000000 -151.252255 61.665525 2.506665 28.747745 -39.910673 2.506665 138.896993 4.855608 29.940802 -151.946620 -6.788901 1.883716 38.784684 6.043345 -29.940802 -14.121532 -0.604335 3.422736
1323.412628 644.667885 156.359395 0.000000 0.000000 0.000000 0.000000 0.000000 0.000000 -97.904066 1.335805 -2.506665 82.095934 2.828831 -2.506665 155.695030 -3.081694 29.940802 -152.500978 -6.535443 -1.883716 44.721081 5.937922 -29.940802 -13.527892 -0.593792 3.644843
1312.776718 630.059459 130.884008 0.000000 0.000000 0.000000 0.000000 0.000000 0.000000 -116.637972 15.369631 -7.362491 63.362028 -8.397451 -7.362491 171.094570 3.436471 29.468618 -152.894064 -6.829836 -5.621439 43.947863 6.886624 -29.468618 -13.605214 -0.688662 3.852566
1316.420746 625.237019 141.179576 0.000000 0.000000 0.000000 0.000000 0.000000 0.000000 -136.254273 -8.946342 -11.755705 43.745727 6.245168 -11.755705 -177.663204 0.354648 28.531695 -153.006287 -5.955654 -9.270510 42.784597 7.504832 -28.531695 -13.721540 -0.750483 4.045085
1314.719925 628.818026 150.807375 0.000000 0.000000 0.000000 0.000000 0.000000 0.000000 -114.737929 -4.933058 -15.410265 65.262071 -1.675114 -15.410265 -169.764314 0.330763 27.144812 -153.369487 -6.558231 -12.773379 41.498347 8.632173 -27.144812 -13.850165 -0.863217 4.221640
1334.396782 646.165652 144.295720 0.000000 0.000000 0.000000 0.000000 0.000000 0.000000 -116.903454 0.647209 -18.096541 63.096546 -5.000091 -18.096541 -154.594534 -0.258322 25.329838 -153.225015 -6.583066 -16.074804 37.136182 8.801143 -25.329838 -14.286382 -0.880114 4.381533
1340.823784 648.244128 151.572827 0.000000 0.000000 0.000000 0.000000 0.000000 0.000000 -116.932323 6.939755 -19.645745 63.067677 -5.642303 -19.645745 -138.898656 -0.313615 23.115397 35.335752 -0.220583 -19.122720 -153.336856 -1.576546 -23.115397 2.206211 0.008674 4.524135
1330.023880 654.599032 150.984390 0.000000 0.000000 0.000000 0.000000 0.000000 0.000000 -112.150704 9.443774 -19.960535 67.849296 -0.055276 -19.960535 -118.798313 -1.739906 20.536413 -153.636372 -6.699223 -21.869059 16.691869 9.503833 -20.536413 -16.330813 -0.950383 4.648882
1337.431641 662.410698 151.112058 0.000000 0.000000 0.000000 0.000000 0.000000 0.000000 -109.111809 -11.202237 -19.021130 70.888191 4.746289 -19.021130 -91.144379 -0.870181 17.633558 -154.448144 -5.716139 -24.270510 10.298202 6.988909 -17.633558 6.642051 -0.053296 4.755283
1324.339714 676.416593 148.443658 0.000000 0.000000 0.000000 0.000000 0.000000 0.000000 -104.120178 5.673714 -16.886559 75.879822 -4.023539 -16.886559 -57.095620 -2.150829 14.452610 38.799650 2.324290 -26.289200 -71.942639 -1.215059 -14.452610 8.831938 -0.028788 4.842916
962.890318 439.311049 138.080865 0.000000 0.000000 0.000000 0.000000 0.000000 0.000000 19.986963 -6.760707 -13.690942 180.000000 4.300909 -13.690942 24.297229 -1.374092 11.043737 155.702771 3.839332 -27.893295 14.983342 4.441434 -11.043737 18.000000 -0.270417 4.911436
962.789911 439.279946 126.032553 0.000000 0.000000 0.000000 0.000000 0.000000 0.000000 20.089586 14.457798 -9.635073 180.000000 -10.185677 -9.635073 24.330184 8.865503 7.460697 155.669816 -10.300489 -29.057495 14.926290 7.595043 -7.460697 18.000000 -0.340579 4.960574
641.318550 641.336324 154.729345 0.000000 0.000000 0.000000 0.000000 0.000000 0.000000 163.642929 -0.512236 -4.973798 -16.357071 22.052607 -4.973798 -155.926011 -7.870613 3.759997 -130.644608 -7.817859 -29.763441 68.679337 10.859157 -3.759997 -11.132066 -1.085916 4.990134
1305.385551 662.289033 158.381611 0.000000 0.000000 0.000000 0.000000 0.000000 0.000000 -81.949824 27.002355 -0.000000 98.050176 -39.068973 -0.000000 9.536664 6.875172 0.000000 -153.586691 -6.396959 -30.000000 24.402531 5.207682 -0.000000 -15.559747 -0.520768 5.000000
962.486899 439.186814 138.417285 0.000000 0.000000 0.000000 0.000000 0.000000 0.000000 20.465882 -11.079103 4.973798 180.000000 5.093009 4.973798 24.357206 -11.783189 -3.759997 155.642794 4.532762 -29.763441 14.800425 -8.169612 3.759997 18.000000 0.181816 4.990134
1216.314240 612.580640 125.174954 0.000000 0.000000 0.000000 0.000000 0.000000 0.000000 78.221991 -0.717424 9.635073 -101.778009 -2.500332 9.635073 46.689014 -2.240169 -7.460697 -61.937558 -4.801009 -29.057495 44.546377 2.134673 7.460697 -10.771750 -0.173922 4.960574
1273.897820 573.707514 126.929703 0.000000 0.000000 0.000000 0.000000 0.000000 0.000000 77.469628 -5.116202 13.690942 -102.530372 -10.615415 13.690942 -155.691164 -4.210436 -11.043737 -120.750172 -3.893122 -27.893295 -156.229293 -5.059329 11.043737 2.162203 0.484061 4.911436
1337.358742 570.303276 120.079219 0.000000 0.000000 0.000000 0.000000 0.000000 0.000000 73.705918 4.877821 16.886559 -106.294082 -1.005621 16.886559 -155.918376 -5.584588 -14.452610 -149.887909 -5.195267 -26.289200 0.000000 0.000000 0.000000 0.000000 0.000000 0.000000
1342.446442 569.623497 96.552659 0.000000 0.000000 0.000000 0.000000 0.000000 0.000000 68.898287 -2.356682 19.021130 -111.101713 6.542376 19.021130 39.314088 -4.148954 -17.633558 -140.912764 4.517052 -24.270510 -153.216026 -6.414271 17.633558 2.759242 0.700199 4.755283
1335.759430 584.665475 117.119475 0.000000 0.000000 0.000000 0.000000 0.000000 0.000000 66.989329 6.871926 19.960535 -113.010671 3.766697 19.960535 -154.807077 -5.458118 -20.536413 -142.328055 0.304799 -21.869059 -153.049156 -6.012261 20.536413 2.866457 0.733669 4.648882
1337.950974 598.074245 90.506041 0.000000 0.000000 0.000000 0.000000 0.000000 0.000000 62.697633 -0.287167 19.645745 -117.302367 1.215161 19.645745 19.366736 0.777479 -23.115397 -144.826223 1.810181 -19.122720 9.911455 -1.158544 23.115397 -17.004209 0.127643 4.524135
1352.846489 601.043322 109.334012 0.000000 0.000000 0.000000 0.000000 0.000000 0.000000 59.083577 -0.552897 18.096541 -120.916423 0.353673 18.096541 20.876734 -1.387102 -25.329838 -142.301690 -2.054395 -16.074804 13.356960 1.177220 25.329838 -16.821524 -0.007653 4.381533
1347.310982 587.475100 90.236681 0.000000 0.000000 0.000000 0.000000 0.000000 0.000000 56.169135 -0.457187 15.410265 -123.830865 14.722964 15.410265 21.172503 2.349304 -27.144812 -139.640745 5.432977 -12.773379 14.641496 -1.675414 27.144812 -16.282575 0.073064 4.221640
1326.982155 606.886139 89.196745 0.000000 0.000000 0.000000 0.000000 0.000000 0.000000 70.119981 4.204701 11.755705 -109.880019 -4.077603 11.755705 26.511889 2.860682 -28.531695 -111.264667 -2.162484 -9.270510 31.153840 0.115485 28.531695 -13.943905 0.046224 4.045085
1354.391098 626.185555 70.142704 0.000000 0.000000 0.000000 0.000000 0.000000 0.000000 88.154395 5.681922 7.362491 -91.845605 -6.391280 7.362491 30.442275 6.914548 -29.468618 -76.284233 0.898810 -5.621439 43.854867 -0.012259 29.468618 -10.818190 0.196351 3.852566
1370.667114 610.219567 69.424694 0.000000 0.000000 0.000000 0.000000 0.000000 0.000000 89.945118 -5.948073 2.506665 -90.054882 5.111604 2.506665 44.053326 -1.442445 -29.940802 -56.238091 0.335216 -1.883716 55.411270 -1.023736 29.940802 -7.805659 0.249806 3.644843
1372.834854 597.828534 85.946710 0.000000 0.000000 0.000000 0.000000 0.000000 0.000000 93.407992 -0.028601 -2.506665 -86.592008 -0.721766 -2.506665 54.165845 -3.289406 -29.940802 -47.239220 -2.494390 1.883716 56.575186 0.305614 29.940802 -6.344474 -0.093646 3.422736
1336.554337 597.454848 66.165156 0.000000 0.000000 0.000000 0.000000 0.000000 0.000000 95.622643 0.462454 -7.362491 -84.377357 0.600628 -7.362491 56.597780 -3.122719 -29.468618 -45.108662 0.203148 5.621439 55.386034 -0.587624 29.468618 -7.206870 0.460016 3.187120
1310.567093 590.844769 74.595857 0.000000 0.000000 0.000000 0.000000 0.000000 0.000000 100.193768 5.109557 -11.755705 -79.806232 -1.327924 -11.755705 61.986347 -3.384116 -28.531695 -37.593815 -1.398248 9.270510 62.907615 -4.914350 28.531695 -6.637230 0.588128 2.938926
1328.574371 576.493385 62.556687 0.000000 0.000000 0.000000 0.000000 0.000000 0.000000 101.943783 1.877327 -15.410265 -78.056217 3.584401 -15.410265 61.902838 -0.945122 -27.144812 -33.889586 2.543013 12.773379 55.760387 6.357790 27.144812 -7.097415 -0.442637 2.679134
1316.178360 595.500870 52.045941 0.000000 0.000000 0.000000 0.000000 0.000000 0.000000 103.792097 8.932375 -18.096541 -76.207903 -3.122157 -18.096541 65.535198 -0.003626 -25.329838 -28.739437 -2.388831 16.074804 68.415337 2.479785 25.329838 -6.481753 0.064648 2.408768
1302.343140 568.138025 37.640490 0.000000 0.000000 0.000000 0.000000 0.000000 0.000000 101.222717 15.337888 -19.645745 -78.777283 1.130084 -19.645745 90.757296 -5.935649 -23.115397 -18.578033 -1.551425 19.122720 97.909038 0.371927 23.115397 -5.050134 0.057565 2.128896
1274.166183 540.660596 56.872066 0.000000 0.000000 0.000000 0.000000 0.000000 0.000000 -126.898591 11.735012 -19.960535 53.101409 9.470014 -19.960535 127.276662 -2.307035 -20.536413 8.808645 -4.041029 21.869059 119.711272 4.388376 20.536413 -4.115393 0.012449 1.840623
1268.557091 468.331075 62.549151 0.000000 0.000000 0.000000 0.000000 0.000000 0.000000 -124.112133 -3.317783 -19.021130 55.887867 5.362980 -19.021130 163.344780 -0.964823 -17.633558 38.476068 -3.199266 24.270510 145.889074 3.846610 17.633558 -1.929933 0.167748 1.545085
1278.673096 454.375906 57.124524 0.000000 0.000000 0.000000 0.000000 0.000000 0.000000 -126.805061 -7.908600 -16.886559 53.194939 -0.161825 -16.886559 -174.009950 0.378645 -14.452610 27.419224 0.507450 26.289200 168.192977 0.317009 14.452610 -0.976267 -0.067668 1.243449
1285.008774 434.700390 52.310315 0.000000 0.000000 0.000000 0.000000 0.000000 0.000000 -132.005120 6.340367 -13.690942 47.994880 -7.745147 -13.690942 -171.247775 2.008484 -11.043737 26.625253 -0.642521 27.893295 178.805957 0.494262 11.043737 0.023422 -0.057174 0.936907
1288.157730 426.987666 56.057849 0.000000 0.000000 0.000000 0.000000 0.000000 0.000000 -123.987926 -0.360701 -9.635073 56.012074 -3.642816 -9.635073 -166.356219 3.599986 -7.460697 35.716336 -4.138883 29.057495 -172.960762 0.688898 7.460697 0.819533 0.131734 0.626666
1291.221657 420.425448 55.371162 0.000000 0.000000 0.000000 0.000000 0.000000 0.000000 -122.265643 -9.767017 -4.973798 57.734357 -0.738875 -4.973798 -156.870161 -2.235484 -3.759997 38.220704 5.428518 29.763441 -165.716368 -2.013548 3.759997 1.405814 -0.008598 0.313953
