HIERARCHY
ROOT Hips
{
    OFFSET 0.0 0.0 0.0
    CHANNELS 6 Xposition Yposition Zposition Zrotation Xrotation Yrotation
    JOINT Spine
    {
        OFFSET 0.0 5.0 0.0
        CHANNELS 3 Zrotation Xrotation Yrotation
        JOINT Chest
        {
            OFFSET 0.0 5.0 0.0
            CHANNELS 3 Zrotation Xrotation Yrotation
            JOINT Neck
            {
                OFFSET 0.0 8.0 0.0
                CHANNELS 3 Zrotation Xrotation Yrotation
                JOINT Head
                {
                    OFFSET 0.0 5.0 0.0
                    CHANNELS 3 Zrotation Xrotation Yrotation
                    End Site
                    {
                        OFFSET 0.0 3.0 0.0
                    }
                }
            }
            JOINT LeftShoulder
            {
                OFFSET -5.0 0.0 0.0
                CHANNELS 3 Zrotation Xrotation Yrotation
                JOINT LeftArm
                {
                    OFFSET 0.0 -10.0 0.0
                    CHANNELS 3 Zrotation Xrotation Yrotation
                    JOINT LeftForeArm
                    {
                        OFFSET 0.0 -10.0 0.0
                        CHANNELS 3 Zrotation Xrotation Yrotation
                        End Site
                        {
                            OFFSET 0.0 -3.0 0.0
                        }
                    }
                }
            }
        }
    }
}

MOTION
Frames: 300
Frame Time: 0.033333

960.000000 445.000000 110.724839 0.000000 0.000000 0.000000 0.000000 0.000000 0.000000 23.025492 28.079433 0.000000 180.000000 -2.482211 0.000000 21.801409 1.582741 -0.000000 158.198591 -4.215282 30.000000 15.945396 4.840763 0.000000 18.000000 -0.040155 0.000000
1691.525230 140.756605 118.186860 0.000000 0.000000 0.000000 0.000000 0.000000 0.000000 -163.376529 1.833645 4.973798 16.623471 -7.543850 4.973798 -171.853121 -3.247979 3.759997 99.744051 -2.778405 29.763441 -171.126653 -3.918263 -3.759997 0.673538 0.318900 0.313953
1636.048050 128.802021 92.718215 0.000000 0.000000 0.000000 0.000000 0.000000 0.000000 157.904128 -3.691134 9.635073 -22.095872 37.933334 9.635073 -171.936471 -4.552922 7.460697 -143.675701 2.321496 29.057495 -173.500805 -4.212186 -7.460697 0.570999 0.452683 0.626666
1578.156967 80.474526 102.591816 0.000000 0.000000 0.000000 0.000000 0.000000 0.000000 -139.519796 1.387413 13.690942 40.480204 -5.455190 13.690942 -174.507724 -3.735158 11.043737 119.111399 9.733438 27.893295 -173.607258 -4.818151 -11.043737 0.461920 0.475298 0.936907
960.418757 444.998421 103.244423 0.000000 0.000000 0.000000 0.000000 0.000000 0.000000 25.077893 27.047560 16.886559 180.000000 2.968170 16.886559 23.861935 7.076395 14.452610 156.138065 6.084773 26.289200 17.903699 -3.039464 -14.452610 18.000000 -0.613055 1.243449
960.523360 444.997533 121.468715 0.000000 0.000000 0.000000 0.000000 0.000000 0.000000 25.638906 27.803631 19.021130 180.000000 -12.127062 19.021130 24.425035 0.434971 17.633558 155.574965 0.996171 24.270510 18.452907 5.069160 -17.633558 18.000000 -0.883728 1.545085
960.627905 444.996447 111.525788 0.000000 0.000000 0.000000 0.000000 0.000000 0.000000 26.219073 37.650455 19.960535 180.000000 -19.836298 19.960535 25.006291 6.566983 20.536413 154.993709 -11.576443 21.869059 19.024920 0.871784 -20.536413 18.000000 -1.001779 1.840623
1126.242828 420.359820 136.520895 0.000000 0.000000 0.000000 0.000000 0.000000 0.000000 31.410514 -5.802040 19.645745 -148.589486 7.045138 19.645745 32.280463 2.974094 23.115397 -131.603972 1.852363 19.122720 45.585331 -0.519779 -23.115397 -13.449727 -0.013716 2.128896
1257.895088 650.549197 142.892880 0.000000 0.000000 0.000000 0.000000 0.000000 0.000000 25.073180 4.907926 18.096541 -154.926820 -17.485165 18.096541 46.260945 8.178824 25.329838 -154.651428 -5.881009 16.074804 27.339487 5.164014 -25.329838 -13.619892 -0.398694 2.408768
960.941083 444.992008 144.352253 0.000000 0.000000 0.000000 0.000000 0.000000 0.000000 28.072001 30.177587 15.410265 180.000000 -8.333814 15.410265 26.849221 -7.388571 27.144812 153.150779 -0.322296 12.773379 20.864045 -7.715597 -27.144812 18.000000 0.124604 2.679134
1163.815842 547.748709 167.726351 0.000000 0.000000 0.000000 0.000000 0.000000 0.000000 117.162728 -7.026083 11.755705 -62.837272 -4.931344 11.755705 102.363764 3.092859 28.531695 -47.376450 -1.299740 9.270510 104.768601 -1.951846 -28.531695 -6.003489 0.275682 2.938926
961.149372 444.988063 140.125243 0.000000 0.000000 0.000000 0.000000 0.000000 0.000000 29.395983 10.604254 7.362491 180.000000 -7.921209 7.362491 28.146217 5.083406 29.468618 151.853783 -1.518043 5.621439 22.170006 -2.933691 -29.468618 18.000000 0.586800 3.187120
1136.717377 590.104480 132.188216 0.000000 0.000000 0.000000 0.000000 0.000000 0.000000 115.752126 -11.666863 2.506665 -64.247874 12.201472 2.506665 73.638146 -5.527927 29.940802 -21.842452 4.686427 1.883716 75.369282 0.086417 -29.940802 -6.767207 -0.611703 3.422736
1163.079758 634.077559 133.216316 0.000000 0.000000 0.000000 0.000000 0.000000 0.000000 132.174340 2.061607 -2.506665 -47.825660 5.694298 -2.506665 94.255711 2.578979 29.940802 -149.364979 -6.751546 -1.883716 30.021641 6.067758 -29.940802 -5.096180 -1.317350 3.644843
961.460830 444.980668 143.489381 0.000000 0.000000 0.000000 0.000000 0.000000 0.000000 31.497152 14.077265 -7.362491 180.000000 -19.293316 -7.362491 30.152455 3.622160 29.468618 149.847545 -0.180499 -5.621439 24.175589 -4.795869 -29.468618 18.000000 -0.096999 3.852566
1097.449951 565.089898 151.095283 0.000000 0.000000 0.000000 0.000000 0.000000 0.000000 -119.219568 -2.510671 -11.755705 60.780432 -2.500330 -11.755705 -150.180642 -6.454545 28.531695 48.804955 -0.684472 -9.270510 -149.874178 -6.041563 -28.531695 2.713854 0.549605 4.045085
1114.140244 528.302071 135.433369 0.000000 0.000000 0.000000 0.000000 0.000000 0.000000 -142.671523 -2.233340 -15.410265 37.328477 5.552388 -15.410265 -177.395681 1.062309 27.144812 34.687329 1.550650 -12.773379 161.894167 1.200240 -27.144812 -0.910956 0.311233 4.221640
1116.433640 479.728639 148.009579 0.000000 0.000000 0.000000 0.000000 0.000000 0.000000 -102.267481 5.568658 -18.096541 77.732519 -4.372974 -18.096541 -163.695626 3.376748 25.329838 38.575767 -1.157823 -16.074804 -176.001122 0.532513 -25.329838 0.706594 0.234126 4.381533
1135.931282 466.493965 168.760871 0.000000 0.000000 0.000000 0.000000 0.000000 0.000000 -112.868406 4.055227 -19.645745 67.131594 3.060363 -19.645745 -159.517862 -4.323665 23.115397 36.204678 2.135228 -19.122720 -154.426613 -6.295718 -23.115397 2.428729 0.522033 4.524135
1141.618767 467.420679 126.548921 0.000000 0.000000 0.000000 0.000000 0.000000 0.000000 -123.086385 -4.688405 -19.960535 56.913615 1.039147 -19.960535 -154.885724 2.371089 20.536413 36.481623 0.109469 -21.869059 -153.965441 -5.956234 -20.536413 2.446728 0.506703 4.648882
1150.647926 469.370956 154.157619 0.000000 0.000000 0.000000 0.000000 0.000000 0.000000 -43.953779 -13.474035 -19.021130 136.046221 13.462908 -19.021130 -154.327268 -6.479406 17.633558 60.745168 18.316951 -24.270510 -153.350642 -7.015784 -17.633558 2.386216 0.620629 4.755283
1151.529922 496.420240 128.021749 0.000000 0.000000 0.000000 0.000000 0.000000 0.000000 -116.362129 -5.108877 -16.886559 63.637871 14.198310 -16.886559 -149.081043 -5.514507 14.452610 35.941860 4.788438 -26.289200 -156.847177 0.720964 -14.452610 2.056513 -0.144397 4.842916
1148.402367 515.713574 125.077887 0.000000 0.000000 0.000000 0.000000 0.000000 0.000000 -118.252650 0.288721 -13.690942 61.747350 -1.234425 -13.690942 -138.082896 -0.225639 11.043737 -156.312677 -6.870877 -27.893295 21.649626 9.802729 -11.043737 2.962417 0.002593 4.911436
1175.363617 533.368646 122.754399 0.000000 0.000000 0.000000 0.000000 0.000000 0.000000 -95.476638 -5.726389 -9.635073 84.523362 -15.249275 -9.635073 -113.907461 3.547433 7.460697 -155.995907 -6.812598 -29.057495 12.512064 8.440666 -7.460697 -16.748794 -0.844067 4.960574
1199.533310 485.991104 135.809459 0.000000 0.000000 0.000000 0.000000 0.000000 0.000000 -100.003195 -1.913248 -4.973798 79.996805 -0.854176 -4.973798 -86.083188 1.216017 3.759997 38.843754 1.268211 -29.763441 -106.539452 -0.117388 -3.759997 6.197806 0.042551 4.990134
962.588190 444.938442 135.154760 0.000000 0.000000 0.000000 0.000000 0.000000 0.000000 39.579754 30.697315 -0.000000 180.000000 6.283642 -0.000000 36.680773 -14.938547 0.000000 143.319227 -5.375482 -30.000000 29.388385 7.020069 -0.000000 18.000000 -0.946116 5.000000
1142.094727 445.716287 135.324074 0.000000 0.000000 0.000000 0.000000 0.000000 0.000000 -140.228454 -18.727439 4.973798 39.771546 -12.618723 4.973798 -156.118008 -6.374344 -3.759997 3.479189 -7.049802 -29.763441 -158.005660 -5.745772 3.759997 2.150019 0.517239 4.990134
1164.005928 424.847746 101.923748 0.000000 0.000000 0.000000 0.000000 0.000000 0.000000 -84.241076 -44.784568 9.635073 95.758924 10.239190 9.635073 -156.181584 -5.204701 -7.460697 166.928360 1.193376 -29.057495 -154.947270 -5.389777 7.460697 2.644196 0.697131 4.960574
1124.208755 418.286655 121.998200 0.000000 0.000000 0.000000 0.000000 0.000000 0.000000 -117.427077 0.293594 13.690942 62.572923 22.765013 13.690942 -155.943063 -6.047358 -11.043737 14.023837 7.095726 -27.893295 -157.382674 -5.573367 11.043737 2.188130 0.453850 4.911436
962.990408 444.917226 125.376871 0.000000 0.000000 0.000000 0.000000 0.000000 0.000000 42.110883 43.027374 16.886559 180.000000 -14.977154 16.886559 37.946959 -4.981080 -14.452610 142.053041 -21.454475 -26.289200 29.293612 1.137758 14.452610 18.000000 -1.135278 4.842916
963.090170 444.911436 90.339808 0.000000 0.000000 0.000000 0.000000 0.000000 0.000000 42.659200 8.673460 19.021130 180.000000 -17.831921 19.021130 38.119107 7.394192 -17.633558 141.880893 -9.100592 -24.270510 29.068887 -1.877933 17.633558 18.000000 -0.077129 4.755283
1186.646461 396.272757 112.383762 0.000000 0.000000 0.000000 0.000000 0.000000 0.000000 -72.847419 -13.050755 19.960535 107.152581 33.067527 19.960535 -156.703603 -5.572457 -20.536413 178.447294 1.935256 -21.869059 -157.212393 -4.639619 20.536413 1.964058 0.413523 4.648882
1313.051605 426.636125 88.973500 0.000000 0.000000 0.000000 0.000000 0.000000 0.000000 90.994869 -18.719024 19.645745 -89.005131 13.917198 19.645745 -160.515303 -4.477049 -23.115397 -153.248861 9.426176 -19.122720 -159.640525 -5.820774 23.115397 0.000000 0.000000 0.000000
1347.999344 420.772226 74.513265 0.000000 0.000000 0.000000 0.000000 0.000000 0.000000 90.154351 -0.948220 18.096541 -89.845649 1.610080 18.096541 -162.053401 -3.840220 -25.329838 -136.198880 -3.023291 -16.074804 -160.991694 -3.627015 25.329838 0.000000 0.000000 0.000000
1344.315948 421.031681 71.560628 0.000000 0.000000 0.000000 0.000000 0.000000 0.000000 69.757587 1.625261 15.410265 -110.242413 -7.790805 15.410265 25.616746 0.510683 -27.144812 -157.821005 -4.382154 -12.773379 17.214985 2.662604 27.144812 -16.704706 0.217348 4.221640
1350.307617 440.309436 78.091128 0.000000 0.000000 0.000000 0.000000 0.000000 0.000000 71.124018 -3.759681 11.755705 -108.875982 11.597076 11.755705 42.739987 -2.240951 -28.531695 -142.315466 4.378076 -9.270510 16.600926 -4.703960 28.531695 -16.660102 0.357725 4.045085
1357.685051 430.688889 62.380681 0.000000 0.000000 0.000000 0.000000 0.000000 0.000000 77.656077 5.028411 7.362491 -102.343923 -10.353255 7.362491 39.407151 13.010801 -29.468618 -136.343173 -4.427327 -5.621439 22.144452 2.850622 29.468618 -16.305135 -0.343875 3.852566
1369.482193 445.909406 84.474433 0.000000 0.000000 0.000000 0.000000 0.000000 0.000000 88.051188 -3.460702 2.506665 -91.948812 -9.365875 2.506665 -161.283973 -2.451284 -29.940802 -119.799169 0.387958 -1.883716 -164.575400 -3.339662 29.940802 1.401013 0.380492 3.644843
963.875156 444.858159 79.428801 0.000000 0.000000 0.000000 0.000000 0.000000 0.000000 45.304844 -57.114058 -2.506665 180.000000 40.593154 -2.506665 37.252439 -11.171782 -29.940802 142.747561 23.936783 1.883716 25.146244 -7.824351 29.940802 18.000000 1.619897 3.422736
963.971479 444.850633 66.324881 0.000000 0.000000 0.000000 0.000000 0.000000 0.000000 45.383640 16.401530 -7.362491 180.000000 5.862194 -7.362491 36.882310 -24.817106 -29.468618 143.117690 -10.256517 5.621439 24.499789 -0.531891 29.468618 18.000000 0.942604 3.187120
1336.629524 469.010178 49.147590 0.000000 0.000000 0.000000 0.000000 0.000000 0.000000 -72.390177 -0.153980 -11.755705 107.609823 -16.349692 -11.755705 -158.649984 -2.500118 -28.531695 2.583425 2.626437 9.270510 -39.658551 -0.857361 28.531695 10.837181 -1.071170 2.938926
1311.966934 518.219100 34.217767 0.000000 0.000000 0.000000 0.000000 0.000000 0.000000 -63.565072 -54.916070 -15.410265 116.434928 20.877310 -15.410265 -14.840750 9.733767 -27.144812 -158.549348 -1.791736 12.773379 17.488774 1.584660 27.144812 7.174982 5.580195 2.679134
964.257793 444.826908 38.017934 0.000000 0.000000 0.000000 0.000000 0.000000 0.000000 45.262206 41.864072 -18.096541 180.000000 2.244483 -18.096541 35.497192 -14.431422 -25.329838 144.502808 -1.324514 16.074804 22.522929 -4.919979 25.329838 18.000000 0.132302 2.408768
1275.921364 516.836239 60.820527 0.000000 0.000000 0.000000 0.000000 0.000000 0.000000 85.186295 2.990476 -19.645745 -94.813705 -9.418025 -19.645745 52.470689 7.424577 -23.115397 -44.513683 2.736551 19.122720 50.867598 0.219783 23.115397 -8.717188 -0.302439 2.128896
1263.254128 546.875424 46.373986 0.000000 0.000000 0.000000 0.000000 0.000000 0.000000 34.848242 -44.699958 -19.960535 -145.151758 54.287002 -19.960535 42.487561 -1.354590 -20.536413 -157.415675 -1.245531 21.869059 22.420880 1.872506 20.536413 -15.757912 -0.187251 1.840623
1258.788185 528.263061 40.663288 0.000000 0.000000 0.000000 0.000000 0.000000 0.000000 118.326865 31.306313 -19.021130 -61.673135 -7.753798 -19.021130 143.214759 2.482645 -17.633558 -156.228306 -2.497790 24.270510 28.173554 1.990397 17.633558 -15.182645 -0.199040 1.545085
1231.492081 471.383836 42.157447 0.000000 0.000000 0.000000 0.000000 0.000000 0.000000 -115.049381 25.777890 -16.886559 64.950619 -0.433158 -16.886559 172.843704 -7.377392 -14.452610 -157.842300 -2.916022 26.289200 32.851042 2.218958 14.452610 -14.714896 -0.221896 1.243449
1223.928795 435.993515 36.628105 0.000000 0.000000 0.000000 0.000000 0.000000 0.000000 -115.322532 22.229676 -13.690942 64.677468 -14.461094 -13.690942 -168.597862 4.274154 -11.043737 -158.853816 -3.148425 27.893295 31.099266 2.375878 11.043737 -14.890073 -0.237588 0.936907
1223.669701 418.195664 57.146585 0.000000 0.000000 0.000000 0.000000 0.000000 0.000000 -102.084053 -21.790453 -9.635073 77.915947 -14.815696 -9.635073 -171.103858 0.488799 -7.460697 162.056334 0.684363 29.057495 -153.594437 -2.959518 7.460697 2.968481 0.362177 0.626666
1216.486244 414.503002 44.083105 0.000000 0.000000 0.000000 0.000000 0.000000 0.000000 69.261091 -53.104516 -4.973798 -110.738909 64.285021 -4.973798 -158.083722 -2.842546 -3.759997 -173.244581 4.452840 29.763441 -154.635509 -1.548121 3.759997 2.928763 0.375784 0.313953
1212.090225 434.550980 35.297542 0.000000 0.000000 0.000000 0.000000 0.000000 0.000000 -112.403932 -26.499777 0.000000 67.596068 35.978780 0.000000 -157.060799 -2.899761 -0.000000 173.400765 9.637930 30.000000 -154.473580 -3.344856 0.000000 2.734633 0.341932 0.000000
1214.024734 450.340490 44.261837 0.000000 0.000000 0.000000 0.000000 0.000000 0.000000 -110.634751 13.220875 4.973798 69.365249 -10.035767 4.973798 -137.583343 3.774546 3.759997 -158.589698 -2.711238 29.763441 20.879446 3.191684 -3.759997 -15.912055 -0.319168 0.313953
1204.271393 440.192921 44.335029 0.000000 0.000000 0.000000 0.000000 0.000000 0.000000 -99.498286 -16.610848 9.635073 80.501714 7.975367 9.635073 -156.696469 -2.575712 7.460697 -178.487725 -8.752265 29.057495 -157.318323 -2.004270 -7.460697 2.108583 0.265687 0.626666
965.269558 444.725315 43.240853 0.000000 0.000000 0.000000 0.000000 0.000000 0.000000 40.845461 -36.750127 13.690942 180.000000 23.150180 13.690942 28.615377 -8.913504 11.043737 151.384623 7.432401 27.893295 16.305092 0.772056 -11.043737 18.000000 -0.227895 0.936907
1182.456551 475.103824 60.632387 0.000000 0.000000 0.000000 0.000000 0.000000 0.000000 -168.146016 70.955826 16.886559 11.853984 -52.929148 16.886559 -63.802645 -12.375314 14.452610 -61.114510 2.922326 26.289200 -47.869281 -3.364553 -14.452610 -13.834956 -5.612926 1.243449
965.446390 444.704404 66.384165 0.000000 0.000000 0.000000 0.000000 0.000000 0.000000 39.578146 -6.298618 19.021130 180.000000 5.403515 19.021130 27.338029 5.987862 17.633558 152.661971 -7.288714 24.270510 15.463180 4.053165 -17.633558 18.000000 -0.621088 1.545085
965.533915 444.693669 67.652481 0.000000 0.000000 0.000000 0.000000 0.000000 0.000000 38.916706 -12.585357 19.960535 180.000000 -0.245293 19.960535 26.716768 -3.934555 20.536413 153.283232 -5.894053 21.869059 15.076605 4.822300 -20.536413 18.000000 0.227742 1.840623
965.620834 444.682749 62.905880 0.000000 0.000000 0.000000 0.000000 0.000000 0.000000 38.241653 0.544541 19.645745 180.000000 2.583992 19.645745 26.109467 -1.209125 23.115397 153.890533 3.127440 19.122720 14.712258 -9.595627 -23.115397 18.000000 0.620705 2.128896
965.707136 444.671645 53.485187 0.000000 0.000000 0.000000 0.000000 0.000000 0.000000 37.556504 8.811700 18.096541 180.000000 -3.741252 18.096541 25.517536 -4.522751 25.329838 154.482464 -6.058922 16.074804 14.369537 -2.483876 -25.329838 18.000000 -0.372900 2.408768
965.792812 444.660356 99.698963 0.000000 0.000000 0.000000 0.000000 0.000000 0.000000 36.864608 0.187234 15.410265 180.000000 7.063998 15.410265 24.942131 6.650017 27.144812 155.057869 -5.821775 12.773379 14.047797 0.290087 -27.144812 18.000000 0.236474 2.679134
965.877853 444.648882 93.050287 0.000000 0.000000 0.000000 0.000000 0.000000 0.000000 36.169118 -34.143080 11.755705 180.000000 3.633578 11.755705 24.384173 8.730014 28.531695 155.615827 4.392856 9.270510 13.746367 -0.664448 -28.531695 18.000000 0.256482 2.938926
965.962249 444.637226 94.449755 0.000000 0.000000 0.000000 0.000000 0.000000 0.000000 35.472980 -37.364971 7.362491 180.000000 9.148911 7.362491 23.844373 3.585448 29.468618 156.155627 15.840214 5.621439 13.464570 -4.710355 -29.468618 18.000000 -0.194886 3.187120
966.045991 444.625386 93.985979 0.000000 0.000000 0.000000 0.000000 0.000000 0.000000 34.778913 -8.263368 2.506665 180.000000 1.606596 2.506665 23.323250 0.141906 29.940802 156.676750 4.276234 1.883716 13.201728 -4.024934 -29.940802 18.000000 0.565542 3.422736
966.129071 444.613364 105.447489 0.000000 0.000000 0.000000 0.000000 0.000000 0.000000 34.089406 3.471322 -2.506665 180.000000 3.578636 -2.506665 22.821158 -9.840488 29.940802 157.178842 -3.726731 -1.883716 12.957175 3.051044 -29.940802 18.000000 -0.685229 3.644843
966.211478 444.601159 113.183506 0.000000 0.000000 0.000000 0.000000 0.000000 0.000000 33.406712 -9.291667 -7.362491 180.000000 -3.269965 -7.362491 22.338307 -3.777830 29.468618 157.661693 3.188717 -5.621439 12.730264 -3.875654 -29.468618 18.000000 -0.052619 3.852566
1171.486244 534.946783 131.247761 0.000000 0.000000 0.000000 0.000000 0.000000 0.000000 70.594720 9.038565 -11.755705 -109.405280 -2.226086 -11.755705 49.953444 -0.013168 28.531695 -151.467583 -4.840438 -9.270510 0.000000 0.000000 0.000000 0.000000 0.000000 0.000000
966.374240 444.576206 131.864510 0.000000 0.000000 0.000000 0.000000 0.000000 0.000000 32.069603 -24.394672 -15.410265 180.000000 5.152480 -15.410265 21.430544 -0.719549 27.144812 158.569456 -3.180432 -12.773379 12.326901 9.678393 -27.144812 18.000000 -0.223747 4.221640
1172.156410 555.047708 126.968738 0.000000 0.000000 0.000000 0.000000 0.000000 0.000000 -121.065102 7.807387 -18.096541 58.934898 17.276896 -18.096541 -151.641456 -6.370417 25.329838 -177.360623 -0.471843 -16.074804 -149.076048 -6.688282 -25.329838 0.000000 0.000000 0.000000
1161.826630 552.360713 117.414126 0.000000 0.000000 0.000000 0.000000 0.000000 0.000000 69.958407 -12.480384 -19.645745 -110.041593 46.879831 -19.645745 -152.437496 -6.733267 23.115397 -158.790607 -1.022769 -19.122720 -150.591725 -6.535971 -23.115397 3.219062 0.788783 4.524135
1165.827255 569.832902 122.386056 0.000000 0.000000 0.000000 0.000000 0.000000 0.000000 25.594208 7.514230 -19.960535 -154.405792 17.442239 -19.960535 11.723883 -1.204625 20.536413 -161.543160 -1.044789 -21.869059 7.769582 0.610939 -20.536413 -17.248199 -0.003172 4.648882
1165.555573 565.067046 135.152774 0.000000 0.000000 0.000000 0.000000 0.000000 0.000000 43.355707 -8.596961 -19.021130 -136.644293 5.271701 -19.021130 15.984329 -5.436803 17.633558 -140.773833 0.071176 -24.270510 13.679449 0.629432 -17.633558 -16.392157 0.053864 4.755283
1290.255775 608.533316 137.218201 0.000000 0.000000 0.000000 0.000000 0.000000 0.000000 -153.952071 -4.385123 -16.886559 26.047929 -2.195391 -16.886559 -152.683807 -5.507171 14.452610 4.794196 6.747557 -26.289200 -154.287190 -5.910529 -14.452610 2.418080 0.575948 4.842916
1180.398903 551.817470 130.967666 0.000000 0.000000 0.000000 0.000000 0.000000 0.000000 51.640104 3.206023 -13.690942 -128.359896 -21.393478 -13.690942 14.419400 19.993380 11.043737 -33.521359 4.858877 -27.893295 -34.277510 8.429956 -11.043737 5.235387 -1.074452 4.911436
1162.708626 619.419501 128.734346 0.000000 0.000000 0.000000 0.000000 0.000000 0.000000 -88.968325 -21.800430 -9.635073 91.031675 14.893591 -9.635073 -52.690088 5.830639 7.460697 25.015222 5.331065 -29.057495 -72.561734 4.160755 -7.460697 8.557489 -0.236308 4.960574
1110.899391 602.919216 128.591249 0.000000 0.000000 0.000000 0.000000 0.000000 0.000000 -86.972237 -4.595221 -4.973798 93.027763 -3.171918 -4.973798 -39.551144 -3.047861 3.759997 34.838085 -3.901545 -29.763441 -44.185810 0.567199 -3.759997 10.000609 0.263960 4.990134
1150.187302 553.686991 140.670810 0.000000 0.000000 0.000000 0.000000 0.000000 0.000000 -116.065142 -10.525255 -0.000000 63.934858 7.415005 -0.000000 -151.059314 -6.753045 0.000000 -0.492058 13.120924 -30.000000 -14.044098 -26.028771 -0.000000 1.929760 -0.827710 5.000000
967.144727 444.440682 150.528601 0.000000 0.000000 0.000000 0.000000 0.000000 0.000000 26.270296 -4.095162 4.973798 180.000000 -4.565999 4.973798 17.996647 0.937212 -3.759997 162.003353 -6.803968 -29.763441 11.189167 8.957586 3.759997 18.000000 0.009693 4.990134
1213.452644 620.002785 152.859091 0.000000 0.000000 0.000000 0.000000 0.000000 0.000000 140.390379 -40.821803 9.635073 -39.609621 22.245437 9.635073 77.724607 -27.049961 -7.460697 -153.982965 -6.836336 -29.057495 24.142749 5.869196 7.460697 -0.833727 -0.715086 4.960574
1124.373779 618.464527 147.607530 0.000000 0.000000 0.000000 0.000000 0.000000 0.000000 99.329635 -7.371744 13.690942 -80.670365 18.124167 13.690942 85.960927 1.680738 -11.043737 -150.875293 -7.190562 -27.893295 31.644098 6.589931 11.043737 -14.835590 -0.658993 4.911436
967.360971 444.396582 126.322720 0.000000 0.000000 0.000000 0.000000 0.000000 0.000000 24.874716 -12.314614 16.886559 180.000000 -9.905397 16.886559 17.291102 -1.478931 -14.452610 162.708898 -1.510037 -26.289200 11.098846 2.963066 14.452610 18.000000 -0.591362 4.842916
1107.875175 542.453964 146.441734 0.000000 0.000000 0.000000 0.000000 0.000000 0.000000 -128.741314 2.406943 19.021130 51.258686 -2.986881 19.021130 -177.225595 1.344371 -17.633558 19.954750 2.694494 -24.270510 162.677362 -1.642407 17.633558 -1.443098 -0.002123 4.755283
1119.652290 522.766346 145.909936 0.000000 0.000000 0.000000 0.000000 0.000000 0.000000 -99.017754 5.856121 19.960535 80.982246 11.088922 19.960535 -150.289603 -7.680711 -20.536413 -152.613833 -7.347696 -21.869059 0.000000 0.000000 0.000000 0.000000 0.000000 0.000000
1132.908783 538.229613 126.977477 0.000000 0.000000 0.000000 0.000000 0.000000 0.000000 -127.874185 -4.460310 19.645745 52.125815 -1.145464 19.645745 -165.450188 0.027222 -23.115397 -152.521515 -6.977589 -19.122720 40.606225 8.551963 23.115397 -13.939378 -0.855196 4.524135
1146.969337 541.828065 150.166185 0.000000 0.000000 0.000000 0.000000 0.000000 0.000000 -113.631604 1.281293 18.096541 66.368396 -13.241326 18.096541 -159.067475 6.281836 -25.329838 113.981862 -3.482238 -16.074804 -145.449815 -7.158011 25.329838 0.000000 0.000000 0.000000
1165.252304 561.329677 139.800530 0.000000 0.000000 0.000000 0.000000 0.000000 0.000000 -112.861399 -3.308589 15.410265 67.138601 -8.389766 15.410265 -159.396543 5.515451 -27.144812 -151.967552 -6.654746 -12.773379 38.422588 8.740166 27.144812 -14.157741 -0.874017 4.221640
1174.726181 592.839689 141.730024 0.000000 0.000000 0.000000 0.000000 0.000000 0.000000 -110.369899 -6.481567 11.755705 69.630101 -0.168605 11.755705 -148.108768 2.210724 -28.531695 -151.515612 -6.790819 -9.270510 34.277732 8.622297 28.531695 -14.572227 -0.862230 4.045085
1167.352524 605.194867 141.575602 0.000000 0.000000 0.000000 0.000000 0.000000 0.000000 -113.828445 2.213843 7.362491 66.171555 8.738024 7.362491 -131.688453 -1.426118 -29.468618 -151.045756 -6.133573 -5.621439 27.200835 8.944818 29.468618 -15.279916 -0.894482 3.852566
1139.678879 602.981014 159.083040 0.000000 0.000000 0.000000 0.000000 0.000000 0.000000 -97.599684 11.755649 2.506665 82.400316 14.319988 2.506665 -113.965806 -0.510830 -29.940802 -121.058781 5.820866 -1.883716 -118.492407 5.526997 29.940802 10.137620 -7.952947 3.644843
1165.830002 580.020189 128.681524 0.000000 0.000000 0.000000 0.000000 0.000000 0.000000 -28.085052 -1.459999 -2.506665 151.914948 -3.869185 -2.506665 -150.589103 -5.335062 -29.940802 -172.678414 11.239146 1.883716 -149.717924 -6.844520 29.940802 0.000000 0.000000 0.000000
1184.501953 619.872494 112.755913 0.000000 0.000000 0.000000 0.000000 0.000000 0.000000 -113.790307 -12.623327 -7.362491 66.209693 2.524038 -7.362491 -59.272274 -1.819509 -29.468618 29.476823 9.291849 5.621439 -88.148483 -8.718467 29.468618 7.414604 0.222951 3.187120
968.090170 444.221640 139.346874 0.000000 0.000000 0.000000 0.000000 0.000000 0.000000 21.092887 -7.165500 -11.755705 180.000000 -9.906666 -11.755705 15.757771 -1.002630 -28.531695 164.242229 -9.828138 9.270510 11.678908 2.201900 28.531695 18.000000 -0.316759 2.938926
968.151278 444.204723 115.259688 0.000000 0.000000 0.000000 0.000000 0.000000 0.000000 20.844337 -27.337082 -15.410265 180.000000 3.450012 -15.410265 15.691895 -1.554930 -27.144812 164.308105 3.764541 12.773379 11.804629 -1.433755 27.144812 18.000000 -0.101769 2.679134
968.211492 444.187640 105.734720 0.000000 0.000000 0.000000 0.000000 0.000000 0.000000 20.610265 12.932329 -18.096541 180.000000 -2.481358 -18.096541 15.637361 -2.153025 -25.329838 164.362639 -6.347138 16.074804 11.943263 4.234446 25.329838 18.000000 -0.216889 2.408768
968.270806 444.170392 98.615976 0.000000 0.000000 0.000000 0.000000 0.000000 0.000000 20.390366 -6.703494 -19.645745 180.000000 5.689504 -19.645745 15.594026 -0.749199 -23.115397 164.405974 -4.281338 19.122720 12.095062 7.766475 23.115397 18.000000 -0.345569 2.128896
968.329212 444.152979 105.071414 0.000000 0.000000 0.000000 0.000000 0.000000 0.000000 20.184343 -25.088387 -19.960535 180.000000 7.894109 -19.960535 15.561766 -6.329450 -20.536413 164.438234 -0.849946 21.869059 12.260289 4.982982 20.536413 18.000000 0.263148 1.840623
968.386706 444.135403 95.620830 0.000000 0.000000 0.000000 0.000000 0.000000 0.000000 19.991916 -10.606855 -19.021130 180.000000 -1.018381 -19.021130 15.540476 -0.710608 -17.633558 164.459524 0.623948 24.270510 12.439222 0.543981 17.633558 18.000000 0.431832 1.545085
968.443279 444.117663 80.023654 0.000000 0.000000 0.000000 0.000000 0.000000 0.000000 19.812814 -20.417722 -16.886559 180.000000 15.325039 -16.886559 15.530069 -9.686683 -14.452610 164.469931 8.527202 26.289200 12.632146 -2.125115 14.452610 18.000000 0.262072 1.243449
968.498927 444.099761 79.110259 0.000000 0.000000 0.000000 0.000000 0.000000 0.000000 19.646785 -3.133192 -13.690942 180.000000 0.989876 -13.690942 15.530474 -6.774269 -11.043737 164.469526 -1.896652 27.893295 12.839349 8.348498 11.043737 18.000000 -0.894944 0.936907
968.553643 444.081696 72.773130 0.000000 0.000000 0.000000 0.000000 0.000000 0.000000 19.493591 -19.535008 -9.635073 180.000000 -1.565742 -9.635073 15.541640 8.905848 -7.460697 164.458360 10.599665 29.057495 13.061119 -4.481935 7.460697 18.000000 0.380702 0.626666
1051.772690 653.004448 88.212965 0.000000 0.000000 0.000000 0.000000 0.000000 0.000000 -79.007834 5.466525 -4.973798 100.992166 6.508563 -4.973798 -126.715299 2.432082 -3.759997 -149.991181 -3.406412 29.763441 31.772279 5.417596 3.759997 -14.822772 -0.541760 0.313953
1061.669197 624.716241 68.816322 0.000000 0.000000 0.000000 0.000000 0.000000 0.000000 -94.718359 -2.706176 0.000000 85.281641 11.489624 0.000000 -144.150484 1.026752 -0.000000 60.155085 1.729260 30.000000 -152.711462 -0.554901 0.000000 1.815393 -0.026649 0.000000
1072.053337 571.032879 78.523190 0.000000 0.000000 0.000000 0.000000 0.000000 0.000000 71.424080 -0.701308 4.973798 -108.575920 -11.211318 4.973798 -149.042361 -3.290641 3.759997 -149.913636 -0.599963 29.763441 -145.792107 -4.671305 -3.759997 3.947623 0.335234 0.313953
1070.057373 572.884376 58.121093 0.000000 0.000000 0.000000 0.000000 0.000000 0.000000 -80.850201 -21.967407 9.635073 99.149799 -36.302751 9.635073 -147.567525 -2.644263 7.460697 -164.443014 -0.964614 29.057495 -145.447997 -3.832847 -7.460697 4.032371 0.410861 0.626666
968.813035 443.988972 53.757278 0.000000 0.000000 0.000000 0.000000 0.000000 0.000000 18.912944 11.017020 13.690942 180.000000 -0.050995 13.690942 15.758200 -2.443480 11.043737 164.241800 1.252989 27.893295 14.397395 4.692387 -11.043737 18.000000 -0.619892 0.936907
968.862036 443.969952 35.416822 0.000000 0.000000 0.000000 0.000000 0.000000 0.000000 18.832684 7.914190 16.886559 180.000000 -6.116860 16.886559 15.833735 -2.431061 14.452610 164.166265 -5.024582 26.289200 14.711463 2.244870 -14.452610 18.000000 -0.422812 1.243449
968.910065 443.950775 52.582232 0.000000 0.000000 0.000000 0.000000 0.000000 0.000000 18.764066 7.039807 19.021130 180.000000 1.028497 19.021130 15.920102 -12.038182 17.633558 164.079898 -3.979396 24.270510 15.041323 0.604357 -17.633558 18.000000 -0.268578 1.545085
968.957118 443.931442 71.288283 0.000000 0.000000 0.000000 0.000000 0.000000 0.000000 18.706990 -2.924945 19.960535 180.000000 -9.115307 19.960535 16.017366 4.586520 20.536413 163.982634 -7.329306 21.869059 15.386894 4.295632 -20.536413 18.000000 0.570650 1.840623
969.003188 443.911954 48.540689 0.000000 0.000000 0.000000 0.000000 0.000000 0.000000 18.661377 -22.056139 19.645745 180.000000 -0.662610 19.645745 16.125602 5.172136 23.115397 163.874398 -0.663960 19.122720 15.747980 -1.256079 -23.115397 18.000000 -0.133341 2.128896
969.048271 443.892312 31.945240 0.000000 0.000000 0.000000 0.000000 0.000000 0.000000 18.627165 16.325693 18.096541 180.000000 -7.954679 18.096541 16.244896 1.283693 25.329838 163.755104 -0.259284 16.074804 16.124252 -1.142101 -25.329838 18.000000 0.484791 2.408768
969.092361 443.872515 50.687109 0.000000 0.000000 0.000000 0.000000 0.000000 0.000000 18.604312 22.350484 15.410265 180.000000 1.798076 15.410265 16.375340 5.016277 27.144812 163.624660 -1.034599 12.773379 16.515224 0.639585 -27.144812 18.000000 -0.716299 2.679134
1055.186234 577.357593 53.207955 0.000000 0.000000 0.000000 0.000000 0.000000 0.000000 85.510211 16.585854 11.755705 -94.489789 -8.476341 11.755705 37.103410 0.931977 28.531695 -148.111343 -3.466679 9.270510 24.294182 1.465808 -28.531695 -8.601915 0.716297 2.938926
1122.856522 566.714029 43.462087 0.000000 0.000000 0.000000 0.000000 0.000000 0.000000 96.216240 5.823384 7.362491 -83.783760 5.081152 7.362491 46.189625 -7.700762 29.468618 -149.396962 -2.824522 5.621439 24.670091 1.991648 -29.468618 -7.107716 -0.362328 3.187120
969.218632 443.812213 57.473726 0.000000 0.000000 0.000000 0.000000 0.000000 0.000000 18.603763 -10.914714 2.506665 180.000000 -1.651413 2.506665 16.834613 -4.827628 29.940802 163.165387 -2.814103 1.883716 17.768624 -5.499300 -29.940802 18.000000 0.799785 3.422736
1112.757797 605.798106 72.257635 0.000000 0.000000 0.000000 0.000000 0.000000 0.000000 110.914625 -4.267030 -2.506665 -69.085375 14.346431 -2.506665 67.769469 3.214628 29.940802 -149.822316 -2.225717 -1.883716 29.049901 2.130874 -29.940802 -3.625079 0.281380 3.644843
1086.733246 592.557156 65.653319 0.000000 0.000000 0.000000 0.000000 0.000000 0.000000 -80.132323 -58.638952 -7.362491 99.867677 49.817837 -7.362491 36.201564 1.116836 29.468618 -13.679556 -4.462202 -5.621439 78.049842 5.070489 -29.468618 -5.127460 -0.174723 3.852566
1081.109390 570.394492 65.254996 0.000000 0.000000 0.000000 0.000000 0.000000 0.000000 -175.864613 -16.086180 -11.755705 4.135387 18.942057 -11.755705 134.713876 -1.093719 28.531695 -10.005873 -0.270828 -9.270510 135.737755 5.710195 -28.531695 -3.389365 -0.155658 4.045085
1089.776802 536.594539 61.450966 0.000000 0.000000 0.000000 0.000000 0.000000 0.000000 -139.033903 8.233337 -15.410265 40.966097 14.042583 -15.410265 161.695972 -5.604313 27.144812 3.114398 0.720205 -12.773379 148.805610 -1.773765 -27.144812 -2.611636 0.281946 4.221640
1114.282036 523.965647 65.617950 0.000000 0.000000 0.000000 0.000000 0.000000 0.000000 -156.073983 -4.541621 -18.096541 23.926017 1.931473 -18.096541 174.825807 -3.851646 25.329838 5.093343 1.551518 -16.074804 161.266817 -0.359844 -25.329838 -1.814366 0.043053 4.381533
1122.145157 503.425248 68.480080 0.000000 0.000000 0.000000 0.000000 0.000000 0.000000 -144.538174 4.945854 -19.645745 35.461826 -6.091441 -19.645745 174.215003 4.584354 23.115397 -151.750905 -3.142038 -19.122720 43.887064 3.946923 -23.115397 -13.611294 -0.394692 4.524135
1134.158249 484.688419 69.245565 0.000000 0.000000 0.000000 0.000000 0.000000 0.000000 -142.311443 -13.810337 -19.960535 37.688557 6.167886 -19.960535 -174.407776 1.787082 20.536413 14.121014 3.490536 -21.869059 176.737053 -0.547006 -20.536413 -0.386439 0.062529 4.648882
1156.756668 500.025387 75.741794 0.000000 0.000000 0.000000 0.000000 0.000000 0.000000 -140.140767 10.071712 -19.021130 39.859233 8.139783 -19.021130 -176.866589 -2.814269 17.633558 -153.177991 -3.689647 -24.270510 40.555680 4.822193 -17.633558 -13.944432 -0.482219 4.755283
1163.818588 490.292573 84.018463 0.000000 0.000000 0.000000 0.000000 0.000000 0.000000 -126.918075 -0.369955 -16.886559 53.081925 3.882915 -16.886559 -163.374411 -1.722370 14.452610 -153.952175 -3.997299 -26.289200 36.914642 5.971391 -14.452610 0.798233 -0.043406 4.842916
1176.523705 490.346003 91.721309 0.000000 0.000000 0.000000 0.000000 0.000000 0.000000 -130.072590 8.950866 -13.690942 49.927410 -5.069116 -13.690942 -150.224616 -1.830413 11.043737 24.749952 -6.377956 -27.893295 -162.219632 1.726963 -11.043737 1.550269 0.061521 4.911436
1165.045052 489.521159 85.562791 0.000000 0.000000 0.000000 0.000000 0.000000 0.000000 -134.421293 6.570433 -9.635073 45.578707 1.361251 -9.635073 -138.114962 -0.327832 7.460697 20.347125 3.243442 -29.057495 -149.675125 1.069393 -7.460697 1.919618 -0.196021 4.960574
1186.003189 485.341580 85.097862 0.000000 0.000000 0.000000 0.000000 0.000000 0.000000 151.263424 -79.257778 -4.973798 -28.736576 85.291578 -4.973798 -155.571724 -4.596422 3.759997 -114.944239 24.316916 -29.763441 -157.446860 -4.688793 -3.759997 2.096391 0.422646 4.990134
1190.285912 497.609435 83.442843 0.000000 0.000000 0.000000 0.000000 0.000000 0.000000 -104.331435 -18.377397 -0.000000 75.668565 11.817216 -0.000000 -153.934692 -4.842113 0.000000 -67.465008 6.012669 -30.000000 -71.629168 -8.282258 -0.000000 -13.965204 -8.502161 5.000000
846.875610 502.341399 114.158300 0.000000 0.000000 0.000000 0.000000 0.000000 0.000000 -153.358185 2.328748 4.973798 26.641815 -3.696508 4.973798 -147.628169 -4.935595 -3.759997 -147.401289 -5.274914 -29.763441 0.000000 0.000000 0.000000 0.000000 0.000000 0.000000
969.711343 443.490827 92.186930 0.000000 0.000000 0.000000 0.000000 0.000000 0.000000 20.204512 -17.725041 9.635073 180.000000 4.450504 9.635073 20.733157 7.119877 -7.460697 159.266843 0.689336 -29.057495 24.065833 7.655262 7.460697 18.000000 -0.837323 4.960574
969.735789 443.468267 121.437307 0.000000 0.000000 0.000000 0.000000 0.000000 0.000000 20.415894 -6.338425 13.690942 180.000000 -1.485685 13.690942 21.087741 -14.087575 -11.043737 158.912259 -11.583637 -27.893295 24.320336 11.910448 11.043737 18.000000 -0.596487 4.911436
969.759168 443.445569 112.160742 0.000000 0.000000 0.000000 0.000000 0.000000 0.000000 20.642061 21.364970 16.886559 180.000000 1.187975 16.886559 21.453029 -5.965216 -14.452610 158.546971 -6.393480 -26.289200 24.533304 -6.435301 14.452610 18.000000 0.146360 4.842916
585.252171 514.469179 136.388474 0.000000 0.000000 0.000000 0.000000 0.000000 0.000000 74.723181 -68.730751 19.021130 -105.276819 70.708170 19.021130 119.807175 6.048501 -17.633558 165.825978 28.749083 -24.270510 138.012220 -1.664641 17.633558 -12.357653 1.839880 4.755283
624.843979 517.601860 117.359324 0.000000 0.000000 0.000000 0.000000 0.000000 0.000000 103.202449 5.548522 19.960535 -76.797551 10.468532 19.960535 114.381580 -0.110167 -20.536413 -53.015473 -70.481827 -21.869059 145.467160 7.921175 20.536413 -4.173333 0.158357 4.648882
969.822873 443.376664 110.641464 0.000000 0.000000 0.000000 0.000000 0.000000 0.000000 21.413420 1.687836 19.645745 180.000000 1.916495 19.645745 22.607712 8.073293 -23.115397 157.392288 4.119143 -19.122720 24.899813 3.334144 23.115397 18.000000 -1.696033 4.524135
969.841956 443.353428 137.005343 0.000000 0.000000 0.000000 0.000000 0.000000 0.000000 21.702987 2.022781 18.096541 180.000000 5.345045 18.096541 23.009909 -17.603030 -25.329838 156.990091 -4.106800 -16.074804 24.926562 6.544082 25.329838 18.000000 -0.741361 4.381533
969.859960 443.330059 137.729200 0.000000 0.000000 0.000000 0.000000 0.000000 0.000000 22.009579 -21.183921 15.410265 180.000000 3.914082 15.410265 23.419334 13.215463 -27.144812 156.580666 0.149233 -12.773379 24.904993 10.965609 27.144812 18.000000 0.088225 4.221640
594.905148 538.048757 136.794493 0.000000 0.000000 0.000000 0.000000 0.000000 0.000000 -57.080480 -17.814730 11.755705 122.919520 -2.650072 11.755705 -12.750556 1.486680 -28.531695 149.841027 3.781045 -9.270510 -8.274090 -1.499902 28.531695 17.596979 0.073959 4.045085
969.892723 443.282929 145.032085 0.000000 0.000000 0.000000 0.000000 0.000000 0.000000 22.675903 -10.121691 7.362491 180.000000 5.929405 7.362491 24.255612 3.464395 -29.468618 155.744388 9.040354 -5.621439 24.720303 -21.861228 29.468618 18.000000 1.894480 3.852566
1257.001877 499.708382 144.634648 0.000000 0.000000 0.000000 0.000000 0.000000 0.000000 52.818511 -4.619080 2.506665 -127.181489 7.600751 2.506665 25.369497 -0.246886 -29.940802 -143.914951 3.817517 -1.883716 14.556766 -1.153595 29.940802 -16.686776 -0.205294 3.644843
1279.050064 493.773898 139.876041 0.000000 0.000000 0.000000 0.000000 0.000000 0.000000 56.685213 -5.698541 -2.506665 -123.314787 -3.948444 -2.506665 24.065452 0.211894 -29.940802 -146.540317 3.221519 1.883716 13.097461 -1.373241 29.940802 -16.716891 0.050716 3.422736
1295.108986 477.099677 149.849188 0.000000 0.000000 0.000000 0.000000 0.000000 0.000000 65.723361 -3.749742 -7.362491 -114.276639 -2.218005 -7.362491 23.725299 -6.188994 -29.468618 -147.984281 3.735098 5.621439 13.187557 -3.712945 29.468618 -16.751134 0.059846 3.187120
1289.065018 496.763316 144.399577 0.000000 0.000000 0.000000 0.000000 0.000000 0.000000 61.662232 -3.534144 -11.755705 -118.337768 -1.280612 -11.755705 31.397757 1.879207 -28.531695 -148.047797 -3.314014 9.270510 12.491083 2.503830 28.531695 -16.898368 -0.115746 2.938926
1285.337105 480.691112 151.665588 0.000000 0.000000 0.000000 0.000000 0.000000 0.000000 58.021980 -8.425776 -15.410265 -121.978020 -1.208092 -15.410265 31.705930 4.914595 -27.144812 -157.028684 3.398640 12.773379 11.107306 -1.517273 27.144812 -17.140016 0.103782 2.679134
1276.453171 465.093691 152.099004 0.000000 0.000000 0.000000 0.000000 0.000000 0.000000 70.157145 -7.163561 -18.096541 -109.842855 18.470800 -18.096541 40.303764 -10.906972 -25.329838 -145.293609 0.118060 16.074804 10.431204 1.912346 25.329838 -17.100572 0.065367 2.408768
1253.658714 472.768564 129.652796 0.000000 0.000000 0.000000 0.000000 0.000000 0.000000 65.087926 33.866831 -19.645745 -114.912074 -11.801703 -19.645745 -157.680356 -6.755737 -23.115397 -137.727082 3.570748 19.122720 -153.053596 -20.065448 23.115397 -16.054219 -0.771736 2.128896
1366.101608 507.691247 153.737868 0.000000 0.000000 0.000000 0.000000 0.000000 0.000000 108.715100 11.731592 -19.960535 -71.284900 19.856762 -19.960535 156.661132 -2.909522 -20.536413 -158.224303 -5.440053 21.869059 0.000000 0.000000 0.000000 0.000000 0.000000 0.000000
969.986295 443.064535 152.458069 0.000000 0.000000 0.000000 0.000000 0.000000 0.000000 26.662144 7.249384 -19.021130 180.000000 -8.492540 -19.021130 28.015351 5.231049 -17.633558 151.984649 -20.453635 24.270510 22.068935 8.522039 17.633558 18.000000 0.211403 1.545085
1282.107124 481.511257 130.551435 0.000000 0.000000 0.000000 0.000000 0.000000 0.000000 80.650781 -24.726170 -16.886559 -99.349219 36.338801 -16.886559 1.511604 -9.607342 -14.452610 -32.896908 6.298020 26.289200 -7.727072 3.825848 14.452610 13.531851 1.830103 1.243449
1282.921486 484.777769 141.620168 0.000000 0.000000 0.000000 0.000000 0.000000 0.000000 -81.737646 -20.308782 -13.690942 98.262354 41.466437 -13.690942 -23.867101 0.242451 -11.043737 12.655668 1.591854 27.893295 -29.454911 4.341770 11.043737 9.861248 -0.861386 0.936907
1290.933037 513.180238 136.248299 0.000000 0.000000 0.000000 0.000000 0.000000 0.000000 -91.387864 -1.407180 -9.635073 88.612136 1.556126 -9.635073 -41.685392 4.813541 -7.460697 -161.156957 -6.179773 29.057495 15.157863 5.410909 7.460697 10.543436 0.134232 0.626666
969.999452 442.964284 131.188530 0.000000 0.000000 0.000000 0.000000 0.000000 0.000000 29.025427 -41.042021 -4.973798 180.000000 16.068005 -4.973798 29.437993 -0.034495 -3.759997 150.562007 17.081789 29.763441 20.404746 -10.822890 3.759997 18.000000 0.294045 0.313953
970.000000 442.938926 143.534969 0.000000 0.000000 0.000000 0.000000 0.000000 0.000000 29.678605 -17.756239 0.000000 180.000000 5.114844 0.000000 29.744881 -1.391410 -0.000000 150.255119 -0.962651 30.000000 19.983107 5.622652 0.000000 18.000000 -0.070002 0.000000
1354.522934 467.411410 123.063694 0.000000 0.000000 0.000000 0.000000 0.000000 0.000000 150.622570 -8.780214 4.973798 -29.377430 4.525849 4.973798 140.176400 2.742910 3.759997 -12.221629 3.213637 29.763441 132.794256 -0.013753 -3.759997 -2.626015 0.108810 0.313953
969.997807 442.887864 123.406676 0.000000 0.000000 0.000000 0.000000 0.000000 0.000000 31.061399 -8.096611 9.635073 180.000000 11.056442 9.635073 30.285790 -11.029244 7.460697 149.714210 -1.842825 29.057495 19.151579 -3.257977 -7.460697 18.000000 0.179940 0.626666
1246.736984 514.278152 107.458743 0.000000 0.000000 0.000000 0.000000 0.000000 0.000000 143.557092 -24.997127 13.690942 -36.442908 5.370921 13.690942 133.761037 1.525922 11.043737 -156.950665 -4.627405 27.893295 0.000000 0.000000 0.000000 1.928484 0.427937 0.936907
1245.221100 458.637464 132.599470 0.000000 0.000000 0.000000 0.000000 0.000000 0.000000 160.701064 22.727647 16.886559 -19.298936 -10.471050 16.886559 140.193827 -3.383628 14.452610 -157.554825 -6.245723 26.289200 29.500467 5.399101 -14.452610 -15.049953 -0.539910 1.243449
1257.365570 418.514181 104.220939 0.000000 0.000000 0.000000 0.000000 0.000000 0.000000 -143.710676 -17.513249 19.021130 36.289324 3.203311 19.021130 163.220413 1.912242 17.633558 11.688054 -0.359399 24.270510 152.038385 1.359284 -17.633558 -2.339948 -0.023406 1.545085
1275.099564 408.163741 112.989925 0.000000 0.000000 0.000000 0.000000 0.000000 0.000000 -132.929531 -4.057275 19.960535 47.070469 -6.828395 19.960535 173.491912 5.006865 20.536413 -160.709681 -4.982953 21.869059 33.138793 6.023283 -20.536413 -14.686121 -0.602328 1.840623
1290.611115 384.880857 83.893049 0.000000 0.000000 0.000000 0.000000 0.000000 0.000000 -132.705235 1.602510 19.645745 47.294765 -3.484295 19.645745 -173.778854 -6.769634 23.115397 20.496835 0.257464 19.122720 -161.220290 -4.517705 -23.115397 1.723235 0.364752 2.128896
1302.817154 380.305352 90.236335 0.000000 0.000000 0.000000 0.000000 0.000000 0.000000 -131.493915 0.533010 18.096541 48.506085 6.247005 18.096541 -165.393697 -3.842083 25.329838 23.154815 2.517245 16.074804 -178.200316 -0.048819 -25.329838 0.138141 0.150967 2.408768
1304.997711 379.563582 100.880034 0.000000 0.000000 0.000000 0.000000 0.000000 0.000000 -126.727972 -4.956487 15.410265 53.272028 -0.780464 15.410265 -160.219593 0.264770 27.144812 28.448880 4.623201 12.773379 -174.368770 -1.911349 -27.144812 0.079526 0.050990 2.679134
1311.668472 386.890390 61.387115 0.000000 0.000000 0.000000 0.000000 0.000000 0.000000 -122.308728 -2.295532 11.755705 57.691272 -8.023821 11.755705 -158.801130 -0.490538 28.531695 150.942637 -3.841884 9.270510 -154.878332 -3.952817 -28.531695 2.695409 0.464449 2.938926
1305.131836 395.180186 88.526643 0.000000 0.000000 0.000000 0.000000 0.000000 0.000000 -125.112810 -0.385216 7.362491 54.887190 -5.509936 7.362491 -146.487292 3.815069 29.468618 -175.167369 1.121176 5.621439 -159.224034 -4.047229 -29.468618 1.782042 0.394680 3.187120
1296.320457 392.734526 69.894273 0.000000 0.000000 0.000000 0.000000 0.000000 0.000000 -131.035750 13.520081 2.506665 48.964250 -10.931935 2.506665 -128.969563 1.975815 29.940802 38.856147 -4.262342 1.883716 -134.776850 -1.161622 -29.940802 3.458429 0.102869 3.422736
1306.963577 386.612041 70.561996 0.000000 0.000000 0.000000 0.000000 0.000000 0.000000 -124.469622 -0.976272 -2.506665 55.530378 2.621617 -2.506665 -109.994856 -2.201060 29.940802 37.691309 3.391340 -1.883716 -118.274788 -2.938419 -29.940802 5.098336 0.148798 3.644843
969.892723 442.572198 67.820763 0.000000 0.000000 0.000000 0.000000 0.000000 0.000000 41.287575 -28.821294 -7.362491 180.000000 5.157113 -7.362491 30.974696 -11.730352 29.468618 149.025304 -16.528528 -5.621439 15.072869 5.145903 -29.468618 18.000000 0.082081 3.852566
969.876883 442.545207 71.159909 0.000000 0.000000 0.000000 0.000000 0.000000 0.000000 42.241956 35.524465 -11.755705 180.000000 20.155664 -11.755705 30.826133 -30.119511 28.531695 149.173867 -11.242894 -9.270510 14.823070 1.502493 -28.531695 18.000000 -0.475533 4.045085
969.859960 442.518116 49.335555 0.000000 0.000000 0.000000 0.000000 0.000000 0.000000 43.199779 47.046469 -15.410265 180.000000 -20.531800 -15.410265 30.649504 -6.503205 27.144812 149.350496 -15.927373 -12.773379 14.587557 -8.318480 -27.144812 18.000000 0.808766 4.221640
969.841956 442.490926 73.583610 0.000000 0.000000 0.000000 0.000000 0.000000 0.000000 44.157210 -44.745858 -18.096541 180.000000 20.910114 -18.096541 30.446417 -2.971905 25.329838 149.553583 9.141316 -16.074804 14.366154 1.503851 -25.329838 18.000000 -0.316093 4.381533
969.822873 442.463637 45.839668 0.000000 0.000000 0.000000 0.000000 0.000000 0.000000 45.110117 -45.863552 -19.645745 180.000000 5.361723 -19.645745 30.218633 0.032710 23.115397 149.781367 4.399628 -19.122720 14.158653 -1.374866 -23.115397 18.000000 0.168989 4.524135
969.802712 442.436251 52.803715 0.000000 0.000000 0.000000 0.000000 0.000000 0.000000 46.054109 2.675449 -19.960535 180.000000 3.060927 -19.960535 29.968037 -15.284716 20.536413 150.031963 -12.071179 -21.869059 13.964823 -2.567696 -20.536413 18.000000 -0.000194 4.648882
1187.040939 541.658249 45.892528 0.000000 0.000000 0.000000 0.000000 0.000000 0.000000 82.806623 -13.570145 -19.021130 -97.193377 26.033108 -19.021130 45.395981 10.613479 17.633558 -156.144455 -1.872229 -24.270510 0.000000 0.000000 0.000000 0.000000 0.000000 0.000000
1182.242889 522.024286 52.328687 0.000000 0.000000 0.000000 0.000000 0.000000 0.000000 -105.721938 1.344758 -16.886559 74.278062 9.632579 -16.886559 -155.708006 -2.302353 14.452610 -157.302521 -2.002396 -26.289200 0.000000 0.000000 0.000000 2.684983 0.225346 4.842916
1180.914459 527.065626 46.381686 0.000000 0.000000 0.000000 0.000000 0.000000 0.000000 88.055617 -3.628339 -13.690942 -91.944383 7.168754 -13.690942 -158.862018 -2.363255 11.043737 -151.747289 -1.251142 -27.893295 0.000000 0.000000 0.000000 0.000000 0.000000 0.000000
1236.800194 541.387432 46.938534 0.000000 0.000000 0.000000 0.000000 0.000000 0.000000 -85.588400 9.307039 -9.635073 94.411600 8.396314 -9.635073 -159.297106 -13.300654 7.460697 -157.915391 -2.860405 -29.057495 26.607362 2.610173 -7.460697 14.926890 0.306068 4.960574
1161.066513 575.006626 41.272323 0.000000 0.000000 0.000000 0.000000 0.000000 0.000000 -81.021168 -20.717362 -4.973798 98.978832 23.206130 -4.973798 -102.851701 -12.186582 3.759997 -157.041007 -1.505022 -29.763441 21.429890 2.119143 -3.759997 10.859432 -0.068832 4.990134
1255.636253 512.645942 55.718340 0.000000 0.000000 0.000000 0.000000 0.000000 0.000000 77.832564 2.187521 -0.000000 -102.167436 -3.781526 -0.000000 -158.264834 -2.530972 0.000000 -130.745502 -4.030466 -30.000000 -157.699225 -2.447908 -0.000000 0.000000 0.000000 0.000000
1265.118484 521.473864 57.953858 0.000000 0.000000 0.000000 0.000000 0.000000 0.000000 64.078276 -1.230160 4.973798 -115.921724 -11.233452 4.973798 41.397952 9.753614 -3.759997 -139.329851 0.020557 -29.763441 20.223252 0.404178 3.759997 -16.047574 -0.100056 4.990134
1228.099480 522.138258 51.060889 0.000000 0.000000 0.000000 0.000000 0.000000 0.000000 71.050901 -6.346691 9.635073 -108.949099 -0.517541 9.635073 150.099970 12.040963 -7.460697 -139.894702 4.021644 -29.057495 -156.275691 -3.618290 7.460697 0.000000 0.000000 0.000000
1240.357246 528.695873 63.402391 0.000000 0.000000 0.000000 0.000000 0.000000 0.000000 65.413351 8.063979 13.690942 -114.586649 -2.420343 13.690942 147.242328 -1.582830 -11.043737 -154.470720 -2.358745 -27.893295 25.557225 2.674042 11.043737 -15.444278 -0.267404 4.911436
1231.815262 551.380248 53.825176 0.000000 0.000000 0.000000 0.000000 0.000000 0.000000 56.412506 -12.253588 16.886559 -123.587494 20.009277 16.886559 -153.392336 1.598592 -14.452610 -154.784582 -1.795749 -26.289200 24.191555 3.475649 14.452610 -15.580844 -0.347565 4.842916
1221.475182 508.360147 65.087299 0.000000 0.000000 0.000000 0.000000 0.000000 0.000000 77.450622 4.706235 19.021130 -102.549378 0.338631 19.021130 -156.789784 -2.935540 -17.633558 -125.590168 0.291574 -24.270510 -160.017240 -3.437878 17.633558 1.833434 0.457212 4.755283
969.477684 442.100429 74.475038 0.000000 0.000000 0.000000 0.000000 0.000000 0.000000 54.932575 -31.678711 19.960535 180.000000 7.692654 19.960535 25.919122 -6.621224 -20.536413 154.080878 1.643000 -21.869059 12.612867 -2.516213 20.536413 18.000000 0.258356 4.648882
1480.140495 518.878891 73.341729 0.000000 0.000000 0.000000 0.000000 0.000000 0.000000 -110.621767 88.263029 19.645745 69.378233 -87.423556 19.645745 -158.235933 -2.470712 -23.115397 166.031448 -0.607916 -19.122720 -155.186432 -3.223018 23.115397 2.641553 0.276280 4.524135
1271.640472 556.840560 84.531904 0.000000 0.000000 0.000000 0.000000 0.000000 0.000000 -94.404719 -15.102031 18.096541 85.595281 16.475737 18.096541 -62.417786 -1.284577 -25.329838 23.992813 -1.968370 -16.074804 -76.856107 -0.047190 25.329838 7.708835 0.436394 4.381533
1258.556786 530.268441 88.532159 0.000000 0.000000 0.000000 0.000000 0.000000 0.000000 78.355945 -0.682161 15.410265 -101.644055 8.785756 15.410265 35.068294 -7.540941 -27.144812 -54.090640 0.378112 -12.773379 35.848220 0.010519 27.144812 -8.104639 0.295614 4.221640
1250.800209 527.150567 95.222182 0.000000 0.000000 0.000000 0.000000 0.000000 0.000000 72.417769 3.093687 11.755705 -107.582231 -9.604885 11.755705 24.571109 1.838429 -28.531695 -39.196117 2.716576 -9.270510 10.411117 -4.169029 28.531695 -9.048616 -1.321125 4.045085
1243.466148 571.776259 82.174013 0.000000 0.000000 0.000000 0.000000 0.000000 0.000000 86.301473 -6.857020 7.362491 -93.698527 17.408104 7.362491 24.553534 -5.382488 -29.468618 -153.460385 -4.052004 -5.621439 19.510484 3.383219 29.468618 -10.109500 1.592770 3.852566
1261.883812 566.052918 90.602613 0.000000 0.000000 0.000000 0.000000 0.000000 0.000000 94.015209 4.430904 2.506665 -85.984791 -12.896879 2.506665 38.959993 3.720224 -29.940802 -154.008305 -4.616830 -1.883716 20.870951 3.670819 29.940802 -10.872440 -3.563744 3.644843
1284.436798 527.190542 82.903432 0.000000 0.000000 0.000000 0.000000 0.000000 0.000000 111.186365 -0.352525 -2.506665 -68.813635 -5.425687 -2.506665 58.506163 1.642354 -29.940802 -19.138727 1.795469 1.883716 51.457372 -0.924898 29.940802 -5.203198 -0.579649 3.422736
1272.860069 533.494012 99.923032 0.000000 0.000000 0.000000 0.000000 0.000000 0.000000 72.301471 7.083059 -7.362491 -107.698529 16.152232 -7.362491 78.802573 -1.844063 -29.468618 -154.772375 -4.641487 5.621439 26.927455 3.542405 29.468618 -15.307255 -0.354241 3.187120
1255.264664 498.243735 103.426011 0.000000 0.000000 0.000000 0.000000 0.000000 0.000000 164.596971 58.844322 -11.755705 -15.403029 -36.328710 -11.755705 125.849126 -0.327031 -28.531695 -156.067666 -5.355950 9.270510 33.087561 4.957224 28.531695 -14.691244 -0.495722 2.938926
1259.202232 470.407684 122.813512 0.000000 0.000000 0.000000 0.000000 0.000000 0.000000 -139.980397 -10.088093 -15.410265 40.019603 -3.861118 -15.410265 165.887722 3.648661 -27.144812 -157.901492 -5.252586 12.773379 35.196094 4.918968 27.144812 -14.480391 -0.491897 2.679134
1236.502075 429.951335 106.319991 0.000000 0.000000 0.000000 0.000000 0.000000 0.000000 -113.295066 16.476552 -18.096541 66.704934 -0.904581 -18.096541 -174.664169 -10.797398 -25.329838 -159.007335 -6.190242 16.074804 32.868990 6.346176 25.329838 -14.713101 -0.634618 2.408768
1253.359451 413.942538 118.763404 0.000000 0.000000 0.000000 0.000000 0.000000 0.000000 -123.348580 -5.708935 -19.645745 56.651420 4.355921 -19.645745 -167.815074 -5.918364 -23.115397 -159.603180 -5.864395 19.122720 32.791747 6.858123 23.115397 -14.720825 -0.685812 2.128896
1281.206589 405.664523 128.653690 0.000000 0.000000 0.000000 0.000000 0.000000 0.000000 -124.414271 0.626334 -19.960535 55.585729 1.493378 -19.960535 -161.281803 -6.240084 -20.536413 28.568449 -0.877808 21.869059 -159.052798 -4.986283 20.536413 1.849141 0.417991 1.840623
1300.238571 418.760215 132.566149 0.000000 0.000000 0.000000 0.000000 0.000000 0.000000 -126.263092 -2.759348 -19.021130 53.736908 5.750894 -19.021130 -159.739358 -4.005696 -17.633558 31.487961 -2.611755 24.270510 -170.323915 0.584089 17.633558 0.671815 0.094233 1.545085
1321.889191 413.634385 137.301944 0.000000 0.000000 0.000000 0.000000 0.000000 0.000000 -133.874471 -0.299199 -16.886559 46.125529 8.637532 -16.886559 -159.376251 -5.490192 -14.452610 30.696824 -3.619558 26.289200 -164.929556 0.995892 14.452610 1.089735 -0.021697 1.243449
1336.221428 432.881820 141.326292 0.000000 0.000000 0.000000 0.000000 0.000000 0.000000 -115.020798 2.693824 -13.690942 64.979202 -2.856709 -13.690942 -135.609544 -4.974395 -11.043737 -161.321630 -6.769707 27.893295 17.353502 8.600160 11.043737 -16.264650 -0.860016 0.936907
1329.124603 416.860342 145.464782 0.000000 0.000000 0.000000 0.000000 0.000000 0.000000 -134.023347 9.233939 -9.635073 45.976653 -5.665763 -9.635073 -128.030830 -1.368754 -7.460697 28.249885 -2.738319 29.057495 -136.447985 -0.665740 7.460697 4.038834 0.091514 0.626666
1343.366776 427.060794 150.455689 0.000000 0.000000 0.000000 0.000000 0.000000 0.000000 -130.153347 0.397180 -4.973798 49.846653 3.652803 -4.973798 -103.564435 -4.310967 -3.759997 27.398095 -3.162688 29.763441 -115.461530 3.966139 3.759997 5.470063 -0.200587 0.313953
1376.991005 465.829636 135.485759 0.000000 0.000000 0.000000 0.000000 0.000000 0.000000 -120.272352 -2.261849 0.000000 59.727648 0.189746 0.000000 -62.204131 1.239008 -0.000000 27.740602 4.864603 30.000000 -80.461527 -3.505301 0.000000 7.450891 -0.026272 0.000000
1384.978867 468.790376 150.276661 0.000000 0.000000 0.000000 0.000000 0.000000 0.000000 -93.720384 51.917675 4.973798 86.279616 15.428592 4.973798 3.847814 -1.966326 3.759997 -160.438787 -6.587057 29.763441 15.990976 4.957748 -3.759997 7.894783 0.528430 0.313953
1345.894547 516.257268 157.918280 0.000000 0.000000 0.000000 0.000000 0.000000 0.000000 127.577640 -11.169533 9.635073 -52.422360 26.105901 9.635073 53.096359 -3.048820 7.460697 -159.021748 -5.478083 29.057495 18.308456 5.957379 -7.460697 -4.062191 -4.059524 0.626666
968.498927 441.455181 171.186020 0.000000 0.000000 0.000000 0.000000 0.000000 0.000000 47.920147 15.369406 13.690942 180.000000 -22.211188 13.690942 19.641385 10.916772 11.043737 160.358615 -5.634054 27.893295 13.993219 3.317999 -11.043737 18.000000 -0.202559 0.936907
1336.846733 493.527671 147.440723 0.000000 0.000000 0.000000 0.000000 0.000000 0.000000 102.681311 -2.768352 16.886559 -77.318689 -1.585589 16.886559 35.985219 -0.030520 14.452610 -159.617763 -6.100459 26.289200 19.375410 5.329619 -14.452610 -16.062459 -0.532962 1.243449
968.386706 441.394956 137.219211 0.000000 0.000000 0.000000 0.000000 0.000000 0.000000 46.120581 -39.611374 19.021130 180.000000 -11.498479 19.021130 19.316787 8.141613 17.633558 160.683213 5.584963 24.270510 14.327067 -2.355222 -17.633558 18.000000 0.667604 1.545085
1263.984947 433.341283 128.966678 0.000000 0.000000 0.000000 0.000000 0.000000 0.000000 -115.578373 17.224663 19.960535 64.421627 -10.259172 19.960535 -82.396446 12.108855 20.536413 25.733383 -8.243162 21.869059 -77.477544 0.924447 -20.536413 5.836928 0.031491 1.840623
1352.596436 477.564354 153.354877 0.000000 0.000000 0.000000 0.000000 0.000000 0.000000 -99.196741 2.693776 19.645745 80.803259 -4.668154 19.645745 -125.272585 7.860318 23.115397 -162.405270 -6.391858 19.122720 17.377627 6.339434 -23.115397 -16.262237 -0.633943 2.128896
1384.326782 408.174427 151.124578 0.000000 0.000000 0.000000 0.000000 0.000000 0.000000 96.868601 -30.624994 18.096541 -83.131399 17.686463 18.096541 -160.848957 -5.966027 25.329838 -137.255583 7.841079 16.074804 -162.076720 -7.127761 -25.329838 0.000000 0.000000 0.000000
1387.580223 387.128634 155.606072 0.000000 0.000000 0.000000 0.000000 0.000000 0.000000 78.087764 17.343396 15.410265 -101.912236 -15.782272 15.410265 -161.807915 -6.177238 27.144812 -147.504361 -4.579753 12.773379 -162.566306 -6.929748 -27.144812 1.735427 0.811291 2.679134
1345.818558 392.423122 131.140639 0.000000 0.000000 0.000000 0.000000 0.000000 0.000000 71.782984 -8.990936 11.755705 -108.217016 12.890491 11.755705 -169.469261 2.336819 28.531695 -153.903088 0.907055 9.270510 -154.670689 -1.966769 -28.531695 15.277725 1.422655 2.938926
1331.471329 361.814139 132.162096 0.000000 0.000000 0.000000 0.000000 0.000000 0.000000 53.586100 8.082660 7.362491 -126.413900 -16.236053 7.362491 -162.290330 -6.355350 29.468618 -154.912165 -8.009326 5.621439 -162.550394 -6.447755 -29.468618 1.742175 0.831163 3.187120
1354.413986 427.213873 152.775510 0.000000 0.000000 0.000000 0.000000 0.000000 0.000000 -131.358118 -13.964094 2.506665 48.641882 25.642092 2.506665 -142.488821 -0.584034 29.940802 -161.977882 -5.711489 1.883716 12.673705 8.485049 -29.940802 1.397524 0.145923 3.422736
1330.326691 347.207226 148.765592 0.000000 0.000000 0.000000 0.000000 0.000000 0.000000 52.464175 -1.151752 -2.506665 -127.535825 -11.088651 -2.506665 14.270918 7.833362 29.940802 -122.057234 2.865230 -1.883716 22.820874 -1.467009 -29.940802 -15.244909 0.012595 3.644843
1317.103271 414.475805 110.321883 0.000000 0.000000 0.000000 0.000000 0.000000 0.000000 76.170457 -10.363063 -7.362491 -103.829543 -1.565986 -7.362491 -50.250674 0.146322 29.468618 -52.503744 2.762322 -5.621439 -92.793049 1.017768 -29.468618 3.303440 -0.007888 3.852566
1331.844635 430.291482 131.644236 0.000000 0.000000 0.000000 0.000000 0.000000 0.000000 79.985160 -6.255967 -11.755705 -100.014840 10.353300 -11.755705 25.995082 -0.493482 28.531695 -75.062603 1.898982 -9.270510 38.761234 0.009141 -28.531695 -11.442229 0.206333 4.045085
1359.462433 496.472383 104.998372 0.000000 0.000000 0.000000 0.000000 0.000000 0.000000 84.268829 5.416568 -15.410265 -95.731171 -0.436350 -15.410265 30.279153 7.718618 27.144812 -63.318008 1.256059 -12.773379 39.457716 -3.711239 -27.144812 -9.485742 0.300266 4.221640
1323.514366 546.771398 120.682731 0.000000 0.000000 0.000000 0.000000 0.000000 0.000000 84.407325 -8.961350 -18.096541 -95.592675 5.340721 -18.096541 27.768249 2.455549 25.329838 -47.660055 5.545515 -16.074804 28.281511 -0.993289 -25.329838 -7.827901 -0.483495 4.381533
1268.535347 591.567099 121.891287 0.000000 0.000000 0.000000 0.000000 0.000000 0.000000 90.890792 1.556497 -19.645745 -89.109208 0.342782 -19.645745 44.654760 0.523384 23.115397 -48.200667 -0.364690 -19.122720 43.369388 0.206000 -23.115397 -8.974980 0.301914 4.524135
1303.157158 602.888768 95.551113 0.000000 0.000000 0.000000 0.000000 0.000000 0.000000 90.349289 9.403507 -19.960535 -89.650711 -5.135264 -19.960535 47.707312 -0.278559 20.536413 -53.918782 -3.620585 -21.869059 40.070965 5.692835 -20.536413 -9.318632 -0.739477 4.648882
1314.841690 613.141973 112.872967 0.000000 0.000000 0.000000 0.000000 0.000000 0.000000 94.480501 5.209883 -19.021130 -85.519499 -0.810697 -19.021130 58.462862 0.099630 17.633558 -52.020507 -2.119932 -24.270510 55.276552 -0.415102 -17.633558 -7.777523 -0.447499 4.755283
1327.521400 639.394319 75.855443 0.000000 0.000000 0.000000 0.000000 0.000000 0.000000 99.879576 -4.085371 -16.886559 -80.120424 0.718729 -16.886559 69.161359 -0.434387 14.452610 -46.413613 -1.530686 -26.289200 76.680143 -1.700589 -14.452610 -6.257768 0.720861 4.842916
1277.812729 671.228578 83.527584 0.000000 0.000000 0.000000 0.000000 0.000000 0.000000 99.708534 2.283580 -13.690942 -80.291466 -3.982808 -13.690942 92.239140 -2.587087 11.043737 -26.764021 -4.127149 -27.893295 98.168457 -1.954967 -11.043737 -4.372074 -0.206850 4.911436
1309.642181 690.479329 104.076842 0.000000 0.000000 0.000000 0.000000 0.000000 0.000000 117.292414 4.258091 -9.635073 -62.707586 9.362486 -9.635073 137.002702 -5.942923 7.460697 -32.045917 -2.849360 -29.057495 135.211322 1.098570 -7.460697 -3.212944 0.175474 4.960574
1299.770966 664.126496 63.774690 0.000000 0.000000 0.000000 0.000000 0.000000 0.000000 158.531160 7.442742 -4.973798 -21.468840 -6.012694 -4.973798 161.478323 3.748971 3.759997 -12.838206 3.316624 -29.763441 151.269584 -1.502602 -3.759997 -2.521934 0.026919 4.990134
1313.353729 643.668108 77.602558 0.000000 0.000000 0.000000 0.000000 0.000000 0.000000 -154.315892 -3.128383 -0.000000 25.684108 7.381026 -0.000000 173.459940 -6.533832 0.000000 1.519689 -1.427495 -30.000000 164.244875 0.029095 -0.000000 -1.552244 0.068421 5.000000
1342.841377 638.982847 82.204662 0.000000 0.000000 0.000000 0.000000 0.000000 0.000000 -138.993869 -2.195631 4.973798 41.006131 -12.481860 4.973798 175.724056 2.239859 -3.759997 -151.723069 -3.521340 -29.763441 43.242568 3.231745 3.759997 -13.675743 -0.323175 4.990134
1350.000229 614.724133 62.690528 0.000000 0.000000 0.000000 0.000000 0.000000 0.000000 -144.248147 10.577206 9.635073 35.751853 -5.916658 9.635073 177.069273 -0.916500 -7.460697 -152.227621 -3.250201 -29.057495 43.136563 3.875450 7.460697 -13.686344 -0.387545 4.960574
1328.535919 624.780936 62.209220 0.000000 0.000000 0.000000 0.000000 0.000000 0.000000 -165.447222 -12.412346 13.690942 14.552778 3.025934 13.690942 169.657511 5.083409 -11.043737 -152.168050 -2.208243 -27.893295 41.929642 4.174751 11.043737 -13.807036 -0.417475 4.911436
1318.810501 615.688248 56.414044 0.000000 0.000000 0.000000 0.000000 0.000000 0.000000 -120.063657 -0.926552 16.886559 59.936343 -10.298147 16.886559 -165.389465 3.353378 -14.452610 -152.866764 -2.766842 -26.289200 39.162270 3.862469 14.452610 -14.083773 -0.386247 4.842916
1321.656418 659.275410 57.719112 0.000000 0.000000 0.000000 0.000000 0.000000 0.000000 -121.435085 5.438369 19.021130 58.564915 6.839735 19.021130 -149.190712 1.672411 -17.633558 -151.926374 -2.321971 -24.270510 33.097066 3.122999 17.633558 -14.690293 -0.312300 4.755283
1328.445511 687.490232 37.688211 0.000000 0.000000 0.000000 0.000000 0.000000 0.000000 -104.253419 0.838565 19.960535 75.746581 -0.640926 19.960535 -110.140878 4.557497 -20.536413 -152.911692 -2.270565 -21.869059 23.882145 2.104661 20.536413 3.694979 0.156598 4.648882
966.534206 440.564282 41.232179 0.000000 0.000000 0.000000 0.000000 0.000000 0.000000 25.865486 -17.307761 19.645745 180.000000 1.620257 19.645745 18.728337 -2.385551 -23.115397 161.271663 -0.867564 -19.122720 19.024234 3.286533 23.115397 18.000000 0.406170 4.524135
966.454577 440.533056 47.380429 0.000000 0.000000 0.000000 0.000000 0.000000 0.000000 25.417507 -40.395084 18.096541 180.000000 23.892063 18.096541 18.825450 -2.721068 -25.329838 161.174550 11.404470 -16.074804 19.071566 2.641776 25.329838 18.000000 -0.674114 4.381533
966.374240 440.501809 43.984143 0.000000 0.000000 0.000000 0.000000 0.000000 0.000000 24.990320 1.726618 15.410265 180.000000 -5.557467 15.410265 18.929718 5.115021 -27.144812 161.070282 -2.566385 -12.773379 19.102411 0.406108 27.144812 18.000000 0.402140 4.221640
966.293204 440.470542 37.664667 0.000000 0.000000 0.000000 0.000000 0.000000 0.000000 24.583377 2.876254 11.755705 180.000000 -7.521350 11.755705 19.040946 -4.039131 -28.531695 160.959054 -4.289578 -9.270510 19.116765 3.045098 28.531695 18.000000 -0.062895 4.045085
966.211478 440.439256 50.874473 0.000000 0.000000 0.000000 0.000000 0.000000 0.000000 24.196129 -13.473272 7.362491 180.000000 -1.879947 7.362491 19.158923 1.887835 -29.468618 160.841077 -1.334605 -5.621439 19.114778 7.695914 29.468618 18.000000 -1.176054 3.852566
644.985180 745.864069 43.410459 0.000000 0.000000 0.000000 0.000000 0.000000 0.000000 96.086415 -5.904286 2.506665 -83.913585 42.806525 2.506665 -159.662371 -0.954722 -29.940802 -116.741565 13.322632 -1.883716 -176.001217 -2.681247 29.940802 -1.006627 0.807926 3.644843
1269.020119 699.025490 56.306119 0.000000 0.000000 0.000000 0.000000 0.000000 0.000000 83.810916 2.186859 -2.506665 -96.189084 -4.812067 -2.506665 51.932890 -0.737782 -29.940802 -149.314466 -2.551742 1.883716 27.598511 1.615947 29.940802 -15.240149 -0.161595 3.422736
573.721218 678.450201 42.068888 0.000000 0.000000 0.000000 0.000000 0.000000 0.000000 18.756393 28.025613 -7.362491 -161.243607 -30.126009 -7.362491 -174.158094 13.159629 -29.468618 178.010322 -3.558890 5.621439 -154.394154 0.732993 29.468618 11.886524 -0.880148 3.187120
1261.580200 714.897366 31.099098 0.000000 0.000000 0.000000 0.000000 0.000000 0.000000 87.191276 15.549065 -11.755705 -92.808724 -19.011070 -11.755705 23.129119 1.406159 -28.531695 -149.376238 -3.266916 9.270510 24.545507 2.018637 28.531695 13.583501 -0.368736 2.938926
1314.655838 684.171546 56.520280 0.000000 0.000000 0.000000 0.000000 0.000000 0.000000 61.219932 -4.330242 -15.410265 -118.780068 -2.736458 -15.410265 25.476616 -1.672643 -27.144812 -150.404247 -2.719374 12.773379 24.621454 1.715897 27.144812 -15.537855 -0.171590 2.679134
1319.638939 674.820013 60.035688 0.000000 0.000000 0.000000 0.000000 0.000000 0.000000 82.055377 7.322057 -18.096541 -97.944623 4.010709 -18.096541 17.325085 -6.424014 -25.329838 -60.067277 -3.683361 16.074804 23.747728 -2.206309 25.329838 -13.005173 0.037635 2.408768
1367.852325 659.536314 46.927636 0.000000 0.000000 0.000000 0.000000 0.000000 0.000000 -150.278430 14.516473 -19.645745 29.721570 25.301856 -19.645745 -151.222797 -2.476685 -23.115397 18.758043 1.929891 19.122720 -152.451920 -1.999207 23.115397 2.484143 0.237453 2.128896
1392.624664 638.981302 58.659878 0.000000 0.000000 0.000000 0.000000 0.000000 0.000000 -122.704248 -9.207643 -19.960535 57.295752 10.136521 -19.960535 -134.513385 0.003520 -20.536413 30.292627 7.842891 21.869059 -146.694539 -4.792509 20.536413 2.430965 0.453454 1.840623
1401.291389 646.422758 52.544400 0.000000 0.000000 0.000000 0.000000 0.000000 0.000000 83.316637 5.281376 -19.021130 -96.683363 -0.610313 -19.021130 29.335627 11.511393 -17.633558 -136.281416 2.090044 24.270510 19.119183 -0.941988 17.633558 -15.871560 -0.103622 1.545085
1381.838951 663.410475 87.249251 0.000000 0.000000 0.000000 0.000000 0.000000 0.000000 79.215331 0.108311 -16.886559 -100.784669 -1.280179 -16.886559 30.640455 0.076376 -14.452610 -139.113455 0.187340 26.289200 14.302413 -1.393887 14.452610 -16.408036 0.120050 1.243449
1390.185928 664.248354 85.924618 0.000000 0.000000 0.000000 0.000000 0.000000 0.000000 75.546066 2.436590 -13.690942 -104.453934 -3.765947 -13.690942 38.995097 -0.803807 -11.043737 -142.871297 0.471387 27.893295 14.209110 -2.107953 11.043737 -16.737090 -0.010450 0.936907
1393.889923 677.551103 88.590717 0.000000 0.000000 0.000000 0.000000 0.000000 0.000000 84.293627 -4.712433 -9.635073 -95.706373 5.992836 -9.635073 -152.700272 -3.641363 -7.460697 -143.357755 3.608171 29.057495 -148.868889 -4.443351 7.460697 3.626268 0.554083 0.626666
905.601082 693.654528 81.590970 0.000000 0.000000 0.000000 0.000000 0.000000 0.000000 -84.410869 5.858688 -4.973798 95.589131 10.769104 -4.973798 -139.498802 -5.102918 -3.759997 -178.556713 -0.490919 29.763441 -142.061844 -4.627916 3.759997 3.411456 0.443473 0.313953
1337.643929 680.318756 98.597820 0.000000 0.000000 0.000000 0.000000 0.000000 0.000000 78.192517 4.153025 0.000000 -101.807483 -1.734892 0.000000 48.289813 -1.951148 -0.000000 -140.291980 -2.804376 30.000000 13.663140 1.662697 0.000000 -17.395561 -0.061816 0.000000
1322.670708 685.543334 94.361125 0.000000 0.000000 0.000000 0.000000 0.000000 0.000000 71.501063 1.197528 4.973798 -108.498937 -1.204636 4.973798 23.648228 -4.043115 3.759997 -144.586500 -2.007323 29.763441 14.578018 2.250813 -3.759997 -16.885607 -0.185167 0.313953
1305.530548 682.910864 108.256220 0.000000 0.000000 0.000000 0.000000 0.000000 0.000000 72.979287 47.100557 9.635073 -107.020713 38.555912 9.635073 -148.728581 -4.955137 7.460697 -74.802907 -2.838355 29.057495 -151.178244 -4.295013 -7.460697 2.601049 0.371952 0.626666
1359.363556 692.650115 104.064337 0.000000 0.000000 0.000000 0.000000 0.000000 0.000000 73.244804 3.922460 13.690942 -106.755196 -11.192314 13.690942 13.983499 6.717239 11.043737 -67.611809 -7.752171 27.893295 13.130547 1.512677 -11.043737 -11.004089 0.217532 0.936907
1299.495964 679.994059 106.249421 0.000000 0.000000 0.000000 0.000000 0.000000 0.000000 116.206779 -10.124337 16.886559 -63.793221 -2.586036 16.886559 -150.858719 -4.361561 14.452610 -34.548592 -0.981362 26.289200 60.366751 3.493469 -14.452610 -4.627493 -0.068974 1.243449
1306.260338 711.527116 122.546641 0.000000 0.000000 0.000000 0.000000 0.000000 0.000000 -85.758672 15.479194 19.021130 94.241328 -14.598064 19.021130 -31.461750 1.020517 17.633558 -4.237664 -2.425979 24.270510 -15.215787 5.264627 -17.633558 7.867754 -4.591892 1.545085
1272.614822 704.778571 136.910569 0.000000 0.000000 0.000000 0.000000 0.000000 0.000000 -78.634637 7.344570 19.960535 101.365363 11.229206 19.960535 -34.118569 -4.041743 20.536413 22.539652 3.266059 21.869059 -31.373170 2.977599 -20.536413 11.310693 0.037973 1.840623
1310.345650 676.427021 122.044618 0.000000 0.000000 0.000000 0.000000 0.000000 0.000000 97.572435 -0.348454 19.645745 -82.427565 -4.044700 19.645745 50.400703 -1.704281 23.115397 -39.584286 -1.534373 19.122720 44.966766 1.781837 -23.115397 -8.852712 0.389401 2.128896
1315.732956 671.025095 138.279688 0.000000 0.000000 0.000000 0.000000 0.000000 0.000000 97.797337 5.812693 18.096541 -82.202663 3.517783 18.096541 49.825934 1.382047 25.329838 -39.162923 0.162297 16.074804 36.475631 1.935160 -25.329838 -8.191519 1.985724 2.408768
1329.935532 653.525419 147.615833 0.000000 0.000000 0.000000 0.000000 0.000000 0.000000 96.469555 1.874263 15.410265 -83.530445 1.763130 15.410265 63.882053 -2.673688 27.144812 -51.972064 1.486187 12.773379 58.624362 -0.396452 -27.144812 -8.239564 0.076091 2.679134
1316.170578 674.246514 139.797770 0.000000 0.000000 0.000000 0.000000 0.000000 0.000000 -87.946330 12.332816 11.755705 92.053670 -1.977677 11.755705 -29.715798 -6.699537 28.531695 54.212796 -8.062192 9.270510 -40.560774 6.576280 -28.531695 11.008015 -0.434195 2.938926
1317.367287 678.027205 155.239044 0.000000 0.000000 0.000000 0.000000 0.000000 0.000000 95.152942 12.111057 7.362491 -84.847058 -3.380602 7.362491 98.792835 -2.439523 29.468618 -150.515547 -6.404919 5.621439 32.983753 5.488776 -29.468618 -14.701625 -0.548878 3.187120
1318.168488 670.157025 129.057158 0.000000 0.000000 0.000000 0.000000 0.000000 0.000000 -151.252255 36.422848 2.506665 28.747745 39.466039 2.506665 138.896993 -0.201777 29.940802 -151.946620 -5.858742 1.883716 38.784684 5.505444 -29.940802 -14.121532 -0.550544 3.422736
1323.412628 644.667885 145.048820 0.000000 0.000000 0.000000 0.000000 0.000000 0.000000 -97.904066 -11.456640 -2.506665 82.095934 26.243567 -2.506665 155.695030 -3.879076 29.940802 -152.500978 -6.217838 -1.883716 44.721081 6.501609 -29.940802 -13.527892 -0.650161 3.644843
1312.776718 630.059459 143.346802 0.000000 0.000000 0.000000 0.000000 0.000000 0.000000 -116.637972 25.209493 -7.362491 63.362028 -20.769482 -7.362491 171.094570 4.513363 29.468618 -152.894064 -6.637840 -5.621439 43.947863 7.718275 -29.468618 -13.605214 -0.771827 3.852566
1316.420746 625.237019 151.932251 0.000000 0.000000 0.000000 0.000000 0.000000 0.000000 -136.254273 -4.326931 -11.755705 43.745727 -0.666194 -11.755705 -177.663204 3.411539 28.531695 -153.006287 -6.122096 -9.270510 42.784597 8.462324 -28.531695 -13.721540 -0.846232 4.045085
1314.719925 628.818026 143.702606 0.000000 0.000000 0.000000 0.000000 0.000000 0.000000 -114.737929 1.543071 -15.410265 65.262071 8.216171 -15.410265 -169.764314 -1.781642 27.144812 -153.369487 -6.145844 -12.773379 41.498347 8.528249 -27.144812 -13.850165 -0.852825 4.221640
1334.396782 646.165652 157.283942 0.000000 0.000000 0.000000 0.000000 0.000000 0.000000 -116.903454 12.321777 -18.096541 63.096546 -7.833204 -18.096541 -154.594534 2.189587 25.329838 -153.225015 -6.692152 -16.074804 37.136182 9.553277 -25.329838 -14.286382 -0.955328 4.381533
1340.823784 648.244128 134.817316 0.000000 0.000000 0.000000 0.000000 0.000000 0.000000 -116.932323 2.642114 -19.645745 63.067677 -10.230214 -19.645745 -138.898656 3.167121 23.115397 35.335752 -0.898092 -19.122720 -153.336856 -3.016622 -23.115397 2.206211 0.041287 4.524135
1330.023880 654.599032 155.740296 0.000000 0.000000 0.000000 0.000000 0.000000 0.000000 -112.150704 -2.532731 -19.960535 67.849296 -4.418826 -19.960535 -118.798313 -0.242426 20.536413 -153.636372 -6.638831 -21.869059 16.691869 8.717575 -20.536413 -16.330813 -0.871758 4.648882
1337.431641 662.410698 154.456097 0.000000 0.000000 0.000000 0.000000 0.000000 0.000000 -109.111809 5.765642 -19.021130 70.888191 3.438251 -19.021130 -91.144379 -2.109384 17.633558 -154.448144 -6.067111 -24.270510 10.298202 6.229863 -17.633558 6.642051 -0.017300 4.755283
1324.339714 676.416593 168.994658 0.000000 0.000000 0.000000 0.000000 0.000000 0.000000 -104.120178 1.253768 -16.886559 75.879822 10.222011 -16.886559 -57.095620 -2.304416 14.452610 38.799650 1.606017 -26.289200 -71.942639 3.188478 -14.452610 8.831938 -0.336219 4.842916
962.890318 439.311049 146.190773 0.000000 0.000000 0.000000 0.000000 0.000000 0.000000 19.986963 11.205403 -13.690942 180.000000 -11.268943 -13.690942 24.297229 2.039103 11.043737 155.702771 -1.455258 -27.893295 14.983342 -3.253207 -11.043737 18.000000 0.210053 4.911436
962.789911 439.279946 148.253085 0.000000 0.000000 0.000000 0.000000 0.000000 0.000000 20.089586 -6.546048 -9.635073 180.000000 6.159960 -9.635073 24.330184 -1.004583 7.460697 155.669816 3.536719 -29.057495 14.926290 3.878047 -7.460697 18.000000 -0.314295 4.960574
641.318550 641.336324 149.104487 0.000000 0.000000 0.000000 0.000000 0.000000 0.000000 163.642929 7.864252 -4.973798 -16.357071 1.012388 -4.973798 -155.926011 -6.779413 3.759997 -130.644608 -8.119128 -29.763441 68.679337 10.550196 -3.759997 -11.132066 -1.055020 4.990134
1305.385551 662.289033 134.838942 0.000000 0.000000 0.000000 0.000000 0.000000 0.000000 -81.949824 3.527726 -0.000000 98.050176 5.073291 -0.000000 9.536664 -4.583805 0.000000 -153.586691 -6.081169 -30.000000 24.402531 4.946818 -0.000000 -15.559747 -0.494682 5.000000
962.486899 439.186814 129.382877 0.000000 0.000000 0.000000 0.000000 0.000000 0.000000 20.465882 10.466077 4.973798 180.000000 -1.252964 4.973798 24.357206 -1.917791 -3.759997 155.642794 -4.475454 -29.763441 14.800425 1.138956 3.759997 18.000000 -0.050967 4.990134
1216.314240 612.580640 128.395490 0.000000 0.000000 0.000000 0.000000 0.000000 0.000000 78.221991 -5.553387 9.635073 -101.778009 0.002981 9.635073 46.689014 2.157456 -7.460697 -61.937558 8.659910 -29.057495 44.546377 -3.915525 7.460697 -10.771750 -0.183404 4.960574
1273.897820 573.707514 131.103195 0.000000 0.000000 0.000000 0.000000 0.000000 0.000000 77.469628 -3.868140 13.690942 -102.530372 -5.179985 13.690942 -155.691164 -5.253293 -11.043737 -120.750172 -0.068461 -27.893295 -156.229293 -6.218235 11.043737 2.162203 0.504806 4.911436
1337.358742 570.303276 118.265321 0.000000 0.000000 0.000000 0.000000 0.000000 0.000000 73.705918 -1.147512 16.886559 -106.294082 -3.988336 16.886559 -155.918376 -4.837547 -14.452610 -149.887909 -4.927766 -26.289200 0.000000 0.000000 0.000000 0.000000 0.000000 0.000000
1342.446442 569.623497 121.304741 0.000000 0.000000 0.000000 0.000000 0.000000 0.000000 68.898287 -3.405947 19.021130 -111.101713 -5.961312 19.021130 39.314088 5.384331 -17.633558 -140.912764 -0.019036 -24.270510 -153.216026 -5.895853 17.633558 2.759242 0.687134 4.755283
1335.759430 584.665475 99.894777 0.000000 0.000000 0.000000 0.000000 0.000000 0.000000 66.989329 2.387449 19.960535 -113.010671 -5.505302 19.960535 -154.807077 -4.555941 -20.536413 -142.328055 -0.371072 -21.869059 -153.049156 -6.058945 20.536413 2.866457 0.632434 4.648882
1337.950974 598.074245 116.930922 0.000000 0.000000 0.000000 0.000000 0.000000 0.000000 62.697633 3.325382 19.645745 -117.302367 1.195482 19.645745 19.366736 7.249668 -23.115397 -144.826223 2.055377 -19.122720 9.911455 -0.594152 23.115397 -17.004209 -0.024841 4.524135
1352.846489 601.043322 99.676030 0.000000 0.000000 0.000000 0.000000 0.000000 0.000000 59.083577 -2.329929 18.096541 -120.916423 4.059331 18.096541 20.876734 0.090525 -25.329838 -142.301690 -2.682570 -16.074804 13.356960 0.456947 25.329838 -16.821524 0.126551 4.381533
1347.310982 587.475100 98.580057 0.000000 0.000000 0.000000 0.000000 0.000000 0.000000 56.169135 4.820641 15.410265 -123.830865 -0.248824 15.410265 21.172503 1.265070 -27.144812 -139.640745 -1.039653 -12.773379 14.641496 2.750800 27.144812 -16.282575 -0.156608 4.221640
1326.982155 606.886139 100.087288 0.000000 0.000000 0.000000 0.000000 0.000000 0.000000 70.119981 -8.059417 11.755705 -109.880019 -2.807787 11.755705 26.511889 6.792314 -28.531695 -111.264667 3.434418 -9.270510 31.153840 -0.566930 28.531695 -13.943905 0.074379 4.045085
1354.391098 626.185555 82.752883 0.000000 0.000000 0.000000 0.000000 0.000000 0.000000 88.154395 3.487987 7.362491 -91.845605 5.336736 7.362491 30.442275 -4.532838 -29.468618 -76.284233 -0.591344 -5.621439 43.854867 -2.651026 29.468618 -10.818190 0.227075 3.852566
1370.667114 610.219567 70.048296 0.000000 0.000000 0.000000 0.000000 0.000000 0.000000 89.945118 2.522729 2.506665 -90.054882 -2.307519 2.506665 44.053326 -0.232056 -29.940802 -56.238091 0.488724 -1.883716 55.411270 -3.806771 29.940802 -7.805659 0.000395 3.644843
1372.834854 597.828534 69.055895 0.000000 0.000000 0.000000 0.000000 0.000000 0.000000 93.407992 4.852502 -2.506665 -86.592008 -1.562835 -2.506665 54.165845 -0.254505 -29.940802 -47.239220 0.463416 1.883716 56.575186 2.291350 29.940802 -6.344474 -0.056669 3.422736
1336.554337 597.454848 70.624048 0.000000 0.000000 0.000000 0.000000 0.000000 0.000000 95.622643 1.568612 -7.362491 -84.377357 0.788865 -7.362491 56.597780 2.979748 -29.468618 -45.108662 -0.409020 5.621439 55.386034 -0.066472 29.468618 -7.206870 0.162709 3.187120
1310.567093 590.844769 61.550642 0.000000 0.000000 0.000000 0.000000 0.000000 0.000000 100.193768 5.161186 -11.755705 -79.806232 -7.045871 -11.755705 61.986347 -1.357633 -28.531695 -37.593815 -1.007432 9.270510 62.907615 -4.974371 28.531695 -6.637230 0.499300 2.938926
1328.574371 576.493385 45.389358 0.000000 0.000000 0.000000 0.000000 0.000000 0.000000 101.943783 3.791463 -15.410265 -78.056217 -6.517458 -15.410265 61.902838 1.954858 -27.144812 -33.889586 -5.814054 12.773379 55.760387 7.778934 27.144812 -7.097415 0.283808 2.679134
1316.178360 595.500870 68.828744 0.000000 0.000000 0.000000 0.000000 0.000000 0.000000 103.792097 2.771644 -18.096541 -76.207903 -0.510458 -18.096541 65.535198 -4.577775 -25.329838 -28.739437 -4.704949 16.074804 68.415337 3.924805 25.329838 -6.481753 -0.358597 2.408768
1302.343140 568.138025 39.369651 0.000000 0.000000 0.000000 0.000000 0.000000 0.000000 101.222717 16.037753 -19.645745 -78.777283 -13.457668 -19.645745 90.757296 -0.483239 -23.115397 -18.578033 -1.321288 19.122720 97.909038 -3.889510 23.115397 -5.050134 0.050774 2.128896
1274.166183 540.660596 60.406002 0.000000 0.000000 0.000000 0.000000 0.000000 0.000000 -126.898591 -3.600626 -19.960535 53.101409 -1.235605 -19.960535 127.276662 5.295946 -20.536413 8.808645 8.403015 21.869059 119.711272 -3.026270 20.536413 -4.115393 -0.103958 1.840623
1268.557091 468.331075 39.959868 0.000000 0.000000 0.000000 0.000000 0.000000 0.000000 -124.112133 -10.972299 -19.021130 55.887867 -10.479341 -19.021130 163.344780 1.962001 -17.633558 38.476068 -2.845295 24.270510 145.889074 -1.331666 17.633558 -1.929933 0.253865 1.545085
1278.673096 454.375906 53.768683 0.000000 0.000000 0.000000 0.000000 0.000000 0.000000 -126.805061 0.245884 -16.886559 53.194939 -15.386085 -16.886559 -174.009950 4.147786 -14.452610 27.419224 -0.293180 26.289200 168.192977 0.570445 14.452610 -0.976267 -0.045345 1.243449
1285.008774 434.700390 52.197563 0.000000 0.000000 0.000000 0.000000 0.000000 0.000000 -132.005120 -8.503903 -13.690942 47.994880 2.449108 -13.690942 -171.247775 0.778675 -11.043737 26.625253 -4.150732 27.893295 178.805957 0.442383 11.043737 0.023422 0.172150 0.936907
1288.157730 426.987666 48.312106 0.000000 0.000000 0.000000 0.000000 0.000000 0.000000 -123.987926 -2.112980 -9.635073 56.012074 8.466164 -9.635073 -166.356219 -3.349972 -7.460697 35.716336 0.579771 29.057495 -172.960762 0.900993 7.460697 0.819533 -0.058054 0.626666
1291.221657 420.425448 59.749436 0.000000 0.000000 0.000000 0.000000 0.000000 0.000000 -122.265643 -0.109329 -4.973798 57.734357 1.384294 -4.973798 -156.870161 -1.255114 -3.759997 38.220704 1.881006 29.763441 -165.716368 -1.016739 3.759997 1.405814 -0.081904 0.313953
