HIERARCHY
ROOT Hips
{
    OFFSET 0.0 0.0 0.0
    CHANNELS 6 Xposition Yposition Zposition Zrotation Xrotation Yrotation
    JOINT Spine
    {
        OFFSET 0.0 5.0 0.0
        CHANNELS 3 Zrotation Xrotation Yrotation
        JOINT Chest
        {
            OFFSET 0.0 5.0 0.0
            CHANNELS 3 Zrotation Xrotation Yrotation
            JOINT Neck
            {
                OFFSET 0.0 8.0 0.0
                CHANNELS 3 Zrotation Xrotation Yrotation
                JOINT Head
                {
                    OFFSET 0.0 5.0 0.0
                    CHANNELS 3 Zrotation Xrotation Yrotation
                    End Site
                    {
                        OFFSET 0.0 3.0 0.0
                    }
                }
            }
            JOINT LeftShoulder
            {
                OFFSET -5.0 0.0 0.0
                CHANNELS 3 Zrotation Xrotation Yrotation
                JOINT LeftArm
                {
                    OFFSET 0.0 -10.0 0.0
                    CHANNELS 3 Zrotation Xrotation Yrotation
                    JOINT LeftForeArm
                    {
                        OFFSET 0.0 -10.0 0.0
                        CHANNELS 3 Zrotation Xrotation Yrotation
                        End Site
                        {
                            OFFSET 0.0 -3.0 0.0
                        }
                    }
                }
            }
        }
    }
}

MOTION
Frames: 300
Frame Time: 0.033333

960.000000 445.000000 92.408904 0.000000 0.000000 0.000000 0.000000 0.000000 0.000000 23.025492 3.102731 0.000000 180.000000 12.207854 0.000000 21.801409 -5.396100 -0.000000 158.198591 3.968898 30.000000 15.945396 3.988441 0.000000 18.000000 -0.899649 0.000000
1691.525230 140.756605 109.710945 0.000000 0.000000 0.000000 0.000000 0.000000 0.000000 -163.376529 -0.075465 4.973798 16.623471 -4.413155 4.973798 -171.853121 -3.213767 3.759997 99.744051 -15.586521 29.763441 -171.126653 -3.368918 -3.759997 0.673538 0.446024 0.313953
1636.048050 128.802021 95.259749 0.000000 0.000000 0.000000 0.000000 0.000000 0.000000 157.904128 -4.438231 9.635073 -22.095872 33.123120 9.635073 -171.936471 -4.539192 7.460697 -143.675701 1.627362 29.057495 -173.500805 -4.292556 -7.460697 0.570999 0.509569 0.626666
1578.156967 80.474526 118.198984 0.000000 0.000000 0.000000 0.000000 0.000000 0.000000 -139.519796 -5.101875 13.690942 40.480204 15.060102 13.690942 -174.507724 -4.415765 11.043737 119.111399 12.462674 27.893295 -173.607258 -4.504283 -11.043737 0.461920 0.438820 0.936907
960.418757 444.998421 127.179669 0.000000 0.000000 0.000000 0.000000 0.000000 0.000000 25.077893 27.986590 16.886559 180.000000 -22.924894 16.886559 23.861935 9.983568 14.452610 156.138065 -24.702486 26.289200 17.903699 14.574665 -14.452610 18.000000 -0.321537 1.243449
960.523360 444.997533 122.879618 0.000000 0.000000 0.000000 0.000000 0.000000 0.000000 25.638906 -15.115793 19.021130 180.000000 -2.604853 19.021130 24.425035 7.673057 17.633558 155.574965 0.301814 24.270510 18.452907 -9.346233 -17.633558 18.000000 0.908326 1.545085
960.627905 444.996447 127.703236 0.000000 0.000000 0.000000 0.000000 0.000000 0.000000 26.219073 4.115139 19.960535 180.000000 4.397280 19.960535 25.006291 -0.905913 20.536413 154.993709 6.018740 21.869059 19.024920 -5.373790 -20.536413 18.000000 0.409802 1.840623
1126.242828 420.359820 127.503086 0.000000 0.000000 0.000000 0.000000 0.000000 0.000000 31.410514 -3.135394 19.645745 -148.589486 -1.233101 19.645745 32.280463 -0.495589 23.115397 -131.603972 1.100240 19.122720 45.585331 -1.416520 -23.115397 -13.449727 0.049648 2.128896
1257.895088 650.549197 124.970475 0.000000 0.000000 0.000000 0.000000 0.000000 0.000000 25.073180 12.532671 18.096541 -154.926820 -20.550905 18.096541 46.260945 -4.898802 25.329838 -154.651428 -6.313608 16.074804 27.339487 4.535587 -25.329838 -13.619892 1.196065 2.408768
960.941083 444.992008 148.993252 0.000000 0.000000 0.000000 0.000000 0.000000 0.000000 28.072001 26.924754 15.410265 180.000000 -14.111095 15.410265 26.849221 10.496085 27.144812 153.150779 -9.745317 12.773379 20.864045 7.941412 -27.144812 18.000000 -1.306501 2.679134
1163.815842 547.748709 144.520950 0.000000 0.000000 0.000000 0.000000 0.000000 0.000000 117.162728 -5.920105 11.755705 -62.837272 8.522418 11.755705 102.363764 3.255848 28.531695 -47.376450 3.936156 9.270510 104.768601 1.086792 -28.531695 -6.003489 -0.368711 2.938926
961.149372 444.988063 156.720529 0.000000 0.000000 0.000000 0.000000 0.000000 0.000000 29.395983 -4.882961 7.362491 180.000000 -13.667601 7.362491 28.146217 -5.722862 29.468618 151.853783 11.421666 5.621439 22.170006 -11.323895 -29.468618 18.000000 0.267487 3.187120
1136.717377 590.104480 152.031311 0.000000 0.000000 0.000000 0.000000 0.000000 0.000000 115.752126 4.539425 2.506665 -64.247874 -3.442373 2.506665 73.638146 -2.438427 29.940802 -21.842452 5.163858 1.883716 75.369282 -7.613961 -29.940802 -6.767207 0.676911 3.422736
1163.079758 634.077559 155.157248 0.000000 0.000000 0.000000 0.000000 0.000000 0.000000 132.174340 8.555250 -2.506665 -47.825660 -3.784140 -2.506665 94.255711 -1.637968 29.940802 -149.364979 -6.785065 -1.883716 30.021641 6.034815 -29.940802 -5.096180 -0.917510 3.644843
961.460830 444.980668 157.316069 0.000000 0.000000 0.000000 0.000000 0.000000 0.000000 31.497152 -36.998474 -7.362491 180.000000 -6.090923 -7.362491 30.152455 1.458620 29.468618 149.847545 1.608920 -5.621439 24.175589 -2.924455 -29.468618 18.000000 0.760703 3.852566
1097.449951 565.089898 124.621120 0.000000 0.000000 0.000000 0.000000 0.000000 0.000000 -119.219568 10.053101 -11.755705 60.780432 -12.092138 -11.755705 -150.180642 -6.533330 28.531695 48.804955 -9.701720 -9.270510 -149.874178 -5.448516 -28.531695 2.713854 0.594976 4.045085
1114.140244 528.302071 158.928858 0.000000 0.000000 0.000000 0.000000 0.000000 0.000000 -142.671523 -15.500928 -15.410265 37.328477 15.125331 -15.410265 -177.395681 0.605820 27.144812 34.687329 10.596906 -12.773379 161.894167 -1.987002 -27.144812 -0.910956 0.356084 4.221640
1116.433640 479.728639 144.152329 0.000000 0.000000 0.000000 0.000000 0.000000 0.000000 -102.267481 -9.135733 -18.096541 77.732519 -2.587002 -18.096541 -163.695626 4.001428 25.329838 38.575767 0.554233 -16.074804 -176.001122 0.491972 -25.329838 0.706594 0.080900 4.381533
1135.931282 466.493965 160.417615 0.000000 0.000000 0.000000 0.000000 0.000000 0.000000 -112.868406 -6.486543 -19.645745 67.131594 23.701930 -19.645745 -159.517862 -7.168931 23.115397 36.204678 4.215305 -19.122720 -154.426613 -6.377569 -23.115397 2.428729 0.539411 4.524135
1141.618767 467.420679 155.881335 0.000000 0.000000 0.000000 0.000000 0.000000 0.000000 -123.086385 -3.360319 -19.960535 56.913615 16.947868 -19.960535 -154.885724 -1.073466 20.536413 36.481623 1.514710 -21.869059 -153.965441 -5.842146 -20.536413 2.446728 0.525167 4.648882
1150.647926 469.370956 152.027775 0.000000 0.000000 0.000000 0.000000 0.000000 0.000000 -43.953779 -29.555507 -19.021130 136.046221 2.598130 -19.021130 -154.327268 -6.891386 17.633558 60.745168 9.004373 -24.270510 -153.350642 -7.002345 -17.633558 2.386216 0.629377 4.755283
1151.529922 496.420240 136.165068 0.000000 0.000000 0.000000 0.000000 0.000000 0.000000 -116.362129 4.037789 -16.886559 63.637871 13.830176 -16.886559 -149.081043 -3.399229 14.452610 35.941860 5.905816 -26.289200 -156.847177 -3.837253 -14.452610 2.056513 0.065013 4.842916
1148.402367 515.713574 138.642577 0.000000 0.000000 0.000000 0.000000 0.000000 0.000000 -118.252650 -5.740856 -13.690942 61.747350 5.943469 -13.690942 -138.082896 -2.189695 11.043737 -156.312677 -6.882950 -27.893295 21.649626 9.671958 -11.043737 2.962417 -0.281638 4.911436
1175.363617 533.368646 144.445903 0.000000 0.000000 0.000000 0.000000 0.000000 0.000000 -95.476638 -19.601110 -9.635073 84.523362 6.013843 -9.635073 -113.907461 -2.631338 7.460697 -155.995907 -6.415203 -29.057495 12.512064 8.831731 -7.460697 -16.748794 -0.883173 4.960574
1199.533310 485.991104 114.583217 0.000000 0.000000 0.000000 0.000000 0.000000 0.000000 -100.003195 -2.616522 -4.973798 79.996805 -1.041332 -4.973798 -86.083188 2.789450 3.759997 38.843754 0.527454 -29.763441 -106.539452 0.837413 -3.759997 6.197806 -0.026561 4.990134
962.588190 444.938442 145.661307 0.000000 0.000000 0.000000 0.000000 0.000000 0.000000 39.579754 42.127685 -0.000000 180.000000 -16.118264 -0.000000 36.680773 -6.871968 0.000000 143.319227 -17.566261 -30.000000 29.388385 -3.569757 -0.000000 18.000000 0.972854 5.000000
1142.094727 445.716287 120.793900 0.000000 0.000000 0.000000 0.000000 0.000000 0.000000 -140.228454 1.452681 4.973798 39.771546 -29.024413 4.973798 -156.118008 -5.743521 -3.759997 3.479189 0.798747 -29.763441 -158.005660 -6.146670 3.759997 2.150019 0.535462 4.990134
1164.005928 424.847746 114.953101 0.000000 0.000000 0.000000 0.000000 0.000000 0.000000 -84.241076 -12.482356 9.635073 95.758924 15.495223 9.635073 -156.181584 -5.856120 -7.460697 166.928360 0.029815 -29.057495 -154.947270 -5.888783 7.460697 2.644196 0.540140 4.960574
1124.208755 418.286655 91.064963 0.000000 0.000000 0.000000 0.000000 0.000000 0.000000 -117.427077 -14.875367 13.690942 62.572923 17.316835 13.690942 -155.943063 -5.918358 -11.043737 14.023837 1.675833 -27.893295 -157.382674 -5.366817 11.043737 2.188130 0.508720 4.911436
962.990408 444.917226 131.199848 0.000000 0.000000 0.000000 0.000000 0.000000 0.000000 42.110883 35.068800 16.886559 180.000000 -15.533823 16.886559 37.946959 12.931846 -14.452610 142.053041 -10.084121 -26.289200 29.293612 -2.268020 14.452610 18.000000 0.848277 4.842916
963.090170 444.911436 90.629947 0.000000 0.000000 0.000000 0.000000 0.000000 0.000000 42.659200 6.170468 19.021130 180.000000 9.928967 19.021130 38.119107 -3.238059 -17.633558 141.880893 12.445253 -24.270510 29.068887 -6.776738 17.633558 18.000000 0.857177 4.755283
1186.646461 396.272757 94.237350 0.000000 0.000000 0.000000 0.000000 0.000000 0.000000 -72.847419 6.730465 19.960535 107.152581 6.237326 19.960535 -156.703603 -5.173162 -20.536413 178.447294 -3.990691 -21.869059 -157.212393 -5.000823 20.536413 1.964058 0.437830 4.648882
1313.051605 426.636125 97.493949 0.000000 0.000000 0.000000 0.000000 0.000000 0.000000 90.994869 -13.197772 19.645745 -89.005131 -2.021430 19.645745 -160.515303 -4.297756 -23.115397 -153.248861 3.619872 -19.122720 -159.640525 -5.379837 23.115397 0.000000 0.000000 0.000000
1347.999344 420.772226 91.608959 0.000000 0.000000 0.000000 0.000000 0.000000 0.000000 90.154351 -3.726146 18.096541 -89.845649 -6.339283 18.096541 -162.053401 -3.790823 -25.329838 -136.198880 0.532592 -16.074804 -160.991694 -5.082885 25.329838 0.000000 0.000000 0.000000
1344.315948 421.031681 76.552172 0.000000 0.000000 0.000000 0.000000 0.000000 0.000000 69.757587 3.937084 15.410265 -110.242413 -4.222096 15.410265 25.616746 4.807776 -27.144812 -157.821005 -3.511553 -12.773379 17.214985 2.612944 27.144812 -16.704706 -0.051006 4.221640
1350.307617 440.309436 86.502801 0.000000 0.000000 0.000000 0.000000 0.000000 0.000000 71.124018 8.850604 11.755705 -108.875982 -0.003128 11.755705 42.739987 -5.499219 -28.531695 -142.315466 -0.900878 -9.270510 16.600926 -2.578601 28.531695 -16.660102 0.044912 4.045085
1357.685051 430.688889 89.143164 0.000000 0.000000 0.000000 0.000000 0.000000 0.000000 77.656077 -12.128972 7.362491 -102.343923 14.420072 7.362491 39.407151 1.016193 -29.468618 -136.343173 10.336698 -5.621439 22.144452 -2.124944 29.468618 -16.305135 -0.152109 3.852566
1369.482193 445.909406 70.564326 0.000000 0.000000 0.000000 0.000000 0.000000 0.000000 88.051188 8.863644 2.506665 -91.948812 -15.692741 2.506665 -161.283973 -2.664333 -29.940802 -119.799169 0.262263 -1.883716 -164.575400 -3.949430 29.940802 1.401013 0.387742 3.644843
963.875156 444.858159 53.910801 0.000000 0.000000 0.000000 0.000000 0.000000 0.000000 45.304844 32.089652 -2.506665 180.000000 3.850483 -2.506665 37.252439 15.748596 -29.940802 142.747561 -15.829465 1.883716 25.146244 9.051432 29.940802 18.000000 -0.632779 3.422736
963.971479 444.850633 66.268441 0.000000 0.000000 0.000000 0.000000 0.000000 0.000000 45.383640 -20.558560 -7.362491 180.000000 4.302446 -7.362491 36.882310 16.871433 -29.468618 143.117690 15.505079 5.621439 24.499789 3.552637 29.468618 18.000000 0.246598 3.187120
1336.629524 469.010178 60.399550 0.000000 0.000000 0.000000 0.000000 0.000000 0.000000 -72.390177 -15.700835 -11.755705 107.609823 36.893172 -11.755705 -158.649984 -2.868716 -28.531695 2.583425 11.425146 9.270510 -39.658551 -6.207668 28.531695 10.837181 1.062717 2.938926
1311.966934 518.219100 67.140971 0.000000 0.000000 0.000000 0.000000 0.000000 0.000000 -63.565072 -27.724908 -15.410265 116.434928 46.453137 -15.410265 -14.840750 -8.287398 -27.144812 -158.549348 -2.009257 12.773379 17.488774 2.038361 27.144812 7.174982 3.578624 2.679134
964.257793 444.826908 57.041467 0.000000 0.000000 0.000000 0.000000 0.000000 0.000000 45.262206 -26.289024 -18.096541 180.000000 25.430214 -18.096541 35.497192 -1.848154 -25.329838 144.502808 21.966577 16.074804 22.522929 -6.881418 25.329838 18.000000 0.238700 2.408768
1275.921364 516.836239 52.031528 0.000000 0.000000 0.000000 0.000000 0.000000 0.000000 85.186295 -7.443351 -19.645745 -94.813705 -11.450934 -19.645745 52.470689 8.651930 -23.115397 -44.513683 -2.544369 19.122720 50.867598 4.905850 23.115397 -8.717188 0.164298 2.128896
1263.254128 546.875424 40.190969 0.000000 0.000000 0.000000 0.000000 0.000000 0.000000 34.848242 23.822583 -19.960535 -145.151758 40.811867 -19.960535 42.487561 4.816211 -20.536413 -157.415675 -1.768878 21.869059 22.420880 2.263772 20.536413 -15.757912 -0.226377 1.840623
1258.788185 528.263061 53.022599 0.000000 0.000000 0.000000 0.000000 0.000000 0.000000 118.326865 6.316333 -19.021130 -61.673135 22.759600 -19.021130 143.214759 -8.276125 -17.633558 -156.228306 -2.296471 24.270510 28.173554 2.984631 17.633558 -15.182645 -0.298463 1.545085
1231.492081 471.383836 40.082974 0.000000 0.000000 0.000000 0.000000 0.000000 0.000000 -115.049381 40.970357 -16.886559 64.950619 -20.827305 -16.886559 172.843704 9.277321 -14.452610 -157.842300 -2.355158 26.289200 32.851042 3.182301 14.452610 -14.714896 -0.318230 1.243449
1223.928795 435.993515 46.288057 0.000000 0.000000 0.000000 0.000000 0.000000 0.000000 -115.322532 2.840308 -13.690942 64.677468 6.995539 -13.690942 -168.597862 -1.249723 -11.043737 -158.853816 -2.302262 27.893295 31.099266 3.038848 11.043737 -14.890073 -0.303885 0.936907
1223.669701 418.195664 57.503946 0.000000 0.000000 0.000000 0.000000 0.000000 0.000000 -102.084053 -1.867020 -9.635073 77.915947 12.668140 -9.635073 -171.103858 -1.224944 -7.460697 162.056334 1.202651 29.057495 -153.594437 -2.743826 7.460697 2.968481 0.309936 0.626666
1216.486244 414.503002 52.583260 0.000000 0.000000 0.000000 0.000000 0.000000 0.000000 69.261091 17.813772 -4.973798 -110.738909 -9.597962 -4.973798 -158.083722 -2.166035 -3.759997 -173.244581 -0.036222 29.763441 -154.635509 -2.684857 3.759997 2.928763 0.225947 0.313953
1212.090225 434.550980 54.006479 0.000000 0.000000 0.000000 0.000000 0.000000 0.000000 -112.403932 6.471262 0.000000 67.596068 7.332077 0.000000 -157.060799 -3.178148 -0.000000 173.400765 -8.049898 30.000000 -154.473580 -2.300665 0.000000 2.734633 0.283670 0.000000
1214.024734 450.340490 63.987693 0.000000 0.000000 0.000000 0.000000 0.000000 0.000000 -110.634751 2.192906 4.973798 69.365249 -4.265358 4.973798 -137.583343 -0.407440 3.759997 -158.589698 -3.037320 29.763441 20.879446 3.540452 -3.759997 -15.912055 -0.354045 0.313953
1204.271393 440.192921 54.373556 0.000000 0.000000 0.000000 0.000000 0.000000 0.000000 -99.498286 -10.098106 9.635073 80.501714 6.097537 9.635073 -156.696469 -2.361295 7.460697 -178.487725 11.895803 29.057495 -157.318323 -2.928053 -7.460697 2.108583 0.222778 0.626666
965.269558 444.725315 52.197863 0.000000 0.000000 0.000000 0.000000 0.000000 0.000000 40.845461 16.980701 13.690942 180.000000 14.941798 13.690942 28.615377 -7.298580 11.043737 151.384623 10.688228 27.893295 16.305092 -4.712648 -11.043737 18.000000 0.046348 0.936907
1182.456551 475.103824 67.191618 0.000000 0.000000 0.000000 0.000000 0.000000 0.000000 -168.146016 -30.106354 16.886559 11.853984 -82.286422 16.886559 -63.802645 18.786385 14.452610 -61.114510 -1.733947 26.289200 -47.869281 6.541823 -14.452610 -13.834956 7.792422 1.243449
965.446390 444.704404 57.287847 0.000000 0.000000 0.000000 0.000000 0.000000 0.000000 39.578146 41.182030 19.021130 180.000000 -0.167743 19.021130 27.338029 -10.413752 17.633558 152.661971 2.954642 24.270510 15.463180 -0.708532 -17.633558 18.000000 -0.091716 1.545085
965.533915 444.693669 76.388481 0.000000 0.000000 0.000000 0.000000 0.000000 0.000000 38.916706 9.817267 19.960535 180.000000 -9.581074 19.960535 26.716768 8.350220 20.536413 153.283232 -5.543519 21.869059 15.076605 5.462959 -20.536413 18.000000 -0.244675 1.840623
965.620834 444.682749 94.494998 0.000000 0.000000 0.000000 0.000000 0.000000 0.000000 38.241653 -31.994977 19.645745 180.000000 4.548087 19.645745 26.109467 -9.953302 23.115397 153.890533 -11.728267 19.122720 14.712258 1.809695 -23.115397 18.000000 -0.039757 2.128896
965.707136 444.671645 80.190672 0.000000 0.000000 0.000000 0.000000 0.000000 0.000000 37.556504 -20.970056 18.096541 180.000000 5.497059 18.096541 25.517536 -5.951157 25.329838 154.482464 11.225576 16.074804 14.369537 -6.122959 -25.329838 18.000000 -0.576941 2.408768
965.792812 444.660356 83.678681 0.000000 0.000000 0.000000 0.000000 0.000000 0.000000 36.864608 15.657437 15.410265 180.000000 23.656363 15.410265 24.942131 -22.093574 27.144812 155.057869 -16.690559 12.773379 14.047797 3.648922 -27.144812 18.000000 0.425664 2.679134
965.877853 444.648882 82.754785 0.000000 0.000000 0.000000 0.000000 0.000000 0.000000 36.169118 29.783004 11.755705 180.000000 -12.291634 11.755705 24.384173 -1.396665 28.531695 155.615827 7.835511 9.270510 13.746367 -2.805885 -28.531695 18.000000 -0.074866 2.938926
965.962249 444.637226 85.740588 0.000000 0.000000 0.000000 0.000000 0.000000 0.000000 35.472980 2.032795 7.362491 180.000000 7.004106 7.362491 23.844373 4.851834 29.468618 156.155627 4.148984 5.621439 13.464570 -5.832523 -29.468618 18.000000 0.679375 3.187120
966.045991 444.625386 84.292873 0.000000 0.000000 0.000000 0.000000 0.000000 0.000000 34.778913 -22.185424 2.506665 180.000000 6.434254 2.506665 23.323250 2.510128 29.940802 156.676750 2.480684 1.883716 13.201728 -2.097774 -29.940802 18.000000 0.037600 3.422736
966.129071 444.613364 102.455604 0.000000 0.000000 0.000000 0.000000 0.000000 0.000000 34.089406 -25.223756 -2.506665 180.000000 -1.401968 -2.506665 22.821158 6.832899 29.940802 157.178842 5.698598 -1.883716 12.957175 2.194609 -29.940802 18.000000 -0.514889 3.644843
966.211478 444.601159 113.929875 0.000000 0.000000 0.000000 0.000000 0.000000 0.000000 33.406712 29.073671 -7.362491 180.000000 -1.476159 -7.362491 22.338307 7.193048 29.468618 157.661693 -3.352437 -5.621439 12.730264 -5.414304 -29.468618 18.000000 0.512446 3.852566
1171.486244 534.946783 103.185253 0.000000 0.000000 0.000000 0.000000 0.000000 0.000000 70.594720 -3.080458 -11.755705 -109.405280 -0.063419 -11.755705 49.953444 6.951194 28.531695 -151.467583 -4.649695 -9.270510 0.000000 0.000000 0.000000 0.000000 0.000000 0.000000
966.374240 444.576206 134.649221 0.000000 0.000000 0.000000 0.000000 0.000000 0.000000 32.069603 41.692100 -15.410265 180.000000 -4.849856 -15.410265 21.430544 -1.486379 27.144812 158.569456 -3.541074 -12.773379 12.326901 -2.712957 -27.144812 18.000000 0.103032 4.221640
1172.156410 555.047708 132.142417 0.000000 0.000000 0.000000 0.000000 0.000000 0.000000 -121.065102 24.160855 -18.096541 58.934898 -2.578025 -18.096541 -151.641456 -5.439458 25.329838 -177.360623 0.499386 -16.074804 -149.076048 -6.465807 -25.329838 0.000000 0.000000 0.000000
1161.826630 552.360713 128.591218 0.000000 0.000000 0.000000 0.000000 0.000000 0.000000 69.958407 -11.933691 -19.645745 -110.041593 7.314497 -19.645745 -152.437496 -6.038679 23.115397 -158.790607 -1.582326 -19.122720 -150.591725 -6.606130 -23.115397 3.219062 0.762631 4.524135
1165.827255 569.832902 135.659144 0.000000 0.000000 0.000000 0.000000 0.000000 0.000000 25.594208 3.845624 -19.960535 -154.405792 -17.803572 -19.960535 11.723883 7.831531 20.536413 -161.543160 -6.537878 -21.869059 7.769582 3.466675 -20.536413 -17.248199 -0.073923 4.648882
1165.555573 565.067046 142.314183 0.000000 0.000000 0.000000 0.000000 0.000000 0.000000 43.355707 9.423881 -19.021130 -136.644293 -5.975566 -19.021130 15.984329 2.764688 17.633558 -140.773833 3.320875 -24.270510 13.679449 -4.853151 -17.633558 -16.392157 0.071683 4.755283
1290.255775 608.533316 154.342707 0.000000 0.000000 0.000000 0.000000 0.000000 0.000000 -153.952071 7.441981 -16.886559 26.047929 -2.672243 -16.886559 -152.683807 -5.421949 14.452610 4.794196 1.135862 -26.289200 -154.287190 -5.425513 -14.452610 2.418080 0.513128 4.842916
1180.398903 551.817470 141.130100 0.000000 0.000000 0.000000 0.000000 0.000000 0.000000 51.640104 -5.009637 -13.690942 -128.359896 -15.239863 -13.690942 14.419400 -1.900150 11.043737 -33.521359 -11.732465 -27.893295 -34.277510 7.736354 -11.043737 5.235387 -0.821056 4.911436
1162.708626 619.419501 138.110764 0.000000 0.000000 0.000000 0.000000 0.000000 0.000000 -88.968325 -17.639112 -9.635073 91.031675 17.431513 -9.635073 -52.690088 -2.824820 7.460697 25.015222 -2.509756 -29.057495 -72.561734 3.717545 -7.460697 8.557489 0.355147 4.960574
1110.899391 602.919216 159.999162 0.000000 0.000000 0.000000 0.000000 0.000000 0.000000 -86.972237 -6.689358 -4.973798 93.027763 1.269465 -4.973798 -39.551144 0.294846 3.759997 34.838085 3.498169 -29.763441 -44.185810 2.689989 -3.759997 10.000609 -0.157254 4.990134
1150.187302 553.686991 134.398918 0.000000 0.000000 0.000000 0.000000 0.000000 0.000000 -116.065142 1.414227 -0.000000 63.934858 1.977237 -0.000000 -151.059314 -6.836584 0.000000 -0.492058 -1.249670 -30.000000 -14.044098 -0.828836 -0.000000 1.929760 1.197998 5.000000
967.144727 444.440682 141.268632 0.000000 0.000000 0.000000 0.000000 0.000000 0.000000 26.270296 -16.781144 4.973798 180.000000 3.608765 4.973798 17.996647 -1.134550 -3.759997 162.003353 10.492105 -29.763441 11.189167 -6.699643 3.759997 18.000000 0.492495 4.990134
1213.452644 620.002785 150.649929 0.000000 0.000000 0.000000 0.000000 0.000000 0.000000 140.390379 25.593394 9.635073 -39.609621 15.715123 9.635073 77.724607 -12.201994 -7.460697 -153.982965 -6.922916 -29.057495 24.142749 5.550990 7.460697 -0.833727 1.271219 4.960574
1124.373779 618.464527 148.325700 0.000000 0.000000 0.000000 0.000000 0.000000 0.000000 99.329635 30.048142 13.690942 -80.670365 -24.138080 13.690942 85.960927 -0.723063 -11.043737 -150.875293 -7.524919 -27.893295 31.644098 5.746841 11.043737 -14.835590 -0.574684 4.911436
967.360971 444.396582 141.728381 0.000000 0.000000 0.000000 0.000000 0.000000 0.000000 24.874716 -12.130015 16.886559 180.000000 0.983240 16.886559 17.291102 5.331514 -14.452610 162.708898 -7.319001 -26.289200 11.098846 5.014517 14.452610 18.000000 -0.339835 4.842916
1107.875175 542.453964 151.173870 0.000000 0.000000 0.000000 0.000000 0.000000 0.000000 -128.741314 2.274338 19.021130 51.258686 -0.139491 19.021130 -177.225595 4.508353 -17.633558 19.954750 2.430613 -24.270510 162.677362 0.533640 17.633558 -1.443098 0.027313 4.755283
1119.652290 522.766346 160.120806 0.000000 0.000000 0.000000 0.000000 0.000000 0.000000 -99.017754 -2.184808 19.960535 80.982246 -14.728163 19.960535 -150.289603 -6.435014 -20.536413 -152.613833 -7.408455 -21.869059 0.000000 0.000000 0.000000 0.000000 0.000000 0.000000
1132.908783 538.229613 150.068762 0.000000 0.000000 0.000000 0.000000 0.000000 0.000000 -127.874185 -1.414673 19.645745 52.125815 -3.127405 19.645745 -165.450188 0.661634 -23.115397 -152.521515 -7.512605 -19.122720 40.606225 9.416143 23.115397 -13.939378 -0.941614 4.524135
1146.969337 541.828065 158.398620 0.000000 0.000000 0.000000 0.000000 0.000000 0.000000 -113.631604 -7.308159 18.096541 66.368396 6.391549 18.096541 -159.067475 -6.162312 -25.329838 113.981862 0.217739 -16.074804 -145.449815 -6.745386 25.329838 0.000000 0.000000 0.000000
1165.252304 561.329677 147.068536 0.000000 0.000000 0.000000 0.000000 0.000000 0.000000 -112.861399 1.535925 15.410265 67.138601 6.993358 15.410265 -159.396543 -2.879835 -27.144812 -151.967552 -6.805002 -12.773379 38.422588 8.809325 27.144812 -14.157741 -0.880932 4.221640
1174.726181 592.839689 148.894744 0.000000 0.000000 0.000000 0.000000 0.000000 0.000000 -110.369899 3.579292 11.755705 69.630101 -2.439494 11.755705 -148.108768 2.469538 -28.531695 -151.515612 -6.908444 -9.270510 34.277732 8.753556 28.531695 -14.572227 -0.875356 4.045085
1167.352524 605.194867 131.033958 0.000000 0.000000 0.000000 0.000000 0.000000 0.000000 -113.828445 0.205676 7.362491 66.171555 8.195816 7.362491 -131.688453 -2.879738 -29.468618 -151.045756 -6.442634 -5.621439 27.200835 8.651672 29.468618 -15.279916 -0.865167 3.852566
1139.678879 602.981014 138.130148 0.000000 0.000000 0.000000 0.000000 0.000000 0.000000 -97.599684 -29.529874 2.506665 82.400316 -0.927519 2.506665 -113.965806 10.061549 -29.940802 -121.058781 4.639091 -1.883716 -118.492407 -6.026326 29.940802 10.137620 8.397957 3.644843
1165.830002 580.020189 132.596784 0.000000 0.000000 0.000000 0.000000 0.000000 0.000000 -28.085052 -38.530686 -2.506665 151.914948 25.942124 -2.506665 -150.589103 -5.963329 -29.940802 -172.678414 6.949829 1.883716 -149.717924 -6.395365 29.940802 0.000000 0.000000 0.000000
1184.501953 619.872494 123.980221 0.000000 0.000000 0.000000 0.000000 0.000000 0.000000 -113.790307 0.476948 -7.362491 66.209693 13.683272 -7.362491 -59.272274 2.721492 -29.468618 29.476823 1.706883 5.621439 -88.148483 -0.201109 29.468618 7.414604 0.428315 3.187120
968.090170 444.221640 116.361158 0.000000 0.000000 0.000000 0.000000 0.000000 0.000000 21.092887 -18.192856 -11.755705 180.000000 5.163222 -11.755705 15.757771 11.602962 -28.531695 164.242229 4.057545 9.270510 11.678908 -3.767116 28.531695 18.000000 0.348990 2.938926
968.151278 444.204723 85.663692 0.000000 0.000000 0.000000 0.000000 0.000000 0.000000 20.844337 15.803340 -15.410265 180.000000 -3.601308 -15.410265 15.691895 -0.107595 -27.144812 164.308105 -1.801441 12.773379 11.804629 -2.298191 27.144812 18.000000 0.288331 2.679134
968.211492 444.187640 112.841891 0.000000 0.000000 0.000000 0.000000 0.000000 0.000000 20.610265 -28.112331 -18.096541 180.000000 6.791390 -18.096541 15.637361 7.348131 -25.329838 164.362639 9.650678 16.074804 11.943263 -6.386595 25.329838 18.000000 0.169193 2.408768
968.270806 444.170392 96.700432 0.000000 0.000000 0.000000 0.000000 0.000000 0.000000 20.390366 11.272498 -19.645745 180.000000 8.316291 -19.645745 15.594026 -5.606017 -23.115397 164.405974 -0.734101 19.122720 12.095062 -3.554012 23.115397 18.000000 0.085546 2.128896
968.329212 444.152979 111.422619 0.000000 0.000000 0.000000 0.000000 0.000000 0.000000 20.184343 -4.447959 -19.960535 180.000000 0.775735 -19.960535 15.561766 -1.901447 -20.536413 164.438234 4.410829 21.869059 12.260289 -5.976342 20.536413 18.000000 0.343749 1.840623
968.386706 444.135403 88.581958 0.000000 0.000000 0.000000 0.000000 0.000000 0.000000 19.991916 13.105607 -19.021130 180.000000 2.038395 -19.021130 15.540476 2.720416 -17.633558 164.459524 1.892675 24.270510 12.439222 4.552861 17.633558 18.000000 -0.653101 1.545085
968.443279 444.117663 96.357782 0.000000 0.000000 0.000000 0.000000 0.000000 0.000000 19.812814 0.785516 -16.886559 180.000000 -2.310421 -16.886559 15.530069 10.342882 -14.452610 164.469931 -2.522766 26.289200 12.632146 6.417650 14.452610 18.000000 -0.040468 1.243449
968.498927 444.099761 90.963302 0.000000 0.000000 0.000000 0.000000 0.000000 0.000000 19.646785 -13.779991 -13.690942 180.000000 3.426212 -13.690942 15.530474 2.993292 -11.043737 164.469526 4.414925 27.893295 12.839349 -1.475089 11.043737 18.000000 -0.717107 0.936907
968.553643 444.081696 89.602615 0.000000 0.000000 0.000000 0.000000 0.000000 0.000000 19.493591 -1.590794 -9.635073 180.000000 4.523047 -9.635073 15.541640 6.824882 -7.460697 164.458360 1.271966 29.057495 13.061119 5.625599 7.460697 18.000000 -0.412621 0.626666
1051.772690 653.004448 78.166360 0.000000 0.000000 0.000000 0.000000 0.000000 0.000000 -79.007834 3.943868 -4.973798 100.992166 6.056857 -4.973798 -126.715299 -3.215744 -3.759997 -149.991181 -4.122437 29.763441 31.772279 6.012190 3.759997 -14.822772 -0.601219 0.313953
1061.669197 624.716241 87.941161 0.000000 0.000000 0.000000 0.000000 0.000000 0.000000 -94.718359 -15.736940 0.000000 85.281641 14.535538 0.000000 -144.150484 -5.141521 -0.000000 60.155085 -0.653642 30.000000 -152.711462 0.342926 0.000000 1.815393 0.092761 0.000000
1072.053337 571.032879 50.445191 0.000000 0.000000 0.000000 0.000000 0.000000 0.000000 71.424080 14.088901 4.973798 -108.575920 -11.188736 4.973798 -149.042361 -3.842273 3.759997 -149.913636 -6.051717 29.763441 -145.792107 -3.965949 -3.759997 3.947623 0.488881 0.313953
1070.057373 572.884376 66.149850 0.000000 0.000000 0.000000 0.000000 0.000000 0.000000 -80.850201 -9.038752 9.635073 99.149799 1.677830 9.635073 -147.567525 -3.139523 7.460697 -164.443014 -0.436419 29.057495 -145.447997 -3.622421 -7.460697 4.032371 0.397005 0.626666
968.813035 443.988972 49.027923 0.000000 0.000000 0.000000 0.000000 0.000000 0.000000 18.912944 0.869640 13.690942 180.000000 -0.346522 13.690942 15.758200 3.185713 11.043737 164.241800 5.560351 27.893295 14.397395 -0.763039 -11.043737 18.000000 0.424644 0.936907
968.862036 443.969952 62.599849 0.000000 0.000000 0.000000 0.000000 0.000000 0.000000 18.832684 0.835880 16.886559 180.000000 -5.728168 16.886559 15.833735 10.153418 14.452610 164.166265 11.483912 26.289200 14.711463 -16.248135 -14.452610 18.000000 0.747181 1.243449
968.910065 443.950775 35.130546 0.000000 0.000000 0.000000 0.000000 0.000000 0.000000 18.764066 10.039857 19.021130 180.000000 -10.046571 19.021130 15.920102 13.098299 17.633558 164.079898 6.112082 24.270510 15.041323 4.774851 -17.633558 18.000000 -1.510851 1.545085
968.957118 443.931442 60.121575 0.000000 0.000000 0.000000 0.000000 0.000000 0.000000 18.706990 -4.103354 19.960535 180.000000 2.145378 19.960535 16.017366 3.486531 20.536413 163.982634 5.061585 21.869059 15.386894 -1.367885 -20.536413 18.000000 -0.791359 1.840623
969.003188 443.911954 63.644739 0.000000 0.000000 0.000000 0.000000 0.000000 0.000000 18.661377 -9.103370 19.645745 180.000000 3.058506 19.645745 16.125602 -0.440662 23.115397 163.874398 1.101788 19.122720 15.747980 5.149142 -23.115397 18.000000 0.027414 2.128896
969.048271 443.892312 37.443495 0.000000 0.000000 0.000000 0.000000 0.000000 0.000000 18.627165 -20.224253 18.096541 180.000000 5.083395 18.096541 16.244896 5.316978 25.329838 163.755104 7.177089 16.074804 16.124252 -0.741032 -25.329838 18.000000 -0.318149 2.408768
969.092361 443.872515 47.051804 0.000000 0.000000 0.000000 0.000000 0.000000 0.000000 18.604312 9.587732 15.410265 180.000000 5.398785 15.410265 16.375340 -4.777929 27.144812 163.624660 8.553220 12.773379 16.515224 -6.744508 -27.144812 18.000000 -0.390331 2.679134
1055.186234 577.357593 49.707830 0.000000 0.000000 0.000000 0.000000 0.000000 0.000000 85.510211 -10.258187 11.755705 -94.489789 -5.773866 11.755705 37.103410 9.100981 28.531695 -148.111343 -1.693508 9.270510 24.294182 2.738750 -28.531695 -8.601915 -0.235158 2.938926
1122.856522 566.714029 44.013855 0.000000 0.000000 0.000000 0.000000 0.000000 0.000000 96.216240 -6.680582 7.362491 -83.783760 2.170713 7.362491 46.189625 -1.322201 29.468618 -149.396962 -2.105523 5.621439 24.670091 1.678022 -29.468618 -7.107716 -0.248050 3.187120
969.218632 443.812213 50.685198 0.000000 0.000000 0.000000 0.000000 0.000000 0.000000 18.603763 -18.514076 2.506665 180.000000 9.759054 2.506665 16.834613 -4.545768 29.940802 163.165387 4.064646 1.883716 17.768624 10.379883 -29.940802 18.000000 -1.253341 3.422736
1112.757797 605.798106 40.981720 0.000000 0.000000 0.000000 0.000000 0.000000 0.000000 110.914625 4.284529 -2.506665 -69.085375 -13.358707 -2.506665 67.769469 4.382125 29.940802 -149.822316 -2.914005 -1.883716 29.049901 2.206699 -29.940802 -3.625079 0.442688 3.644843
1086.733246 592.557156 40.078418 0.000000 0.000000 0.000000 0.000000 0.000000 0.000000 -80.132323 -62.604199 -7.362491 99.867677 57.365988 -7.362491 36.201564 -2.092539 29.468618 -13.679556 11.742933 -5.621439 78.049842 -10.161054 -29.468618 -5.127460 -0.131063 3.852566
1081.109390 570.394492 68.293946 0.000000 0.000000 0.000000 0.000000 0.000000 0.000000 -175.864613 -24.944618 -11.755705 4.135387 6.373766 -11.755705 134.713876 -3.353950 28.531695 -10.005873 1.690252 -9.270510 135.737755 2.853399 -28.531695 -3.389365 -0.174378 4.045085
1089.776802 536.594539 63.834385 0.000000 0.000000 0.000000 0.000000 0.000000 0.000000 -139.033903 -15.698360 -15.410265 40.966097 16.274031 -15.410265 161.695972 0.258943 27.144812 3.114398 2.876763 -12.773379 148.805610 0.922322 -27.144812 -2.611636 0.036197 4.221640
1114.282036 523.965647 48.315647 0.000000 0.000000 0.000000 0.000000 0.000000 0.000000 -156.073983 -1.378291 -18.096541 23.926017 10.993474 -18.096541 174.825807 -1.509693 25.329838 5.093343 -2.014998 -16.074804 161.266817 2.171211 -25.329838 -1.814366 -0.108761 4.381533
1122.145157 503.425248 41.471107 0.000000 0.000000 0.000000 0.000000 0.000000 0.000000 -144.538174 -8.466917 -19.645745 35.461826 22.418123 -19.645745 174.215003 -5.199728 23.115397 -151.750905 -2.834917 -19.122720 43.887064 3.627313 -23.115397 -13.611294 -0.362731 4.524135
1134.158249 484.688419 79.816524 0.000000 0.000000 0.000000 0.000000 0.000000 0.000000 -142.311443 -9.726386 -19.960535 37.688557 0.085219 -19.960535 -174.407776 1.693939 20.536413 14.121014 2.234803 -21.869059 176.737053 -0.330562 -20.536413 -0.386439 0.061997 4.648882
1156.756668 500.025387 78.418317 0.000000 0.000000 0.000000 0.000000 0.000000 0.000000 -140.140767 -13.446381 -19.021130 39.859233 17.847848 -19.021130 -176.866589 -3.431885 17.633558 -153.177991 -3.263044 -24.270510 40.555680 4.480861 -17.633558 -13.944432 -0.448086 4.755283
1163.818588 490.292573 88.913070 0.000000 0.000000 0.000000 0.000000 0.000000 0.000000 -126.918075 5.484574 -16.886559 53.081925 2.728796 -16.886559 -163.374411 -0.651081 14.452610 -153.952175 -4.047529 -26.289200 36.914642 5.204087 -14.452610 0.798233 -0.012652 4.842916
1176.523705 490.346003 107.187155 0.000000 0.000000 0.000000 0.000000 0.000000 0.000000 -130.072590 -5.874132 -13.690942 49.927410 1.070437 -13.690942 -150.224616 1.413517 11.043737 24.749952 2.877927 -27.893295 -162.219632 0.436207 -11.043737 1.550269 -0.189041 4.911436
1165.045052 489.521159 92.253332 0.000000 0.000000 0.000000 0.000000 0.000000 0.000000 -134.421293 -6.879772 -9.635073 45.578707 12.101115 -9.635073 -138.114962 -2.403273 7.460697 20.347125 0.690585 -29.057495 -149.675125 0.730563 -7.460697 1.919618 -0.248799 4.960574
1186.003189 485.341580 79.207691 0.000000 0.000000 0.000000 0.000000 0.000000 0.000000 151.263424 -81.318538 -4.973798 -28.736576 78.053744 -4.973798 -155.571724 -4.127482 3.759997 -114.944239 20.263295 -29.763441 -157.446860 -4.840007 -3.759997 2.096391 0.395728 4.990134
1190.285912 497.609435 111.255583 0.000000 0.000000 0.000000 0.000000 0.000000 0.000000 -104.331435 -13.297073 -0.000000 75.668565 11.959376 -0.000000 -153.934692 -4.905007 0.000000 -67.465008 -1.683350 -30.000000 -71.629168 -1.788099 -0.000000 -13.965204 8.598491 5.000000
846.875610 502.341399 110.230494 0.000000 0.000000 0.000000 0.000000 0.000000 0.000000 -153.358185 -4.075432 4.973798 26.641815 -27.551509 4.973798 -147.628169 -4.678424 -3.759997 -147.401289 -6.036948 -29.763441 0.000000 0.000000 0.000000 0.000000 0.000000 0.000000
969.711343 443.490827 107.654485 0.000000 0.000000 0.000000 0.000000 0.000000 0.000000 20.204512 -12.370815 9.635073 180.000000 4.480100 9.635073 20.733157 -6.204327 -7.460697 159.266843 3.496325 -29.057495 24.065833 -1.275500 7.460697 18.000000 -0.470383 4.960574
969.735789 443.468267 97.480468 0.000000 0.000000 0.000000 0.000000 0.000000 0.000000 20.415894 -15.864944 13.690942 180.000000 2.352811 13.690942 21.087741 8.651795 -11.043737 158.912259 1.537071 -27.893295 24.320336 -0.617870 11.043737 18.000000 0.917652 4.911436
969.759168 443.445569 126.263622 0.000000 0.000000 0.000000 0.000000 0.000000 0.000000 20.642061 22.970138 16.886559 180.000000 -6.243943 16.886559 21.453029 -0.195408 -14.452610 158.546971 -6.451984 -26.289200 24.533304 -1.045679 14.452610 18.000000 1.167792 4.842916
585.252171 514.469179 104.773098 0.000000 0.000000 0.000000 0.000000 0.000000 0.000000 74.723181 -67.370293 19.021130 -105.276819 37.329906 19.021130 119.807175 28.010344 -17.633558 165.825978 29.599242 -24.270510 138.012220 -13.613298 17.633558 -12.357653 1.134028 4.755283
624.843979 517.601860 114.685490 0.000000 0.000000 0.000000 0.000000 0.000000 0.000000 103.202449 20.135174 19.960535 -76.797551 -1.575508 19.960535 114.381580 2.395011 -20.536413 -53.015473 -75.171142 -21.869059 145.467160 1.380704 20.536413 -4.173333 0.475145 4.648882
969.822873 443.376664 118.024038 0.000000 0.000000 0.000000 0.000000 0.000000 0.000000 21.413420 -12.327294 19.645745 180.000000 9.588213 19.645745 22.607712 -23.559833 -23.115397 157.392288 -0.113678 -19.122720 24.899813 -2.993331 23.115397 18.000000 0.073307 4.524135
969.841956 443.353428 149.823700 0.000000 0.000000 0.000000 0.000000 0.000000 0.000000 21.702987 -25.464085 18.096541 180.000000 -2.552265 18.096541 23.009909 -6.575964 -25.329838 156.990091 0.544464 -16.074804 24.926562 5.437590 25.329838 18.000000 -1.253546 4.381533
969.859960 443.330059 132.889408 0.000000 0.000000 0.000000 0.000000 0.000000 0.000000 22.009579 -12.656625 15.410265 180.000000 4.241704 15.410265 23.419334 -5.322820 -27.144812 156.580666 5.393834 -12.773379 24.904993 3.227571 27.144812 18.000000 0.197979 4.221640
594.905148 538.048757 139.434373 0.000000 0.000000 0.000000 0.000000 0.000000 0.000000 -57.080480 24.684034 11.755705 122.919520 -1.832151 11.755705 -12.750556 0.173923 -28.531695 149.841027 -7.949983 -9.270510 -8.274090 3.180622 28.531695 17.596979 0.092207 4.045085
969.892723 443.282929 123.340875 0.000000 0.000000 0.000000 0.000000 0.000000 0.000000 22.675903 -23.636194 7.362491 180.000000 12.321123 7.362491 24.255612 2.279562 -29.468618 155.744388 13.603561 -5.621439 24.720303 -0.647478 29.468618 18.000000 -0.371446 3.852566
1257.001877 499.708382 149.769307 0.000000 0.000000 0.000000 0.000000 0.000000 0.000000 52.818511 -0.406730 2.506665 -127.181489 -5.300646 2.506665 25.369497 -0.451451 -29.940802 -143.914951 0.738319 -1.883716 14.556766 -4.467655 29.940802 -16.686776 0.300011 3.644843
1279.050064 493.773898 137.809619 0.000000 0.000000 0.000000 0.000000 0.000000 0.000000 56.685213 -7.940876 -2.506665 -123.314787 1.651886 -2.506665 24.065452 0.499772 -29.940802 -146.540317 4.832867 1.883716 13.097461 -3.446877 29.940802 -16.716891 0.152508 3.422736
1295.108986 477.099677 139.229711 0.000000 0.000000 0.000000 0.000000 0.000000 0.000000 65.723361 -9.193991 -7.362491 -114.276639 13.125103 -7.362491 23.725299 -4.507477 -29.468618 -147.984281 0.644028 5.621439 13.187557 1.110324 29.468618 -16.751134 0.013286 3.187120
1289.065018 496.763316 148.556272 0.000000 0.000000 0.000000 0.000000 0.000000 0.000000 61.662232 -1.663760 -11.755705 -118.337768 1.342684 -11.755705 31.397757 -3.977146 -28.531695 -148.047797 -0.377789 9.270510 12.491083 0.839946 28.531695 -16.898368 -0.047950 2.938926
1285.337105 480.691112 162.190627 0.000000 0.000000 0.000000 0.000000 0.000000 0.000000 58.021980 3.354307 -15.410265 -121.978020 -2.666651 -15.410265 31.705930 -2.428773 -27.144812 -157.028684 -0.627800 12.773379 11.107306 -0.593069 27.144812 -17.140016 -0.176075 2.679134
1276.453171 465.093691 152.508589 0.000000 0.000000 0.000000 0.000000 0.000000 0.000000 70.157145 -5.488282 -18.096541 -109.842855 5.666529 -18.096541 40.303764 -2.790493 -25.329838 -145.293609 -0.391047 16.074804 10.431204 0.764150 25.329838 -17.100572 -0.230763 2.408768
1253.658714 472.768564 148.736908 0.000000 0.000000 0.000000 0.000000 0.000000 0.000000 65.087926 24.521115 -19.645745 -114.912074 -9.917879 -19.645745 -157.680356 -6.909354 -23.115397 -137.727082 -1.238814 19.122720 -153.053596 0.144989 23.115397 -16.054219 -0.868790 2.128896
1366.101608 507.691247 144.921529 0.000000 0.000000 0.000000 0.000000 0.000000 0.000000 108.715100 25.187355 -19.960535 -71.284900 -48.671701 -19.960535 156.661132 25.741378 -20.536413 -158.224303 -6.610406 21.869059 0.000000 0.000000 0.000000 0.000000 0.000000 0.000000
969.986295 443.064535 173.888237 0.000000 0.000000 0.000000 0.000000 0.000000 0.000000 26.662144 -34.137947 -19.021130 180.000000 10.235596 -19.021130 28.015351 -5.300102 -17.633558 151.984649 23.631719 24.270510 22.068935 -12.350661 17.633558 18.000000 -0.035083 1.545085
1282.107124 481.511257 142.704984 0.000000 0.000000 0.000000 0.000000 0.000000 0.000000 80.650781 -15.153477 -16.886559 -99.349219 4.346810 -16.886559 1.511604 0.217698 -14.452610 -32.896908 -1.693679 26.289200 -7.727072 0.948242 14.452610 13.531851 6.243825 1.243449
1282.921486 484.777769 143.618921 0.000000 0.000000 0.000000 0.000000 0.000000 0.000000 -81.737646 -44.847255 -13.690942 98.262354 19.375622 -13.690942 -23.867101 3.088125 -11.043737 12.655668 4.701900 27.893295 -29.454911 0.400429 11.043737 9.861248 -1.294215 0.936907
1290.933037 513.180238 147.915751 0.000000 0.000000 0.000000 0.000000 0.000000 0.000000 -91.387864 -8.267480 -9.635073 88.612136 0.485818 -9.635073 -41.685392 5.043126 -7.460697 -161.156957 -5.977865 29.057495 15.157863 5.148659 7.460697 10.543436 0.813167 0.626666
969.999452 442.964284 150.885490 0.000000 0.000000 0.000000 0.000000 0.000000 0.000000 29.025427 2.543447 -4.973798 180.000000 -1.092483 -4.973798 29.437993 -2.629754 -3.759997 150.562007 5.722340 29.763441 20.404746 -1.339269 3.759997 18.000000 -0.562744 0.313953
970.000000 442.938926 143.248986 0.000000 0.000000 0.000000 0.000000 0.000000 0.000000 29.678605 -5.021638 0.000000 180.000000 0.387943 0.000000 29.744881 -8.925961 -0.000000 150.255119 -5.139881 30.000000 19.983107 -3.672552 0.000000 18.000000 0.894348 0.000000
1354.522934 467.411410 116.589595 0.000000 0.000000 0.000000 0.000000 0.000000 0.000000 150.622570 -5.731144 4.973798 -29.377430 16.329372 4.973798 140.176400 -2.171605 3.759997 -12.221629 4.828888 29.763441 132.794256 -5.120152 -3.759997 -2.626015 0.907625 0.313953
969.997807 442.887864 109.252717 0.000000 0.000000 0.000000 0.000000 0.000000 0.000000 31.061399 -5.237699 9.635073 180.000000 18.640552 9.635073 30.285790 -7.583444 7.460697 149.714210 7.736082 29.057495 19.151579 -1.281381 -7.460697 18.000000 0.751414 0.626666
1246.736984 514.278152 110.015570 0.000000 0.000000 0.000000 0.000000 0.000000 0.000000 143.557092 -3.873337 13.690942 -36.442908 13.609708 13.690942 133.761037 0.873022 11.043737 -156.950665 -5.324203 27.893295 0.000000 0.000000 0.000000 1.928484 0.419653 0.936907
1245.221100 458.637464 125.643864 0.000000 0.000000 0.000000 0.000000 0.000000 0.000000 160.701064 14.434504 16.886559 -19.298936 -10.022960 16.886559 140.193827 -9.152981 14.452610 -157.554825 -5.773310 26.289200 29.500467 5.000446 -14.452610 -15.049953 -0.500045 1.243449
1257.365570 418.514181 99.998787 0.000000 0.000000 0.000000 0.000000 0.000000 0.000000 -143.710676 2.242627 19.021130 36.289324 -2.032385 19.021130 163.220413 1.495748 17.633558 11.688054 -1.349632 24.270510 152.038385 1.199317 -17.633558 -2.339948 -0.122301 1.545085
1275.099564 408.163741 107.159524 0.000000 0.000000 0.000000 0.000000 0.000000 0.000000 -132.929531 -11.281812 19.960535 47.070469 1.138066 19.960535 173.491912 4.870002 20.536413 -160.709681 -4.533382 21.869059 33.138793 5.538928 -20.536413 -14.686121 -0.553893 1.840623
1290.611115 384.880857 110.373234 0.000000 0.000000 0.000000 0.000000 0.000000 0.000000 -132.705235 -3.505107 19.645745 47.294765 0.794204 19.645745 -173.778854 2.984187 23.115397 20.496835 1.918324 19.122720 -161.220290 -3.833896 -23.115397 1.723235 0.338296 2.128896
1302.817154 380.305352 99.339616 0.000000 0.000000 0.000000 0.000000 0.000000 0.000000 -131.493915 -0.385196 18.096541 48.506085 8.296496 18.096541 -165.393697 -3.320134 25.329838 23.154815 1.723912 16.074804 -178.200316 -2.430374 -25.329838 0.138141 0.114511 2.408768
1304.997711 379.563582 84.163203 0.000000 0.000000 0.000000 0.000000 0.000000 0.000000 -126.727972 -4.976581 15.410265 53.272028 7.332013 15.410265 -160.219593 -2.180117 27.144812 28.448880 -0.847746 12.773379 -174.368770 2.245088 -27.144812 0.079526 -0.149597 2.679134
1311.668472 386.890390 89.469607 0.000000 0.000000 0.000000 0.000000 0.000000 0.000000 -122.308728 1.376413 11.755705 57.691272 -6.322776 11.755705 -158.801130 1.442120 28.531695 150.942637 3.907451 9.270510 -154.878332 -5.067883 -28.531695 2.695409 0.509917 2.938926
1305.131836 395.180186 91.410006 0.000000 0.000000 0.000000 0.000000 0.000000 0.000000 -125.112810 7.817717 7.362491 54.887190 7.323515 7.362491 -146.487292 -1.545922 29.468618 -175.167369 -0.942447 5.621439 -159.224034 -3.920846 -29.468618 1.782042 0.546852 3.187120
1296.320457 392.734526 78.461940 0.000000 0.000000 0.000000 0.000000 0.000000 0.000000 -131.035750 2.405553 2.506665 48.964250 -1.793228 2.506665 -128.969563 0.317937 29.940802 38.856147 -4.338761 1.883716 -134.776850 -0.311998 -29.940802 3.458429 0.117626 3.422736
1306.963577 386.612041 68.033892 0.000000 0.000000 0.000000 0.000000 0.000000 0.000000 -124.469622 -1.757641 -2.506665 55.530378 -11.437708 -2.506665 -109.994856 1.959795 29.940802 37.691309 -1.416347 -1.883716 -118.274788 -1.377496 -29.940802 5.098336 0.175563 3.644843
969.892723 442.572198 50.725976 0.000000 0.000000 0.000000 0.000000 0.000000 0.000000 41.287575 -23.009399 -7.362491 180.000000 -0.075232 -7.362491 30.974696 5.472711 29.468618 149.025304 -2.317652 -5.621439 15.072869 1.217514 -29.468618 18.000000 0.279751 3.852566
969.876883 442.545207 65.764468 0.000000 0.000000 0.000000 0.000000 0.000000 0.000000 42.241956 -1.104942 -11.755705 180.000000 -5.039731 -11.755705 30.826133 0.694365 28.531695 149.173867 -9.539322 -9.270510 14.823070 0.718739 -28.531695 18.000000 0.621263 4.045085
969.859960 442.518116 61.509292 0.000000 0.000000 0.000000 0.000000 0.000000 0.000000 43.199779 12.805109 -15.410265 180.000000 14.335778 -15.410265 30.649504 -13.233299 27.144812 149.350496 17.570942 -12.773379 14.587557 -6.857885 -27.144812 18.000000 0.043121 4.221640
969.841956 442.490926 47.479247 0.000000 0.000000 0.000000 0.000000 0.000000 0.000000 44.157210 18.867006 -18.096541 180.000000 7.629749 -18.096541 30.446417 0.114128 25.329838 149.553583 1.751875 -16.074804 14.366154 -0.455763 -25.329838 18.000000 0.037861 4.381533
969.822873 442.463637 41.727081 0.000000 0.000000 0.000000 0.000000 0.000000 0.000000 45.110117 -16.134544 -19.645745 180.000000 -4.766151 -19.645745 30.218633 -8.331480 23.115397 149.781367 -1.395153 -19.122720 14.158653 -1.012687 -23.115397 18.000000 0.245591 4.524135
969.802712 442.436251 59.112812 0.000000 0.000000 0.000000 0.000000 0.000000 0.000000 46.054109 17.831720 -19.960535 180.000000 4.400564 -19.960535 29.968037 5.828028 20.536413 150.031963 -0.740181 -21.869059 13.964823 -0.206139 -20.536413 18.000000 0.235603 4.648882
1187.040939 541.658249 56.263532 0.000000 0.000000 0.000000 0.000000 0.000000 0.000000 82.806623 -14.191206 -19.021130 -97.193377 -3.107555 -19.021130 45.395981 8.648613 17.633558 -156.144455 -2.636099 -24.270510 0.000000 0.000000 0.000000 0.000000 0.000000 0.000000
1182.242889 522.024286 45.858161 0.000000 0.000000 0.000000 0.000000 0.000000 0.000000 -105.721938 -14.041418 -16.886559 74.278062 -13.556418 -16.886559 -155.708006 -1.767544 14.452610 -157.302521 -2.309400 -26.289200 0.000000 0.000000 0.000000 2.684983 0.123682 4.842916
1180.914459 527.065626 55.472464 0.000000 0.000000 0.000000 0.000000 0.000000 0.000000 88.055617 -8.070401 -13.690942 -91.944383 4.056664 -13.690942 -158.862018 -2.516443 11.043737 -151.747289 -1.818065 -27.893295 0.000000 0.000000 0.000000 0.000000 0.000000 0.000000
1236.800194 541.387432 51.379921 0.000000 0.000000 0.000000 0.000000 0.000000 0.000000 -85.588400 -5.441062 -9.635073 94.411600 14.055321 -9.635073 -159.297106 -4.628982 7.460697 -157.915391 -2.018242 -29.057495 26.607362 2.119569 -7.460697 14.926890 -0.454259 4.960574
1161.066513 575.006626 59.265894 0.000000 0.000000 0.000000 0.000000 0.000000 0.000000 -81.021168 16.641555 -4.973798 98.978832 -3.350388 -4.973798 -102.851701 7.688059 3.759997 -157.041007 -2.847153 -29.763441 21.429890 1.670752 -3.759997 10.859432 0.653830 4.990134
1255.636253 512.645942 50.879500 0.000000 0.000000 0.000000 0.000000 0.000000 0.000000 77.832564 -1.609922 -0.000000 -102.167436 3.337700 -0.000000 -158.264834 -2.983082 0.000000 -130.745502 1.088733 -30.000000 -157.699225 -3.148195 -0.000000 0.000000 0.000000 0.000000
1265.118484 521.473864 59.954172 0.000000 0.000000 0.000000 0.000000 0.000000 0.000000 64.078276 -7.348111 4.973798 -115.921724 3.138482 4.973798 41.397952 3.381723 -3.759997 -139.329851 5.515758 -29.763441 20.223252 -4.036085 3.759997 -16.047574 0.180405 4.990134
1228.099480 522.138258 53.217979 0.000000 0.000000 0.000000 0.000000 0.000000 0.000000 71.050901 5.224952 9.635073 -108.949099 -2.872379 9.635073 150.099970 4.445759 -7.460697 -139.894702 2.914934 -29.057495 -156.275691 -4.076479 7.460697 0.000000 0.000000 0.000000
1240.357246 528.695873 42.639270 0.000000 0.000000 0.000000 0.000000 0.000000 0.000000 65.413351 -20.870139 13.690942 -114.586649 2.462361 13.690942 147.242328 -4.470990 -11.043737 -154.470720 -2.384512 -27.893295 25.557225 3.363715 11.043737 -15.444278 -0.336372 4.911436
1231.815262 551.380248 46.734743 0.000000 0.000000 0.000000 0.000000 0.000000 0.000000 56.412506 5.134369 16.886559 -123.587494 -5.534942 16.886559 -153.392336 6.110383 -14.452610 -154.784582 -2.697649 -26.289200 24.191555 3.354211 14.452610 -15.580844 -0.335421 4.842916
1221.475182 508.360147 69.929400 0.000000 0.000000 0.000000 0.000000 0.000000 0.000000 77.450622 -8.203765 19.021130 -102.549378 4.381984 19.021130 -156.789784 -3.463587 -17.633558 -125.590168 -4.470763 -24.270510 -160.017240 -2.530364 17.633558 1.833434 0.495122 4.755283
969.477684 442.100429 59.198746 0.000000 0.000000 0.000000 0.000000 0.000000 0.000000 54.932575 36.574932 19.960535 180.000000 0.166998 19.960535 25.919122 4.083264 -20.536413 154.080878 2.553458 -21.869059 12.612867 5.385893 20.536413 18.000000 -0.366391 4.648882
1480.140495 518.878891 57.763301 0.000000 0.000000 0.000000 0.000000 0.000000 0.000000 -110.621767 85.296543 19.645745 69.378233 81.331919 19.645745 -158.235933 -3.008540 -23.115397 166.031448 -9.538849 -19.122720 -155.186432 -2.162639 23.115397 2.641553 0.289691 4.524135
1271.640472 556.840560 81.716389 0.000000 0.000000 0.000000 0.000000 0.000000 0.000000 -94.404719 5.378025 18.096541 85.595281 -1.750313 18.096541 -62.417786 1.737929 -25.329838 23.992813 4.384935 -16.074804 -76.856107 -0.645944 25.329838 7.708835 -0.089138 4.381533
1258.556786 530.268441 76.551867 0.000000 0.000000 0.000000 0.000000 0.000000 0.000000 78.355945 1.077235 15.410265 -101.644055 0.624410 15.410265 35.068294 2.721669 -27.144812 -54.090640 -1.471713 -12.773379 35.848220 -0.881129 27.144812 -8.104639 0.025628 4.221640
1250.800209 527.150567 83.603859 0.000000 0.000000 0.000000 0.000000 0.000000 0.000000 72.417769 4.783621 11.755705 -107.582231 0.253703 11.755705 24.571109 2.024871 -28.531695 -39.196117 4.073979 -9.270510 10.411117 0.207158 28.531695 -9.048616 0.167259 4.045085
1243.466148 571.776259 96.119644 0.000000 0.000000 0.000000 0.000000 0.000000 0.000000 86.301473 8.503419 7.362491 -93.698527 -18.806482 7.362491 24.553534 -1.530318 -29.468618 -153.460385 -4.748491 -5.621439 19.510484 3.161746 29.468618 -10.109500 -1.651337 3.852566
1261.883812 566.052918 99.809040 0.000000 0.000000 0.000000 0.000000 0.000000 0.000000 94.015209 -0.803222 2.506665 -85.984791 -0.240631 2.506665 38.959993 -2.013763 -29.940802 -154.008305 -3.901588 -1.883716 20.870951 3.717138 29.940802 -10.872440 -3.096695 3.644843
1284.436798 527.190542 102.556594 0.000000 0.000000 0.000000 0.000000 0.000000 0.000000 111.186365 -5.177972 -2.506665 -68.813635 10.506190 -2.506665 58.506163 -3.268211 -29.940802 -19.138727 2.044493 1.883716 51.457372 2.339232 29.940802 -5.203198 0.192714 3.422736
1272.860069 533.494012 107.727414 0.000000 0.000000 0.000000 0.000000 0.000000 0.000000 72.301471 -23.164955 -7.362491 -107.698529 9.532994 -7.362491 78.802573 6.223596 -29.468618 -154.772375 -4.061407 5.621439 26.927455 4.112268 29.468618 -15.307255 -0.411227 3.187120
1255.264664 498.243735 112.855697 0.000000 0.000000 0.000000 0.000000 0.000000 0.000000 164.596971 -4.528495 -11.755705 -15.403029 14.712132 -11.755705 125.849126 0.235474 -28.531695 -156.067666 -5.196534 9.270510 33.087561 4.052589 28.531695 -14.691244 -0.405259 2.938926
1259.202232 470.407684 99.881523 0.000000 0.000000 0.000000 0.000000 0.000000 0.000000 -139.980397 15.168740 -15.410265 40.019603 -13.166002 -15.410265 165.887722 -2.762880 -27.144812 -157.901492 -5.805551 12.773379 35.196094 5.261653 27.144812 -14.480391 -0.526165 2.679134
1236.502075 429.951335 116.148289 0.000000 0.000000 0.000000 0.000000 0.000000 0.000000 -113.295066 9.032253 -18.096541 66.704934 0.327968 -18.096541 -174.664169 -8.745102 -25.329838 -159.007335 -6.388038 16.074804 32.868990 6.105345 25.329838 -14.713101 -0.610535 2.408768
1253.359451 413.942538 118.388965 0.000000 0.000000 0.000000 0.000000 0.000000 0.000000 -123.348580 2.321797 -19.645745 56.651420 -3.903994 -19.645745 -167.815074 -0.569659 -23.115397 -159.603180 -5.826466 19.122720 32.791747 7.081853 23.115397 -14.720825 -0.708185 2.128896
1281.206589 405.664523 145.245546 0.000000 0.000000 0.000000 0.000000 0.000000 0.000000 -124.414271 7.811672 -19.960535 55.585729 0.098131 -19.960535 -161.281803 -2.397198 -20.536413 28.568449 -2.351212 21.869059 -159.052798 -4.550537 20.536413 1.849141 0.451769 1.840623
1300.238571 418.760215 114.433198 0.000000 0.000000 0.000000 0.000000 0.000000 0.000000 -126.263092 9.290573 -19.021130 53.736908 -4.409063 -19.021130 -159.739358 -2.492561 -17.633558 31.487961 -3.389777 24.270510 -170.323915 0.157218 17.633558 0.671815 0.063077 1.545085
1321.889191 413.634385 126.978405 0.000000 0.000000 0.000000 0.000000 0.000000 0.000000 -133.874471 1.679520 -16.886559 46.125529 -6.274748 -16.886559 -159.376251 3.482669 -14.452610 30.696824 0.090307 26.289200 -164.929556 0.125489 14.452610 1.089735 -0.195038 1.243449
1336.221428 432.881820 128.306294 0.000000 0.000000 0.000000 0.000000 0.000000 0.000000 -115.020798 -2.311024 -13.690942 64.979202 -2.315637 -13.690942 -135.609544 2.208432 -11.043737 -161.321630 -6.220913 27.893295 17.353502 7.166134 11.043737 -16.264650 -0.716613 0.936907
1329.124603 416.860342 144.046757 0.000000 0.000000 0.000000 0.000000 0.000000 0.000000 -134.023347 3.145611 -9.635073 45.976653 1.348787 -9.635073 -128.030830 -3.123263 -7.460697 28.249885 -2.348098 29.057495 -136.447985 0.211666 7.460697 4.038834 0.241599 0.626666
1343.366776 427.060794 139.918203 0.000000 0.000000 0.000000 0.000000 0.000000 0.000000 -130.153347 -7.697959 -4.973798 49.846653 -6.518828 -4.973798 -103.564435 3.413300 -3.759997 27.398095 -2.984406 29.763441 -115.461530 1.209183 3.759997 5.470063 -0.170341 0.313953
1376.991005 465.829636 135.341720 0.000000 0.000000 0.000000 0.000000 0.000000 0.000000 -120.272352 8.318608 0.000000 59.727648 -12.021644 0.000000 -62.204131 0.318239 -0.000000 27.740602 -2.628908 30.000000 -80.461527 0.057817 0.000000 7.450891 -0.089594 0.000000
1384.978867 468.790376 161.248929 0.000000 0.000000 0.000000 0.000000 0.000000 0.000000 -93.720384 12.483375 4.973798 86.279616 -36.369957 4.973798 3.847814 -2.528367 3.759997 -160.438787 -6.311139 29.763441 15.990976 5.229895 -3.759997 7.894783 0.203124 0.313953
1345.894547 516.257268 143.765470 0.000000 0.000000 0.000000 0.000000 0.000000 0.000000 127.577640 -12.269153 9.635073 -52.422360 -17.624999 9.635073 53.096359 -0.256427 7.460697 -159.021748 -6.655270 29.057495 18.308456 5.180615 -7.460697 -4.062191 2.989481 0.626666
968.498927 441.455181 150.494477 0.000000 0.000000 0.000000 0.000000 0.000000 0.000000 47.920147 27.478189 13.690942 180.000000 -7.170745 13.690942 19.641385 -4.476925 11.043737 160.358615 -6.669503 27.893295 13.993219 4.395201 -11.043737 18.000000 0.017923 0.936907
1336.846733 493.527671 156.349300 0.000000 0.000000 0.000000 0.000000 0.000000 0.000000 102.681311 -6.128348 16.886559 -77.318689 -8.374471 16.886559 35.985219 8.016804 14.452610 -159.617763 -6.528420 26.289200 19.375410 5.827785 -14.452610 -16.062459 -0.582778 1.243449
968.386706 441.394956 153.623188 0.000000 0.000000 0.000000 0.000000 0.000000 0.000000 46.120581 -2.917041 19.021130 180.000000 -9.970320 19.021130 19.316787 2.346961 17.633558 160.683213 -6.158996 24.270510 14.327067 -1.186360 -17.633558 18.000000 0.680434 1.545085
1263.984947 433.341283 156.901501 0.000000 0.000000 0.000000 0.000000 0.000000 0.000000 -115.578373 -21.466211 19.960535 64.421627 2.335084 19.960535 -82.396446 1.859795 20.536413 25.733383 -0.231230 21.869059 -77.477544 -3.055153 -20.536413 5.836928 1.644132 1.840623
1352.596436 477.564354 134.458504 0.000000 0.000000 0.000000 0.000000 0.000000 0.000000 -99.196741 -0.001904 19.645745 80.803259 -1.532011 19.645745 -125.272585 -2.784633 23.115397 -162.405270 -6.444884 19.122720 17.377627 6.390252 -23.115397 -16.262237 -0.639025 2.128896
1384.326782 408.174427 126.143793 0.000000 0.000000 0.000000 0.000000 0.000000 0.000000 96.868601 -12.076512 18.096541 -83.131399 -28.765732 18.096541 -160.848957 -4.958585 25.329838 -137.255583 -0.278107 16.074804 -162.076720 -6.608976 -25.329838 0.000000 0.000000 0.000000
1387.580223 387.128634 130.118768 0.000000 0.000000 0.000000 0.000000 0.000000 0.000000 78.087764 8.903990 15.410265 -101.912236 5.447595 15.410265 -161.807915 -6.699907 27.144812 -147.504361 0.065262 12.773379 -162.566306 -7.579695 -27.144812 1.735427 0.991365 2.679134
1345.818558 392.423122 154.697280 0.000000 0.000000 0.000000 0.000000 0.000000 0.000000 71.782984 13.080027 11.755705 -108.217016 6.159172 11.755705 -169.469261 -1.839995 28.531695 -153.903088 1.036112 9.270510 -154.670689 -4.538934 -28.531695 15.277725 0.838007 2.938926
1331.471329 361.814139 132.502033 0.000000 0.000000 0.000000 0.000000 0.000000 0.000000 53.586100 9.545695 7.362491 -126.413900 -0.480071 7.362491 -162.290330 -5.571320 29.468618 -154.912165 4.028378 5.621439 -162.550394 -7.586946 -29.468618 1.742175 0.849252 3.187120
1354.413986 427.213873 145.575423 0.000000 0.000000 0.000000 0.000000 0.000000 0.000000 -131.358118 12.715730 2.506665 48.641882 9.715323 2.506665 -142.488821 -3.597226 29.940802 -161.977882 -6.601966 1.883716 12.673705 8.100012 -29.940802 1.397524 0.128302 3.422736
1330.326691 347.207226 135.280824 0.000000 0.000000 0.000000 0.000000 0.000000 0.000000 52.464175 -4.548136 -2.506665 -127.535825 -10.116170 -2.506665 14.270918 9.064002 29.940802 -122.057234 4.213269 -1.883716 22.820874 -0.452142 -29.940802 -15.244909 -0.228696 3.644843
1317.103271 414.475805 119.619707 0.000000 0.000000 0.000000 0.000000 0.000000 0.000000 76.170457 -27.018875 -7.362491 -103.829543 15.655830 -7.362491 -50.250674 -2.509825 29.468618 -52.503744 2.909025 -5.621439 -92.793049 2.538344 -29.468618 3.303440 -0.118263 3.852566
1331.844635 430.291482 110.628878 0.000000 0.000000 0.000000 0.000000 0.000000 0.000000 79.985160 -7.614773 -11.755705 -100.014840 5.402974 -11.755705 25.995082 -0.503546 28.531695 -75.062603 3.174663 -9.270510 38.761234 0.517068 -28.531695 -11.442229 -0.023675 4.045085
1359.462433 496.472383 111.564707 0.000000 0.000000 0.000000 0.000000 0.000000 0.000000 84.268829 4.052664 -15.410265 -95.731171 1.740588 -15.410265 30.279153 -4.720290 27.144812 -63.318008 -0.018529 -12.773379 39.457716 2.581324 -27.144812 -9.485742 -0.032392 4.221640
1323.514366 546.771398 107.742210 0.000000 0.000000 0.000000 0.000000 0.000000 0.000000 84.407325 -2.298998 -18.096541 -95.592675 4.070950 -18.096541 27.768249 -2.359219 25.329838 -47.660055 -1.092355 -16.074804 28.281511 4.537240 -25.329838 -7.827901 -0.286096 4.381533
1268.535347 591.567099 111.526027 0.000000 0.000000 0.000000 0.000000 0.000000 0.000000 90.890792 0.663349 -19.645745 -89.109208 3.364293 -19.645745 44.654760 0.670438 23.115397 -48.200667 0.982627 -19.122720 43.369388 4.181606 -23.115397 -8.974980 -1.222343 4.524135
1303.157158 602.888768 103.142016 0.000000 0.000000 0.000000 0.000000 0.000000 0.000000 90.349289 -0.748369 -19.960535 -89.650711 1.246668 -19.960535 47.707312 -0.871543 20.536413 -53.918782 -3.321440 -21.869059 40.070965 7.094830 -20.536413 -9.318632 -1.280313 4.648882
1314.841690 613.141973 92.352394 0.000000 0.000000 0.000000 0.000000 0.000000 0.000000 94.480501 8.445453 -19.021130 -85.519499 0.707883 -19.021130 58.462862 -1.738868 17.633558 -52.020507 -0.361182 -24.270510 55.276552 -3.848526 -17.633558 -7.777523 0.062205 4.755283
1327.521400 639.394319 81.022897 0.000000 0.000000 0.000000 0.000000 0.000000 0.000000 99.879576 -4.456526 -16.886559 -80.120424 2.776534 -16.886559 69.161359 -1.003862 14.452610 -46.413613 3.245453 -26.289200 76.680143 3.539076 -14.452610 -6.257768 -0.864332 4.842916
1277.812729 671.228578 82.901922 0.000000 0.000000 0.000000 0.000000 0.000000 0.000000 99.708534 3.624524 -13.690942 -80.291466 -7.198656 -13.690942 92.239140 5.801600 11.043737 -26.764021 -3.766898 -27.893295 98.168457 7.162776 -11.043737 -4.372074 0.018823 4.911436
1309.642181 690.479329 78.843645 0.000000 0.000000 0.000000 0.000000 0.000000 0.000000 117.292414 6.643206 -9.635073 -62.707586 -0.661572 -9.635073 137.002702 -2.304384 7.460697 -32.045917 0.073134 -29.057495 135.211322 -3.310641 -7.460697 -3.212944 0.236958 4.960574
1299.770966 664.126496 89.505466 0.000000 0.000000 0.000000 0.000000 0.000000 0.000000 158.531160 0.121539 -4.973798 -21.468840 -5.405927 -4.973798 161.478323 0.695045 3.759997 -12.838206 1.005011 -29.763441 151.269584 -1.203711 -3.759997 -2.521934 0.118401 4.990134
1313.353729 643.668108 71.489254 0.000000 0.000000 0.000000 0.000000 0.000000 0.000000 -154.315892 0.006237 -0.000000 25.684108 -5.897575 -0.000000 173.459940 3.014874 0.000000 1.519689 2.030895 -30.000000 164.244875 -0.263288 -0.000000 -1.552244 0.162849 5.000000
1342.841377 638.982847 58.681981 0.000000 0.000000 0.000000 0.000000 0.000000 0.000000 -138.993869 -16.588191 4.973798 41.006131 37.463013 4.973798 175.724056 -7.371074 -3.759997 -151.723069 -2.560841 -29.763441 43.242568 4.002927 3.759997 -13.675743 -0.400293 4.990134
1350.000229 614.724133 77.888409 0.000000 0.000000 0.000000 0.000000 0.000000 0.000000 -144.248147 -13.829150 9.635073 35.751853 9.726766 9.635073 177.069273 -0.526821 -7.460697 -152.227621 -2.184368 -29.057495 43.136563 3.344513 7.460697 -13.686344 -0.334451 4.960574
1328.535919 624.780936 50.879623 0.000000 0.000000 0.000000 0.000000 0.000000 0.000000 -165.447222 -24.278658 13.690942 14.552778 21.451562 13.690942 169.657511 -2.634674 -11.043737 -152.168050 -2.515477 -27.893295 41.929642 3.217215 11.043737 -13.807036 -0.321722 4.911436
1318.810501 615.688248 50.656390 0.000000 0.000000 0.000000 0.000000 0.000000 0.000000 -120.063657 0.135068 16.886559 59.936343 -7.028220 16.886559 -165.389465 -0.878158 -14.452610 -152.866764 -2.815405 -26.289200 39.162270 2.831244 14.452610 -14.083773 -0.283124 4.842916
1321.656418 659.275410 43.036780 0.000000 0.000000 0.000000 0.000000 0.000000 0.000000 -121.435085 -8.753234 19.021130 58.564915 1.305589 19.021130 -149.190712 0.291250 -17.633558 -151.926374 -2.454001 -24.270510 33.097066 3.216158 17.633558 -14.690293 -0.321616 4.755283
1328.445511 687.490232 40.588763 0.000000 0.000000 0.000000 0.000000 0.000000 0.000000 -104.253419 -12.057805 19.960535 75.746581 4.927402 19.960535 -110.140878 -1.666020 -20.536413 -152.911692 -2.212980 -21.869059 23.882145 2.172541 20.536413 3.694979 0.076535 4.648882
966.534206 440.564282 60.025203 0.000000 0.000000 0.000000 0.000000 0.000000 0.000000 25.865486 12.952450 19.645745 180.000000 -3.171880 19.645745 18.728337 7.691347 -23.115397 161.271663 -2.214272 -19.122720 19.024234 7.734702 23.115397 18.000000 -1.740468 4.524135
966.454577 440.533056 43.476592 0.000000 0.000000 0.000000 0.000000 0.000000 0.000000 25.417507 -0.575492 18.096541 180.000000 -4.736962 18.096541 18.825450 2.572162 -25.329838 161.174550 5.902170 -16.074804 19.071566 -13.983452 25.329838 18.000000 1.439408 4.381533
966.374240 440.501809 39.726781 0.000000 0.000000 0.000000 0.000000 0.000000 0.000000 24.990320 -32.593894 15.410265 180.000000 -3.411138 15.410265 18.929718 6.446903 -27.144812 161.070282 8.619949 -12.773379 19.102411 -3.438029 27.144812 18.000000 -0.761209 4.221640
966.293204 440.470542 53.298639 0.000000 0.000000 0.000000 0.000000 0.000000 0.000000 24.583377 -21.669057 11.755705 180.000000 -0.532734 11.755705 19.040946 -7.938418 -28.531695 160.959054 1.658938 -9.270510 19.116765 -0.607365 28.531695 18.000000 -0.119757 4.045085
966.211478 440.439256 58.999424 0.000000 0.000000 0.000000 0.000000 0.000000 0.000000 24.196129 -3.194881 7.362491 180.000000 5.491316 7.362491 19.158923 3.058033 -29.468618 160.841077 17.077840 -5.621439 19.114778 -13.230583 29.468618 18.000000 -0.138392 3.852566
644.985180 745.864069 31.429998 0.000000 0.000000 0.000000 0.000000 0.000000 0.000000 96.086415 11.973256 2.506665 -83.913585 -5.896586 2.506665 -159.662371 9.400713 -29.940802 -116.741565 3.408996 -1.883716 -176.001217 3.663653 29.940802 -1.006627 -1.966970 3.644843
1269.020119 699.025490 47.447776 0.000000 0.000000 0.000000 0.000000 0.000000 0.000000 83.810916 -0.838267 -2.506665 -96.189084 5.373579 -2.506665 51.932890 -5.301113 -29.940802 -149.314466 -2.063058 1.883716 27.598511 1.839260 29.940802 -15.240149 -0.183926 3.422736
573.721218 678.450201 76.967085 0.000000 0.000000 0.000000 0.000000 0.000000 0.000000 18.756393 51.190815 -7.362491 -161.243607 -34.573190 -7.362491 -174.158094 -16.412011 -29.468618 178.010322 -7.926015 5.621439 -154.394154 3.721112 29.468618 11.886524 -1.659933 3.187120
1261.580200 714.897366 63.906694 0.000000 0.000000 0.000000 0.000000 0.000000 0.000000 87.191276 -0.979800 -11.755705 -92.808724 5.969798 -11.755705 23.129119 1.452856 -28.531695 -149.376238 -1.892176 9.270510 24.545507 2.173758 28.531695 13.583501 -2.578126 2.938926
1314.655838 684.171546 54.995306 0.000000 0.000000 0.000000 0.000000 0.000000 0.000000 61.219932 -0.257260 -15.410265 -118.780068 3.898454 -15.410265 25.476616 -1.325989 -27.144812 -150.404247 -2.342970 12.773379 24.621454 1.736886 27.144812 -15.537855 -0.173689 2.679134
1319.638939 674.820013 67.239564 0.000000 0.000000 0.000000 0.000000 0.000000 0.000000 82.055377 12.535927 -18.096541 -97.944623 -15.922612 -18.096541 17.325085 5.521655 -25.329838 -60.067277 -16.855268 16.074804 23.747728 3.835834 25.329838 -13.005173 0.144410 2.408768
1367.852325 659.536314 60.752390 0.000000 0.000000 0.000000 0.000000 0.000000 0.000000 -150.278430 10.482653 -19.645745 29.721570 6.994442 -19.645745 -151.222797 -3.262199 -23.115397 18.758043 -4.820825 19.122720 -152.451920 -2.220870 23.115397 2.484143 0.241665 2.128896
1392.624664 638.981302 68.845410 0.000000 0.000000 0.000000 0.000000 0.000000 0.000000 -122.704248 12.530265 -19.960535 57.295752 -10.323262 -19.960535 -134.513385 -1.879773 -20.536413 30.292627 -2.935028 21.869059 -146.694539 0.433491 20.536413 2.430965 0.031506 1.840623
1401.291389 646.422758 72.556520 0.000000 0.000000 0.000000 0.000000 0.000000 0.000000 83.316637 6.949256 -19.021130 -96.683363 -12.423028 -19.021130 29.335627 5.265642 -17.633558 -136.281416 -1.243493 24.270510 19.119183 -1.017047 17.633558 -15.871560 0.045424 1.545085
1381.838951 663.410475 80.137158 0.000000 0.000000 0.000000 0.000000 0.000000 0.000000 79.215331 -0.574615 -16.886559 -100.784669 2.845543 -16.886559 30.640455 -3.159331 -14.452610 -139.113455 -1.864607 26.289200 14.302413 0.524662 14.452610 -16.408036 0.121477 1.243449
1390.185928 664.248354 74.959706 0.000000 0.000000 0.000000 0.000000 0.000000 0.000000 75.546066 -7.459428 -13.690942 -104.453934 3.752665 -13.690942 38.995097 -3.313450 -11.043737 -142.871297 0.356861 27.893295 14.209110 -1.143600 11.043737 -16.737090 0.088703 0.936907
1393.889923 677.551103 90.529908 0.000000 0.000000 0.000000 0.000000 0.000000 0.000000 84.293627 12.749227 -9.635073 -95.706373 -1.685296 -9.635073 -152.700272 -3.974940 -7.460697 -143.357755 -1.819043 29.057495 -148.868889 -4.441746 7.460697 3.626268 0.405175 0.626666
905.601082 693.654528 83.767719 0.000000 0.000000 0.000000 0.000000 0.000000 0.000000 -84.410869 -5.921963 -4.973798 95.589131 5.416038 -4.973798 -139.498802 -4.098339 -3.759997 -178.556713 31.950460 29.763441 -142.061844 -4.459998 3.759997 3.411456 0.412236 0.313953
1337.643929 680.318756 65.704690 0.000000 0.000000 0.000000 0.000000 0.000000 0.000000 78.192517 2.442401 0.000000 -101.807483 -8.918937 0.000000 48.289813 6.673848 -0.000000 -140.291980 -0.957557 30.000000 13.663140 -1.029395 0.000000 -17.395561 -0.003814 0.000000
1322.670708 685.543334 84.277664 0.000000 0.000000 0.000000 0.000000 0.000000 0.000000 71.501063 6.883082 4.973798 -108.498937 6.833079 4.973798 23.648228 7.065068 3.759997 -144.586500 8.164662 29.763441 14.578018 -4.990683 -3.759997 -16.885607 0.227596 0.313953
1305.530548 682.910864 110.311212 0.000000 0.000000 0.000000 0.000000 0.000000 0.000000 72.979287 5.366811 9.635073 -107.020713 -55.476603 9.635073 -148.728581 -3.680320 7.460697 -74.802907 -15.643801 29.057495 -151.178244 -3.835835 -7.460697 2.601049 0.367467 0.626666
1359.363556 692.650115 95.199993 0.000000 0.000000 0.000000 0.000000 0.000000 0.000000 73.244804 -10.705534 13.690942 -106.755196 8.452061 13.690942 13.983499 -4.756114 11.043737 -67.611809 8.170941 27.893295 13.130547 -5.191798 -11.043737 -11.004089 0.504538 0.936907
1299.495964 679.994059 124.244099 0.000000 0.000000 0.000000 0.000000 0.000000 0.000000 116.206779 -7.514338 16.886559 -63.793221 6.207707 16.886559 -150.858719 -4.973352 14.452610 -34.548592 1.302710 26.289200 60.366751 -7.264978 -14.452610 -4.627493 0.104054 1.243449
1306.260338 711.527116 106.806015 0.000000 0.000000 0.000000 0.000000 0.000000 0.000000 -85.758672 -2.127126 19.021130 94.241328 -11.661922 19.021130 -31.461750 3.793285 17.633558 -4.237664 -4.156078 24.270510 -15.215787 2.665104 -17.633558 7.867754 -0.777528 1.545085
1272.614822 704.778571 129.504192 0.000000 0.000000 0.000000 0.000000 0.000000 0.000000 -78.634637 -9.440607 19.960535 101.365363 -9.708230 19.960535 -34.118569 1.601194 20.536413 22.539652 -1.943557 21.869059 -31.373170 2.975315 -20.536413 11.310693 -1.667155 1.840623
1310.345650 676.427021 112.456448 0.000000 0.000000 0.000000 0.000000 0.000000 0.000000 97.572435 2.300763 19.645745 -82.427565 -0.368135 19.645745 50.400703 1.225814 23.115397 -39.584286 -0.433410 19.122720 44.966766 2.254849 -23.115397 -8.852712 0.182655 2.128896
1315.732956 671.025095 122.644343 0.000000 0.000000 0.000000 0.000000 0.000000 0.000000 97.797337 4.923284 18.096541 -82.202663 2.123837 18.096541 49.825934 -2.276351 25.329838 -39.162923 -1.826474 16.074804 36.475631 -1.658989 -25.329838 -8.191519 2.273391 2.408768
1329.935532 653.525419 128.922125 0.000000 0.000000 0.000000 0.000000 0.000000 0.000000 96.469555 -0.133718 15.410265 -83.530445 0.180847 15.410265 63.882053 -2.308657 27.144812 -51.972064 -0.136918 12.773379 58.624362 -3.388073 -27.144812 -8.239564 0.021977 2.679134
1316.170578 674.246514 140.135183 0.000000 0.000000 0.000000 0.000000 0.000000 0.000000 -87.946330 -6.053764 11.755705 92.053670 -2.410569 11.755705 -29.715798 1.888871 28.531695 54.212796 3.856020 9.270510 -40.560774 1.340979 -28.531695 11.008015 -0.102170 2.938926
1317.367287 678.027205 145.108737 0.000000 0.000000 0.000000 0.000000 0.000000 0.000000 95.152942 8.634183 7.362491 -84.847058 12.513596 7.362491 98.792835 -5.962297 29.468618 -150.515547 -5.861117 5.621439 32.983753 4.927339 -29.468618 -14.701625 -0.492734 3.187120
1318.168488 670.157025 143.751422 0.000000 0.000000 0.000000 0.000000 0.000000 0.000000 -151.252255 -7.943803 2.506665 28.747745 24.437628 2.506665 138.896993 4.842252 29.940802 -151.946620 -5.882350 1.883716 38.784684 6.397156 -29.940802 -14.121532 -0.639716 3.422736
1323.412628 644.667885 130.461573 0.000000 0.000000 0.000000 0.000000 0.000000 0.000000 -97.904066 35.821351 -2.506665 82.095934 -3.008419 -2.506665 155.695030 -7.348655 29.940802 -152.500978 -6.601317 -1.883716 44.721081 6.850779 -29.940802 -13.527892 -0.685078 3.644843
1312.776718 630.059459 140.432137 0.000000 0.000000 0.000000 0.000000 0.000000 0.000000 -116.637972 -14.135897 -7.362491 63.362028 3.641677 -7.362491 171.094570 -3.028141 29.468618 -152.894064 -6.103792 -5.621439 43.947863 7.696995 -29.468618 -13.605214 -0.769700 3.852566
1316.420746 625.237019 145.989287 0.000000 0.000000 0.000000 0.000000 0.000000 0.000000 -136.254273 22.646752 -11.755705 43.745727 -22.347472 -11.755705 -177.663204 3.480217 28.531695 -153.006287 -7.250494 -9.270510 42.784597 7.655544 -28.531695 -13.721540 -0.765554 4.045085
1314.719925 628.818026 146.736129 0.000000 0.000000 0.000000 0.000000 0.000000 0.000000 -114.737929 -2.898572 -15.410265 65.262071 10.621274 -15.410265 -169.764314 -2.058216 27.144812 -153.369487 -6.089384 -12.773379 41.498347 9.048832 -27.144812 -13.850165 -0.904883 4.221640
1334.396782 646.165652 149.573279 0.000000 0.000000 0.000000 0.000000 0.000000 0.000000 -116.903454 -5.242686 -18.096541 63.096546 11.857513 -18.096541 -154.594534 -1.310028 25.329838 -153.225015 -5.996214 -16.074804 37.136182 8.139662 -25.329838 -14.286382 -0.813966 4.381533
1340.823784 648.244128 147.223926 0.000000 0.000000 0.000000 0.000000 0.000000 0.000000 -116.932323 -1.044646 -19.645745 63.067677 2.274116 -19.645745 -138.898656 3.306403 23.115397 35.335752 5.828747 -19.122720 -153.336856 -1.173289 -23.115397 2.206211 0.048004 4.524135
1330.023880 654.599032 159.259206 0.000000 0.000000 0.000000 0.000000 0.000000 0.000000 -112.150704 6.885929 -19.960535 67.849296 -5.293977 -19.960535 -118.798313 -1.125608 20.536413 -153.636372 -6.706497 -21.869059 16.691869 8.767935 -20.536413 -16.330813 -0.876794 4.648882
1337.431641 662.410698 170.536596 0.000000 0.000000 0.000000 0.000000 0.000000 0.000000 -109.111809 0.927632 -19.021130 70.888191 -0.323468 -19.021130 -91.144379 -0.353868 17.633558 -154.448144 -6.328747 -24.270510 10.298202 7.193326 -17.633558 6.642051 -0.246059 4.755283
1324.339714 676.416593 148.698716 0.000000 0.000000 0.000000 0.000000 0.000000 0.000000 -104.120178 -5.856694 -16.886559 75.879822 10.028665 -16.886559 -57.095620 -5.395482 14.452610 38.799650 5.181340 -26.289200 -71.942639 -7.117560 -14.452610 8.831938 0.240849 4.842916
962.890318 439.311049 151.964513 0.000000 0.000000 0.000000 0.000000 0.000000 0.000000 19.986963 15.470351 -13.690942 180.000000 7.125721 -13.690942 24.297229 -8.471760 11.043737 155.702771 3.492980 -27.893295 14.983342 -4.556708 -11.043737 18.000000 0.299899 4.911436
962.789911 439.279946 140.963992 0.000000 0.000000 0.000000 0.000000 0.000000 0.000000 20.089586 7.662241 -9.635073 180.000000 -7.037986 -9.635073 24.330184 1.552651 7.460697 155.669816 -5.395462 -29.057495 14.926290 2.388700 -7.460697 18.000000 -0.309531 4.960574
641.318550 641.336324 155.499455 0.000000 0.000000 0.000000 0.000000 0.000000 0.000000 163.642929 -5.594184 -4.973798 -16.357071 -8.116018 -4.973798 -155.926011 11.379527 3.759997 -130.644608 -8.200177 -29.763441 68.679337 11.192621 -3.759997 -11.132066 -1.119262 4.990134
1305.385551 662.289033 140.256648 0.000000 0.000000 0.000000 0.000000 0.000000 0.000000 -81.949824 14.787280 -0.000000 98.050176 -15.552886 -0.000000 9.536664 1.788080 0.000000 -153.586691 -5.983975 -30.000000 24.402531 4.418724 -0.000000 -15.559747 -0.441872 5.000000
962.486899 439.186814 126.281351 0.000000 0.000000 0.000000 0.000000 0.000000 0.000000 20.465882 25.444883 4.973798 180.000000 -20.319742 4.973798 24.357206 20.686090 -3.759997 155.642794 -6.527693 -29.763441 14.800425 -5.463166 3.759997 18.000000 -0.023792 4.990134
1216.314240 612.580640 129.987978 0.000000 0.000000 0.000000 0.000000 0.000000 0.000000 78.221991 5.447145 9.635073 -101.778009 0.750137 9.635073 46.689014 -2.246387 -7.460697 -61.937558 -2.880736 -29.057495 44.546377 -1.456962 7.460697 -10.771750 0.559958 4.960574
1273.897820 573.707514 127.269128 0.000000 0.000000 0.000000 0.000000 0.000000 0.000000 77.469628 -2.458600 13.690942 -102.530372 11.638218 13.690942 -155.691164 -5.968557 -11.043737 -120.750172 10.213178 -27.893295 -156.229293 -6.875651 11.043737 2.162203 0.506891 4.911436
1337.358742 570.303276 125.598441 0.000000 0.000000 0.000000 0.000000 0.000000 0.000000 73.705918 -1.951842 16.886559 -106.294082 4.373896 16.886559 -155.918376 -5.743205 -14.452610 -149.887909 -4.601568 -26.289200 0.000000 0.000000 0.000000 0.000000 0.000000 0.000000
1342.446442 569.623497 116.420785 0.000000 0.000000 0.000000 0.000000 0.000000 0.000000 68.898287 -0.135535 19.021130 -111.101713 -4.509790 19.021130 39.314088 -3.074482 -17.633558 -140.912764 -1.495763 -24.270510 -153.216026 -5.810932 17.633558 2.759242 0.627312 4.755283
1335.759430 584.665475 117.076759 0.000000 0.000000 0.000000 0.000000 0.000000 0.000000 66.989329 6.319566 19.960535 -113.010671 -1.862077 19.960535 -154.807077 -4.693424 -20.536413 -142.328055 -3.562012 -21.869059 -153.049156 -4.761842 20.536413 2.866457 0.612644 4.648882
1337.950974 598.074245 106.466049 0.000000 0.000000 0.000000 0.000000 0.000000 0.000000 62.697633 -4.160217 19.645745 -117.302367 -6.079887 19.645745 19.366736 4.486387 -23.115397 -144.826223 -2.225689 -19.122720 9.911455 2.115661 23.115397 -17.004209 -0.122753 4.524135
1352.846489 601.043322 107.339210 0.000000 0.000000 0.000000 0.000000 0.000000 0.000000 59.083577 7.055688 18.096541 -120.916423 -2.943507 18.096541 20.876734 -3.909281 -25.329838 -142.301690 -1.598764 -16.074804 13.356960 0.935544 25.329838 -16.821524 0.021454 4.381533
1347.310982 587.475100 89.041977 0.000000 0.000000 0.000000 0.000000 0.000000 0.000000 56.169135 5.366988 15.410265 -123.830865 -3.615002 15.410265 21.172503 1.949903 -27.144812 -139.640745 -2.109291 -12.773379 14.641496 0.802373 27.144812 -16.282575 0.039782 4.221640
1326.982155 606.886139 77.379879 0.000000 0.000000 0.000000 0.000000 0.000000 0.000000 70.119981 3.541402 11.755705 -109.880019 -5.710090 11.755705 26.511889 -0.523800 -28.531695 -111.264667 0.643665 -9.270510 31.153840 -0.607329 28.531695 -13.943905 0.128922 4.045085
1354.391098 626.185555 78.676128 0.000000 0.000000 0.000000 0.000000 0.000000 0.000000 88.154395 -7.125237 7.362491 -91.845605 -2.275583 7.362491 30.442275 -1.065965 -29.468618 -76.284233 2.225885 -5.621439 43.854867 -0.889860 29.468618 -10.818190 -0.039874 3.852566
1370.667114 610.219567 79.535247 0.000000 0.000000 0.000000 0.000000 0.000000 0.000000 89.945118 -4.728523 2.506665 -90.054882 2.841195 2.506665 44.053326 -1.746811 -29.940802 -56.238091 -0.685688 -1.883716 55.411270 -2.104096 29.940802 -7.805659 0.024481 3.644843
1372.834854 597.828534 65.415326 0.000000 0.000000 0.000000 0.000000 0.000000 0.000000 93.407992 -2.108124 -2.506665 -86.592008 3.971977 -2.506665 54.165845 -1.557910 -29.940802 -47.239220 -0.579802 1.883716 56.575186 2.826228 29.940802 -6.344474 -0.289004 3.422736
1336.554337 597.454848 78.502664 0.000000 0.000000 0.000000 0.000000 0.000000 0.000000 95.622643 -0.446815 -7.362491 -84.377357 -1.117869 -7.362491 56.597780 3.728693 -29.468618 -45.108662 8.144173 5.621439 55.386034 -2.689065 29.468618 -7.206870 -0.602187 3.187120
1310.567093 590.844769 71.146373 0.000000 0.000000 0.000000 0.000000 0.000000 0.000000 100.193768 -0.656375 -11.755705 -79.806232 2.811119 -11.755705 61.986347 4.010536 -28.531695 -37.593815 2.902858 9.270510 62.907615 -0.813841 28.531695 -6.637230 -0.005234 2.938926
1328.574371 576.493385 63.533695 0.000000 0.000000 0.000000 0.000000 0.000000 0.000000 101.943783 -0.234285 -15.410265 -78.056217 6.150624 -15.410265 61.902838 -0.949348 -27.144812 -33.889586 3.442068 12.773379 55.760387 -7.688234 27.144812 -7.097415 1.340652 2.679134
1316.178360 595.500870 41.567950 0.000000 0.000000 0.000000 0.000000 0.000000 0.000000 103.792097 6.859381 -18.096541 -76.207903 0.690131 -18.096541 65.535198 1.786124 -25.329838 -28.739437 -0.100352 16.074804 68.415337 4.559535 25.329838 -6.481753 -0.179135 2.408768
1302.343140 568.138025 52.538714 0.000000 0.000000 0.000000 0.000000 0.000000 0.000000 101.222717 0.909474 -19.645745 -78.777283 13.377274 -19.645745 90.757296 -2.610596 -23.115397 -18.578033 -5.672733 19.122720 97.909038 2.141712 23.115397 -5.050134 0.199239 2.128896
1274.166183 540.660596 46.239883 0.000000 0.000000 0.000000 0.000000 0.000000 0.000000 -126.898591 -41.496503 -19.960535 53.101409 17.048603 -19.960535 127.276662 3.337983 -20.536413 8.808645 -1.403333 21.869059 119.711272 7.448148 20.536413 -4.115393 -0.255277 1.840623
1268.557091 468.331075 48.890166 0.000000 0.000000 0.000000 0.000000 0.000000 0.000000 -124.112133 -3.003278 -19.021130 55.887867 6.974182 -19.021130 163.344780 3.111406 -17.633558 38.476068 1.259737 24.270510 145.889074 3.233367 17.633558 -1.929933 -0.126237 1.545085
1278.673096 454.375906 32.431112 0.000000 0.000000 0.000000 0.000000 0.000000 0.000000 -126.805061 -4.289906 -16.886559 53.194939 6.077282 -16.886559 -174.009950 0.450889 -14.452610 27.419224 -0.042176 26.289200 168.192977 1.346827 14.452610 -0.976267 -0.001864 1.243449
1285.008774 434.700390 54.260265 0.000000 0.000000 0.000000 0.000000 0.000000 0.000000 -132.005120 1.640963 -13.690942 47.994880 -4.207235 -13.690942 -171.247775 -4.374097 -11.043737 26.625253 -3.477970 27.893295 178.805957 1.440163 11.043737 0.023422 -0.066819 0.936907
1288.157730 426.987666 57.673928 0.000000 0.000000 0.000000 0.000000 0.000000 0.000000 -123.987926 9.341704 -9.635073 56.012074 -6.578652 -9.635073 -166.356219 -3.260364 -7.460697 35.716336 -1.676986 29.057495 -172.960762 -1.451382 7.460697 0.819533 0.021044 0.626666
1291.221657 420.425448 40.465370 0.000000 0.000000 0.000000 0.000000 0.000000 0.000000 -122.265643 -3.528249 -4.973798 57.734357 5.366654 -4.973798 -156.870161 -1.797598 -3.759997 38.220704 3.829701 29.763441 -165.716368 -1.100323 3.759997 1.405814 0.057437 0.313953
