HIERARCHY
ROOT Hips
{
    OFFSET 0.0 0.0 0.0
    CHANNELS 6 Xposition Yposition Zposition Zrotation Xrotation Yrotation
    JOINT Spine
    {
        OFFSET 0.0 5.0 0.0
        CHANNELS 3 Zrotation Xrotation Yrotation
        JOINT Chest
        {
            OFFSET 0.0 5.0 0.0
            CHANNELS 3 Zrotation Xrotation Yrotation
            JOINT Neck
            {
                OFFSET 0.0 8.0 0.0
                CHANNELS 3 Zrotation Xrotation Yrotation
                JOINT Head
                {
                    OFFSET 0.0 5.0 0.0
                    CHANNELS 3 Zrotation Xrotation Yrotation
                    End Site
                    {
                        OFFSET 0.0 3.0 0.0
                    }
                }
            }
            JOINT LeftShoulder
            {
                OFFSET -5.0 0.0 0.0
                CHANNELS 3 Zrotation Xrotation Yrotation
                JOINT LeftArm
                {
                    OFFSET 0.0 -10.0 0.0
                    CHANNELS 3 Zrotation Xrotation Yrotation
                    JOINT LeftForeArm
                    {
                        OFFSET 0.0 -10.0 0.0
                        CHANNELS 3 Zrotation Xrotation Yrotation
                        End Site
                        {
                            OFFSET 0.0 -3.0 0.0
                        }
                    }
                }
            }
        }
    }
}

MOTION
Frames: 300
Frame Time: 0.033333

960.000000 445.000000 95.388414 0.000000 0.000000 0.000000 0.000000 0.000000 0.000000 23.025492 14.705049 0.000000 180.000000 4.955535 0.000000 21.801409 2.097070 -0.000000 158.198591 3.092860 30.000000 15.945396 4.150029 0.000000 18.000000 -0.396176 0.000000
1691.525230 140.756605 95.156369 0.000000 0.000000 0.000000 0.000000 0.000000 0.000000 -163.376529 13.523656 4.973798 16.623471 -13.568755 4.973798 -171.853121 -3.190556 3.759997 99.744051 -26.540733 29.763441 -171.126653 -3.695217 -3.759997 0.673538 0.432228 0.313953
1636.048050 128.802021 124.056344 0.000000 0.000000 0.000000 0.000000 0.000000 0.000000 157.904128 -27.496197 9.635073 -22.095872 15.694731 9.635073 -171.936471 -3.928020 7.460697 -143.675701 0.347033 29.057495 -173.500805 -3.966246 -7.460697 0.570999 0.411523 0.626666
1578.156967 80.474526 112.016908 0.000000 0.000000 0.000000 0.000000 0.000000 0.000000 -139.519796 4.760496 13.690942 40.480204 6.800631 13.690942 -174.507724 -4.201196 11.043737 119.111399 1.694674 27.893295 -173.607258 -4.186078 -11.043737 0.461920 0.529025 0.936907
960.418757 444.998421 105.894462 0.000000 0.000000 0.000000 0.000000 0.000000 0.000000 25.077893 10.119474 16.886559 180.000000 -0.832474 16.886559 23.861935 12.598991 14.452610 156.138065 3.330343 26.289200 17.903699 -0.591840 -14.452610 18.000000 -0.786177 1.243449
960.523360 444.997533 118.417438 0.000000 0.000000 0.000000 0.000000 0.000000 0.000000 25.638906 23.900680 19.021130 180.000000 -10.580042 19.021130 24.425035 3.336289 17.633558 155.574965 -1.796880 24.270510 18.452907 -3.413473 -17.633558 18.000000 -0.039173 1.545085
960.627905 444.996447 111.303897 0.000000 0.000000 0.000000 0.000000 0.000000 0.000000 26.219073 20.862532 19.960535 180.000000 -8.683836 19.960535 25.006291 2.795925 20.536413 154.993709 6.515128 21.869059 19.024920 -5.413727 -20.536413 18.000000 -1.301315 1.840623
1126.242828 420.359820 141.690870 0.000000 0.000000 0.000000 0.000000 0.000000 0.000000 31.410514 3.651043 19.645745 -148.589486 -6.815058 19.645745 32.280463 2.597741 23.115397 -131.603972 -6.214746 19.122720 45.585331 3.581413 -23.115397 -13.449727 0.056609 2.128896
1257.895088 650.549197 133.561932 0.000000 0.000000 0.000000 0.000000 0.000000 0.000000 25.073180 -7.066992 18.096541 -154.926820 6.779117 18.096541 46.260945 11.447382 25.329838 -154.651428 -4.995011 16.074804 27.339487 4.229073 -25.329838 -13.619892 -0.013135 2.408768
960.941083 444.992008 120.882820 0.000000 0.000000 0.000000 0.000000 0.000000 0.000000 28.072001 4.479384 15.410265 180.000000 -16.272289 15.410265 26.849221 1.402430 27.144812 153.150779 -13.213705 12.773379 20.864045 7.083233 -27.144812 18.000000 0.616960 2.679134
1163.815842 547.748709 133.161637 0.000000 0.000000 0.000000 0.000000 0.000000 0.000000 117.162728 -6.889459 11.755705 -62.837272 5.283524 11.755705 102.363764 -6.162836 28.531695 -47.376450 1.785826 9.270510 104.768601 -5.872888 -28.531695 -6.003489 0.603337 2.938926
961.149372 444.988063 124.834108 0.000000 0.000000 0.000000 0.000000 0.000000 0.000000 29.395983 17.360735 7.362491 180.000000 -11.636256 7.362491 28.146217 -3.908252 29.468618 151.853783 1.384695 5.621439 22.170006 -8.272825 -29.468618 18.000000 0.179242 3.187120
1136.717377 590.104480 147.378295 0.000000 0.000000 0.000000 0.000000 0.000000 0.000000 115.752126 4.616308 2.506665 -64.247874 -4.720971 2.506665 73.638146 -0.776599 29.940802 -21.842452 3.876946 1.883716 75.369282 -3.402449 -29.940802 -6.767207 -0.639305 3.422736
1163.079758 634.077559 155.033385 0.000000 0.000000 0.000000 0.000000 0.000000 0.000000 132.174340 8.989386 -2.506665 -47.825660 4.680897 -2.506665 94.255711 -4.281792 29.940802 -149.364979 -7.112719 -1.883716 30.021641 5.799062 -29.940802 -5.096180 -0.441057 3.644843
961.460830 444.980668 139.415276 0.000000 0.000000 0.000000 0.000000 0.000000 0.000000 31.497152 -35.067813 -7.362491 180.000000 3.913851 -7.362491 30.152455 -0.236384 29.468618 149.847545 5.408696 -5.621439 24.175589 0.244448 -29.468618 18.000000 0.367088 3.852566
1097.449951 565.089898 139.659843 0.000000 0.000000 0.000000 0.000000 0.000000 0.000000 -119.219568 -3.333996 -11.755705 60.780432 -7.669986 -11.755705 -150.180642 -6.174942 28.531695 48.804955 -3.505167 -9.270510 -149.874178 -5.823323 -28.531695 2.713854 0.559158 4.045085
1114.140244 528.302071 140.750132 0.000000 0.000000 0.000000 0.000000 0.000000 0.000000 -142.671523 0.125832 -15.410265 37.328477 -1.742488 -15.410265 -177.395681 6.037732 27.144812 34.687329 -1.296595 -12.773379 161.894167 2.341138 -27.144812 -0.910956 -0.025669 4.221640
1116.433640 479.728639 149.144992 0.000000 0.000000 0.000000 0.000000 0.000000 0.000000 -102.267481 -4.519760 -18.096541 77.732519 8.871498 -18.096541 -163.695626 0.666862 25.329838 38.575767 1.604280 -16.074804 -176.001122 2.122412 -25.329838 0.706594 0.063125 4.381533
1135.931282 466.493965 151.035353 0.000000 0.000000 0.000000 0.000000 0.000000 0.000000 -112.868406 9.348378 -19.645745 67.131594 -0.359554 -19.645745 -159.517862 3.985010 23.115397 36.204678 0.217659 -19.122720 -154.426613 -6.016782 -23.115397 2.428729 0.495443 4.524135
1141.618767 467.420679 135.264584 0.000000 0.000000 0.000000 0.000000 0.000000 0.000000 -123.086385 15.476018 -19.960535 56.913615 -0.981041 -19.960535 -154.885724 -4.071794 20.536413 36.481623 -0.559572 -21.869059 -153.965441 -6.272126 -20.536413 2.446728 0.521563 4.648882
1150.647926 469.370956 120.105321 0.000000 0.000000 0.000000 0.000000 0.000000 0.000000 -43.953779 -7.099056 -19.021130 136.046221 -46.283716 -19.021130 -154.327268 -5.884538 17.633558 60.745168 -4.997267 -24.270510 -153.350642 -6.518296 -17.633558 2.386216 0.578347 4.755283
1151.529922 496.420240 151.121966 0.000000 0.000000 0.000000 0.000000 0.000000 0.000000 -116.362129 1.650038 -16.886559 63.637871 6.029971 -16.886559 -149.081043 -5.548985 14.452610 35.941860 -3.346101 -26.289200 -156.847177 0.113606 -14.452610 2.056513 0.062984 4.842916
1148.402367 515.713574 134.888920 0.000000 0.000000 0.000000 0.000000 0.000000 0.000000 -118.252650 9.330502 -13.690942 61.747350 -18.575373 -13.690942 -138.082896 1.654967 11.043737 -156.312677 -8.092283 -27.893295 21.649626 11.141329 -11.043737 2.962417 -0.076106 4.911436
1175.363617 533.368646 137.223900 0.000000 0.000000 0.000000 0.000000 0.000000 0.000000 -95.476638 9.058428 -9.635073 84.523362 -24.322435 -9.635073 -113.907461 7.035414 7.460697 -155.995907 -7.368178 -29.057495 12.512064 8.205080 -7.460697 -16.748794 -0.820508 4.960574
1199.533310 485.991104 129.523421 0.000000 0.000000 0.000000 0.000000 0.000000 0.000000 -100.003195 -2.021844 -4.973798 79.996805 -3.572314 -4.973798 -86.083188 -1.352062 3.759997 38.843754 0.853364 -29.763441 -106.539452 -0.619209 -3.759997 6.197806 0.235854 4.990134
962.588190 444.938442 124.440546 0.000000 0.000000 0.000000 0.000000 0.000000 0.000000 39.579754 7.749640 -0.000000 180.000000 -25.255516 -0.000000 36.680773 -4.575258 0.000000 143.319227 -11.030994 -30.000000 29.388385 2.783912 -0.000000 18.000000 -1.296931 5.000000
1142.094727 445.716287 133.903598 0.000000 0.000000 0.000000 0.000000 0.000000 0.000000 -140.228454 8.978847 4.973798 39.771546 9.932252 4.973798 -156.118008 -6.071438 -3.759997 3.479189 12.662093 -29.763441 -158.005660 -6.536762 3.759997 2.150019 0.562118 4.990134
1164.005928 424.847746 102.439864 0.000000 0.000000 0.000000 0.000000 0.000000 0.000000 -84.241076 34.406872 9.635073 95.758924 21.493840 9.635073 -156.181584 -6.273378 -7.460697 166.928360 2.955970 -29.057495 -154.947270 -6.393716 7.460697 2.644196 0.659417 4.960574
1124.208755 418.286655 110.860596 0.000000 0.000000 0.000000 0.000000 0.000000 0.000000 -117.427077 23.402251 13.690942 62.572923 -11.152593 13.690942 -155.943063 -5.300179 -11.043737 14.023837 14.463904 -27.893295 -157.382674 -6.153571 11.043737 2.188130 0.482109 4.911436
962.990408 444.917226 94.872235 0.000000 0.000000 0.000000 0.000000 0.000000 0.000000 42.110883 19.616764 16.886559 180.000000 -4.882453 16.886559 37.946959 -10.571695 -14.452610 142.053041 -1.688424 -26.289200 29.293612 -2.017338 14.452610 18.000000 1.046608 4.842916
963.090170 444.911436 100.179400 0.000000 0.000000 0.000000 0.000000 0.000000 0.000000 42.659200 -22.195127 19.021130 180.000000 2.020943 19.021130 38.119107 -5.712612 -17.633558 141.880893 18.468111 -24.270510 29.068887 -8.075252 17.633558 18.000000 -0.359912 4.755283
1186.646461 396.272757 89.237511 0.000000 0.000000 0.000000 0.000000 0.000000 0.000000 -72.847419 2.535166 19.960535 107.152581 21.536765 19.960535 -156.703603 -4.714058 -20.536413 178.447294 8.008719 -21.869059 -157.212393 -4.732633 20.536413 1.964058 0.483988 4.648882
1313.051605 426.636125 101.536485 0.000000 0.000000 0.000000 0.000000 0.000000 0.000000 90.994869 -1.344251 19.645745 -89.005131 3.875835 19.645745 -160.515303 -5.261500 -23.115397 -153.248861 -5.034259 -19.122720 -159.640525 -5.097851 23.115397 0.000000 0.000000 0.000000
1347.999344 420.772226 99.537524 0.000000 0.000000 0.000000 0.000000 0.000000 0.000000 90.154351 -6.799247 18.096541 -89.845649 12.738121 18.096541 -162.053401 -4.938922 -25.329838 -136.198880 -2.401139 -16.074804 -160.991694 -3.797512 25.329838 0.000000 0.000000 0.000000
1344.315948 421.031681 84.910398 0.000000 0.000000 0.000000 0.000000 0.000000 0.000000 69.757587 3.729582 15.410265 -110.242413 12.169090 15.410265 25.616746 -6.337766 -27.144812 -157.821005 -3.024619 -12.773379 17.214985 3.126749 27.144812 -16.704706 -0.065823 4.221640
1350.307617 440.309436 99.881467 0.000000 0.000000 0.000000 0.000000 0.000000 0.000000 71.124018 16.660887 11.755705 -108.875982 -2.420843 11.755705 42.739987 -0.731612 -28.531695 -142.315466 -5.085559 -9.270510 16.600926 1.537943 28.531695 -16.660102 -0.128854 4.045085
1357.685051 430.688889 66.454297 0.000000 0.000000 0.000000 0.000000 0.000000 0.000000 77.656077 -2.236086 7.362491 -102.343923 -15.715673 7.362491 39.407151 13.402659 -29.468618 -136.343173 -3.293235 -5.621439 22.144452 3.025728 29.468618 -16.305135 -0.214406 3.852566
1369.482193 445.909406 79.967609 0.000000 0.000000 0.000000 0.000000 0.000000 0.000000 88.051188 1.260002 2.506665 -91.948812 -2.776307 2.506665 -161.283973 -3.070610 -29.940802 -119.799169 2.352471 -1.883716 -164.575400 -3.960682 29.940802 1.401013 0.444985 3.644843
963.875156 444.858159 73.074382 0.000000 0.000000 0.000000 0.000000 0.000000 0.000000 45.304844 17.433216 -2.506665 180.000000 -40.504212 -2.506665 37.252439 5.051546 -29.940802 142.747561 -18.798082 1.883716 25.146244 3.316059 29.940802 18.000000 -0.546842 3.422736
963.971479 444.850633 61.056017 0.000000 0.000000 0.000000 0.000000 0.000000 0.000000 45.383640 50.786412 -7.362491 180.000000 -19.272559 -7.362491 36.882310 2.727382 -29.468618 143.117690 -10.578707 5.621439 24.499789 8.371624 29.468618 18.000000 -0.522051 3.187120
1336.629524 469.010178 64.032669 0.000000 0.000000 0.000000 0.000000 0.000000 0.000000 -72.390177 -4.420107 -11.755705 107.609823 30.714696 -11.755705 -158.649984 -2.963057 -28.531695 2.583425 0.783933 9.270510 -39.658551 5.146518 28.531695 10.837181 0.573957 2.938926
1311.966934 518.219100 57.266689 0.000000 0.000000 0.000000 0.000000 0.000000 0.000000 -63.565072 46.196506 -15.410265 116.434928 30.968610 -15.410265 -14.840750 -0.633181 -27.144812 -158.549348 -2.349856 12.773379 17.488774 1.875296 27.144812 7.174982 0.293187 2.679134
964.257793 444.826908 48.890633 0.000000 0.000000 0.000000 0.000000 0.000000 0.000000 45.262206 -21.446566 -18.096541 180.000000 31.010383 -18.096541 35.497192 -21.400161 -25.329838 144.502808 13.450804 16.074804 22.522929 5.868757 25.329838 18.000000 -0.984667 2.408768
1275.921364 516.836239 33.594881 0.000000 0.000000 0.000000 0.000000 0.000000 0.000000 85.186295 -4.184095 -19.645745 -94.813705 -2.835233 -19.645745 52.470689 -5.766811 -23.115397 -44.513683 -5.542934 19.122720 50.867598 -1.066330 23.115397 -8.717188 -0.383010 2.128896
1263.254128 546.875424 59.361188 0.000000 0.000000 0.000000 0.000000 0.000000 0.000000 34.848242 49.659799 -19.960535 -145.151758 -49.793711 -19.960535 42.487561 -52.142348 -20.536413 -157.415675 -3.324235 21.869059 22.420880 2.082638 20.536413 -15.757912 -0.208264 1.840623
1258.788185 528.263061 52.356269 0.000000 0.000000 0.000000 0.000000 0.000000 0.000000 118.326865 12.864002 -19.021130 -61.673135 -4.184815 -19.021130 143.214759 5.434004 -17.633558 -156.228306 -2.258510 24.270510 28.173554 2.777912 17.633558 -15.182645 -0.277791 1.545085
1231.492081 471.383836 41.179072 0.000000 0.000000 0.000000 0.000000 0.000000 0.000000 -115.049381 26.829293 -16.886559 64.950619 -20.631035 -16.886559 172.843704 5.252198 -14.452610 -157.842300 -2.517876 26.289200 32.851042 2.095579 14.452610 -14.714896 -0.209558 1.243449
1223.928795 435.993515 45.729705 0.000000 0.000000 0.000000 0.000000 0.000000 0.000000 -115.322532 -13.605155 -13.690942 64.677468 11.481459 -13.690942 -168.597862 -7.301281 -11.043737 -158.853816 -1.746306 27.893295 31.099266 3.737728 11.043737 -14.890073 -0.373773 0.936907
1223.669701 418.195664 40.684403 0.000000 0.000000 0.000000 0.000000 0.000000 0.000000 -102.084053 27.124218 -9.635073 77.915947 -2.109062 -9.635073 -171.103858 -6.595902 -7.460697 162.056334 -4.465508 29.057495 -153.594437 -2.422588 7.460697 2.968481 0.279129 0.626666
1216.486244 414.503002 57.006115 0.000000 0.000000 0.000000 0.000000 0.000000 0.000000 69.261091 46.797876 -4.973798 -110.738909 1.184675 -4.973798 -158.083722 -2.696530 -3.759997 -173.244581 1.010693 29.763441 -154.635509 -3.246306 3.759997 2.928763 0.331131 0.313953
1212.090225 434.550980 63.858663 0.000000 0.000000 0.000000 0.000000 0.000000 0.000000 -112.403932 30.783817 0.000000 67.596068 -13.579972 0.000000 -157.060799 -2.908112 -0.000000 173.400765 -5.695569 30.000000 -154.473580 -2.960489 0.000000 2.734633 0.452387 0.000000
1214.024734 450.340490 60.298848 0.000000 0.000000 0.000000 0.000000 0.000000 0.000000 -110.634751 3.817894 4.973798 69.365249 1.839199 4.973798 -137.583343 0.367688 3.759997 -158.589698 -2.533060 29.763441 20.879446 4.090639 -3.759997 -15.912055 -0.409064 0.313953
1204.271393 440.192921 77.454534 0.000000 0.000000 0.000000 0.000000 0.000000 0.000000 -99.498286 11.307865 9.635073 80.501714 26.054148 9.635073 -156.696469 -3.278207 7.460697 -178.487725 -0.816479 29.057495 -157.318323 -2.454805 -7.460697 2.108583 0.369454 0.626666
965.269558 444.725315 47.796431 0.000000 0.000000 0.000000 0.000000 0.000000 0.000000 40.845461 43.275398 13.690942 180.000000 -20.465549 13.690942 28.615377 -3.288804 11.043737 151.384623 2.162344 27.893295 16.305092 -10.162451 -11.043737 18.000000 0.705315 0.936907
1182.456551 475.103824 72.867637 0.000000 0.000000 0.000000 0.000000 0.000000 0.000000 -168.146016 80.882899 16.886559 11.853984 -53.990036 16.886559 -63.802645 -7.551884 14.452610 -61.114510 -9.267817 26.289200 -47.869281 9.793628 -14.452610 -13.834956 7.475977 1.243449
965.446390 444.704404 78.406625 0.000000 0.000000 0.000000 0.000000 0.000000 0.000000 39.578146 27.678944 19.021130 180.000000 -19.277577 19.021130 27.338029 3.660338 17.633558 152.661971 -10.617685 24.270510 15.463180 11.119958 -17.633558 18.000000 -0.421962 1.545085
965.533915 444.693669 86.067509 0.000000 0.000000 0.000000 0.000000 0.000000 0.000000 38.916706 -12.624908 19.960535 180.000000 5.976731 19.960535 26.716768 -2.903015 20.536413 153.283232 0.937453 21.869059 15.076605 -4.721313 -20.536413 18.000000 0.428693 1.840623
965.620834 444.682749 62.027638 0.000000 0.000000 0.000000 0.000000 0.000000 0.000000 38.241653 37.274841 19.645745 180.000000 -22.619632 19.645745 26.109467 0.809794 23.115397 153.890533 -8.757886 19.122720 14.712258 0.491950 -23.115397 18.000000 0.224573 2.128896
965.707136 444.671645 93.403443 0.000000 0.000000 0.000000 0.000000 0.000000 0.000000 37.556504 28.286083 18.096541 180.000000 -11.359570 18.096541 25.517536 -3.458346 25.329838 154.482464 -10.217214 16.074804 14.369537 4.724765 -25.329838 18.000000 -0.214825 2.408768
965.792812 444.660356 100.932430 0.000000 0.000000 0.000000 0.000000 0.000000 0.000000 36.864608 -56.231045 15.410265 180.000000 17.919552 15.410265 24.942131 -4.451341 27.144812 155.057869 15.936721 12.773379 14.047797 1.399426 -27.144812 18.000000 -0.347291 2.679134
965.877853 444.648882 86.730377 0.000000 0.000000 0.000000 0.000000 0.000000 0.000000 36.169118 26.732418 11.755705 180.000000 -3.942741 11.755705 24.384173 -6.470469 28.531695 155.615827 -11.206365 9.270510 13.746367 6.384642 -28.531695 18.000000 -0.097034 2.938926
965.962249 444.637226 89.758565 0.000000 0.000000 0.000000 0.000000 0.000000 0.000000 35.472980 33.561104 7.362491 180.000000 -31.965715 7.362491 23.844373 14.986901 29.468618 156.155627 -9.686811 5.621439 13.464570 -4.305761 -29.468618 18.000000 0.724948 3.187120
966.045991 444.625386 104.680559 0.000000 0.000000 0.000000 0.000000 0.000000 0.000000 34.778913 -11.721428 2.506665 180.000000 13.343252 2.506665 23.323250 7.552416 29.940802 156.676750 9.065101 1.883716 13.201728 -0.409397 -29.940802 18.000000 0.186464 3.422736
966.129071 444.613364 100.159607 0.000000 0.000000 0.000000 0.000000 0.000000 0.000000 34.089406 10.808912 -2.506665 180.000000 9.888883 -2.506665 22.821158 0.967088 29.940802 157.178842 20.054189 -1.883716 12.957175 -12.594548 -29.940802 18.000000 0.254959 3.644843
966.211478 444.601159 95.744630 0.000000 0.000000 0.000000 0.000000 0.000000 0.000000 33.406712 -14.453413 -7.362491 180.000000 -3.175541 -7.362491 22.338307 -7.112776 29.468618 157.661693 -3.939049 -5.621439 12.730264 2.113794 -29.468618 18.000000 -0.070146 3.852566
1171.486244 534.946783 111.272966 0.000000 0.000000 0.000000 0.000000 0.000000 0.000000 70.594720 -2.442430 -11.755705 -109.405280 0.066884 -11.755705 49.953444 0.410989 28.531695 -151.467583 -4.652418 -9.270510 0.000000 0.000000 0.000000 0.000000 0.000000 0.000000
966.374240 444.576206 104.308844 0.000000 0.000000 0.000000 0.000000 0.000000 0.000000 32.069603 -21.061007 -15.410265 180.000000 6.366408 -15.410265 21.430544 -3.178333 27.144812 158.569456 0.625819 -12.773379 12.326901 0.253750 -27.144812 18.000000 -0.314438 4.221640
1172.156410 555.047708 113.916908 0.000000 0.000000 0.000000 0.000000 0.000000 0.000000 -121.065102 25.714541 -18.096541 58.934898 -18.172060 -18.096541 -151.641456 -5.774565 25.329838 -177.360623 -9.064515 -16.074804 -149.076048 -6.044263 -25.329838 0.000000 0.000000 0.000000
1161.826630 552.360713 132.328394 0.000000 0.000000 0.000000 0.000000 0.000000 0.000000 69.958407 52.380400 -19.645745 -110.041593 -56.645950 -19.645745 -152.437496 -5.117191 23.115397 -158.790607 -8.695986 -19.122720 -150.591725 -5.981319 -23.115397 3.219062 0.724323 4.524135
1165.827255 569.832902 129.520320 0.000000 0.000000 0.000000 0.000000 0.000000 0.000000 25.594208 -23.548615 -19.960535 -154.405792 -8.915221 -19.960535 11.723883 3.102729 20.536413 -161.543160 0.550330 -21.869059 7.769582 -2.020226 -20.536413 -17.248199 0.197941 4.648882
1165.555573 565.067046 125.006488 0.000000 0.000000 0.000000 0.000000 0.000000 0.000000 43.355707 -4.063487 -19.021130 -136.644293 -6.760452 -19.021130 15.984329 7.271003 17.633558 -140.773833 -3.064770 -24.270510 13.679449 0.395355 -17.633558 -16.392157 -0.013651 4.755283
1290.255775 608.533316 151.618571 0.000000 0.000000 0.000000 0.000000 0.000000 0.000000 -153.952071 22.453432 -16.886559 26.047929 -19.788373 -16.886559 -152.683807 -5.402772 14.452610 4.794196 -3.311670 -26.289200 -154.287190 -5.728325 -14.452610 2.418080 0.512901 4.842916
1180.398903 551.817470 138.245735 0.000000 0.000000 0.000000 0.000000 0.000000 0.000000 51.640104 10.935485 -13.690942 -128.359896 5.084901 -13.690942 14.419400 -12.376855 11.043737 -33.521359 -21.764665 -27.893295 -34.277510 3.554577 -11.043737 5.235387 1.144275 4.911436
1162.708626 619.419501 144.313098 0.000000 0.000000 0.000000 0.000000 0.000000 0.000000 -88.968325 10.168651 -9.635073 91.031675 -10.518386 -9.635073 -52.690088 3.550252 7.460697 25.015222 -4.519255 -29.057495 -72.561734 -0.592555 -7.460697 8.557489 0.183294 4.960574
1110.899391 602.919216 141.320998 0.000000 0.000000 0.000000 0.000000 0.000000 0.000000 -86.972237 5.076419 -4.973798 93.027763 10.733479 -4.973798 -39.551144 -3.746607 3.759997 34.838085 -2.257359 -29.763441 -44.185810 0.612488 -3.759997 10.000609 -0.807041 4.990134
1150.187302 553.686991 146.837857 0.000000 0.000000 0.000000 0.000000 0.000000 0.000000 -116.065142 -7.922388 -0.000000 63.934858 14.826083 -0.000000 -151.059314 -6.496344 0.000000 -0.492058 5.475842 -30.000000 -14.044098 15.641405 -0.000000 1.929760 -0.022046 5.000000
967.144727 444.440682 133.829139 0.000000 0.000000 0.000000 0.000000 0.000000 0.000000 26.270296 2.783659 4.973798 180.000000 6.866314 4.973798 17.996647 -4.170066 -3.759997 162.003353 6.440612 -29.763441 11.189167 0.163885 3.759997 18.000000 -0.341333 4.990134
1213.452644 620.002785 150.063503 0.000000 0.000000 0.000000 0.000000 0.000000 0.000000 140.390379 34.606821 9.635073 -39.609621 -38.339730 9.635073 77.724607 11.167325 -7.460697 -153.982965 -6.964897 -29.057495 24.142749 6.407232 7.460697 -0.833727 -0.711743 4.960574
1124.373779 618.464527 160.919560 0.000000 0.000000 0.000000 0.000000 0.000000 0.000000 99.329635 -7.904949 13.690942 -80.670365 -16.800348 13.690942 85.960927 7.684757 -11.043737 -150.875293 -6.762545 -27.893295 31.644098 6.709526 11.043737 -14.835590 -0.670953 4.911436
967.360971 444.396582 147.258338 0.000000 0.000000 0.000000 0.000000 0.000000 0.000000 24.874716 -16.944239 16.886559 180.000000 19.084128 16.886559 17.291102 0.479467 -14.452610 162.708898 6.368557 -26.289200 11.098846 4.592716 14.452610 18.000000 0.060797 4.842916
1107.875175 542.453964 148.634252 0.000000 0.000000 0.000000 0.000000 0.000000 0.000000 -128.741314 1.070710 19.021130 51.258686 -0.499353 19.021130 -177.225595 -2.503083 -17.633558 19.954750 -3.458855 -24.270510 162.677362 2.184984 17.633558 -1.443098 -0.177657 4.755283
1119.652290 522.766346 153.006503 0.000000 0.000000 0.000000 0.000000 0.000000 0.000000 -99.017754 -1.256131 19.960535 80.982246 -13.897274 19.960535 -150.289603 -6.722317 -20.536413 -152.613833 -7.658430 -21.869059 0.000000 0.000000 0.000000 0.000000 0.000000 0.000000
1132.908783 538.229613 151.719096 0.000000 0.000000 0.000000 0.000000 0.000000 0.000000 -127.874185 5.116996 19.645745 52.125815 -5.037841 19.645745 -165.450188 -1.800638 -23.115397 -152.521515 -7.655441 -19.122720 40.606225 9.458951 23.115397 -13.939378 -0.945895 4.524135
1146.969337 541.828065 165.542941 0.000000 0.000000 0.000000 0.000000 0.000000 0.000000 -113.631604 -4.250307 18.096541 66.368396 6.919803 18.096541 -159.067475 -2.445256 -25.329838 113.981862 -0.320243 -16.074804 -145.449815 -6.615429 25.329838 0.000000 0.000000 0.000000
1165.252304 561.329677 152.130067 0.000000 0.000000 0.000000 0.000000 0.000000 0.000000 -112.861399 4.590006 15.410265 67.138601 -1.660912 15.410265 -159.396543 -0.480913 -27.144812 -151.967552 -6.921928 -12.773379 38.422588 8.105971 27.144812 -14.157741 -0.810597 4.221640
1174.726181 592.839689 138.796567 0.000000 0.000000 0.000000 0.000000 0.000000 0.000000 -110.369899 -1.440806 11.755705 69.630101 -3.692595 11.755705 -148.108768 8.657339 -28.531695 -151.515612 -6.213283 -9.270510 34.277732 8.882197 28.531695 -14.572227 -0.888220 4.045085
1167.352524 605.194867 150.563552 0.000000 0.000000 0.000000 0.000000 0.000000 0.000000 -113.828445 2.931554 7.362491 66.171555 5.791135 7.362491 -131.688453 -4.041595 -29.468618 -151.045756 -6.715389 -5.621439 27.200835 9.568738 29.468618 -15.279916 -0.956874 3.852566
1139.678879 602.981014 136.031438 0.000000 0.000000 0.000000 0.000000 0.000000 0.000000 -97.599684 31.071994 2.506665 82.400316 3.003856 2.506665 -113.965806 3.507551 -29.940802 -121.058781 2.106243 -1.883716 -118.492407 -2.905258 29.940802 10.137620 -7.341757 3.644843
1165.830002 580.020189 97.226130 0.000000 0.000000 0.000000 0.000000 0.000000 0.000000 -28.085052 25.515609 -2.506665 151.914948 -34.894809 -2.506665 -150.589103 -5.408992 -29.940802 -172.678414 -7.303129 1.883716 -149.717924 -6.041451 29.940802 0.000000 0.000000 0.000000
1184.501953 619.872494 129.093546 0.000000 0.000000 0.000000 0.000000 0.000000 0.000000 -113.790307 -25.500862 -7.362491 66.209693 11.088018 -7.362491 -59.272274 -0.996007 -29.468618 29.476823 -1.937235 5.621439 -88.148483 1.171303 29.468618 7.414604 0.250610 3.187120
968.090170 444.221640 122.294095 0.000000 0.000000 0.000000 0.000000 0.000000 0.000000 21.092887 1.753853 -11.755705 180.000000 -6.612183 -11.755705 15.757771 4.723306 -28.531695 164.242229 -0.132606 9.270510 11.678908 -4.887724 28.531695 18.000000 0.266853 2.938926
968.151278 444.204723 127.417096 0.000000 0.000000 0.000000 0.000000 0.000000 0.000000 20.844337 -2.956788 -15.410265 180.000000 -0.192226 -15.410265 15.691895 3.624213 -27.144812 164.308105 4.922985 12.773379 11.804629 -3.650784 27.144812 18.000000 -0.123981 2.679134
968.211492 444.187640 124.223233 0.000000 0.000000 0.000000 0.000000 0.000000 0.000000 20.610265 -3.446116 -18.096541 180.000000 -6.282447 -18.096541 15.637361 13.983268 -25.329838 164.362639 -2.462635 16.074804 11.943263 5.352247 25.329838 18.000000 -0.186308 2.408768
968.270806 444.170392 112.992515 0.000000 0.000000 0.000000 0.000000 0.000000 0.000000 20.390366 -15.576785 -19.645745 180.000000 -9.999747 -19.645745 15.594026 5.556256 -23.115397 164.405974 -8.247598 19.122720 12.095062 8.360052 23.115397 18.000000 0.381651 2.128896
968.329212 444.152979 112.437574 0.000000 0.000000 0.000000 0.000000 0.000000 0.000000 20.184343 -9.415258 -19.960535 180.000000 -0.197415 -19.960535 15.561766 4.782652 -20.536413 164.438234 13.691613 21.869059 12.260289 -10.390149 20.536413 18.000000 0.801938 1.840623
968.386706 444.135403 104.470089 0.000000 0.000000 0.000000 0.000000 0.000000 0.000000 19.991916 14.865936 -19.021130 180.000000 -7.737905 -19.021130 15.540476 5.810178 -17.633558 164.459524 -1.692884 24.270510 12.439222 -1.608527 17.633558 18.000000 0.076702 1.545085
968.443279 444.117663 87.097616 0.000000 0.000000 0.000000 0.000000 0.000000 0.000000 19.812814 17.529648 -16.886559 180.000000 -9.406884 -16.886559 15.530069 -4.491474 -14.452610 164.469931 -7.018121 26.289200 12.632146 -2.661550 14.452610 18.000000 0.787351 1.243449
968.498927 444.099761 88.408174 0.000000 0.000000 0.000000 0.000000 0.000000 0.000000 19.646785 2.337554 -13.690942 180.000000 5.970220 -13.690942 15.530474 -11.220872 -11.043737 164.469526 1.329441 27.893295 12.839349 -2.177024 11.043737 18.000000 0.795220 0.936907
968.553643 444.081696 90.981740 0.000000 0.000000 0.000000 0.000000 0.000000 0.000000 19.493591 31.129341 -9.635073 180.000000 -9.754780 -9.635073 15.541640 0.485811 -7.460697 164.458360 -5.295057 29.057495 13.061119 -0.637768 7.460697 18.000000 -0.284331 0.626666
1051.772690 653.004448 93.208380 0.000000 0.000000 0.000000 0.000000 0.000000 0.000000 -79.007834 18.406826 -4.973798 100.992166 -8.986163 -4.973798 -126.715299 -1.499007 -3.759997 -149.991181 -4.727622 29.763441 31.772279 6.241771 3.759997 -14.822772 -0.624177 0.313953
1061.669197 624.716241 72.892331 0.000000 0.000000 0.000000 0.000000 0.000000 0.000000 -94.718359 -9.439534 0.000000 85.281641 0.652837 0.000000 -144.150484 0.639453 -0.000000 60.155085 12.616595 30.000000 -152.711462 -4.218250 0.000000 1.815393 0.108793 0.000000
1072.053337 571.032879 58.321454 0.000000 0.000000 0.000000 0.000000 0.000000 0.000000 71.424080 5.228766 4.973798 -108.575920 -9.053010 4.973798 -149.042361 -3.366395 3.759997 -149.913636 -3.513333 29.763441 -145.792107 -3.857375 -3.759997 3.947623 0.454408 0.313953
1070.057373 572.884376 78.761039 0.000000 0.000000 0.000000 0.000000 0.000000 0.000000 -80.850201 -28.806877 9.635073 99.149799 32.783740 9.635073 -147.567525 -3.940177 7.460697 -164.443014 1.398629 29.057495 -145.447997 -4.203348 -7.460697 4.032371 0.348083 0.626666
968.813035 443.988972 64.532235 0.000000 0.000000 0.000000 0.000000 0.000000 0.000000 18.912944 -6.048062 13.690942 180.000000 4.654273 13.690942 15.758200 9.117335 11.043737 164.241800 1.421244 27.893295 14.397395 -2.259212 -11.043737 18.000000 0.532089 0.936907
968.862036 443.969952 48.506123 0.000000 0.000000 0.000000 0.000000 0.000000 0.000000 18.832684 20.663096 16.886559 180.000000 -2.350802 16.886559 15.833735 1.265981 14.452610 164.166265 -2.651078 26.289200 14.711463 2.667819 -14.452610 18.000000 0.177311 1.243449
968.910065 443.950775 45.731876 0.000000 0.000000 0.000000 0.000000 0.000000 0.000000 18.764066 12.369250 19.021130 180.000000 -1.107008 19.021130 15.920102 -4.768304 17.633558 164.079898 -0.867763 24.270510 15.041323 -0.814972 -17.633558 18.000000 0.395239 1.545085
968.957118 443.931442 45.316223 0.000000 0.000000 0.000000 0.000000 0.000000 0.000000 18.706990 5.072060 19.960535 180.000000 -0.979091 19.960535 16.017366 4.150103 20.536413 163.982634 7.109598 21.869059 15.386894 -4.556965 -20.536413 18.000000 0.115242 1.840623
969.003188 443.911954 53.949063 0.000000 0.000000 0.000000 0.000000 0.000000 0.000000 18.661377 -3.036317 19.645745 180.000000 -0.319552 19.645745 16.125602 -1.420209 23.115397 163.874398 -2.478271 19.122720 15.747980 3.285956 -23.115397 18.000000 0.413688 2.128896
969.048271 443.892312 65.167897 0.000000 0.000000 0.000000 0.000000 0.000000 0.000000 18.627165 -3.344374 18.096541 180.000000 -3.023073 18.096541 16.244896 -0.947190 25.329838 163.755104 2.433021 16.074804 16.124252 -5.417443 -25.329838 18.000000 -0.143456 2.408768
969.092361 443.872515 56.454245 0.000000 0.000000 0.000000 0.000000 0.000000 0.000000 18.604312 0.019116 15.410265 180.000000 8.930981 15.410265 16.375340 -3.347854 27.144812 163.624660 9.173274 12.773379 16.515224 -5.916762 -27.144812 18.000000 -0.171262 2.679134
1055.186234 577.357593 57.355962 0.000000 0.000000 0.000000 0.000000 0.000000 0.000000 85.510211 -4.646429 11.755705 -94.489789 1.412400 11.755705 37.103410 -4.426558 28.531695 -148.111343 -2.871021 9.270510 24.294182 2.318567 -28.531695 -8.601915 0.462855 2.938926
1122.856522 566.714029 55.459611 0.000000 0.000000 0.000000 0.000000 0.000000 0.000000 96.216240 8.417474 7.362491 -83.783760 2.198744 7.362491 46.189625 1.808083 29.468618 -149.396962 -1.984256 5.621439 24.670091 1.979903 -29.468618 -7.107716 0.462891 3.187120
969.218632 443.812213 46.873190 0.000000 0.000000 0.000000 0.000000 0.000000 0.000000 18.603763 -2.622843 2.506665 180.000000 7.611067 2.506665 16.834613 2.439526 29.940802 163.165387 7.316425 1.883716 17.768624 -6.480603 -29.940802 18.000000 -0.095282 3.422736
1112.757797 605.798106 47.219177 0.000000 0.000000 0.000000 0.000000 0.000000 0.000000 110.914625 1.822289 -2.506665 -69.085375 15.643813 -2.506665 67.769469 -20.010389 29.940802 -149.822316 -2.908618 -1.883716 29.049901 2.199774 -29.940802 -3.625079 0.619500 3.644843
1086.733246 592.557156 57.761647 0.000000 0.000000 0.000000 0.000000 0.000000 0.000000 -80.132323 -48.462009 -7.362491 99.867677 48.657165 -7.362491 36.201564 13.960140 29.468618 -13.679556 4.787396 -5.621439 78.049842 3.335407 -29.468618 -5.127460 -0.652827 3.852566
1081.109390 570.394492 51.421522 0.000000 0.000000 0.000000 0.000000 0.000000 0.000000 -175.864613 6.845809 -11.755705 4.135387 -0.163455 -11.755705 134.713876 1.659729 28.531695 -10.005873 -1.120760 -9.270510 135.737755 -0.859801 -28.531695 -3.389365 0.271856 4.045085
1089.776802 536.594539 59.551575 0.000000 0.000000 0.000000 0.000000 0.000000 0.000000 -139.033903 33.432386 -15.410265 40.966097 -33.446847 -15.410265 161.695972 -3.116730 27.144812 3.114398 -5.894827 -12.773379 148.805610 -3.332007 -27.144812 -2.611636 0.160958 4.221640
1114.282036 523.965647 53.109814 0.000000 0.000000 0.000000 0.000000 0.000000 0.000000 -156.073983 -13.198829 -18.096541 23.926017 13.449914 -18.096541 174.825807 1.462514 25.329838 5.093343 5.712698 -16.074804 161.266817 0.736580 -25.329838 -1.814366 -0.105210 4.381533
1122.145157 503.425248 82.472801 0.000000 0.000000 0.000000 0.000000 0.000000 0.000000 -144.538174 -27.995656 -19.645745 35.461826 9.559756 -19.645745 174.215003 1.387690 23.115397 -151.750905 -2.584787 -19.122720 43.887064 4.314627 -23.115397 -13.611294 -0.431463 4.524135
1134.158249 484.688419 65.954495 0.000000 0.000000 0.000000 0.000000 0.000000 0.000000 -142.311443 -0.913394 -19.960535 37.688557 -5.449661 -19.960535 -174.407776 -3.270358 20.536413 14.121014 -4.190778 -21.869059 176.737053 -0.379494 -20.536413 -0.386439 0.161887 4.648882
1156.756668 500.025387 67.029822 0.000000 0.000000 0.000000 0.000000 0.000000 0.000000 -140.140767 2.793267 -19.021130 39.859233 3.875175 -19.021130 -176.866589 0.829992 17.633558 -153.177991 -3.602631 -24.270510 40.555680 4.871264 -17.633558 -13.944432 -0.487126 4.755283
1163.818588 490.292573 59.397646 0.000000 0.000000 0.000000 0.000000 0.000000 0.000000 -126.918075 8.088456 -16.886559 53.081925 4.581415 -16.886559 -163.374411 -3.651241 14.452610 -153.952175 -4.485917 -26.289200 36.914642 4.329820 -14.452610 0.798233 0.171646 4.842916
1176.523705 490.346003 94.589028 0.000000 0.000000 0.000000 0.000000 0.000000 0.000000 -130.072590 -15.386604 -13.690942 49.927410 14.266536 -13.690942 -150.224616 0.759363 11.043737 24.749952 10.198674 -27.893295 -162.219632 0.480324 -11.043737 1.550269 -0.233517 4.911436
1165.045052 489.521159 71.363154 0.000000 0.000000 0.000000 0.000000 0.000000 0.000000 -134.421293 -4.462164 -9.635073 45.578707 -7.058517 -9.635073 -138.114962 -0.218986 7.460697 20.347125 1.326237 -29.057495 -149.675125 -1.209513 -7.460697 1.919618 -0.047339 4.960574
1186.003189 485.341580 82.528137 0.000000 0.000000 0.000000 0.000000 0.000000 0.000000 151.263424 51.723700 -4.973798 -28.736576 -37.754265 -4.973798 -155.571724 -4.020207 3.759997 -114.944239 16.850473 -29.763441 -157.446860 -5.187252 -3.759997 2.096391 0.497078 4.990134
1190.285912 497.609435 92.924059 0.000000 0.000000 0.000000 0.000000 0.000000 0.000000 -104.331435 -21.355393 -0.000000 75.668565 28.721604 -0.000000 -153.934692 -4.810944 0.000000 -67.465008 11.438669 -30.000000 -71.629168 -5.508835 -0.000000 -13.965204 8.560205 5.000000
846.875610 502.341399 103.229587 0.000000 0.000000 0.000000 0.000000 0.000000 0.000000 -153.358185 -7.843160 4.973798 26.641815 1.855383 4.973798 -147.628169 -5.791806 -3.759997 -147.401289 -5.945863 -29.763441 0.000000 0.000000 0.000000 0.000000 0.000000 0.000000
969.711343 443.490827 86.989850 0.000000 0.000000 0.000000 0.000000 0.000000 0.000000 20.204512 13.284402 9.635073 180.000000 0.878469 9.635073 20.733157 -0.285200 -7.460697 159.266843 0.717469 -29.057495 24.065833 -12.301175 7.460697 18.000000 0.193186 4.960574
969.735789 443.468267 117.925573 0.000000 0.000000 0.000000 0.000000 0.000000 0.000000 20.415894 14.278438 13.690942 180.000000 5.162522 13.690942 21.087741 1.713534 -11.043737 158.912259 -1.570649 -27.893295 24.320336 3.171931 11.043737 18.000000 0.166714 4.911436
969.759168 443.445569 103.100210 0.000000 0.000000 0.000000 0.000000 0.000000 0.000000 20.642061 -18.234008 16.886559 180.000000 4.043862 16.886559 21.453029 -5.954594 -14.452610 158.546971 7.697495 -26.289200 24.533304 -20.868180 14.452610 18.000000 0.405049 4.842916
585.252171 514.469179 112.688691 0.000000 0.000000 0.000000 0.000000 0.000000 0.000000 74.723181 45.837361 19.021130 -105.276819 -64.732847 19.021130 119.807175 19.920225 -17.633558 165.825978 0.010492 -24.270510 138.012220 9.235019 17.633558 -12.357653 -2.609421 4.755283
624.843979 517.601860 116.293098 0.000000 0.000000 0.000000 0.000000 0.000000 0.000000 103.202449 -0.381474 19.960535 -76.797551 14.469898 19.960535 114.381580 4.504126 -20.536413 -53.015473 17.551260 -21.869059 145.467160 2.677807 20.536413 -4.173333 0.141404 4.648882
969.822873 443.376664 141.377875 0.000000 0.000000 0.000000 0.000000 0.000000 0.000000 21.413420 8.831568 19.645745 180.000000 -3.401741 19.645745 22.607712 0.084011 -23.115397 157.392288 -6.807071 -19.122720 24.899813 5.579706 23.115397 18.000000 -1.244419 4.524135
969.841956 443.353428 131.668235 0.000000 0.000000 0.000000 0.000000 0.000000 0.000000 21.702987 9.113014 18.096541 180.000000 5.517412 18.096541 23.009909 -2.713198 -25.329838 156.990091 7.303978 -16.074804 24.926562 -3.192100 25.329838 18.000000 -0.708228 4.381533
969.859960 443.330059 136.898546 0.000000 0.000000 0.000000 0.000000 0.000000 0.000000 22.009579 16.976490 15.410265 180.000000 2.605696 15.410265 23.419334 1.562464 -27.144812 156.580666 2.124309 -12.773379 24.904993 7.205644 27.144812 18.000000 -0.738146 4.221640
594.905148 538.048757 131.895787 0.000000 0.000000 0.000000 0.000000 0.000000 0.000000 -57.080480 44.021642 11.755705 122.919520 -4.463745 11.755705 -12.750556 -24.714017 -28.531695 149.841027 -4.806658 -9.270510 -8.274090 -2.540328 28.531695 17.596979 0.127978 4.045085
969.892723 443.282929 128.556147 0.000000 0.000000 0.000000 0.000000 0.000000 0.000000 22.675903 17.097943 7.362491 180.000000 -2.752685 7.362491 24.255612 9.272510 -29.468618 155.744388 -6.237837 -5.621439 24.720303 8.053898 29.468618 18.000000 -1.357738 3.852566
1257.001877 499.708382 149.274609 0.000000 0.000000 0.000000 0.000000 0.000000 0.000000 52.818511 -1.535527 2.506665 -127.181489 -3.352883 2.506665 25.369497 2.075627 -29.940802 -143.914951 1.338874 -1.883716 14.556766 1.041299 29.940802 -16.686776 -0.094039 3.644843
1279.050064 493.773898 148.491255 0.000000 0.000000 0.000000 0.000000 0.000000 0.000000 56.685213 -2.857926 -2.506665 -123.314787 1.596720 -2.506665 24.065452 0.547215 -29.940802 -146.540317 0.996995 1.883716 13.097461 0.080750 29.940802 -16.716891 -0.208850 3.422736
1295.108986 477.099677 153.106239 0.000000 0.000000 0.000000 0.000000 0.000000 0.000000 65.723361 -2.497845 -7.362491 -114.276639 -0.421240 -7.362491 23.725299 1.518532 -29.468618 -147.984281 1.618698 5.621439 13.187557 -1.728108 29.468618 -16.751134 0.028888 3.187120
1289.065018 496.763316 160.117338 0.000000 0.000000 0.000000 0.000000 0.000000 0.000000 61.662232 -1.216348 -11.755705 -118.337768 0.536219 -11.755705 31.397757 -0.313750 -28.531695 -148.047797 -3.831707 9.270510 12.491083 0.341495 28.531695 -16.898368 -0.128355 2.938926
1285.337105 480.691112 156.167495 0.000000 0.000000 0.000000 0.000000 0.000000 0.000000 58.021980 -0.405118 -15.410265 -121.978020 -5.615770 -15.410265 31.705930 -0.210593 -27.144812 -157.028684 -4.107208 12.773379 11.107306 3.709374 27.144812 -17.140016 -0.136665 2.679134
1276.453171 465.093691 160.278662 0.000000 0.000000 0.000000 0.000000 0.000000 0.000000 70.157145 -1.600752 -18.096541 -109.842855 5.648845 -18.096541 40.303764 -1.993539 -25.329838 -145.293609 1.249844 16.074804 10.431204 -0.708174 25.329838 -17.100572 -0.143795 2.408768
1253.658714 472.768564 140.724258 0.000000 0.000000 0.000000 0.000000 0.000000 0.000000 65.087926 -13.892609 -19.645745 -114.912074 5.140922 -19.645745 -157.680356 -6.793611 -23.115397 -137.727082 -6.011303 19.122720 -153.053596 11.961721 23.115397 -16.054219 -0.810646 2.128896
1366.101608 507.691247 152.631609 0.000000 0.000000 0.000000 0.000000 0.000000 0.000000 108.715100 6.288149 -19.960535 -71.284900 6.841644 -19.960535 156.661132 -15.104052 -20.536413 -158.224303 -6.021666 21.869059 0.000000 0.000000 0.000000 0.000000 0.000000 0.000000
969.986295 443.064535 144.778649 0.000000 0.000000 0.000000 0.000000 0.000000 0.000000 26.662144 -5.710107 -19.021130 180.000000 -0.001088 -19.021130 28.015351 2.060515 -17.633558 151.984649 -6.055192 24.270510 22.068935 8.243964 17.633558 18.000000 -0.541445 1.545085
1282.107124 481.511257 155.409135 0.000000 0.000000 0.000000 0.000000 0.000000 0.000000 80.650781 34.408967 -16.886559 -99.349219 -3.955594 -16.886559 1.511604 0.188644 -14.452610 -32.896908 -8.034675 26.289200 -7.727072 5.721126 14.452610 13.531851 2.433881 1.243449
1282.921486 484.777769 140.660625 0.000000 0.000000 0.000000 0.000000 0.000000 0.000000 -81.737646 -35.746631 -13.690942 98.262354 27.103723 -13.690942 -23.867101 -0.295499 -11.043737 12.655668 4.978568 27.893295 -29.454911 -1.105440 11.043737 9.861248 -1.757982 0.936907
1290.933037 513.180238 128.806175 0.000000 0.000000 0.000000 0.000000 0.000000 0.000000 -91.387864 2.770237 -9.635073 88.612136 3.270733 -9.635073 -41.685392 -5.004629 -7.460697 -161.156957 -5.998402 29.057495 15.157863 4.863184 7.460697 10.543436 1.426123 0.626666
969.999452 442.964284 137.576963 0.000000 0.000000 0.000000 0.000000 0.000000 0.000000 29.025427 21.887226 -4.973798 180.000000 -11.294786 -4.973798 29.437993 -4.819014 -3.759997 150.562007 -14.147751 29.763441 20.404746 -0.460381 3.759997 18.000000 0.484457 0.313953
970.000000 442.938926 149.606941 0.000000 0.000000 0.000000 0.000000 0.000000 0.000000 29.678605 9.252074 0.000000 180.000000 -3.247463 0.000000 29.744881 10.365565 -0.000000 150.255119 -0.098553 30.000000 19.983107 -2.925046 0.000000 18.000000 0.033055 0.000000
1354.522934 467.411410 141.010528 0.000000 0.000000 0.000000 0.000000 0.000000 0.000000 150.622570 6.932317 4.973798 -29.377430 -5.855129 4.973798 140.176400 -2.046997 3.759997 -12.221629 -1.694799 29.763441 132.794256 -3.726570 -3.759997 -2.626015 0.287273 0.313953
969.997807 442.887864 118.082917 0.000000 0.000000 0.000000 0.000000 0.000000 0.000000 31.061399 -7.561766 9.635073 180.000000 3.091171 9.635073 30.285790 -9.406623 7.460697 149.714210 -3.173526 29.057495 19.151579 -4.196804 -7.460697 18.000000 0.969918 0.626666
1246.736984 514.278152 120.342819 0.000000 0.000000 0.000000 0.000000 0.000000 0.000000 143.557092 -1.371890 13.690942 -36.442908 -4.551854 13.690942 133.761037 6.327404 11.043737 -156.950665 -5.914929 27.893295 0.000000 0.000000 0.000000 1.928484 0.477942 0.936907
1245.221100 458.637464 119.855832 0.000000 0.000000 0.000000 0.000000 0.000000 0.000000 160.701064 -19.073510 16.886559 -19.298936 24.851612 16.886559 140.193827 -10.321467 14.452610 -157.554825 -5.034185 26.289200 29.500467 6.315598 -14.452610 -15.049953 -0.631560 1.243449
1257.365570 418.514181 121.608136 0.000000 0.000000 0.000000 0.000000 0.000000 0.000000 -143.710676 -2.906147 19.021130 36.289324 10.664816 19.021130 163.220413 -0.270629 17.633558 11.688054 5.378229 24.270510 152.038385 -3.172525 -17.633558 -2.339948 0.107892 1.545085
1275.099564 408.163741 103.412025 0.000000 0.000000 0.000000 0.000000 0.000000 0.000000 -132.929531 -6.199906 19.960535 47.070469 -5.323552 19.960535 173.491912 5.251318 20.536413 -160.709681 -4.651588 21.869059 33.138793 6.127858 -20.536413 -14.686121 -0.612786 1.840623
1290.611115 384.880857 107.835263 0.000000 0.000000 0.000000 0.000000 0.000000 0.000000 -132.705235 -5.033831 19.645745 47.294765 7.497286 19.645745 -173.778854 -2.342838 23.115397 20.496835 -3.687033 19.122720 -161.220290 -3.226613 -23.115397 1.723235 0.343850 2.128896
1302.817154 380.305352 94.512123 0.000000 0.000000 0.000000 0.000000 0.000000 0.000000 -131.493915 -3.296578 18.096541 48.506085 13.162785 18.096541 -165.393697 -5.771137 25.329838 23.154815 -0.145851 16.074804 -178.200316 -0.396624 -25.329838 0.138141 0.060337 2.408768
1304.997711 379.563582 97.598481 0.000000 0.000000 0.000000 0.000000 0.000000 0.000000 -126.727972 -2.832964 15.410265 53.272028 2.242099 15.410265 -160.219593 0.884158 27.144812 28.448880 0.558149 12.773379 -174.368770 0.586158 -27.144812 0.079526 0.103803 2.679134
1311.668472 386.890390 78.199019 0.000000 0.000000 0.000000 0.000000 0.000000 0.000000 -122.308728 3.319356 11.755705 57.691272 14.059778 11.755705 -158.801130 0.256073 28.531695 150.942637 5.694272 9.270510 -154.878332 -4.865217 -28.531695 2.695409 0.579351 2.938926
1305.131836 395.180186 65.657328 0.000000 0.000000 0.000000 0.000000 0.000000 0.000000 -125.112810 -0.567911 7.362491 54.887190 10.985863 7.362491 -146.487292 -7.325370 29.468618 -175.167369 -2.101588 5.621439 -159.224034 -4.145580 -29.468618 1.782042 0.515782 3.187120
1296.320457 392.734526 98.777665 0.000000 0.000000 0.000000 0.000000 0.000000 0.000000 -131.035750 -15.886989 2.506665 48.964250 16.359965 2.506665 -128.969563 -2.545375 29.940802 38.856147 2.837708 1.883716 -134.776850 0.715692 -29.940802 3.458429 0.029140 3.422736
1306.963577 386.612041 79.920040 0.000000 0.000000 0.000000 0.000000 0.000000 0.000000 -124.469622 -11.059726 -2.506665 55.530378 10.580805 -2.506665 -109.994856 -6.314965 29.940802 37.691309 0.152103 -1.883716 -118.274788 1.081913 -29.940802 5.098336 -0.090358 3.644843
969.892723 442.572198 53.103570 0.000000 0.000000 0.000000 0.000000 0.000000 0.000000 41.287575 17.603813 -7.362491 180.000000 5.786723 -7.362491 30.974696 -11.115471 29.468618 149.025304 -10.427558 -5.621439 15.072869 6.566195 -29.468618 18.000000 -0.287979 3.852566
969.876883 442.545207 62.185595 0.000000 0.000000 0.000000 0.000000 0.000000 0.000000 42.241956 30.187854 -11.755705 180.000000 -15.373923 -11.755705 30.826133 12.184489 28.531695 149.173867 2.306734 -9.270510 14.823070 -2.450632 -28.531695 18.000000 0.543908 4.045085
969.859960 442.518116 65.192349 0.000000 0.000000 0.000000 0.000000 0.000000 0.000000 43.199779 0.985523 -15.410265 180.000000 -12.767577 -15.410265 30.649504 -7.391490 27.144812 149.350496 -14.874533 -12.773379 14.587557 2.309489 -27.144812 18.000000 0.155397 4.221640
969.841956 442.490926 55.484678 0.000000 0.000000 0.000000 0.000000 0.000000 0.000000 44.157210 -14.798310 -18.096541 180.000000 -23.139545 -18.096541 30.446417 22.425234 25.329838 149.553583 2.479816 -16.074804 14.366154 -2.958250 -25.329838 18.000000 0.162196 4.381533
969.822873 442.463637 51.506117 0.000000 0.000000 0.000000 0.000000 0.000000 0.000000 45.110117 29.268588 -19.645745 180.000000 6.499787 -19.645745 30.218633 -16.183985 23.115397 149.781367 -5.742276 -19.122720 14.158653 3.022983 -23.115397 18.000000 -0.265093 4.524135
969.802712 442.436251 51.441528 0.000000 0.000000 0.000000 0.000000 0.000000 0.000000 46.054109 -4.528891 -19.960535 180.000000 9.541120 -19.960535 29.968037 2.004377 20.536413 150.031963 11.114294 -21.869059 13.964823 0.248808 -20.536413 18.000000 -0.118018 4.648882
1187.040939 541.658249 54.153585 0.000000 0.000000 0.000000 0.000000 0.000000 0.000000 82.806623 2.716082 -19.021130 -97.193377 -15.358734 -19.021130 45.395981 7.299607 17.633558 -156.144455 -2.651169 -24.270510 0.000000 0.000000 0.000000 0.000000 0.000000 0.000000
1182.242889 522.024286 52.534773 0.000000 0.000000 0.000000 0.000000 0.000000 0.000000 -105.721938 13.717653 -16.886559 74.278062 -4.177035 -16.886559 -155.708006 -2.494064 14.452610 -157.302521 -2.702994 -26.289200 0.000000 0.000000 0.000000 2.684983 0.228346 4.842916
1180.914459 527.065626 44.546897 0.000000 0.000000 0.000000 0.000000 0.000000 0.000000 88.055617 -11.320801 -13.690942 -91.944383 3.233424 -13.690942 -158.862018 -2.146041 11.043737 -151.747289 -1.580986 -27.893295 0.000000 0.000000 0.000000 0.000000 0.000000 0.000000
1236.800194 541.387432 50.723027 0.000000 0.000000 0.000000 0.000000 0.000000 0.000000 -85.588400 20.018608 -9.635073 94.411600 -2.397233 -9.635073 -159.297106 1.397510 7.460697 -157.915391 -2.329541 -29.057495 26.607362 3.051073 -7.460697 14.926890 -1.633546 4.960574
1161.066513 575.006626 41.999409 0.000000 0.000000 0.000000 0.000000 0.000000 0.000000 -81.021168 0.614167 -4.973798 98.978832 -4.904420 -4.973798 -102.851701 2.406142 3.759997 -157.041007 -2.269866 -29.763441 21.429890 2.298767 -3.759997 10.859432 -0.097457 4.990134
1255.636253 512.645942 50.759677 0.000000 0.000000 0.000000 0.000000 0.000000 0.000000 77.832564 -4.556354 -0.000000 -102.167436 -6.542123 -0.000000 -158.264834 -1.613190 0.000000 -130.745502 0.013726 -30.000000 -157.699225 -2.770598 -0.000000 0.000000 0.000000 0.000000
1265.118484 521.473864 49.247254 0.000000 0.000000 0.000000 0.000000 0.000000 0.000000 64.078276 -1.109419 4.973798 -115.921724 0.500581 4.973798 41.397952 -1.880404 -3.759997 -139.329851 2.698413 -29.763441 20.223252 -1.584429 3.759997 -16.047574 -0.075444 4.990134
1228.099480 522.138258 49.610530 0.000000 0.000000 0.000000 0.000000 0.000000 0.000000 71.050901 3.704870 9.635073 -108.949099 -6.085909 9.635073 150.099970 3.207566 -7.460697 -139.894702 -1.553858 -29.057495 -156.275691 -2.890506 7.460697 0.000000 0.000000 0.000000
1240.357246 528.695873 44.966656 0.000000 0.000000 0.000000 0.000000 0.000000 0.000000 65.413351 -5.239069 13.690942 -114.586649 17.920831 13.690942 147.242328 -20.501578 -11.043737 -154.470720 -1.967500 -27.893295 25.557225 2.210361 11.043737 -15.444278 -0.221036 4.911436
1231.815262 551.380248 43.559752 0.000000 0.000000 0.000000 0.000000 0.000000 0.000000 56.412506 4.655744 16.886559 -123.587494 15.653851 16.886559 -153.392336 -3.635247 -14.452610 -154.784582 -1.955149 -26.289200 24.191555 3.717499 14.452610 -15.580844 -0.371750 4.842916
1221.475182 508.360147 73.539718 0.000000 0.000000 0.000000 0.000000 0.000000 0.000000 77.450622 -17.155152 19.021130 -102.549378 -3.065564 19.021130 -156.789784 -2.276767 -17.633558 -125.590168 -1.372704 -24.270510 -160.017240 -2.565138 17.633558 1.833434 0.323094 4.755283
969.477684 442.100429 74.645379 0.000000 0.000000 0.000000 0.000000 0.000000 0.000000 54.932575 -32.025163 19.960535 180.000000 18.717325 19.960535 25.919122 -7.599923 -20.536413 154.080878 0.086323 -21.869059 12.612867 -0.233093 20.536413 18.000000 0.660842 4.648882
1480.140495 518.878891 79.454853 0.000000 0.000000 0.000000 0.000000 0.000000 0.000000 -110.621767 -88.447649 19.645745 69.378233 88.498258 19.645745 -158.235933 -2.837828 -23.115397 166.031448 2.997984 -19.122720 -155.186432 -2.243754 23.115397 2.641553 0.309575 4.524135
1271.640472 556.840560 68.259429 0.000000 0.000000 0.000000 0.000000 0.000000 0.000000 -94.404719 -19.370125 18.096541 85.595281 -0.100707 18.096541 -62.417786 1.549799 -25.329838 23.992813 0.363376 -16.074804 -76.856107 -1.605156 25.329838 7.708835 0.075049 4.381533
1258.556786 530.268441 60.871757 0.000000 0.000000 0.000000 0.000000 0.000000 0.000000 78.355945 -11.898424 15.410265 -101.644055 6.039840 15.410265 35.068294 -2.308931 -27.144812 -54.090640 3.456397 -12.773379 35.848220 3.188547 27.144812 -8.104639 -0.988378 4.221640
1250.800209 527.150567 73.712753 0.000000 0.000000 0.000000 0.000000 0.000000 0.000000 72.417769 3.685943 11.755705 -107.582231 4.464766 11.755705 24.571109 -3.116947 -28.531695 -39.196117 6.290198 -9.270510 10.411117 -2.049632 28.531695 -9.048616 -3.422578 4.045085
1243.466148 571.776259 66.056865 0.000000 0.000000 0.000000 0.000000 0.000000 0.000000 86.301473 9.957183 7.362491 -93.698527 -6.202418 7.362491 24.553534 -3.080741 -29.468618 -153.460385 -4.170347 -5.621439 19.510484 3.173200 29.468618 -10.109500 -0.383515 3.852566
1261.883812 566.052918 67.216838 0.000000 0.000000 0.000000 0.000000 0.000000 0.000000 94.015209 7.520111 2.506665 -85.984791 -7.056596 2.506665 38.959993 -1.749475 -29.940802 -154.008305 -4.340291 -1.883716 20.870951 2.975643 29.940802 -10.872440 1.754540 3.644843
1284.436798 527.190542 116.045555 0.000000 0.000000 0.000000 0.000000 0.000000 0.000000 111.186365 0.645639 -2.506665 -68.813635 -6.567869 -2.506665 58.506163 4.218830 -29.940802 -19.138727 1.634686 1.883716 51.457372 -2.803540 29.940802 -5.203198 0.226813 3.422736
1272.860069 533.494012 97.056095 0.000000 0.000000 0.000000 0.000000 0.000000 0.000000 72.301471 21.942166 -7.362491 -107.698529 -1.639053 -7.362491 78.802573 2.095348 -29.468618 -154.772375 -4.693581 5.621439 26.927455 3.523551 29.468618 -15.307255 -0.352355 3.187120
1255.264664 498.243735 95.462173 0.000000 0.000000 0.000000 0.000000 0.000000 0.000000 164.596971 -54.645512 -11.755705 -15.403029 58.985033 -11.755705 125.849126 -8.003761 -28.531695 -156.067666 -4.657781 9.270510 33.087561 4.692710 28.531695 -14.691244 -0.469271 2.938926
1259.202232 470.407684 100.212205 0.000000 0.000000 0.000000 0.000000 0.000000 0.000000 -139.980397 -2.292877 -15.410265 40.019603 -14.918701 -15.410265 165.887722 4.535915 -27.144812 -157.901492 -5.221080 12.773379 35.196094 5.233440 27.144812 -14.480391 -0.523344 2.679134
1236.502075 429.951335 116.156546 0.000000 0.000000 0.000000 0.000000 0.000000 0.000000 -113.295066 9.586758 -18.096541 66.704934 -14.281179 -18.096541 -174.664169 -0.459341 -25.329838 -159.007335 -6.513729 16.074804 32.868990 6.631342 25.329838 -14.713101 -0.663134 2.408768
1253.359451 413.942538 132.883535 0.000000 0.000000 0.000000 0.000000 0.000000 0.000000 -123.348580 8.433328 -19.645745 56.651420 8.486770 -19.645745 -167.815074 -4.585360 -23.115397 -159.603180 -5.989977 19.122720 32.791747 6.332309 23.115397 -14.720825 -0.633231 2.128896
1281.206589 405.664523 110.724302 0.000000 0.000000 0.000000 0.000000 0.000000 0.000000 -124.414271 2.291261 -19.960535 55.585729 -4.808474 -19.960535 -161.281803 -0.459442 -20.536413 28.568449 -4.211174 21.869059 -159.052798 -4.708519 20.536413 1.849141 0.449936 1.840623
1300.238571 418.760215 132.438468 0.000000 0.000000 0.000000 0.000000 0.000000 0.000000 -126.263092 -2.342615 -19.021130 53.736908 -2.125053 -19.021130 -159.739358 4.075516 -17.633558 31.487961 3.781095 24.270510 -170.323915 -0.599873 17.633558 0.671815 -0.242238 1.545085
1321.889191 413.634385 143.847275 0.000000 0.000000 0.000000 0.000000 0.000000 0.000000 -133.874471 5.007350 -16.886559 46.125529 1.769322 -16.886559 -159.376251 -1.826736 -14.452610 30.696824 4.300869 26.289200 -164.929556 -0.699959 14.452610 1.089735 -0.232655 1.243449
1336.221428 432.881820 152.408375 0.000000 0.000000 0.000000 0.000000 0.000000 0.000000 -115.020798 -1.746308 -13.690942 64.979202 6.596421 -13.690942 -135.609544 -3.177946 -11.043737 -161.321630 -5.550887 27.893295 17.353502 8.662365 11.043737 -16.264650 -0.866237 0.936907
1329.124603 416.860342 148.834474 0.000000 0.000000 0.000000 0.000000 0.000000 0.000000 -134.023347 -7.076742 -9.635073 45.976653 6.652485 -9.635073 -128.030830 -2.502855 -7.460697 28.249885 3.735809 29.057495 -136.447985 0.014349 7.460697 4.038834 0.018195 0.626666
1343.366776 427.060794 131.517098 0.000000 0.000000 0.000000 0.000000 0.000000 0.000000 -130.153347 -0.198897 -4.973798 49.846653 4.269519 -4.973798 -103.564435 -0.986504 -3.759997 27.398095 3.346682 29.763441 -115.461530 -3.774188 3.759997 5.470063 0.005277 0.313953
1376.991005 465.829636 140.264602 0.000000 0.000000 0.000000 0.000000 0.000000 0.000000 -120.272352 10.523094 0.000000 59.727648 -1.639298 0.000000 -62.204131 0.221109 -0.000000 27.740602 -1.790987 30.000000 -80.461527 0.764995 0.000000 7.450891 -0.259565 0.000000
1384.978867 468.790376 150.207033 0.000000 0.000000 0.000000 0.000000 0.000000 0.000000 -93.720384 12.367338 4.973798 86.279616 15.911710 4.973798 3.847814 2.056064 3.759997 -160.438787 -6.158085 29.763441 15.990976 5.328873 -3.759997 7.894783 -1.101101 0.313953
1345.894547 516.257268 151.148208 0.000000 0.000000 0.000000 0.000000 0.000000 0.000000 127.577640 7.298407 9.635073 -52.422360 -12.494513 9.635073 53.096359 7.100816 7.460697 -159.021748 -6.957786 29.057495 18.308456 5.610661 -7.460697 -4.062191 -3.629617 0.626666
968.498927 441.455181 144.287041 0.000000 0.000000 0.000000 0.000000 0.000000 0.000000 47.920147 18.904031 13.690942 180.000000 -23.721223 13.690942 19.641385 4.874509 11.043737 160.358615 -6.389561 27.893295 13.993219 -0.043660 -11.043737 18.000000 -0.204348 0.936907
1336.846733 493.527671 147.492046 0.000000 0.000000 0.000000 0.000000 0.000000 0.000000 102.681311 17.041273 16.886559 -77.318689 -2.990899 16.886559 35.985219 8.718437 14.452610 -159.617763 -6.417712 26.289200 19.375410 5.963424 -14.452610 -16.062459 -0.596342 1.243449
968.386706 441.394956 144.382752 0.000000 0.000000 0.000000 0.000000 0.000000 0.000000 46.120581 23.346621 19.021130 180.000000 6.297572 19.021130 19.316787 -8.675308 17.633558 160.683213 -4.265933 24.270510 14.327067 0.408946 -17.633558 18.000000 -0.296099 1.545085
1263.984947 433.341283 130.936392 0.000000 0.000000 0.000000 0.000000 0.000000 0.000000 -115.578373 5.597637 19.960535 64.421627 -5.726269 19.960535 -82.396446 -0.181720 20.536413 25.733383 7.733483 21.869059 -77.477544 3.385721 -20.536413 5.836928 -0.620446 1.840623
1352.596436 477.564354 141.258508 0.000000 0.000000 0.000000 0.000000 0.000000 0.000000 -99.196741 -7.990736 19.645745 80.803259 2.846237 19.645745 -125.272585 -2.323730 23.115397 -162.405270 -6.196829 19.122720 17.377627 6.336002 -23.115397 -16.262237 -0.633600 2.128896
1384.326782 408.174427 140.099503 0.000000 0.000000 0.000000 0.000000 0.000000 0.000000 96.868601 -34.576622 18.096541 -83.131399 30.262598 18.096541 -160.848957 -6.231122 25.329838 -137.255583 10.819151 16.074804 -162.076720 -7.317688 -25.329838 0.000000 0.000000 0.000000
1387.580223 387.128634 144.004391 0.000000 0.000000 0.000000 0.000000 0.000000 0.000000 78.087764 11.917984 15.410265 -101.912236 6.249671 15.410265 -161.807915 -6.548946 27.144812 -147.504361 0.156175 12.773379 -162.566306 -7.391333 -27.144812 1.735427 0.840398 2.679134
1345.818558 392.423122 116.633840 0.000000 0.000000 0.000000 0.000000 0.000000 0.000000 71.782984 -0.744178 11.755705 -108.217016 1.915907 11.755705 -169.469261 5.081230 28.531695 -153.903088 7.049314 9.270510 -154.670689 -7.921880 -28.531695 15.277725 -0.622490 2.938926
1331.471329 361.814139 142.236510 0.000000 0.000000 0.000000 0.000000 0.000000 0.000000 53.586100 -12.852005 7.362491 -126.413900 -12.661438 7.362491 -162.290330 -5.515519 29.468618 -154.912165 -0.416318 5.621439 -162.550394 -7.031042 -29.468618 1.742175 0.829946 3.187120
1354.413986 427.213873 122.657524 0.000000 0.000000 0.000000 0.000000 0.000000 0.000000 -131.358118 -2.445840 2.506665 48.641882 -12.506692 2.506665 -142.488821 -0.216176 29.940802 -161.977882 -6.469589 1.883716 12.673705 9.150269 -29.940802 1.397524 -0.105528 3.422736
1330.326691 347.207226 141.251455 0.000000 0.000000 0.000000 0.000000 0.000000 0.000000 52.464175 8.733293 -2.506665 -127.535825 2.819836 -2.506665 14.270918 -1.329729 29.940802 -122.057234 1.193570 -1.883716 22.820874 0.752175 -29.940802 -15.244909 -0.184220 3.644843
1317.103271 414.475805 126.123774 0.000000 0.000000 0.000000 0.000000 0.000000 0.000000 76.170457 10.808257 -7.362491 -103.829543 -7.313093 -7.362491 -50.250674 3.186426 29.468618 -52.503744 -1.862691 -5.621439 -92.793049 4.867962 -29.468618 3.303440 -0.414280 3.852566
1331.844635 430.291482 133.027266 0.000000 0.000000 0.000000 0.000000 0.000000 0.000000 79.985160 -10.285853 -11.755705 -100.014840 1.695471 -11.755705 25.995082 7.313952 28.531695 -75.062603 6.905760 -9.270510 38.761234 -0.638332 -28.531695 -11.442229 -0.507131 4.045085
1359.462433 496.472383 117.108602 0.000000 0.000000 0.000000 0.000000 0.000000 0.000000 84.268829 -2.448775 -15.410265 -95.731171 -0.464372 -15.410265 30.279153 0.837812 27.144812 -63.318008 1.292958 -12.773379 39.457716 0.342391 -27.144812 -9.485742 0.335453 4.221640
1323.514366 546.771398 102.608890 0.000000 0.000000 0.000000 0.000000 0.000000 0.000000 84.407325 16.123913 -18.096541 -95.592675 -7.667741 -18.096541 27.768249 3.576588 25.329838 -47.660055 -0.623757 -16.074804 28.281511 -8.921185 -25.329838 -7.827901 1.172484 4.381533
1268.535347 591.567099 89.959642 0.000000 0.000000 0.000000 0.000000 0.000000 0.000000 90.890792 -7.411841 -19.645745 -89.109208 -1.528295 -19.645745 44.654760 6.754418 23.115397 -48.200667 0.330656 -19.122720 43.369388 2.607247 -23.115397 -8.974980 -0.805249 4.524135
1303.157158 602.888768 100.682728 0.000000 0.000000 0.000000 0.000000 0.000000 0.000000 90.349289 2.941051 -19.960535 -89.650711 2.721970 -19.960535 47.707312 -1.766924 20.536413 -53.918782 -2.143000 -21.869059 40.070965 8.912842 -20.536413 -9.318632 0.262421 4.648882
1314.841690 613.141973 102.276158 0.000000 0.000000 0.000000 0.000000 0.000000 0.000000 94.480501 -3.655104 -19.021130 -85.519499 1.828950 -19.021130 58.462862 -0.807744 17.633558 -52.020507 -3.477628 -24.270510 55.276552 1.276461 -17.633558 -7.777523 -0.616453 4.755283
1327.521400 639.394319 95.447748 0.000000 0.000000 0.000000 0.000000 0.000000 0.000000 99.879576 -8.893932 -16.886559 -80.120424 -0.596635 -16.886559 69.161359 5.568364 14.452610 -46.413613 0.209777 -26.289200 76.680143 -0.687529 -14.452610 -6.257768 0.232338 4.842916
1277.812729 671.228578 89.629785 0.000000 0.000000 0.000000 0.000000 0.000000 0.000000 99.708534 5.568955 -13.690942 -80.291466 -5.060417 -13.690942 92.239140 2.258548 11.043737 -26.764021 -4.149329 -27.893295 98.168457 -5.350831 -11.043737 -4.372074 0.156106 4.911436
1309.642181 690.479329 72.813262 0.000000 0.000000 0.000000 0.000000 0.000000 0.000000 117.292414 -0.623122 -9.635073 -62.707586 3.396717 -9.635073 137.002702 -0.076013 7.460697 -32.045917 -1.186957 -29.057495 135.211322 3.983170 -7.460697 -3.212944 -0.096573 4.960574
1299.770966 664.126496 64.769824 0.000000 0.000000 0.000000 0.000000 0.000000 0.000000 158.531160 3.046296 -4.973798 -21.468840 -5.409862 -4.973798 161.478323 4.636558 3.759997 -12.838206 -0.339760 -29.763441 151.269584 -0.092450 -3.759997 -2.521934 0.180472 4.990134
1313.353729 643.668108 69.692224 0.000000 0.000000 0.000000 0.000000 0.000000 0.000000 -154.315892 8.145410 -0.000000 25.684108 8.216798 -0.000000 173.459940 -4.355377 0.000000 1.519689 -2.579939 -30.000000 164.244875 3.779846 -0.000000 -1.552244 -0.236566 5.000000
1342.841377 638.982847 83.107564 0.000000 0.000000 0.000000 0.000000 0.000000 0.000000 -138.993869 13.805747 4.973798 41.006131 -17.270612 4.973798 175.724056 1.756327 -3.759997 -151.723069 -3.141542 -29.763441 43.242568 4.371417 3.759997 -13.675743 -0.437142 4.990134
1350.000229 614.724133 75.444375 0.000000 0.000000 0.000000 0.000000 0.000000 0.000000 -144.248147 15.925530 9.635073 35.751853 -7.063592 9.635073 177.069273 -0.224818 -7.460697 -152.227621 -3.208771 -29.057495 43.136563 4.116370 7.460697 -13.686344 -0.411637 4.960574
1328.535919 624.780936 51.025399 0.000000 0.000000 0.000000 0.000000 0.000000 0.000000 -165.447222 25.229166 13.690942 14.552778 11.845485 13.690942 169.657511 -3.666459 -11.043737 -152.168050 -2.833351 -27.893295 41.929642 3.658389 11.043737 -13.807036 -0.365839 4.911436
1318.810501 615.688248 55.211377 0.000000 0.000000 0.000000 0.000000 0.000000 0.000000 -120.063657 2.839675 16.886559 59.936343 -7.966732 16.886559 -165.389465 1.035149 -14.452610 -152.866764 -3.043576 -26.289200 39.162270 2.184213 14.452610 -14.083773 -0.218421 4.842916
1321.656418 659.275410 68.556821 0.000000 0.000000 0.000000 0.000000 0.000000 0.000000 -121.435085 0.198465 19.021130 58.564915 -0.362825 19.021130 -149.190712 -2.274037 -17.633558 -151.926374 -2.720183 -24.270510 33.097066 2.781136 17.633558 -14.690293 -0.278114 4.755283
1328.445511 687.490232 37.823269 0.000000 0.000000 0.000000 0.000000 0.000000 0.000000 -104.253419 -0.177316 19.960535 75.746581 6.700755 19.960535 -110.140878 1.472099 -20.536413 -152.911692 -1.966899 -21.869059 23.882145 2.303839 20.536413 3.694979 0.000919 4.648882
966.534206 440.564282 40.627935 0.000000 0.000000 0.000000 0.000000 0.000000 0.000000 25.865486 0.088103 19.645745 180.000000 6.863567 19.645745 18.728337 5.436787 -23.115397 161.271663 6.440477 -19.122720 19.024234 10.035793 23.115397 18.000000 -1.932120 4.524135
966.454577 440.533056 36.151879 0.000000 0.000000 0.000000 0.000000 0.000000 0.000000 25.417507 16.955548 18.096541 180.000000 3.624302 18.096541 18.825450 -16.834784 -25.329838 161.174550 -3.231935 -16.074804 19.071566 -10.931225 25.329838 18.000000 2.056262 4.381533
966.374240 440.501809 48.098386 0.000000 0.000000 0.000000 0.000000 0.000000 0.000000 24.990320 -31.142543 15.410265 180.000000 7.357557 15.410265 18.929718 5.856152 -27.144812 161.070282 9.614518 -12.773379 19.102411 3.831649 27.144812 18.000000 -1.194302 4.221640
966.293204 440.470542 45.997468 0.000000 0.000000 0.000000 0.000000 0.000000 0.000000 24.583377 0.704571 11.755705 180.000000 -4.742603 11.755705 19.040946 4.108394 -28.531695 160.959054 8.216399 -9.270510 19.116765 -14.799525 28.531695 18.000000 1.010883 4.045085
966.211478 440.439256 49.378109 0.000000 0.000000 0.000000 0.000000 0.000000 0.000000 24.196129 -36.464309 7.362491 180.000000 0.433445 7.362491 19.158923 10.136079 -29.468618 160.841077 12.796999 -5.621439 19.114778 -5.877114 29.468618 18.000000 0.951270 3.852566
644.985180 745.864069 51.713788 0.000000 0.000000 0.000000 0.000000 0.000000 0.000000 96.086415 8.549320 2.506665 -83.913585 15.163165 2.506665 -159.662371 1.030834 -29.940802 -116.741565 -0.347102 -1.883716 -176.001217 1.528067 29.940802 -1.006627 -0.781331 3.644843
1269.020119 699.025490 49.990923 0.000000 0.000000 0.000000 0.000000 0.000000 0.000000 83.810916 -0.583393 -2.506665 -96.189084 4.765815 -2.506665 51.932890 -1.149180 -29.940802 -149.314466 -2.390985 1.883716 27.598511 1.876864 29.940802 -15.240149 -0.187686 3.422736
573.721218 678.450201 64.633688 0.000000 0.000000 0.000000 0.000000 0.000000 0.000000 18.756393 33.544996 -7.362491 -161.243607 33.143351 -7.362491 -174.158094 -12.595916 -29.468618 178.010322 -3.932530 5.621439 -154.394154 8.144996 29.468618 11.886524 -3.413922 3.187120
1261.580200 714.897366 57.818779 0.000000 0.000000 0.000000 0.000000 0.000000 0.000000 87.191276 -2.274232 -11.755705 -92.808724 4.916673 -11.755705 23.129119 2.743899 -28.531695 -149.376238 -1.935917 9.270510 24.545507 2.493545 28.531695 13.583501 -5.794130 2.938926
1314.655838 684.171546 52.681597 0.000000 0.000000 0.000000 0.000000 0.000000 0.000000 61.219932 8.872196 -15.410265 -118.780068 -11.369115 -15.410265 25.476616 5.993639 -27.144812 -150.404247 -2.722996 12.773379 24.621454 1.954929 27.144812 -15.537855 -0.195493 2.679134
1319.638939 674.820013 53.425465 0.000000 0.000000 0.000000 0.000000 0.000000 0.000000 82.055377 2.945485 -18.096541 -97.944623 2.337870 -18.096541 17.325085 -6.231861 -25.329838 -60.067277 -5.568023 16.074804 23.747728 1.898979 25.329838 -13.005173 0.425352 2.408768
1367.852325 659.536314 58.324886 0.000000 0.000000 0.000000 0.000000 0.000000 0.000000 -150.278430 -7.128835 -19.645745 29.721570 10.638429 -19.645745 -151.222797 -2.613877 -23.115397 18.758043 2.877996 19.122720 -152.451920 -2.512954 23.115397 2.484143 0.161449 2.128896
1392.624664 638.981302 78.830281 0.000000 0.000000 0.000000 0.000000 0.000000 0.000000 -122.704248 -12.547895 -19.960535 57.295752 6.825862 -19.960535 -134.513385 -2.097175 -20.536413 30.292627 7.993156 21.869059 -146.694539 -2.700899 20.536413 2.430965 0.265833 1.840623
1401.291389 646.422758 73.232855 0.000000 0.000000 0.000000 0.000000 0.000000 0.000000 83.316637 -2.144930 -19.021130 -96.683363 -7.085853 -19.021130 29.335627 2.914647 -17.633558 -136.281416 -1.359518 24.270510 19.119183 -1.764199 17.633558 -15.871560 0.214547 1.545085
1381.838951 663.410475 67.168766 0.000000 0.000000 0.000000 0.000000 0.000000 0.000000 79.215331 5.532937 -16.886559 -100.784669 0.402259 -16.886559 30.640455 -4.994522 -14.452610 -139.113455 -2.668819 26.289200 14.302413 0.224818 14.452610 -16.408036 0.085384 1.243449
1390.185928 664.248354 79.821361 0.000000 0.000000 0.000000 0.000000 0.000000 0.000000 75.546066 2.802388 -13.690942 -104.453934 -6.412821 -13.690942 38.995097 -4.838249 -11.043737 -142.871297 1.873246 27.893295 14.209110 -2.415362 11.043737 -16.737090 0.052840 0.936907
1393.889923 677.551103 80.047922 0.000000 0.000000 0.000000 0.000000 0.000000 0.000000 84.293627 -6.903539 -9.635073 -95.706373 1.995811 -9.635073 -152.700272 -3.242809 -7.460697 -143.357755 1.588868 29.057495 -148.868889 -3.974519 7.460697 3.626268 0.432379 0.626666
905.601082 693.654528 95.691873 0.000000 0.000000 0.000000 0.000000 0.000000 0.000000 -84.410869 -11.137055 -4.973798 95.589131 13.677023 -4.973798 -139.498802 -4.639613 -3.759997 -178.556713 45.937045 29.763441 -142.061844 -4.812348 3.759997 3.411456 0.473794 0.313953
1337.643929 680.318756 103.333455 0.000000 0.000000 0.000000 0.000000 0.000000 0.000000 78.192517 3.753800 0.000000 -101.807483 0.067989 0.000000 48.289813 -1.150311 -0.000000 -140.291980 1.046695 30.000000 13.663140 0.862137 0.000000 -17.395561 -0.135599 0.000000
1322.670708 685.543334 95.089541 0.000000 0.000000 0.000000 0.000000 0.000000 0.000000 71.501063 -7.383483 4.973798 -108.498937 2.798065 4.973798 23.648228 -2.994588 3.759997 -144.586500 0.813385 29.763441 14.578018 -2.309710 -3.759997 -16.885607 0.040069 0.313953
1305.530548 682.910864 92.472296 0.000000 0.000000 0.000000 0.000000 0.000000 0.000000 72.979287 -35.167796 9.635073 -107.020713 8.997096 9.635073 -148.728581 -4.083408 7.460697 -74.802907 1.782511 29.057495 -151.178244 -4.090039 -7.460697 2.601049 0.399934 0.626666
1359.363556 692.650115 87.278112 0.000000 0.000000 0.000000 0.000000 0.000000 0.000000 73.244804 1.684222 13.690942 -106.755196 -11.794880 13.690942 13.983499 6.322138 11.043737 -67.611809 -6.273411 27.893295 13.130547 2.684835 -11.043737 -11.004089 -0.542328 0.936907
1299.495964 679.994059 118.932624 0.000000 0.000000 0.000000 0.000000 0.000000 0.000000 116.206779 4.396405 16.886559 -63.793221 0.567725 16.886559 -150.858719 -4.498459 14.452610 -34.548592 1.636141 26.289200 60.366751 -3.254677 -14.452610 -4.627493 -0.131964 1.243449
1306.260338 711.527116 110.832025 0.000000 0.000000 0.000000 0.000000 0.000000 0.000000 -85.758672 19.615704 19.021130 94.241328 -18.892659 19.021130 -31.461750 2.539012 17.633558 -4.237664 -2.359024 24.270510 -15.215787 -6.230586 -17.633558 7.867754 3.115376 1.545085
1272.614822 704.778571 119.897245 0.000000 0.000000 0.000000 0.000000 0.000000 0.000000 -78.634637 16.159982 19.960535 101.365363 1.882408 19.960535 -34.118569 -5.952443 20.536413 22.539652 3.209549 21.869059 -31.373170 0.352339 -20.536413 11.310693 0.009108 1.840623
1310.345650 676.427021 110.361529 0.000000 0.000000 0.000000 0.000000 0.000000 0.000000 97.572435 7.255720 19.645745 -82.427565 -5.138391 19.645745 50.400703 1.946863 23.115397 -39.584286 0.588911 19.122720 44.966766 -8.894207 -23.115397 -8.852712 1.134709 2.128896
1315.732956 671.025095 125.562079 0.000000 0.000000 0.000000 0.000000 0.000000 0.000000 97.797337 5.043062 18.096541 -82.202663 2.851628 18.096541 49.825934 -3.931390 25.329838 -39.162923 -0.969378 16.074804 36.475631 3.604432 -25.329838 -8.191519 -1.997172 2.408768
1329.935532 653.525419 129.710922 0.000000 0.000000 0.000000 0.000000 0.000000 0.000000 96.469555 -4.157102 15.410265 -83.530445 -5.920888 15.410265 63.882053 0.539600 27.144812 -51.972064 -5.229928 12.773379 58.624362 4.976951 -27.144812 -8.239564 -0.595906 2.679134
1316.170578 674.246514 139.550713 0.000000 0.000000 0.000000 0.000000 0.000000 0.000000 -87.946330 -7.249321 11.755705 92.053670 5.511640 11.755705 -29.715798 0.165437 28.531695 54.212796 3.527820 9.270510 -40.560774 -3.908352 -28.531695 11.008015 0.068973 2.938926
1317.367287 678.027205 135.894276 0.000000 0.000000 0.000000 0.000000 0.000000 0.000000 95.152942 -6.261498 7.362491 -84.847058 13.609573 7.362491 98.792835 -3.415240 29.468618 -150.515547 -5.009243 5.621439 32.983753 5.763594 -29.468618 -14.701625 -0.576359 3.187120
1318.168488 670.157025 151.702942 0.000000 0.000000 0.000000 0.000000 0.000000 0.000000 -151.252255 -53.730957 2.506665 28.747745 26.409573 2.506665 138.896993 2.978362 29.940802 -151.946620 -5.625616 1.883716 38.784684 5.252100 -29.940802 -14.121532 -0.525210 3.422736
1323.412628 644.667885 151.572532 0.000000 0.000000 0.000000 0.000000 0.000000 0.000000 -97.904066 -21.849054 -2.506665 82.095934 21.334369 -2.506665 155.695030 -6.188938 29.940802 -152.500978 -5.911587 -1.883716 44.721081 6.404137 -29.940802 -13.527892 -0.640414 3.644843
1312.776718 630.059459 142.155722 0.000000 0.000000 0.000000 0.000000 0.000000 0.000000 -116.637972 14.723627 -7.362491 63.362028 -8.684741 -7.362491 171.094570 -2.080019 29.468618 -152.894064 -6.866627 -5.621439 43.947863 8.459771 -29.468618 -13.605214 -0.845977 3.852566
1316.420746 625.237019 153.616054 0.000000 0.000000 0.000000 0.000000 0.000000 0.000000 -136.254273 -5.262653 -11.755705 43.745727 2.095628 -11.755705 -177.663204 0.742426 28.531695 -153.006287 -6.586539 -9.270510 42.784597 7.949888 -28.531695 -13.721540 -0.794989 4.045085
1314.719925 628.818026 144.164609 0.000000 0.000000 0.000000 0.000000 0.000000 0.000000 -114.737929 5.885785 -15.410265 65.262071 3.681691 -15.410265 -169.764314 -1.726108 27.144812 -153.369487 -6.657062 -12.773379 41.498347 7.382757 -27.144812 -13.850165 -0.738276 4.221640
1334.396782 646.165652 138.058053 0.000000 0.000000 0.000000 0.000000 0.000000 0.000000 -116.903454 -14.293246 -18.096541 63.096546 0.542802 -18.096541 -154.594534 0.154887 25.329838 -153.225015 -5.857656 -16.074804 37.136182 7.836406 -25.329838 -14.286382 -0.783641 4.381533
1340.823784 648.244128 161.719681 0.000000 0.000000 0.000000 0.000000 0.000000 0.000000 -116.932323 4.559265 -19.645745 63.067677 4.342865 -19.645745 -138.898656 -4.869364 23.115397 35.335752 -2.938579 -19.122720 -153.336856 1.541875 -23.115397 2.206211 -0.133191 4.524135
1330.023880 654.599032 142.119918 0.000000 0.000000 0.000000 0.000000 0.000000 0.000000 -112.150704 -2.721767 -19.960535 67.849296 -1.899019 -19.960535 -118.798313 0.970816 20.536413 -153.636372 -6.256076 -21.869059 16.691869 8.095520 -20.536413 -16.330813 -0.809552 4.648882
1337.431641 662.410698 148.650473 0.000000 0.000000 0.000000 0.000000 0.000000 0.000000 -109.111809 5.614736 -19.021130 70.888191 -5.197992 -19.021130 -91.144379 1.862773 17.633558 -154.448144 -6.723116 -24.270510 10.298202 7.434659 -17.633558 6.642051 -0.281083 4.755283
1324.339714 676.416593 149.137900 0.000000 0.000000 0.000000 0.000000 0.000000 0.000000 -104.120178 2.369492 -16.886559 75.879822 -8.315788 -16.886559 -57.095620 3.685413 14.452610 38.799650 0.301185 -26.289200 -71.942639 0.755642 -14.452610 8.831938 -0.069200 4.842916
962.890318 439.311049 137.955408 0.000000 0.000000 0.000000 0.000000 0.000000 0.000000 19.986963 -5.911257 -13.690942 180.000000 -7.492133 -13.690942 24.297229 6.285130 11.043737 155.702771 -4.598077 -27.893295 14.983342 1.291936 -11.043737 18.000000 0.249808 4.911436
962.789911 439.279946 162.445542 0.000000 0.000000 0.000000 0.000000 0.000000 0.000000 20.089586 0.406113 -9.635073 180.000000 2.657434 -9.635073 24.330184 -1.121445 7.460697 155.669816 -0.875752 -29.057495 14.926290 -0.036134 -7.460697 18.000000 0.088161 4.960574
641.318550 641.336324 143.980683 0.000000 0.000000 0.000000 0.000000 0.000000 0.000000 163.642929 32.207102 -4.973798 -16.357071 -9.509553 -4.973798 -155.926011 -3.820959 3.759997 -130.644608 -9.465776 -29.763441 68.679337 12.568391 -3.759997 -11.132066 -1.256839 4.990134
1305.385551 662.289033 138.363548 0.000000 0.000000 0.000000 0.000000 0.000000 0.000000 -81.949824 5.735748 -0.000000 98.050176 4.889431 -0.000000 9.536664 1.117838 0.000000 -153.586691 -6.294972 -30.000000 24.402531 5.005310 -0.000000 -15.559747 -0.500531 5.000000
962.486899 439.186814 146.466449 0.000000 0.000000 0.000000 0.000000 0.000000 0.000000 20.465882 -11.143361 4.973798 180.000000 10.053532 4.973798 24.357206 -3.947038 -3.759997 155.642794 12.589625 -29.763441 14.800425 -4.531877 3.759997 18.000000 -0.004402 4.990134
1216.314240 612.580640 122.287834 0.000000 0.000000 0.000000 0.000000 0.000000 0.000000 78.221991 1.696841 9.635073 -101.778009 -2.194736 9.635073 46.689014 2.048009 -7.460697 -61.937558 -3.473442 -29.057495 44.546377 2.080891 7.460697 -10.771750 0.462754 4.960574
1273.897820 573.707514 138.975308 0.000000 0.000000 0.000000 0.000000 0.000000 0.000000 77.469628 -4.089582 13.690942 -102.530372 -0.817516 13.690942 -155.691164 -5.123416 -11.043737 -120.750172 -2.047440 -27.893295 -156.229293 -5.243909 11.043737 2.162203 0.491412 4.911436
1337.358742 570.303276 121.118884 0.000000 0.000000 0.000000 0.000000 0.000000 0.000000 73.705918 -7.308221 16.886559 -106.294082 3.003894 16.886559 -155.918376 -5.152968 -14.452610 -149.887909 -4.254268 -26.289200 0.000000 0.000000 0.000000 0.000000 0.000000 0.000000
1342.446442 569.623497 107.294461 0.000000 0.000000 0.000000 0.000000 0.000000 0.000000 68.898287 0.277044 19.021130 -111.101713 -5.525261 19.021130 39.314088 1.913144 -17.633558 -140.912764 -0.915893 -24.270510 -153.216026 -5.824767 17.633558 2.759242 0.806267 4.755283
1335.759430 584.665475 95.454936 0.000000 0.000000 0.000000 0.000000 0.000000 0.000000 66.989329 4.863606 19.960535 -113.010671 -0.564322 19.960535 -154.807077 -4.881820 -20.536413 -142.328055 1.277878 -21.869059 -153.049156 -6.229615 20.536413 2.866457 0.651070 4.648882
1337.950974 598.074245 105.302579 0.000000 0.000000 0.000000 0.000000 0.000000 0.000000 62.697633 -7.476485 19.645745 -117.302367 6.050571 19.645745 19.366736 -4.695103 -23.115397 -144.826223 2.775137 -19.122720 9.911455 -0.922706 23.115397 -17.004209 0.094860 4.524135
1352.846489 601.043322 115.038975 0.000000 0.000000 0.000000 0.000000 0.000000 0.000000 59.083577 -8.033183 18.096541 -120.916423 7.010722 18.096541 20.876734 -0.011733 -25.329838 -142.301690 1.343431 -16.074804 13.356960 3.038236 25.329838 -16.821524 -0.123411 4.381533
1347.310982 587.475100 86.521180 0.000000 0.000000 0.000000 0.000000 0.000000 0.000000 56.169135 -5.465062 15.410265 -123.830865 7.599303 15.410265 21.172503 2.247201 -27.144812 -139.640745 1.564814 -12.773379 14.641496 0.604893 27.144812 -16.282575 -0.010775 4.221640
1326.982155 606.886139 99.936422 0.000000 0.000000 0.000000 0.000000 0.000000 0.000000 70.119981 0.915607 11.755705 -109.880019 -1.416804 11.755705 26.511889 -1.017266 -28.531695 -111.264667 -4.011992 -9.270510 31.153840 2.362396 28.531695 -13.943905 0.023687 4.045085
1354.391098 626.185555 85.276986 0.000000 0.000000 0.000000 0.000000 0.000000 0.000000 88.154395 10.246730 7.362491 -91.845605 7.494096 7.362491 30.442275 -10.070825 -29.468618 -76.284233 0.957449 -5.621439 43.854867 -2.765063 29.468618 -10.818190 -0.085055 3.852566
1370.667114 610.219567 90.681280 0.000000 0.000000 0.000000 0.000000 0.000000 0.000000 89.945118 -2.608691 2.506665 -90.054882 0.947278 2.506665 44.053326 3.296813 -29.940802 -56.238091 2.011680 -1.883716 55.411270 -3.262714 29.940802 -7.805659 -0.053427 3.644843
1372.834854 597.828534 61.819107 0.000000 0.000000 0.000000 0.000000 0.000000 0.000000 93.407992 -5.622945 -2.506665 -86.592008 0.706586 -2.506665 54.165845 2.744684 -29.940802 -47.239220 1.084882 1.883716 56.575186 1.069084 29.940802 -6.344474 0.315330 3.422736
1336.554337 597.454848 82.610732 0.000000 0.000000 0.000000 0.000000 0.000000 0.000000 95.622643 -5.024848 -7.362491 -84.377357 11.490577 -7.362491 56.597780 -5.103165 -29.468618 -45.108662 6.991460 5.621439 55.386034 -7.720199 29.468618 -7.206870 0.921379 3.187120
1310.567093 590.844769 50.970314 0.000000 0.000000 0.000000 0.000000 0.000000 0.000000 100.193768 -5.159173 -11.755705 -79.806232 6.591624 -11.755705 61.986347 -1.572085 -28.531695 -37.593815 2.612042 9.270510 62.907615 -6.122468 28.531695 -6.637230 0.754590 2.938926
1328.574371 576.493385 54.539707 0.000000 0.000000 0.000000 0.000000 0.000000 0.000000 101.943783 -5.868777 -15.410265 -78.056217 8.781433 -15.410265 61.902838 1.386232 -27.144812 -33.889586 0.585754 12.773379 55.760387 4.111623 27.144812 -7.097415 0.208315 2.679134
1316.178360 595.500870 58.041690 0.000000 0.000000 0.000000 0.000000 0.000000 0.000000 103.792097 -0.757559 -18.096541 -76.207903 6.757674 -18.096541 65.535198 -1.435297 -25.329838 -28.739437 4.334314 16.074804 68.415337 -0.501277 25.329838 -6.481753 0.133175 2.408768
1302.343140 568.138025 57.857752 0.000000 0.000000 0.000000 0.000000 0.000000 0.000000 101.222717 20.211257 -19.645745 -78.777283 -4.767122 -19.645745 90.757296 -4.680689 -23.115397 -18.578033 -1.274331 19.122720 97.909038 -2.948160 23.115397 -5.050134 -0.108386 2.128896
1274.166183 540.660596 60.742869 0.000000 0.000000 0.000000 0.000000 0.000000 0.000000 -126.898591 -9.229605 -19.960535 53.101409 -3.893959 -19.960535 127.276662 5.894835 -20.536413 8.808645 -7.978022 21.869059 119.711272 8.402169 20.536413 -4.115393 -0.366481 1.840623
1268.557091 468.331075 49.430418 0.000000 0.000000 0.000000 0.000000 0.000000 0.000000 -124.112133 -0.312069 -19.021130 55.887867 -6.631509 -19.021130 163.344780 -1.138901 -17.633558 38.476068 -5.601495 24.270510 145.889074 3.180139 17.633558 -1.929933 0.008920 1.545085
1278.673096 454.375906 66.267015 0.000000 0.000000 0.000000 0.000000 0.000000 0.000000 -126.805061 3.505055 -16.886559 53.194939 1.771897 -16.886559 -174.009950 3.199376 -14.452610 27.419224 1.980782 26.289200 168.192977 -1.741451 14.452610 -0.976267 0.093511 1.243449
1285.008774 434.700390 40.414057 0.000000 0.000000 0.000000 0.000000 0.000000 0.000000 -132.005120 9.274680 -13.690942 47.994880 -5.753627 -13.690942 -171.247775 1.314179 -11.043737 26.625253 -5.087658 27.893295 178.805957 1.167405 11.043737 0.023422 -0.092031 0.936907
1288.157730 426.987666 57.890821 0.000000 0.000000 0.000000 0.000000 0.000000 0.000000 -123.987926 -5.226163 -9.635073 56.012074 -6.075850 -9.635073 -166.356219 2.765168 -7.460697 35.716336 1.097005 29.057495 -172.960762 -1.177616 7.460697 0.819533 -0.001758 0.626666
1291.221657 420.425448 39.969819 0.000000 0.000000 0.000000 0.000000 0.000000 0.000000 -122.265643 -1.010005 -4.973798 57.734357 0.648689 -4.973798 -156.870161 0.687238 -3.759997 38.220704 1.864044 29.763441 -165.716368 -0.841521 3.759997 1.405814 0.148491 0.313953
