HIERARCHY
ROOT Hips
{
    OFFSET 0.0 0.0 0.0
    CHANNELS 6 Xposition Yposition Zposition Zrotation Xrotation Yrotation
    JOINT Spine
    {
        OFFSET 0.0 5.0 0.0
        CHANNELS 3 Zrotation Xrotation Yrotation
        JOINT Chest
        {
            OFFSET 0.0 5.0 0.0
            CHANNELS 3 Zrotation Xrotation Yrotation
            JOINT Neck
            {
                OFFSET 0.0 8.0 0.0
                CHANNELS 3 Zrotation Xrotation Yrotation
                JOINT Head
                {
                    OFFSET 0.0 5.0 0.0
                    CHANNELS 3 Zrotation Xrotation Yrotation
                    End Site
                    {
                        OFFSET 0.0 3.0 0.0
                    }
                }
            }
            JOINT LeftShoulder
            {
                OFFSET -5.0 0.0 0.0
                CHANNELS 3 Zrotation Xrotation Yrotation
                JOINT LeftArm
                {
                    OFFSET 0.0 -10.0 0.0
                    CHANNELS 3 Zrotation Xrotation Yrotation
                    JOINT LeftForeArm
                    {
                        OFFSET 0.0 -10.0 0.0
                        CHANNELS 3 Zrotation Xrotation Yrotation
                        End Site
                        {
                            OFFSET 0.0 -3.0 0.0
                        }
                    }
                }
            }
        }
    }
}

MOTION
Frames: 300
Frame Time: 0.033333

960.000000 445.000000 103.106720 0.000000 0.000000 0.000000 0.000000 0.000000 0.000000 23.025492 -17.192119 0.000000 180.000000 -0.640455 0.000000 21.801409 0.892432 -0.000000 158.198591 5.772118 30.000000 15.945396 0.844575 0.000000 18.000000 -0.959831 0.000000
1691.525230 140.756605 107.845817 0.000000 0.000000 0.000000 0.000000 0.000000 0.000000 -163.376529 3.079541 4.973798 16.623471 0.209744 4.973798 -171.853121 -3.366619 3.759997 99.744051 -0.767974 29.763441 -171.126653 -3.562638 -3.759997 0.673538 0.377819 0.313953
1636.048050 128.802021 124.595803 0.000000 0.000000 0.000000 0.000000 0.000000 0.000000 157.904128 -15.803831 9.635073 -22.095872 -3.280384 9.635073 -171.936471 -3.829279 7.460697 -143.675701 -2.135425 29.057495 -173.500805 -4.062946 -7.460697 0.570999 0.416775 0.626666
1578.156967 80.474526 102.941566 0.000000 0.000000 0.000000 0.000000 0.000000 0.000000 -139.519796 8.517283 13.690942 40.480204 -6.673306 13.690942 -174.507724 -3.837899 11.043737 119.111399 -17.761389 27.893295 -173.607258 -3.512025 -11.043737 0.461920 0.457634 0.936907
960.418757 444.998421 99.667092 0.000000 0.000000 0.000000 0.000000 0.000000 0.000000 25.077893 13.126840 16.886559 180.000000 0.845727 16.886559 23.861935 -2.452563 14.452610 156.138065 -2.725485 26.289200 17.903699 -2.490212 -14.452610 18.000000 0.873198 1.243449
960.523360 444.997533 116.264711 0.000000 0.000000 0.000000 0.000000 0.000000 0.000000 25.638906 6.252054 19.021130 180.000000 -20.267795 19.021130 24.425035 15.220167 17.633558 155.574965 -1.465592 24.270510 18.452907 -3.810263 -17.633558 18.000000 0.925868 1.545085
960.627905 444.996447 129.184125 0.000000 0.000000 0.000000 0.000000 0.000000 0.000000 26.219073 -24.458552 19.960535 180.000000 2.678741 19.960535 25.006291 -7.371836 20.536413 154.993709 2.653791 21.869059 19.024920 -12.475382 -20.536413 18.000000 1.621438 1.840623
1126.242828 420.359820 130.574981 0.000000 0.000000 0.000000 0.000000 0.000000 0.000000 31.410514 0.591171 19.645745 -148.589486 -1.646065 19.645745 32.280463 1.668221 23.115397 -131.603972 0.384575 19.122720 45.585331 -0.546925 -23.115397 -13.449727 -0.233296 2.128896
1257.895088 650.549197 126.867425 0.000000 0.000000 0.000000 0.000000 0.000000 0.000000 25.073180 4.238536 18.096541 -154.926820 15.670358 18.096541 46.260945 -3.626782 25.329838 -154.651428 -5.042862 16.074804 27.339487 4.954187 -25.329838 -13.619892 0.953536 2.408768
960.941083 444.992008 151.342775 0.000000 0.000000 0.000000 0.000000 0.000000 0.000000 28.072001 6.051795 15.410265 180.000000 10.875274 15.410265 26.849221 -2.988083 27.144812 153.150779 -0.186936 12.773379 20.864045 2.248432 -27.144812 18.000000 -0.296913 2.679134
1163.815842 547.748709 152.382466 0.000000 0.000000 0.000000 0.000000 0.000000 0.000000 117.162728 -13.702701 11.755705 -62.837272 0.377353 11.755705 102.363764 5.709493 28.531695 -47.376450 -3.866007 9.270510 104.768601 1.518397 -28.531695 -6.003489 0.189319 2.938926
961.149372 444.988063 144.990779 0.000000 0.000000 0.000000 0.000000 0.000000 0.000000 29.395983 11.726724 7.362491 180.000000 -0.085573 7.362491 28.146217 1.653290 29.468618 151.853783 15.218347 5.621439 22.170006 -12.838505 -29.468618 18.000000 -0.373099 3.187120
1136.717377 590.104480 146.598525 0.000000 0.000000 0.000000 0.000000 0.000000 0.000000 115.752126 -10.812403 2.506665 -64.247874 11.339583 2.506665 73.638146 -1.400273 29.940802 -21.842452 4.585011 1.883716 75.369282 6.489612 -29.940802 -6.767207 -0.386802 3.422736
1163.079758 634.077559 148.010498 0.000000 0.000000 0.000000 0.000000 0.000000 0.000000 132.174340 -6.968568 -2.506665 -47.825660 11.918777 -2.506665 94.255711 -9.766351 29.940802 -149.364979 -6.379079 -1.883716 30.021641 6.479015 -29.940802 -5.096180 -2.255806 3.644843
961.460830 444.980668 153.274984 0.000000 0.000000 0.000000 0.000000 0.000000 0.000000 31.497152 -4.244618 -7.362491 180.000000 21.553915 -7.362491 30.152455 -16.895451 29.468618 149.847545 13.932210 -5.621439 24.175589 -7.330146 -29.468618 18.000000 0.734602 3.852566
1097.449951 565.089898 140.976820 0.000000 0.000000 0.000000 0.000000 0.000000 0.000000 -119.219568 -7.592065 -11.755705 60.780432 5.397844 -11.755705 -150.180642 -6.625914 28.531695 48.804955 3.166174 -9.270510 -149.874178 -6.057992 -28.531695 2.713854 0.693215 4.045085
1114.140244 528.302071 136.459806 0.000000 0.000000 0.000000 0.000000 0.000000 0.000000 -142.671523 0.334668 -15.410265 37.328477 0.660138 -15.410265 -177.395681 -4.673596 27.144812 34.687329 0.030698 -12.773379 161.894167 -3.166027 -27.144812 -0.910956 0.071249 4.221640
1116.433640 479.728639 154.567864 0.000000 0.000000 0.000000 0.000000 0.000000 0.000000 -102.267481 2.113641 -18.096541 77.732519 -3.409683 -18.096541 -163.695626 -2.667541 25.329838 38.575767 -0.240921 -16.074804 -176.001122 -0.974211 -25.329838 0.706594 0.055556 4.381533
1135.931282 466.493965 159.769874 0.000000 0.000000 0.000000 0.000000 0.000000 0.000000 -112.868406 9.230588 -19.645745 67.131594 -4.197985 -19.645745 -159.517862 1.935706 23.115397 36.204678 -1.222279 -19.122720 -154.426613 -5.920567 -23.115397 2.428729 0.600768 4.524135
1141.618767 467.420679 156.932141 0.000000 0.000000 0.000000 0.000000 0.000000 0.000000 -123.086385 5.555764 -19.960535 56.913615 -9.294154 -19.960535 -154.885724 1.879578 20.536413 36.481623 -3.631849 -21.869059 -153.965441 -5.542366 -20.536413 2.446728 0.488678 4.648882
1150.647926 469.370956 135.825899 0.000000 0.000000 0.000000 0.000000 0.000000 0.000000 -43.953779 4.967036 -19.021130 136.046221 -12.345852 -19.021130 -154.327268 -6.767272 17.633558 60.745168 -3.403749 -24.270510 -153.350642 -6.405240 -17.633558 2.386216 0.638910 4.755283
1151.529922 496.420240 134.219465 0.000000 0.000000 0.000000 0.000000 0.000000 0.000000 -116.362129 -8.437813 -16.886559 63.637871 -3.242662 -16.886559 -149.081043 -0.828865 14.452610 35.941860 3.645371 -26.289200 -156.847177 0.466143 -14.452610 2.056513 -0.119847 4.842916
1148.402367 515.713574 124.950861 0.000000 0.000000 0.000000 0.000000 0.000000 0.000000 -118.252650 -8.387751 -13.690942 61.747350 9.459531 -13.690942 -138.082896 -2.338551 11.043737 -156.312677 -6.440778 -27.893295 21.649626 9.180518 -11.043737 2.962417 0.094977 4.911436
1175.363617 533.368646 128.923784 0.000000 0.000000 0.000000 0.000000 0.000000 0.000000 -95.476638 2.045740 -9.635073 84.523362 -6.868991 -9.635073 -113.907461 3.098079 7.460697 -155.995907 -6.428962 -29.057495 12.512064 8.051598 -7.460697 -16.748794 -0.805160 4.960574
1199.533310 485.991104 138.382597 0.000000 0.000000 0.000000 0.000000 0.000000 0.000000 -100.003195 -2.117504 -4.973798 79.996805 0.809956 -4.973798 -86.083188 4.267295 3.759997 38.843754 1.570290 -29.763441 -106.539452 0.298691 -3.759997 6.197806 0.258686 4.990134
962.588190 444.938442 130.123302 0.000000 0.000000 0.000000 0.000000 0.000000 0.000000 39.579754 -34.224316 -0.000000 180.000000 11.062827 -0.000000 36.680773 4.312072 0.000000 143.319227 11.718249 -30.000000 29.388385 -11.455625 -0.000000 18.000000 0.757018 5.000000
1142.094727 445.716287 133.737867 0.000000 0.000000 0.000000 0.000000 0.000000 0.000000 -140.228454 49.001198 4.973798 39.771546 -40.952045 4.973798 -156.118008 -5.523330 -3.759997 3.479189 -13.722171 -29.763441 -158.005660 -5.158715 3.759997 2.150019 0.501539 4.990134
1164.005928 424.847746 123.153027 0.000000 0.000000 0.000000 0.000000 0.000000 0.000000 -84.241076 50.456686 9.635073 95.758924 12.633994 9.635073 -156.181584 -6.478248 -7.460697 166.928360 -5.858912 -29.057495 -154.947270 -6.210739 7.460697 2.644196 0.605763 4.960574
1124.208755 418.286655 118.041635 0.000000 0.000000 0.000000 0.000000 0.000000 0.000000 -117.427077 -14.839690 13.690942 62.572923 5.163146 13.690942 -155.943063 -6.110199 -11.043737 14.023837 5.400735 -27.893295 -157.382674 -6.069684 11.043737 2.188130 0.511681 4.911436
962.990408 444.917226 131.844545 0.000000 0.000000 0.000000 0.000000 0.000000 0.000000 42.110883 10.002898 16.886559 180.000000 18.616298 16.886559 37.946959 -5.182686 -14.452610 142.053041 10.790926 -26.289200 29.293612 2.593005 14.452610 18.000000 -0.611593 4.842916
963.090170 444.911436 128.405683 0.000000 0.000000 0.000000 0.000000 0.000000 0.000000 42.659200 17.418031 19.021130 180.000000 -15.906096 19.021130 38.119107 6.951121 -17.633558 141.880893 -3.433267 -24.270510 29.068887 -9.579666 17.633558 18.000000 -0.401073 4.755283
1186.646461 396.272757 102.207667 0.000000 0.000000 0.000000 0.000000 0.000000 0.000000 -72.847419 12.139587 19.960535 107.152581 -2.909211 19.960535 -156.703603 -4.622288 -20.536413 178.447294 -1.394807 -21.869059 -157.212393 -4.956020 20.536413 1.964058 0.477171 4.648882
1313.051605 426.636125 95.072625 0.000000 0.000000 0.000000 0.000000 0.000000 0.000000 90.994869 -43.340802 19.645745 -89.005131 3.499991 19.645745 -160.515303 -3.924812 -23.115397 -153.248861 12.781088 -19.122720 -159.640525 -6.031287 23.115397 0.000000 0.000000 0.000000
1347.999344 420.772226 104.399022 0.000000 0.000000 0.000000 0.000000 0.000000 0.000000 90.154351 -0.596493 18.096541 -89.845649 6.330294 18.096541 -162.053401 -4.039665 -25.329838 -136.198880 -1.471147 -16.074804 -160.991694 -3.645402 25.329838 0.000000 0.000000 0.000000
1344.315948 421.031681 98.513525 0.000000 0.000000 0.000000 0.000000 0.000000 0.000000 69.757587 5.837295 15.410265 -110.242413 -1.451381 15.410265 25.616746 -3.973089 -27.144812 -157.821005 -4.165536 -12.773379 17.214985 2.810285 27.144812 -16.704706 0.183287 4.221640
1350.307617 440.309436 65.936471 0.000000 0.000000 0.000000 0.000000 0.000000 0.000000 71.124018 4.134157 11.755705 -108.875982 6.471155 11.755705 42.739987 -8.446605 -28.531695 -142.315466 0.760901 -9.270510 16.600926 0.642534 28.531695 -16.660102 -0.035222 4.045085
1357.685051 430.688889 79.812684 0.000000 0.000000 0.000000 0.000000 0.000000 0.000000 77.656077 8.556722 7.362491 -102.343923 5.393697 7.362491 39.407151 -6.329180 -29.468618 -136.343173 0.845000 -5.621439 22.144452 2.189612 29.468618 -16.305135 -0.156053 3.852566
1369.482193 445.909406 85.568937 0.000000 0.000000 0.000000 0.000000 0.000000 0.000000 88.051188 1.241288 2.506665 -91.948812 -4.692827 2.506665 -161.283973 -2.671874 -29.940802 -119.799169 0.414236 -1.883716 -164.575400 -3.304564 29.940802 1.401013 0.438813 3.644843
963.875156 444.858159 68.683014 0.000000 0.000000 0.000000 0.000000 0.000000 0.000000 45.304844 13.759251 -2.506665 180.000000 4.102651 -2.506665 37.252439 -2.401119 -29.940802 142.747561 0.425646 1.883716 25.146244 -3.629340 29.940802 18.000000 1.470904 3.422736
963.971479 444.850633 67.704177 0.000000 0.000000 0.000000 0.000000 0.000000 0.000000 45.383640 -7.181044 -7.362491 180.000000 -11.164468 -7.362491 36.882310 9.921572 -29.468618 143.117690 -14.109259 5.621439 24.499789 1.521896 29.468618 18.000000 1.232455 3.187120
1336.629524 469.010178 50.845481 0.000000 0.000000 0.000000 0.000000 0.000000 0.000000 -72.390177 18.373191 -11.755705 107.609823 2.250619 -11.755705 -158.649984 -2.724914 -28.531695 2.583425 -11.539138 9.270510 -39.658551 8.989560 28.531695 10.837181 0.388641 2.938926
1311.966934 518.219100 62.740533 0.000000 0.000000 0.000000 0.000000 0.000000 0.000000 -63.565072 1.568274 -15.410265 116.434928 -1.028998 -15.410265 -14.840750 0.809502 -27.144812 -158.549348 -2.398513 12.773379 17.488774 1.788257 27.144812 7.174982 0.543791 2.679134
964.257793 444.826908 57.930978 0.000000 0.000000 0.000000 0.000000 0.000000 0.000000 45.262206 10.090020 -18.096541 180.000000 4.341192 -18.096541 35.497192 8.032392 -25.329838 144.502808 8.316716 16.074804 22.522929 3.628136 25.329838 18.000000 -0.444803 2.408768
1275.921364 516.836239 62.573546 0.000000 0.000000 0.000000 0.000000 0.000000 0.000000 85.186295 0.695211 -19.645745 -94.813705 5.104787 -19.645745 52.470689 2.735464 -23.115397 -44.513683 8.485778 19.122720 50.867598 1.334653 23.115397 -8.717188 -0.246899 2.128896
1263.254128 546.875424 55.822126 0.000000 0.000000 0.000000 0.000000 0.000000 0.000000 34.848242 -46.295194 -19.960535 -145.151758 6.285579 -19.960535 42.487561 -59.602802 -20.536413 -157.415675 -2.021484 21.869059 22.420880 3.369565 20.536413 -15.757912 -0.336956 1.840623
1258.788185 528.263061 58.221042 0.000000 0.000000 0.000000 0.000000 0.000000 0.000000 118.326865 -34.811123 -19.021130 -61.673135 10.090296 -19.021130 143.214759 6.588197 -17.633558 -156.228306 -1.644326 24.270510 28.173554 2.460683 17.633558 -15.182645 -0.246068 1.545085
1231.492081 471.383836 51.335139 0.000000 0.000000 0.000000 0.000000 0.000000 0.000000 -115.049381 23.469061 -16.886559 64.950619 -23.855991 -16.886559 172.843704 -5.524305 -14.452610 -157.842300 -3.114005 26.289200 32.851042 3.214460 14.452610 -14.714896 -0.321446 1.243449
1223.928795 435.993515 47.925923 0.000000 0.000000 0.000000 0.000000 0.000000 0.000000 -115.322532 20.002683 -13.690942 64.677468 -3.287228 -13.690942 -168.597862 -4.230026 -11.043737 -158.853816 -3.265279 27.893295 31.099266 2.740536 11.043737 -14.890073 -0.274054 0.936907
1223.669701 418.195664 57.591558 0.000000 0.000000 0.000000 0.000000 0.000000 0.000000 -102.084053 -22.887501 -9.635073 77.915947 4.366827 -9.635073 -171.103858 -2.541606 -7.460697 162.056334 -0.394480 29.057495 -153.594437 -2.457283 7.460697 2.968481 0.233550 0.626666
1216.486244 414.503002 56.106329 0.000000 0.000000 0.000000 0.000000 0.000000 0.000000 69.261091 -11.139781 -4.973798 -110.738909 -21.520288 -4.973798 -158.083722 -1.769403 -3.759997 -173.244581 0.338278 29.763441 -154.635509 -2.562401 3.759997 2.928763 0.320292 0.313953
1212.090225 434.550980 59.247959 0.000000 0.000000 0.000000 0.000000 0.000000 0.000000 -112.403932 12.877047 0.000000 67.596068 24.759025 0.000000 -157.060799 -3.071732 -0.000000 173.400765 -4.139061 30.000000 -154.473580 -2.132791 0.000000 2.734633 0.265272 0.000000
1214.024734 450.340490 56.939602 0.000000 0.000000 0.000000 0.000000 0.000000 0.000000 -110.634751 19.104930 4.973798 69.365249 -8.293267 4.973798 -137.583343 -0.133879 3.759997 -158.589698 -3.714270 29.763441 20.879446 4.290319 -3.759997 -15.912055 -0.429032 0.313953
1204.271393 440.192921 61.306818 0.000000 0.000000 0.000000 0.000000 0.000000 0.000000 -99.498286 15.567903 9.635073 80.501714 -6.055183 9.635073 -156.696469 -2.513687 7.460697 -178.487725 6.530066 29.057495 -157.318323 -3.241210 -7.460697 2.108583 0.321900 0.626666
965.269558 444.725315 47.092041 0.000000 0.000000 0.000000 0.000000 0.000000 0.000000 40.845461 12.709929 13.690942 180.000000 -3.872294 13.690942 28.615377 -0.234018 11.043737 151.384623 7.521124 27.893295 16.305092 -16.048242 -11.043737 18.000000 0.153396 0.936907
1182.456551 475.103824 50.700002 0.000000 0.000000 0.000000 0.000000 0.000000 0.000000 -168.146016 -77.131665 16.886559 11.853984 73.686102 16.886559 -63.802645 -5.280486 14.452610 -61.114510 -6.869560 26.289200 -47.869281 1.486595 -14.452610 -13.834956 7.590409 1.243449
965.446390 444.704404 63.498286 0.000000 0.000000 0.000000 0.000000 0.000000 0.000000 39.578146 6.095841 19.021130 180.000000 -0.605674 19.021130 27.338029 0.555120 17.633558 152.661971 3.853379 24.270510 15.463180 -7.755156 -17.633558 18.000000 -0.079304 1.545085
965.533915 444.693669 72.370134 0.000000 0.000000 0.000000 0.000000 0.000000 0.000000 38.916706 15.166584 19.960535 180.000000 -21.723904 19.960535 26.716768 6.091827 20.536413 153.283232 -5.374622 21.869059 15.076605 -5.193597 -20.536413 18.000000 0.069295 1.840623
965.620834 444.682749 60.897336 0.000000 0.000000 0.000000 0.000000 0.000000 0.000000 38.241653 -25.647985 19.645745 180.000000 3.548990 19.645745 26.109467 -12.100066 23.115397 153.890533 -2.715960 19.122720 14.712258 -5.033241 -23.115397 18.000000 0.747178 2.128896
965.707136 444.671645 79.768097 0.000000 0.000000 0.000000 0.000000 0.000000 0.000000 37.556504 -50.839478 18.096541 180.000000 1.344773 18.096541 25.517536 17.000978 25.329838 154.482464 15.162938 16.074804 14.369537 -5.053781 -25.329838 18.000000 0.367389 2.408768
965.792812 444.660356 63.507146 0.000000 0.000000 0.000000 0.000000 0.000000 0.000000 36.864608 -1.880911 15.410265 180.000000 -5.625998 15.410265 24.942131 -6.268388 27.144812 155.057869 -12.615408 12.773379 14.047797 5.716553 -27.144812 18.000000 -0.372415 2.679134
965.877853 444.648882 83.470474 0.000000 0.000000 0.000000 0.000000 0.000000 0.000000 36.169118 -26.015849 11.755705 180.000000 25.432164 11.755705 24.384173 5.385647 28.531695 155.615827 17.336539 9.270510 13.746367 -0.408620 -28.531695 18.000000 0.217451 2.938926
965.962249 444.637226 98.822160 0.000000 0.000000 0.000000 0.000000 0.000000 0.000000 35.472980 -5.197918 7.362491 180.000000 9.246582 7.362491 23.844373 -0.674247 29.468618 156.155627 12.803442 5.621439 13.464570 -0.202200 -29.468618 18.000000 -0.682283 3.187120
966.045991 444.625386 108.265140 0.000000 0.000000 0.000000 0.000000 0.000000 0.000000 34.778913 38.150962 2.506665 180.000000 -29.831425 2.506665 23.323250 12.049952 29.940802 156.676750 -8.936838 1.883716 13.201728 3.001795 -29.940802 18.000000 -0.380967 3.422736
966.129071 444.613364 97.233428 0.000000 0.000000 0.000000 0.000000 0.000000 0.000000 34.089406 -46.619027 -2.506665 180.000000 28.718635 -2.506665 22.821158 2.853809 29.940802 157.178842 0.769195 -1.883716 12.957175 -0.067584 -29.940802 18.000000 0.873936 3.644843
966.211478 444.601159 116.535062 0.000000 0.000000 0.000000 0.000000 0.000000 0.000000 33.406712 -7.665447 -7.362491 180.000000 -3.233026 -7.362491 22.338307 6.465488 29.468618 157.661693 6.301788 -5.621439 12.730264 -3.848539 -29.468618 18.000000 0.055437 3.852566
1171.486244 534.946783 110.023333 0.000000 0.000000 0.000000 0.000000 0.000000 0.000000 70.594720 5.133111 -11.755705 -109.405280 -1.837469 -11.755705 49.953444 5.366050 28.531695 -151.467583 -5.581088 -9.270510 0.000000 0.000000 0.000000 0.000000 0.000000 0.000000
966.374240 444.576206 114.852215 0.000000 0.000000 0.000000 0.000000 0.000000 0.000000 32.069603 5.441713 -15.410265 180.000000 11.381122 -15.410265 21.430544 -6.477771 27.144812 158.569456 -0.467377 -12.773379 12.326901 1.063530 -27.144812 18.000000 -0.223285 4.221640
1172.156410 555.047708 112.031659 0.000000 0.000000 0.000000 0.000000 0.000000 0.000000 -121.065102 -17.427106 -18.096541 58.934898 -4.313947 -18.096541 -151.641456 -5.294773 25.329838 -177.360623 1.201430 -16.074804 -149.076048 -6.460211 -25.329838 0.000000 0.000000 0.000000
1161.826630 552.360713 116.141911 0.000000 0.000000 0.000000 0.000000 0.000000 0.000000 69.958407 43.592895 -19.645745 -110.041593 -43.359347 -19.645745 -152.437496 -5.786790 23.115397 -158.790607 -4.561550 -19.122720 -150.591725 -6.900800 -23.115397 3.219062 0.737586 4.524135
1165.827255 569.832902 142.376846 0.000000 0.000000 0.000000 0.000000 0.000000 0.000000 25.594208 0.880442 -19.960535 -154.405792 6.634194 -19.960535 11.723883 0.056942 20.536413 -161.543160 -0.707104 -21.869059 7.769582 1.091416 -20.536413 -17.248199 0.006667 4.648882
1165.555573 565.067046 134.557516 0.000000 0.000000 0.000000 0.000000 0.000000 0.000000 43.355707 -4.147945 -19.021130 -136.644293 5.163023 -19.021130 15.984329 3.494605 17.633558 -140.773833 -3.658758 -24.270510 13.679449 2.970733 -17.633558 -16.392157 0.022689 4.755283
1290.255775 608.533316 149.251942 0.000000 0.000000 0.000000 0.000000 0.000000 0.000000 -153.952071 7.351963 -16.886559 26.047929 9.728861 -16.886559 -152.683807 -6.285960 14.452610 4.794196 1.032228 -26.289200 -154.287190 -5.799227 -14.452610 2.418080 0.513382 4.842916
1180.398903 551.817470 146.062002 0.000000 0.000000 0.000000 0.000000 0.000000 0.000000 51.640104 -21.821482 -13.690942 -128.359896 -7.018192 -13.690942 14.419400 8.246522 11.043737 -33.521359 18.526637 -27.893295 -34.277510 -4.278856 -11.043737 5.235387 0.255745 4.911436
1162.708626 619.419501 136.711474 0.000000 0.000000 0.000000 0.000000 0.000000 0.000000 -88.968325 -4.109325 -9.635073 91.031675 34.850288 -9.635073 -52.690088 -2.279527 7.460697 25.015222 7.617316 -29.057495 -72.561734 -0.986127 -7.460697 8.557489 -0.304252 4.960574
1110.899391 602.919216 136.240145 0.000000 0.000000 0.000000 0.000000 0.000000 0.000000 -86.972237 3.267184 -4.973798 93.027763 3.568352 -4.973798 -39.551144 -1.258263 3.759997 34.838085 -5.439860 -29.763441 -44.185810 2.667263 -3.759997 10.000609 0.963250 4.990134
1150.187302 553.686991 172.843291 0.000000 0.000000 0.000000 0.000000 0.000000 0.000000 -116.065142 -8.723794 -0.000000 63.934858 9.426387 -0.000000 -151.059314 -6.806398 0.000000 -0.492058 -4.309750 -30.000000 -14.044098 6.967068 -0.000000 1.929760 2.403405 5.000000
967.144727 444.440682 154.373857 0.000000 0.000000 0.000000 0.000000 0.000000 0.000000 26.270296 -24.286515 4.973798 180.000000 -5.365134 4.973798 17.996647 7.950532 -3.759997 162.003353 -0.657569 -29.763441 11.189167 -0.633508 3.759997 18.000000 -0.381598 4.990134
1213.452644 620.002785 146.467236 0.000000 0.000000 0.000000 0.000000 0.000000 0.000000 140.390379 4.948059 9.635073 -39.609621 -16.898391 9.635073 77.724607 2.849346 -7.460697 -153.982965 -6.588120 -29.057495 24.142749 6.279260 7.460697 -0.833727 0.899716 4.960574
1124.373779 618.464527 148.594031 0.000000 0.000000 0.000000 0.000000 0.000000 0.000000 99.329635 22.678356 13.690942 -80.670365 -34.744572 13.690942 85.960927 -1.849559 -11.043737 -150.875293 -8.064497 -27.893295 31.644098 6.057272 11.043737 -14.835590 -0.605727 4.911436
967.360971 444.396582 154.368072 0.000000 0.000000 0.000000 0.000000 0.000000 0.000000 24.874716 6.809471 16.886559 180.000000 2.656020 16.886559 17.291102 -2.156593 -14.452610 162.708898 4.263152 -26.289200 11.098846 -4.133157 14.452610 18.000000 0.480552 4.842916
1107.875175 542.453964 149.657969 0.000000 0.000000 0.000000 0.000000 0.000000 0.000000 -128.741314 1.185653 19.021130 51.258686 -5.441785 19.021130 -177.225595 -0.831149 -17.633558 19.954750 -9.645581 -24.270510 162.677362 2.062577 17.633558 -1.443098 0.145250 4.755283
1119.652290 522.766346 152.604539 0.000000 0.000000 0.000000 0.000000 0.000000 0.000000 -99.017754 23.163910 19.960535 80.982246 -6.248191 19.960535 -150.289603 -7.268436 -20.536413 -152.613833 -7.816580 -21.869059 0.000000 0.000000 0.000000 0.000000 0.000000 0.000000
1132.908783 538.229613 154.590956 0.000000 0.000000 0.000000 0.000000 0.000000 0.000000 -127.874185 2.881469 19.645745 52.125815 -1.051685 19.645745 -165.450188 -1.988719 -23.115397 -152.521515 -7.455590 -19.122720 40.606225 9.312559 23.115397 -13.939378 -0.931256 4.524135
1146.969337 541.828065 156.456971 0.000000 0.000000 0.000000 0.000000 0.000000 0.000000 -113.631604 6.789467 18.096541 66.368396 -5.757924 18.096541 -159.067475 1.197733 -25.329838 113.981862 4.052220 -16.074804 -145.449815 -7.356818 25.329838 0.000000 0.000000 0.000000
1165.252304 561.329677 132.426026 0.000000 0.000000 0.000000 0.000000 0.000000 0.000000 -112.861399 0.601599 15.410265 67.138601 3.767716 15.410265 -159.396543 0.131867 -27.144812 -151.967552 -6.652102 -12.773379 38.422588 8.654425 27.144812 -14.157741 -0.865443 4.221640
1174.726181 592.839689 150.158202 0.000000 0.000000 0.000000 0.000000 0.000000 0.000000 -110.369899 -0.287696 11.755705 69.630101 -3.970592 11.755705 -148.108768 -0.611971 -28.531695 -151.515612 -6.627051 -9.270510 34.277732 9.322407 28.531695 -14.572227 -0.932241 4.045085
1167.352524 605.194867 133.937225 0.000000 0.000000 0.000000 0.000000 0.000000 0.000000 -113.828445 -0.411912 7.362491 66.171555 7.111967 7.362491 -131.688453 -2.644956 -29.468618 -151.045756 -6.352373 -5.621439 27.200835 8.005206 29.468618 -15.279916 -0.800521 3.852566
1139.678879 602.981014 121.881547 0.000000 0.000000 0.000000 0.000000 0.000000 0.000000 -97.599684 -6.095852 2.506665 82.400316 -5.997376 2.506665 -113.965806 -0.842993 -29.940802 -121.058781 1.045835 -1.883716 -118.492407 -8.427350 29.940802 10.137620 7.519403 3.644843
1165.830002 580.020189 117.220696 0.000000 0.000000 0.000000 0.000000 0.000000 0.000000 -28.085052 27.196934 -2.506665 151.914948 4.625585 -2.506665 -150.589103 -6.350835 -29.940802 -172.678414 8.780235 1.883716 -149.717924 -7.505906 29.940802 0.000000 0.000000 0.000000
1184.501953 619.872494 120.927926 0.000000 0.000000 0.000000 0.000000 0.000000 0.000000 -113.790307 25.948455 -7.362491 66.209693 -36.002838 -7.362491 -59.272274 2.218417 -29.468618 29.476823 -5.269861 5.621439 -88.148483 -0.026480 29.468618 7.414604 -0.103171 3.187120
968.090170 444.221640 114.473579 0.000000 0.000000 0.000000 0.000000 0.000000 0.000000 21.092887 2.644256 -11.755705 180.000000 9.288497 -11.755705 15.757771 -2.656972 -28.531695 164.242229 -3.630387 9.270510 11.678908 4.878919 28.531695 18.000000 -0.099413 2.938926
968.151278 444.204723 119.785504 0.000000 0.000000 0.000000 0.000000 0.000000 0.000000 20.844337 3.365329 -15.410265 180.000000 -7.372472 -15.410265 15.691895 3.374210 -27.144812 164.308105 -4.968557 12.773379 11.804629 5.157882 27.144812 18.000000 -0.237686 2.679134
968.211492 444.187640 119.018311 0.000000 0.000000 0.000000 0.000000 0.000000 0.000000 20.610265 -4.458346 -18.096541 180.000000 -1.363201 -18.096541 15.637361 -0.297633 -25.329838 164.362639 1.265556 16.074804 11.943263 2.365623 25.329838 18.000000 -0.567570 2.408768
968.270806 444.170392 90.319737 0.000000 0.000000 0.000000 0.000000 0.000000 0.000000 20.390366 23.356116 -19.645745 180.000000 -4.865021 -19.645745 15.594026 2.883204 -23.115397 164.405974 -2.063746 19.122720 12.095062 1.041450 23.115397 18.000000 -0.116008 2.128896
968.329212 444.152979 85.442498 0.000000 0.000000 0.000000 0.000000 0.000000 0.000000 20.184343 1.243061 -19.960535 180.000000 -4.656258 -19.960535 15.561766 2.180696 -20.536413 164.438234 2.774699 21.869059 12.260289 2.553775 20.536413 18.000000 -0.086256 1.840623
968.386706 444.135403 90.729121 0.000000 0.000000 0.000000 0.000000 0.000000 0.000000 19.991916 19.359389 -19.021130 180.000000 -11.601589 -19.021130 15.540476 5.877737 -17.633558 164.459524 -10.326895 24.270510 12.439222 1.646307 17.633558 18.000000 -0.294744 1.545085
968.443279 444.117663 90.879662 0.000000 0.000000 0.000000 0.000000 0.000000 0.000000 19.812814 -16.191991 -16.886559 180.000000 5.442064 -16.886559 15.530069 -3.558168 -14.452610 164.469931 5.727846 26.289200 12.632146 2.634231 14.452610 18.000000 -0.725720 1.243449
968.498927 444.099761 100.496164 0.000000 0.000000 0.000000 0.000000 0.000000 0.000000 19.646785 2.009561 -13.690942 180.000000 15.385597 -13.690942 15.530474 -7.252877 -11.043737 164.469526 -0.529267 27.893295 12.839349 3.819001 11.043737 18.000000 -0.386951 0.936907
968.553643 444.081696 78.436616 0.000000 0.000000 0.000000 0.000000 0.000000 0.000000 19.493591 -20.046051 -9.635073 180.000000 9.263123 -9.635073 15.541640 -10.278113 -7.460697 164.458360 8.965072 29.057495 13.061119 -2.665291 7.460697 18.000000 -0.579833 0.626666
1051.772690 653.004448 83.177001 0.000000 0.000000 0.000000 0.000000 0.000000 0.000000 -79.007834 1.901505 -4.973798 100.992166 -12.273226 -4.973798 -126.715299 5.064935 -3.759997 -149.991181 -4.192854 29.763441 31.772279 5.356065 3.759997 -14.822772 -0.535607 0.313953
1061.669197 624.716241 75.097318 0.000000 0.000000 0.000000 0.000000 0.000000 0.000000 -94.718359 13.927844 0.000000 85.281641 8.934755 0.000000 -144.150484 -1.803911 -0.000000 60.155085 0.844769 30.000000 -152.711462 -0.202815 0.000000 1.815393 -0.080089 0.000000
1072.053337 571.032879 58.589283 0.000000 0.000000 0.000000 0.000000 0.000000 0.000000 71.424080 10.859722 4.973798 -108.575920 -9.454377 4.973798 -149.042361 -2.895539 3.759997 -149.913636 0.026834 29.763441 -145.792107 -4.212486 -3.759997 3.947623 0.420323 0.313953
1070.057373 572.884376 68.810326 0.000000 0.000000 0.000000 0.000000 0.000000 0.000000 -80.850201 48.925623 9.635073 99.149799 -32.990889 9.635073 -147.567525 -3.160755 7.460697 -164.443014 -2.993493 29.057495 -145.447997 -3.956533 -7.460697 4.032371 0.484537 0.626666
968.813035 443.988972 49.226079 0.000000 0.000000 0.000000 0.000000 0.000000 0.000000 18.912944 -4.530615 13.690942 180.000000 3.266457 13.690942 15.758200 -3.067445 11.043737 164.241800 4.941195 27.893295 14.397395 -2.165192 -11.043737 18.000000 -0.370762 0.936907
968.862036 443.969952 69.392944 0.000000 0.000000 0.000000 0.000000 0.000000 0.000000 18.832684 -6.982381 16.886559 180.000000 6.910006 16.886559 15.833735 -2.494707 14.452610 164.166265 10.640225 26.289200 14.711463 -2.893426 -14.452610 18.000000 -0.882148 1.243449
968.910065 443.950775 47.878379 0.000000 0.000000 0.000000 0.000000 0.000000 0.000000 18.764066 16.408405 19.021130 180.000000 -3.996890 19.021130 15.920102 -1.481554 17.633558 164.079898 7.984374 24.270510 15.041323 -3.874966 -17.633558 18.000000 -0.461780 1.545085
968.957118 443.931442 51.928374 0.000000 0.000000 0.000000 0.000000 0.000000 0.000000 18.706990 -5.526075 19.960535 180.000000 -2.109398 19.960535 16.017366 0.350902 20.536413 163.982634 -13.187030 21.869059 15.386894 11.121568 -20.536413 18.000000 0.599687 1.840623
969.003188 443.911954 56.873491 0.000000 0.000000 0.000000 0.000000 0.000000 0.000000 18.661377 28.688999 19.645745 180.000000 -8.890776 19.645745 16.125602 -1.916696 23.115397 163.874398 -6.479898 19.122720 15.747980 -8.308284 -23.115397 18.000000 1.409003 2.128896
969.048271 443.892312 60.451545 0.000000 0.000000 0.000000 0.000000 0.000000 0.000000 18.627165 16.877226 18.096541 180.000000 -6.579773 18.096541 16.244896 8.277839 25.329838 163.755104 4.737818 16.074804 16.124252 -3.469926 -25.329838 18.000000 0.620044 2.408768
969.092361 443.872515 33.220188 0.000000 0.000000 0.000000 0.000000 0.000000 0.000000 18.604312 9.523884 15.410265 180.000000 -2.724113 15.410265 16.375340 9.464783 27.144812 163.624660 1.710034 12.773379 16.515224 -8.159709 -27.144812 18.000000 1.017447 2.679134
1055.186234 577.357593 62.585725 0.000000 0.000000 0.000000 0.000000 0.000000 0.000000 85.510211 5.130648 11.755705 -94.489789 -22.027103 11.755705 37.103410 8.950656 28.531695 -148.111343 -3.454519 9.270510 24.294182 2.610905 -28.531695 -8.601915 -1.290154 2.938926
1122.856522 566.714029 50.525929 0.000000 0.000000 0.000000 0.000000 0.000000 0.000000 96.216240 3.438644 7.362491 -83.783760 -4.045177 7.362491 46.189625 4.093926 29.468618 -149.396962 -2.629145 5.621439 24.670091 1.557366 -29.468618 -7.107716 0.897433 3.187120
969.218632 443.812213 48.135362 0.000000 0.000000 0.000000 0.000000 0.000000 0.000000 18.603763 9.260012 2.506665 180.000000 2.856455 2.506665 16.834613 -15.994936 29.940802 163.165387 -10.062338 1.883716 17.768624 -8.171792 -29.940802 18.000000 1.262096 3.422736
1112.757797 605.798106 46.545036 0.000000 0.000000 0.000000 0.000000 0.000000 0.000000 110.914625 20.327565 -2.506665 -69.085375 -10.476656 -2.506665 67.769469 0.238665 29.940802 -149.822316 -3.070816 -1.883716 29.049901 2.950729 -29.940802 -3.625079 -0.754627 3.644843
1086.733246 592.557156 45.954000 0.000000 0.000000 0.000000 0.000000 0.000000 0.000000 -80.132323 64.853174 -7.362491 99.867677 -63.837421 -7.362491 36.201564 19.982368 29.468618 -13.679556 -5.402272 -5.621439 78.049842 4.696042 -29.468618 -5.127460 0.114537 3.852566
1081.109390 570.394492 67.338889 0.000000 0.000000 0.000000 0.000000 0.000000 0.000000 -175.864613 -23.676832 -11.755705 4.135387 -10.868766 -11.755705 134.713876 7.927401 28.531695 -10.005873 -0.269343 -9.270510 135.737755 0.072341 -28.531695 -3.389365 -0.169138 4.045085
1089.776802 536.594539 65.066621 0.000000 0.000000 0.000000 0.000000 0.000000 0.000000 -139.033903 -12.407287 -15.410265 40.966097 4.766518 -15.410265 161.695972 -0.368782 27.144812 3.114398 1.750592 -12.773379 148.805610 1.767648 -27.144812 -2.611636 -0.163769 4.221640
1114.282036 523.965647 70.289784 0.000000 0.000000 0.000000 0.000000 0.000000 0.000000 -156.073983 -5.053116 -18.096541 23.926017 -4.794414 -18.096541 174.825807 5.966766 25.329838 5.093343 -0.989370 -16.074804 161.266817 0.760258 -25.329838 -1.814366 -0.053693 4.381533
1122.145157 503.425248 64.076814 0.000000 0.000000 0.000000 0.000000 0.000000 0.000000 -144.538174 -13.889024 -19.645745 35.461826 12.594032 -19.645745 174.215003 0.040610 23.115397 -151.750905 -2.742716 -19.122720 43.887064 4.106475 -23.115397 -13.611294 -0.410648 4.524135
1134.158249 484.688419 66.672433 0.000000 0.000000 0.000000 0.000000 0.000000 0.000000 -142.311443 -7.530448 -19.960535 37.688557 6.868046 -19.960535 -174.407776 -5.114849 20.536413 14.121014 4.406188 -21.869059 176.737053 -0.627534 -20.536413 -0.386439 -0.072135 4.648882
1156.756668 500.025387 44.571550 0.000000 0.000000 0.000000 0.000000 0.000000 0.000000 -140.140767 -1.900917 -19.021130 39.859233 -2.495431 -19.021130 -176.866589 -1.640168 17.633558 -153.177991 -3.925389 -24.270510 40.555680 3.370027 -17.633558 -13.944432 -0.337003 4.755283
1163.818588 490.292573 83.382832 0.000000 0.000000 0.000000 0.000000 0.000000 0.000000 -126.918075 5.659770 -16.886559 53.081925 6.673594 -16.886559 -163.374411 0.058018 14.452610 -153.952175 -3.786875 -26.289200 36.914642 5.777541 -14.452610 0.798233 -0.008686 4.842916
1176.523705 490.346003 77.507172 0.000000 0.000000 0.000000 0.000000 0.000000 0.000000 -130.072590 2.512709 -13.690942 49.927410 1.199132 -13.690942 -150.224616 -4.061970 11.043737 24.749952 2.130832 -27.893295 -162.219632 -1.705763 -11.043737 1.550269 0.109493 4.911436
1165.045052 489.521159 69.806289 0.000000 0.000000 0.000000 0.000000 0.000000 0.000000 -134.421293 -10.876317 -9.635073 45.578707 8.957097 -9.635073 -138.114962 1.514266 7.460697 20.347125 4.762616 -29.057495 -149.675125 -0.637635 -7.460697 1.919618 0.237635 4.960574
1186.003189 485.341580 84.768489 0.000000 0.000000 0.000000 0.000000 0.000000 0.000000 151.263424 -57.001768 -4.973798 -28.736576 29.793581 -4.973798 -155.571724 -3.860545 3.759997 -114.944239 6.884772 -29.763441 -157.446860 -4.312631 -3.759997 2.096391 0.528813 4.990134
1190.285912 497.609435 106.436253 0.000000 0.000000 0.000000 0.000000 0.000000 0.000000 -104.331435 -10.332705 -0.000000 75.668565 25.379648 -0.000000 -153.934692 -4.853993 0.000000 -67.465008 6.719696 -30.000000 -71.629168 -1.717442 -0.000000 -13.965204 8.666448 5.000000
846.875610 502.341399 113.609234 0.000000 0.000000 0.000000 0.000000 0.000000 0.000000 -153.358185 -22.825590 4.973798 26.641815 17.441512 4.973798 -147.628169 -5.383872 -3.759997 -147.401289 -4.886998 -29.763441 0.000000 0.000000 0.000000 0.000000 0.000000 0.000000
969.711343 443.490827 109.848620 0.000000 0.000000 0.000000 0.000000 0.000000 0.000000 20.204512 9.974378 9.635073 180.000000 3.146072 9.635073 20.733157 -13.581719 -7.460697 159.266843 3.339773 -29.057495 24.065833 -13.437490 7.460697 18.000000 -0.412433 4.960574
969.735789 443.468267 112.131285 0.000000 0.000000 0.000000 0.000000 0.000000 0.000000 20.415894 16.726950 13.690942 180.000000 -11.992462 13.690942 21.087741 10.764380 -11.043737 158.912259 -5.466211 -27.893295 24.320336 5.477124 11.043737 18.000000 0.200291 4.911436
969.759168 443.445569 123.101301 0.000000 0.000000 0.000000 0.000000 0.000000 0.000000 20.642061 13.553983 16.886559 180.000000 -9.283301 16.886559 21.453029 10.395241 -14.452610 158.546971 -3.938129 -26.289200 24.533304 -1.623370 14.452610 18.000000 2.137311 4.842916
585.252171 514.469179 122.552893 0.000000 0.000000 0.000000 0.000000 0.000000 0.000000 74.723181 -58.477899 19.021130 -105.276819 25.508332 19.021130 119.807175 -3.664908 -17.633558 165.825978 -0.170611 -24.270510 138.012220 10.103362 17.633558 -12.357653 0.226868 4.755283
624.843979 517.601860 124.865027 0.000000 0.000000 0.000000 0.000000 0.000000 0.000000 103.202449 -1.968961 19.960535 -76.797551 10.113451 19.960535 114.381580 3.777724 -20.536413 -53.015473 -63.108952 -21.869059 145.467160 -1.140684 20.536413 -4.173333 1.556563 4.648882
969.822873 443.376664 126.269560 0.000000 0.000000 0.000000 0.000000 0.000000 0.000000 21.413420 -23.649681 19.645745 180.000000 -1.588343 19.645745 22.607712 7.419499 -23.115397 157.392288 8.721775 -19.122720 24.899813 0.933060 23.115397 18.000000 -0.919727 4.524135
969.841956 443.353428 119.263466 0.000000 0.000000 0.000000 0.000000 0.000000 0.000000 21.702987 7.124023 18.096541 180.000000 -10.740498 18.096541 23.009909 4.448681 -25.329838 156.990091 -9.915658 -16.074804 24.926562 12.399451 25.329838 18.000000 -0.943304 4.381533
969.859960 443.330059 141.436343 0.000000 0.000000 0.000000 0.000000 0.000000 0.000000 22.009579 -1.035793 15.410265 180.000000 -2.253981 15.410265 23.419334 13.418463 -27.144812 156.580666 2.582713 -12.773379 24.904993 12.498915 27.144812 18.000000 -0.850885 4.221640
594.905148 538.048757 155.253958 0.000000 0.000000 0.000000 0.000000 0.000000 0.000000 -57.080480 -43.999415 11.755705 122.919520 9.447448 11.755705 -12.750556 14.469139 -28.531695 149.841027 26.647125 -9.270510 -8.274090 -1.384171 28.531695 17.596979 -0.002686 4.045085
969.892723 443.282929 160.212392 0.000000 0.000000 0.000000 0.000000 0.000000 0.000000 22.675903 1.197701 7.362491 180.000000 -3.446885 7.362491 24.255612 13.549955 -29.468618 155.744388 -1.528660 -5.621439 24.720303 2.600317 29.468618 18.000000 0.475683 3.852566
1257.001877 499.708382 146.618865 0.000000 0.000000 0.000000 0.000000 0.000000 0.000000 52.818511 1.395343 2.506665 -127.181489 0.598737 2.506665 25.369497 -5.518856 -29.940802 -143.914951 0.748213 -1.883716 14.556766 -1.527639 29.940802 -16.686776 0.059688 3.644843
1279.050064 493.773898 155.683807 0.000000 0.000000 0.000000 0.000000 0.000000 0.000000 56.685213 -0.022569 -2.506665 -123.314787 8.596377 -2.506665 24.065452 -0.114428 -29.940802 -146.540317 2.263605 1.883716 13.097461 -1.076455 29.940802 -16.716891 0.130432 3.422736
1295.108986 477.099677 158.093376 0.000000 0.000000 0.000000 0.000000 0.000000 0.000000 65.723361 -1.079596 -7.362491 -114.276639 4.392819 -7.362491 23.725299 -5.533449 -29.468618 -147.984281 1.874489 5.621439 13.187557 -2.474192 29.468618 -16.751134 0.098020 3.187120
1289.065018 496.763316 150.674568 0.000000 0.000000 0.000000 0.000000 0.000000 0.000000 61.662232 3.000913 -11.755705 -118.337768 2.470558 -11.755705 31.397757 2.545121 -28.531695 -148.047797 -1.523510 9.270510 12.491083 2.107695 28.531695 -16.898368 -0.200700 2.938926
1285.337105 480.691112 142.920984 0.000000 0.000000 0.000000 0.000000 0.000000 0.000000 58.021980 -2.925647 -15.410265 -121.978020 -2.815704 -15.410265 31.705930 0.152799 -27.144812 -157.028684 -0.800333 12.773379 11.107306 2.210753 27.144812 -17.140016 0.133425 2.679134
1276.453171 465.093691 155.760660 0.000000 0.000000 0.000000 0.000000 0.000000 0.000000 70.157145 -2.900086 -18.096541 -109.842855 4.891844 -18.096541 40.303764 4.000518 -25.329838 -145.293609 1.060874 16.074804 10.431204 6.623141 25.329838 -17.100572 -0.315208 2.408768
1253.658714 472.768564 164.903771 0.000000 0.000000 0.000000 0.000000 0.000000 0.000000 65.087926 -10.017424 -19.645745 -114.912074 -35.745082 -19.645745 -157.680356 -5.411950 -23.115397 -137.727082 2.256281 19.122720 -153.053596 5.593669 23.115397 -16.054219 -0.905871 2.128896
1366.101608 507.691247 148.294694 0.000000 0.000000 0.000000 0.000000 0.000000 0.000000 108.715100 42.278564 -19.960535 -71.284900 -36.943141 -19.960535 156.661132 21.544767 -20.536413 -158.224303 -6.140914 21.869059 0.000000 0.000000 0.000000 0.000000 0.000000 0.000000
969.986295 443.064535 156.334384 0.000000 0.000000 0.000000 0.000000 0.000000 0.000000 26.662144 -13.648042 -19.021130 180.000000 -12.169808 -19.021130 28.015351 9.004489 -17.633558 151.984649 -17.850140 24.270510 22.068935 14.028936 17.633558 18.000000 0.514533 1.545085
1282.107124 481.511257 148.923559 0.000000 0.000000 0.000000 0.000000 0.000000 0.000000 80.650781 35.801401 -16.886559 -99.349219 -36.752604 -16.886559 1.511604 0.676152 -14.452610 -32.896908 -7.206638 26.289200 -7.727072 1.920950 14.452610 13.531851 5.487345 1.243449
1282.921486 484.777769 158.948109 0.000000 0.000000 0.000000 0.000000 0.000000 0.000000 -81.737646 10.748881 -13.690942 98.262354 -36.788259 -13.690942 -23.867101 2.090204 -11.043737 12.655668 0.625440 27.893295 -29.454911 -6.062774 11.043737 9.861248 1.947507 0.936907
1290.933037 513.180238 154.416992 0.000000 0.000000 0.000000 0.000000 0.000000 0.000000 -91.387864 4.893210 -9.635073 88.612136 3.172590 -9.635073 -41.685392 -1.535565 -7.460697 -161.156957 -6.529928 29.057495 15.157863 5.441993 7.460697 10.543436 -1.482144 0.626666
969.999452 442.964284 126.019557 0.000000 0.000000 0.000000 0.000000 0.000000 0.000000 29.025427 5.518855 -4.973798 180.000000 -10.563213 -4.973798 29.437993 5.440068 -3.759997 150.562007 5.661976 29.763441 20.404746 0.839422 3.759997 18.000000 -0.280458 0.313953
970.000000 442.938926 142.311756 0.000000 0.000000 0.000000 0.000000 0.000000 0.000000 29.678605 10.883991 0.000000 180.000000 -1.525937 0.000000 29.744881 -7.573025 -0.000000 150.255119 -4.004551 30.000000 19.983107 5.702160 0.000000 18.000000 -0.838594 0.000000
1354.522934 467.411410 128.084328 0.000000 0.000000 0.000000 0.000000 0.000000 0.000000 150.622570 -2.747968 4.973798 -29.377430 -2.373124 4.973798 140.176400 -0.598533 3.759997 -12.221629 -7.458941 29.763441 132.794256 1.732242 -3.759997 -2.626015 0.545252 0.313953
969.997807 442.887864 124.304276 0.000000 0.000000 0.000000 0.000000 0.000000 0.000000 31.061399 27.664693 9.635073 180.000000 -17.283384 9.635073 30.285790 2.315878 7.460697 149.714210 -6.922409 29.057495 19.151579 4.932671 -7.460697 18.000000 -0.294309 0.626666
1246.736984 514.278152 125.076914 0.000000 0.000000 0.000000 0.000000 0.000000 0.000000 143.557092 12.309664 13.690942 -36.442908 -14.183584 13.690942 133.761037 3.946473 11.043737 -156.950665 -6.657937 27.893295 0.000000 0.000000 0.000000 1.928484 0.551158 0.936907
1245.221100 458.637464 119.351573 0.000000 0.000000 0.000000 0.000000 0.000000 0.000000 160.701064 6.057929 16.886559 -19.298936 -25.066789 16.886559 140.193827 0.633879 14.452610 -157.554825 -5.893667 26.289200 29.500467 5.522468 -14.452610 -15.049953 -0.552247 1.243449
1257.365570 418.514181 123.969857 0.000000 0.000000 0.000000 0.000000 0.000000 0.000000 -143.710676 4.664110 19.021130 36.289324 1.797118 19.021130 163.220413 0.206306 17.633558 11.688054 0.200197 24.270510 152.038385 3.528808 -17.633558 -2.339948 -0.249142 1.545085
1275.099564 408.163741 112.366743 0.000000 0.000000 0.000000 0.000000 0.000000 0.000000 -132.929531 -14.032554 19.960535 47.070469 16.101718 19.960535 173.491912 -3.998642 20.536413 -160.709681 -4.232487 21.869059 33.138793 4.158903 -20.536413 -14.686121 -0.415890 1.840623
1290.611115 384.880857 102.313097 0.000000 0.000000 0.000000 0.000000 0.000000 0.000000 -132.705235 6.332834 19.645745 47.294765 2.946652 19.645745 -173.778854 -1.725514 23.115397 20.496835 -0.647570 19.122720 -161.220290 -3.792824 -23.115397 1.723235 0.387138 2.128896
1302.817154 380.305352 93.689934 0.000000 0.000000 0.000000 0.000000 0.000000 0.000000 -131.493915 -2.790794 18.096541 48.506085 -0.310922 18.096541 -165.393697 -4.122066 25.329838 23.154815 -2.865597 16.074804 -178.200316 0.591362 -25.329838 0.138141 0.115833 2.408768
1304.997711 379.563582 106.250383 0.000000 0.000000 0.000000 0.000000 0.000000 0.000000 -126.727972 7.355635 15.410265 53.272028 0.030303 15.410265 -160.219593 -0.033548 27.144812 28.448880 -1.096508 12.773379 -174.368770 0.480250 -27.144812 0.079526 -0.044360 2.679134
1311.668472 386.890390 83.760652 0.000000 0.000000 0.000000 0.000000 0.000000 0.000000 -122.308728 18.751893 11.755705 57.691272 -10.632507 11.755705 -158.801130 2.909342 28.531695 150.942637 -9.962900 9.270510 -154.878332 -3.695028 -28.531695 2.695409 0.467031 2.938926
1305.131836 395.180186 75.468516 0.000000 0.000000 0.000000 0.000000 0.000000 0.000000 -125.112810 21.118006 7.362491 54.887190 13.768732 7.362491 -146.487292 -6.720983 29.468618 -175.167369 -7.877440 5.621439 -159.224034 -3.598452 -29.468618 1.782042 0.410824 3.187120
1296.320457 392.734526 76.367743 0.000000 0.000000 0.000000 0.000000 0.000000 0.000000 -131.035750 10.255571 2.506665 48.964250 -19.132570 2.506665 -128.969563 2.823615 29.940802 38.856147 -6.262176 1.883716 -134.776850 1.291880 -29.940802 3.458429 -0.231868 3.422736
1306.963577 386.612041 72.271666 0.000000 0.000000 0.000000 0.000000 0.000000 0.000000 -124.469622 -2.447185 -2.506665 55.530378 4.415989 -2.506665 -109.994856 0.602504 29.940802 37.691309 4.093788 -1.883716 -118.274788 -1.804088 -29.940802 5.098336 0.121042 3.644843
969.892723 442.572198 67.826774 0.000000 0.000000 0.000000 0.000000 0.000000 0.000000 41.287575 27.093726 -7.362491 180.000000 -8.441864 -7.362491 30.974696 2.778808 29.468618 149.025304 -12.265638 -5.621439 15.072869 -0.562537 -29.468618 18.000000 -0.010939 3.852566
969.876883 442.545207 81.310740 0.000000 0.000000 0.000000 0.000000 0.000000 0.000000 42.241956 -21.464136 -11.755705 180.000000 21.749840 -11.755705 30.826133 -25.630094 28.531695 149.173867 5.097440 -9.270510 14.823070 -1.447799 -28.531695 18.000000 0.172415 4.045085
969.859960 442.518116 64.963152 0.000000 0.000000 0.000000 0.000000 0.000000 0.000000 43.199779 3.362577 -15.410265 180.000000 -11.827447 -15.410265 30.649504 14.028423 27.144812 149.350496 13.889731 -12.773379 14.587557 -17.169998 -27.144812 18.000000 1.108042 4.221640
969.841956 442.490926 59.843476 0.000000 0.000000 0.000000 0.000000 0.000000 0.000000 44.157210 -40.597176 -18.096541 180.000000 0.698166 -18.096541 30.446417 4.998720 25.329838 149.553583 -11.739898 -16.074804 14.366154 11.471386 -25.329838 18.000000 -0.153224 4.381533
969.822873 442.463637 67.379502 0.000000 0.000000 0.000000 0.000000 0.000000 0.000000 45.110117 28.952942 -19.645745 180.000000 -22.874205 -19.645745 30.218633 -1.449406 23.115397 149.781367 -9.675260 -19.122720 14.158653 -1.806233 -23.115397 18.000000 0.102438 4.524135
969.802712 442.436251 55.712193 0.000000 0.000000 0.000000 0.000000 0.000000 0.000000 46.054109 -54.835796 -19.960535 180.000000 28.600186 -19.960535 29.968037 -7.667169 20.536413 150.031963 10.171118 -21.869059 13.964823 3.690779 -20.536413 18.000000 -0.284080 4.648882
1187.040939 541.658249 55.078493 0.000000 0.000000 0.000000 0.000000 0.000000 0.000000 82.806623 18.837438 -19.021130 -97.193377 13.099962 -19.021130 45.395981 6.190089 17.633558 -156.144455 -2.050211 -24.270510 0.000000 0.000000 0.000000 0.000000 0.000000 0.000000
1182.242889 522.024286 41.390615 0.000000 0.000000 0.000000 0.000000 0.000000 0.000000 -105.721938 6.945294 -16.886559 74.278062 -23.610406 -16.886559 -155.708006 -1.856460 14.452610 -157.302521 -2.807425 -26.289200 0.000000 0.000000 0.000000 2.684983 0.142073 4.842916
1180.914459 527.065626 40.516404 0.000000 0.000000 0.000000 0.000000 0.000000 0.000000 88.055617 -1.318057 -13.690942 -91.944383 -4.905151 -13.690942 -158.862018 -1.779419 11.043737 -151.747289 -2.333063 -27.893295 0.000000 0.000000 0.000000 0.000000 0.000000 0.000000
1236.800194 541.387432 57.071844 0.000000 0.000000 0.000000 0.000000 0.000000 0.000000 -85.588400 12.201413 -9.635073 94.411600 -9.548370 -9.635073 -159.297106 3.248729 7.460697 -157.915391 -2.396895 -29.057495 26.607362 2.205537 -7.460697 14.926890 -0.130530 4.960574
1161.066513 575.006626 58.446175 0.000000 0.000000 0.000000 0.000000 0.000000 0.000000 -81.021168 -10.580535 -4.973798 98.978832 13.485035 -4.973798 -102.851701 -8.216984 3.759997 -157.041007 -1.561283 -29.763441 21.429890 2.616692 -3.759997 10.859432 -0.315286 4.990134
1255.636253 512.645942 77.070506 0.000000 0.000000 0.000000 0.000000 0.000000 0.000000 77.832564 -1.763804 -0.000000 -102.167436 5.930955 -0.000000 -158.264834 -2.854498 0.000000 -130.745502 2.583760 -30.000000 -157.699225 -2.982199 -0.000000 0.000000 0.000000 0.000000
1265.118484 521.473864 45.789391 0.000000 0.000000 0.000000 0.000000 0.000000 0.000000 64.078276 -7.461775 4.973798 -115.921724 -6.788029 4.973798 41.397952 7.380251 -3.759997 -139.329851 -0.654729 -29.763441 20.223252 2.907573 3.759997 -16.047574 -0.130628 4.990134
1228.099480 522.138258 44.984165 0.000000 0.000000 0.000000 0.000000 0.000000 0.000000 71.050901 3.923285 9.635073 -108.949099 -7.059925 9.635073 150.099970 3.801513 -7.460697 -139.894702 -7.928484 -29.057495 -156.275691 -1.703211 7.460697 0.000000 0.000000 0.000000
1240.357246 528.695873 42.898122 0.000000 0.000000 0.000000 0.000000 0.000000 0.000000 65.413351 10.418871 13.690942 -114.586649 -3.860079 13.690942 147.242328 -4.509194 -11.043737 -154.470720 -2.678313 -27.893295 25.557225 2.029666 11.043737 -15.444278 -0.202967 4.911436
1231.815262 551.380248 52.429268 0.000000 0.000000 0.000000 0.000000 0.000000 0.000000 56.412506 2.013636 16.886559 -123.587494 1.265944 16.886559 -153.392336 -0.275183 -14.452610 -154.784582 -2.670543 -26.289200 24.191555 4.050000 14.452610 -15.580844 -0.405000 4.842916
1221.475182 508.360147 76.774843 0.000000 0.000000 0.000000 0.000000 0.000000 0.000000 77.450622 -12.455148 19.021130 -102.549378 11.025063 19.021130 -156.789784 -3.112192 -17.633558 -125.590168 4.501661 -24.270510 -160.017240 -3.732997 17.633558 1.833434 0.514274 4.755283
969.477684 442.100429 74.124769 0.000000 0.000000 0.000000 0.000000 0.000000 0.000000 54.932575 -48.383575 19.960535 180.000000 -18.262638 19.960535 25.919122 16.364172 -20.536413 154.080878 3.663466 -21.869059 12.612867 5.998605 20.536413 18.000000 -0.660846 4.648882
1480.140495 518.878891 74.559588 0.000000 0.000000 0.000000 0.000000 0.000000 0.000000 -110.621767 -82.382916 19.645745 69.378233 71.538963 19.645745 -158.235933 -2.903298 -23.115397 166.031448 1.735795 -19.122720 -155.186432 -3.190207 23.115397 2.641553 0.379785 4.524135
1271.640472 556.840560 72.212666 0.000000 0.000000 0.000000 0.000000 0.000000 0.000000 -94.404719 -15.975735 18.096541 85.595281 -3.943524 18.096541 -62.417786 0.798557 -25.329838 23.992813 2.062419 -16.074804 -76.856107 -4.288944 25.329838 7.708835 0.532857 4.381533
1258.556786 530.268441 78.858513 0.000000 0.000000 0.000000 0.000000 0.000000 0.000000 78.355945 -4.233736 15.410265 -101.644055 3.804835 15.410265 35.068294 1.656877 -27.144812 -54.090640 2.057674 -12.773379 35.848220 -3.047013 27.144812 -8.104639 1.218589 4.221640
1250.800209 527.150567 67.991751 0.000000 0.000000 0.000000 0.000000 0.000000 0.000000 72.417769 -6.569485 11.755705 -107.582231 3.075502 11.755705 24.571109 4.190038 -28.531695 -39.196117 10.934084 -9.270510 10.411117 -7.930249 28.531695 -9.048616 -2.525508 4.045085
1243.466148 571.776259 90.352449 0.000000 0.000000 0.000000 0.000000 0.000000 0.000000 86.301473 -2.721497 7.362491 -93.698527 6.512960 7.362491 24.553534 1.514016 -29.468618 -153.460385 -3.271282 -5.621439 19.510484 3.202069 29.468618 -10.109500 -0.371672 3.852566
1261.883812 566.052918 91.725694 0.000000 0.000000 0.000000 0.000000 0.000000 0.000000 94.015209 -3.235512 2.506665 -85.984791 3.184124 2.506665 38.959993 1.749090 -29.940802 -154.008305 -4.235294 -1.883716 20.870951 3.705332 29.940802 -10.872440 -0.777458 3.644843
1284.436798 527.190542 99.637262 0.000000 0.000000 0.000000 0.000000 0.000000 0.000000 111.186365 2.712896 -2.506665 -68.813635 5.242746 -2.506665 58.506163 -2.446281 -29.940802 -19.138727 -5.611676 1.883716 51.457372 5.120231 29.940802 -5.203198 -0.066834 3.422736
1272.860069 533.494012 97.215809 0.000000 0.000000 0.000000 0.000000 0.000000 0.000000 72.301471 28.302649 -7.362491 -107.698529 -13.181480 -7.362491 78.802573 -4.395464 -29.468618 -154.772375 -5.098507 5.621439 26.927455 4.283728 29.468618 -15.307255 -0.428373 3.187120
1255.264664 498.243735 96.387496 0.000000 0.000000 0.000000 0.000000 0.000000 0.000000 164.596971 -31.741624 -11.755705 -15.403029 16.149900 -11.755705 125.849126 -2.547635 -28.531695 -156.067666 -4.849322 9.270510 33.087561 5.280674 28.531695 -14.691244 -0.528067 2.938926
1259.202232 470.407684 121.435599 0.000000 0.000000 0.000000 0.000000 0.000000 0.000000 -139.980397 13.804685 -15.410265 40.019603 1.311990 -15.410265 165.887722 3.135309 -27.144812 -157.901492 -5.294918 12.773379 35.196094 5.758234 27.144812 -14.480391 -0.575823 2.679134
1236.502075 429.951335 132.328169 0.000000 0.000000 0.000000 0.000000 0.000000 0.000000 -113.295066 -11.237219 -18.096541 66.704934 -0.986536 -18.096541 -174.664169 3.731605 -25.329838 -159.007335 -5.312540 16.074804 32.868990 6.756677 25.329838 -14.713101 -0.675668 2.408768
1253.359451 413.942538 131.899513 0.000000 0.000000 0.000000 0.000000 0.000000 0.000000 -123.348580 0.023569 -19.645745 56.651420 6.218173 -19.645745 -167.815074 -2.660239 -23.115397 -159.603180 -5.206717 19.122720 32.791747 7.629483 23.115397 -14.720825 -0.762948 2.128896
1281.206589 405.664523 126.313309 0.000000 0.000000 0.000000 0.000000 0.000000 0.000000 -124.414271 -0.320417 -19.960535 55.585729 -2.282810 -19.960535 -161.281803 -4.086796 -20.536413 28.568449 -1.890691 21.869059 -159.052798 -4.299114 20.536413 1.849141 0.407433 1.840623
1300.238571 418.760215 142.361668 0.000000 0.000000 0.000000 0.000000 0.000000 0.000000 -126.263092 1.436844 -19.021130 53.736908 1.455210 -19.021130 -159.739358 -2.172632 -17.633558 31.487961 -3.186092 24.270510 -170.323915 1.955758 17.633558 0.671815 -0.128659 1.545085
1321.889191 413.634385 129.315074 0.000000 0.000000 0.000000 0.000000 0.000000 0.000000 -133.874471 1.992858 -16.886559 46.125529 9.497451 -16.886559 -159.376251 1.188706 -14.452610 30.696824 6.596405 26.289200 -164.929556 -1.567997 14.452610 1.089735 0.249656 1.243449
1336.221428 432.881820 131.996965 0.000000 0.000000 0.000000 0.000000 0.000000 0.000000 -115.020798 4.645469 -13.690942 64.979202 4.223428 -13.690942 -135.609544 -8.004633 -11.043737 -161.321630 -6.703801 27.893295 17.353502 8.395517 11.043737 -16.264650 -0.839552 0.936907
1329.124603 416.860342 147.836231 0.000000 0.000000 0.000000 0.000000 0.000000 0.000000 -134.023347 0.227377 -9.635073 45.976653 -5.438185 -9.635073 -128.030830 3.894749 -7.460697 28.249885 1.001867 29.057495 -136.447985 2.736636 7.460697 4.038834 -0.269541 0.626666
1343.366776 427.060794 132.277209 0.000000 0.000000 0.000000 0.000000 0.000000 0.000000 -130.153347 -5.552230 -4.973798 49.846653 12.342295 -4.973798 -103.564435 -3.520634 -3.759997 27.398095 3.196778 29.763441 -115.461530 1.228494 3.759997 5.470063 -0.154977 0.313953
1376.991005 465.829636 140.885470 0.000000 0.000000 0.000000 0.000000 0.000000 0.000000 -120.272352 -12.012733 0.000000 59.727648 11.303194 0.000000 -62.204131 -3.199489 -0.000000 27.740602 2.005890 30.000000 -80.461527 0.250379 0.000000 7.450891 -0.139363 0.000000
1384.978867 468.790376 148.369003 0.000000 0.000000 0.000000 0.000000 0.000000 0.000000 -93.720384 57.868407 4.973798 86.279616 -31.722908 4.973798 3.847814 -0.102831 3.759997 -160.438787 -6.768226 29.763441 15.990976 5.144751 -3.759997 7.894783 -0.352104 0.313953
1345.894547 516.257268 144.074219 0.000000 0.000000 0.000000 0.000000 0.000000 0.000000 127.577640 5.949245 9.635073 -52.422360 18.722079 9.635073 53.096359 -14.174736 7.460697 -159.021748 -6.636519 29.057495 18.308456 5.293384 -7.460697 -4.062191 0.432055 0.626666
968.498927 441.455181 132.636280 0.000000 0.000000 0.000000 0.000000 0.000000 0.000000 47.920147 29.236525 13.690942 180.000000 -10.657906 13.690942 19.641385 4.953312 11.043737 160.358615 -0.968252 27.893295 13.993219 8.102076 -11.043737 18.000000 -0.861773 0.936907
1336.846733 493.527671 155.722736 0.000000 0.000000 0.000000 0.000000 0.000000 0.000000 102.681311 -28.958119 16.886559 -77.318689 6.597109 16.886559 35.985219 4.244472 14.452610 -159.617763 -6.086619 26.289200 19.375410 5.914055 -14.452610 -16.062459 -0.591406 1.243449
968.386706 441.394956 147.145842 0.000000 0.000000 0.000000 0.000000 0.000000 0.000000 46.120581 37.516758 19.021130 180.000000 -11.087126 19.021130 19.316787 -1.754790 17.633558 160.683213 -10.715004 24.270510 14.327067 1.606160 -17.633558 18.000000 0.011642 1.545085
1263.984947 433.341283 148.031962 0.000000 0.000000 0.000000 0.000000 0.000000 0.000000 -115.578373 3.906786 19.960535 64.421627 3.647523 19.960535 -82.396446 -3.661467 20.536413 25.733383 -1.840396 21.869059 -77.477544 -4.166794 -20.536413 5.836928 0.762251 1.840623
1352.596436 477.564354 143.368176 0.000000 0.000000 0.000000 0.000000 0.000000 0.000000 -99.196741 -2.507341 19.645745 80.803259 -4.082750 19.645745 -125.272585 1.193966 23.115397 -162.405270 -6.729763 19.122720 17.377627 6.845390 -23.115397 -16.262237 -0.684539 2.128896
1384.326782 408.174427 135.325818 0.000000 0.000000 0.000000 0.000000 0.000000 0.000000 96.868601 -8.771489 18.096541 -83.131399 -8.025380 18.096541 -160.848957 -6.100050 25.329838 -137.255583 1.394954 16.074804 -162.076720 -7.298966 -25.329838 0.000000 0.000000 0.000000
1387.580223 387.128634 152.693071 0.000000 0.000000 0.000000 0.000000 0.000000 0.000000 78.087764 -13.500573 15.410265 -101.912236 11.841721 15.410265 -161.807915 -6.212005 27.144812 -147.504361 1.220017 12.773379 -162.566306 -6.981892 -27.144812 1.735427 0.759021 2.679134
1345.818558 392.423122 128.680520 0.000000 0.000000 0.000000 0.000000 0.000000 0.000000 71.782984 2.529173 11.755705 -108.217016 -16.376223 11.755705 -169.469261 6.633970 28.531695 -153.903088 -4.359736 9.270510 -154.670689 1.300562 -28.531695 15.277725 2.741850 2.938926
1331.471329 361.814139 135.297640 0.000000 0.000000 0.000000 0.000000 0.000000 0.000000 53.586100 3.415784 7.362491 -126.413900 -14.355872 7.362491 -162.290330 -5.495602 29.468618 -154.912165 2.149400 5.621439 -162.550394 -7.667501 -29.468618 1.742175 0.813626 3.187120
1354.413986 427.213873 125.413369 0.000000 0.000000 0.000000 0.000000 0.000000 0.000000 -131.358118 -43.099024 2.506665 48.641882 34.088043 2.506665 -142.488821 1.200899 29.940802 -161.977882 -4.817595 1.883716 12.673705 7.661122 -29.940802 1.397524 0.110524 3.422736
1330.326691 347.207226 118.461678 0.000000 0.000000 0.000000 0.000000 0.000000 0.000000 52.464175 -1.214903 -2.506665 -127.535825 -5.339219 -2.506665 14.270918 0.778014 29.940802 -122.057234 3.599274 -1.883716 22.820874 -3.126304 -29.940802 -15.244909 0.038857 3.644843
1317.103271 414.475805 129.835246 0.000000 0.000000 0.000000 0.000000 0.000000 0.000000 76.170457 15.485936 -7.362491 -103.829543 -15.202850 -7.362491 -50.250674 8.553928 29.468618 -52.503744 0.945094 -5.621439 -92.793049 -6.942845 -29.468618 3.303440 0.373950 3.852566
1331.844635 430.291482 110.174221 0.000000 0.000000 0.000000 0.000000 0.000000 0.000000 79.985160 -6.296634 -11.755705 -100.014840 -3.192844 -11.755705 25.995082 -1.476552 28.531695 -75.062603 0.864579 -9.270510 38.761234 0.140540 -28.531695 -11.442229 -0.191280 4.045085
1359.462433 496.472383 119.043009 0.000000 0.000000 0.000000 0.000000 0.000000 0.000000 84.268829 9.200854 -15.410265 -95.731171 -5.139121 -15.410265 30.279153 2.573128 27.144812 -63.318008 3.447401 -12.773379 39.457716 -8.727573 -27.144812 -9.485742 -0.132333 4.221640
1323.514366 546.771398 110.052343 0.000000 0.000000 0.000000 0.000000 0.000000 0.000000 84.407325 -2.651835 -18.096541 -95.592675 1.083465 -18.096541 27.768249 -3.574074 25.329838 -47.660055 -0.063709 -16.074804 28.281511 0.063128 -25.329838 -7.827901 -0.419110 4.381533
1268.535347 591.567099 111.728294 0.000000 0.000000 0.000000 0.000000 0.000000 0.000000 90.890792 5.060950 -19.645745 -89.109208 -1.443150 -19.645745 44.654760 0.856932 23.115397 -48.200667 2.651467 -19.122720 43.369388 -0.985425 -23.115397 -8.974980 -1.468307 4.524135
1303.157158 602.888768 104.443292 0.000000 0.000000 0.000000 0.000000 0.000000 0.000000 90.349289 4.186129 -19.960535 -89.650711 -8.592160 -19.960535 47.707312 1.347986 20.536413 -53.918782 -1.785184 -21.869059 40.070965 -1.474968 -20.536413 -9.318632 1.439093 4.648882
1314.841690 613.141973 88.665918 0.000000 0.000000 0.000000 0.000000 0.000000 0.000000 94.480501 -5.725318 -19.021130 -85.519499 6.521302 -19.021130 58.462862 -4.615072 17.633558 -52.020507 3.170281 -24.270510 55.276552 3.304186 -17.633558 -7.777523 -0.566420 4.755283
1327.521400 639.394319 87.679746 0.000000 0.000000 0.000000 0.000000 0.000000 0.000000 99.879576 0.968632 -16.886559 -80.120424 -2.310717 -16.886559 69.161359 -0.493632 14.452610 -46.413613 -0.413378 -26.289200 76.680143 -1.579830 -14.452610 -6.257768 -0.082892 4.842916
1277.812729 671.228578 106.223039 0.000000 0.000000 0.000000 0.000000 0.000000 0.000000 99.708534 1.484335 -13.690942 -80.291466 0.473891 -13.690942 92.239140 -1.180720 11.043737 -26.764021 -2.869808 -27.893295 98.168457 0.310775 -11.043737 -4.372074 -0.095329 4.911436
1309.642181 690.479329 86.453888 0.000000 0.000000 0.000000 0.000000 0.000000 0.000000 117.292414 -4.726061 -9.635073 -62.707586 -4.993152 -9.635073 137.002702 1.711311 7.460697 -32.045917 -0.503278 -29.057495 135.211322 -2.285002 -7.460697 -3.212944 0.084151 4.960574
1299.770966 664.126496 84.704077 0.000000 0.000000 0.000000 0.000000 0.000000 0.000000 158.531160 6.358987 -4.973798 -21.468840 -4.842204 -4.973798 161.478323 -6.353021 3.759997 -12.838206 -6.103080 -29.763441 151.269584 1.084779 -3.759997 -2.521934 0.043703 4.990134
1313.353729 643.668108 67.860899 0.000000 0.000000 0.000000 0.000000 0.000000 0.000000 -154.315892 -8.750137 -0.000000 25.684108 4.704792 -0.000000 173.459940 0.911885 0.000000 1.519689 0.233168 -30.000000 164.244875 -1.453795 -0.000000 -1.552244 0.298245 5.000000
1342.841377 638.982847 73.390759 0.000000 0.000000 0.000000 0.000000 0.000000 0.000000 -138.993869 12.606853 4.973798 41.006131 4.010727 4.973798 175.724056 -2.813393 -3.759997 -151.723069 -3.122250 -29.763441 43.242568 3.888355 3.759997 -13.675743 -0.388836 4.990134
1350.000229 614.724133 70.349789 0.000000 0.000000 0.000000 0.000000 0.000000 0.000000 -144.248147 -7.491979 9.635073 35.751853 13.403944 9.635073 177.069273 -1.694480 -7.460697 -152.227621 -2.805034 -29.057495 43.136563 2.945682 7.460697 -13.686344 -0.294568 4.960574
1328.535919 624.780936 66.425695 0.000000 0.000000 0.000000 0.000000 0.000000 0.000000 -165.447222 20.616197 13.690942 14.552778 17.079235 13.690942 169.657511 -4.101628 -11.043737 -152.168050 -2.767362 -27.893295 41.929642 3.337710 11.043737 -13.807036 -0.333771 4.911436
1318.810501 615.688248 55.985826 0.000000 0.000000 0.000000 0.000000 0.000000 0.000000 -120.063657 10.742518 16.886559 59.936343 -2.829342 16.886559 -165.389465 -6.286308 -14.452610 -152.866764 -3.104863 -26.289200 39.162270 2.941793 14.452610 -14.083773 -0.294179 4.842916
1321.656418 659.275410 76.912292 0.000000 0.000000 0.000000 0.000000 0.000000 0.000000 -121.435085 -10.084519 19.021130 58.564915 8.122028 19.021130 -149.190712 3.083757 -17.633558 -151.926374 -1.870083 -24.270510 33.097066 1.880594 17.633558 -14.690293 -0.188059 4.755283
1328.445511 687.490232 52.427713 0.000000 0.000000 0.000000 0.000000 0.000000 0.000000 -104.253419 12.535815 19.960535 75.746581 -3.371346 19.960535 -110.140878 -5.014005 -20.536413 -152.911692 -2.823945 -21.869059 23.882145 2.737134 20.536413 3.694979 0.094736 4.648882
966.534206 440.564282 52.763014 0.000000 0.000000 0.000000 0.000000 0.000000 0.000000 25.865486 15.815412 19.645745 180.000000 -6.737651 19.645745 18.728337 0.288325 -23.115397 161.271663 -0.848561 -19.122720 19.024234 -3.475766 23.115397 18.000000 -1.378082 4.524135
966.454577 440.533056 56.770969 0.000000 0.000000 0.000000 0.000000 0.000000 0.000000 25.417507 13.026853 18.096541 180.000000 6.075674 18.096541 18.825450 -5.826412 -25.329838 161.174550 -0.381841 -16.074804 19.071566 3.805406 25.329838 18.000000 -0.583368 4.381533
966.374240 440.501809 43.306337 0.000000 0.000000 0.000000 0.000000 0.000000 0.000000 24.990320 -15.698916 15.410265 180.000000 9.037909 15.410265 18.929718 -1.263528 -27.144812 161.070282 0.586132 -12.773379 19.102411 4.632700 27.144812 18.000000 -0.198929 4.221640
966.293204 440.470542 53.948942 0.000000 0.000000 0.000000 0.000000 0.000000 0.000000 24.583377 -13.513331 11.755705 180.000000 7.419562 11.755705 19.040946 0.539470 -28.531695 160.959054 1.652813 -9.270510 19.116765 1.256665 28.531695 18.000000 0.488616 4.045085
966.211478 440.439256 62.812189 0.000000 0.000000 0.000000 0.000000 0.000000 0.000000 24.196129 7.656958 7.362491 180.000000 -5.976499 7.362491 19.158923 3.277628 -29.468618 160.841077 -2.030889 -5.621439 19.114778 1.958057 29.468618 18.000000 -0.709675 3.852566
644.985180 745.864069 65.039628 0.000000 0.000000 0.000000 0.000000 0.000000 0.000000 96.086415 -15.889224 2.506665 -83.913585 -11.766404 2.506665 -159.662371 -3.958744 -29.940802 -116.741565 -5.078565 -1.883716 -176.001217 -2.738853 29.940802 -1.006627 0.857962 3.644843
1269.020119 699.025490 63.802611 0.000000 0.000000 0.000000 0.000000 0.000000 0.000000 83.810916 5.744479 -2.506665 -96.189084 -2.987216 -2.506665 51.932890 -3.338264 -29.940802 -149.314466 -2.429891 1.883716 27.598511 2.150598 29.940802 -15.240149 -0.215060 3.422736
573.721218 678.450201 57.088859 0.000000 0.000000 0.000000 0.000000 0.000000 0.000000 18.756393 15.101176 -7.362491 -161.243607 -19.458043 -7.362491 -174.158094 3.079894 -29.468618 178.010322 -8.519019 5.621439 -154.394154 1.558239 29.468618 11.886524 1.166271 3.187120
1261.580200 714.897366 51.621191 0.000000 0.000000 0.000000 0.000000 0.000000 0.000000 87.191276 -4.357933 -11.755705 -92.808724 12.195333 -11.755705 23.129119 -2.558775 -28.531695 -149.376238 -1.964742 9.270510 24.545507 2.637175 28.531695 13.583501 -5.181397 2.938926
1314.655838 684.171546 55.795994 0.000000 0.000000 0.000000 0.000000 0.000000 0.000000 61.219932 -9.474287 -15.410265 -118.780068 6.448795 -15.410265 25.476616 -0.094633 -27.144812 -150.404247 -1.861850 12.773379 24.621454 1.856141 27.144812 -15.537855 -0.185614 2.679134
1319.638939 674.820013 57.637434 0.000000 0.000000 0.000000 0.000000 0.000000 0.000000 82.055377 10.207754 -18.096541 -97.944623 -0.630098 -18.096541 17.325085 0.573824 -25.329838 -60.067277 -4.030691 16.074804 23.747728 3.355388 25.329838 -13.005173 0.322476 2.408768
1367.852325 659.536314 73.848457 0.000000 0.000000 0.000000 0.000000 0.000000 0.000000 -150.278430 18.473336 -19.645745 29.721570 24.247933 -19.645745 -151.222797 -3.100386 -23.115397 18.758043 1.628870 19.122720 -152.451920 -2.543948 23.115397 2.484143 0.250952 2.128896
1392.624664 638.981302 61.042982 0.000000 0.000000 0.000000 0.000000 0.000000 0.000000 -122.704248 -10.192293 -19.960535 57.295752 -6.385597 -19.960535 -134.513385 7.695191 -20.536413 30.292627 -1.249207 21.869059 -146.694539 0.784075 20.536413 2.430965 0.005788 1.840623
1401.291389 646.422758 72.064029 0.000000 0.000000 0.000000 0.000000 0.000000 0.000000 83.316637 -3.874107 -19.021130 -96.683363 1.154174 -19.021130 29.335627 0.706287 -17.633558 -136.281416 -1.422535 24.270510 19.119183 -0.003533 17.633558 -15.871560 0.140857 1.545085
1381.838951 663.410475 71.235294 0.000000 0.000000 0.000000 0.000000 0.000000 0.000000 79.215331 -0.107331 -16.886559 -100.784669 -4.773330 -16.886559 30.640455 -2.078507 -14.452610 -139.113455 -2.256177 26.289200 14.302413 -0.562432 14.452610 -16.408036 0.044974 1.243449
1390.185928 664.248354 73.189673 0.000000 0.000000 0.000000 0.000000 0.000000 0.000000 75.546066 -4.480780 -13.690942 -104.453934 -10.803186 -13.690942 38.995097 2.496667 -11.043737 -142.871297 -1.019967 27.893295 14.209110 0.565480 11.043737 -16.737090 -0.060750 0.936907
1393.889923 677.551103 70.853520 0.000000 0.000000 0.000000 0.000000 0.000000 0.000000 84.293627 5.777708 -9.635073 -95.706373 2.569071 -9.635073 -152.700272 -4.003664 -7.460697 -143.357755 -2.388491 29.057495 -148.868889 -3.782612 7.460697 3.626268 0.508531 0.626666
905.601082 693.654528 104.705099 0.000000 0.000000 0.000000 0.000000 0.000000 0.000000 -84.410869 -20.344335 -4.973798 95.589131 1.587253 -4.973798 -139.498802 -4.140956 -3.759997 -178.556713 63.485805 29.763441 -142.061844 -5.905758 3.759997 3.411456 0.382179 0.313953
1337.643929 680.318756 87.640866 0.000000 0.000000 0.000000 0.000000 0.000000 0.000000 78.192517 -3.018983 0.000000 -101.807483 10.246396 0.000000 48.289813 -2.318569 -0.000000 -140.291980 3.209693 30.000000 13.663140 -1.965956 0.000000 -17.395561 0.219606 0.000000
1322.670708 685.543334 99.409357 0.000000 0.000000 0.000000 0.000000 0.000000 0.000000 71.501063 -4.544462 4.973798 -108.498937 -12.488116 4.973798 23.648228 5.073368 3.759997 -144.586500 1.737437 29.763441 14.578018 -0.395781 -3.759997 -16.885607 -0.108134 0.313953
1305.530548 682.910864 91.586472 0.000000 0.000000 0.000000 0.000000 0.000000 0.000000 72.979287 49.826454 9.635073 -107.020713 -15.093718 9.635073 -148.728581 -4.767447 7.460697 -74.802907 -18.135344 29.057495 -151.178244 -3.989499 -7.460697 2.601049 0.411722 0.626666
1359.363556 692.650115 118.895261 0.000000 0.000000 0.000000 0.000000 0.000000 0.000000 73.244804 3.012888 13.690942 -106.755196 -5.665165 13.690942 13.983499 2.389338 11.043737 -67.611809 -2.917400 27.893295 13.130547 1.180099 -11.043737 -11.004089 0.230568 0.936907
1299.495964 679.994059 121.462219 0.000000 0.000000 0.000000 0.000000 0.000000 0.000000 116.206779 2.112979 16.886559 -63.793221 5.111590 16.886559 -150.858719 -4.801635 14.452610 -34.548592 0.718465 26.289200 60.366751 2.265594 -14.452610 -4.627493 0.124818 1.243449
1306.260338 711.527116 116.594867 0.000000 0.000000 0.000000 0.000000 0.000000 0.000000 -85.758672 18.057500 19.021130 94.241328 4.528284 19.021130 -31.461750 -5.878944 17.633558 -4.237664 -1.712768 24.270510 -15.215787 4.386257 -17.633558 7.867754 -4.870238 1.545085
1272.614822 704.778571 126.742442 0.000000 0.000000 0.000000 0.000000 0.000000 0.000000 -78.634637 -25.296127 19.960535 101.365363 9.516729 19.960535 -34.118569 3.614948 20.536413 22.539652 6.929100 21.869059 -31.373170 -1.751692 -20.536413 11.310693 1.186009 1.840623
1310.345650 676.427021 130.981526 0.000000 0.000000 0.000000 0.000000 0.000000 0.000000 97.572435 1.958802 19.645745 -82.427565 5.345355 19.645745 50.400703 3.056088 23.115397 -39.584286 5.167779 19.122720 44.966766 0.555481 -23.115397 -8.852712 -0.516632 2.128896
1315.732956 671.025095 130.196088 0.000000 0.000000 0.000000 0.000000 0.000000 0.000000 97.797337 -3.836728 18.096541 -82.202663 -7.827820 18.096541 49.825934 5.455345 25.329838 -39.162923 0.036374 16.074804 36.475631 1.667414 -25.329838 -8.191519 0.540146 2.408768
1329.935532 653.525419 120.607614 0.000000 0.000000 0.000000 0.000000 0.000000 0.000000 96.469555 6.909714 15.410265 -83.530445 -2.267348 15.410265 63.882053 -0.854464 27.144812 -51.972064 2.264403 12.773379 58.624362 -1.012459 -27.144812 -8.239564 -0.933120 2.679134
1316.170578 674.246514 142.491875 0.000000 0.000000 0.000000 0.000000 0.000000 0.000000 -87.946330 -5.650791 11.755705 92.053670 0.757507 11.755705 -29.715798 2.296471 28.531695 54.212796 6.714141 9.270510 -40.560774 -2.844724 -28.531695 11.008015 0.390454 2.938926
1317.367287 678.027205 146.745168 0.000000 0.000000 0.000000 0.000000 0.000000 0.000000 95.152942 4.104223 7.362491 -84.847058 -2.584449 7.362491 98.792835 5.097594 29.468618 -150.515547 -5.872513 5.621439 32.983753 5.345519 -29.468618 -14.701625 -0.534552 3.187120
1318.168488 670.157025 140.892104 0.000000 0.000000 0.000000 0.000000 0.000000 0.000000 -151.252255 -36.737240 2.506665 28.747745 69.449743 2.506665 138.896993 -5.598520 29.940802 -151.946620 -5.813181 1.883716 38.784684 5.422598 -29.940802 -14.121532 -0.542260 3.422736
1323.412628 644.667885 149.820661 0.000000 0.000000 0.000000 0.000000 0.000000 0.000000 -97.904066 29.222336 -2.506665 82.095934 -47.459247 -2.506665 155.695030 -0.026669 29.940802 -152.500978 -7.333841 -1.883716 44.721081 6.844885 -29.940802 -13.527892 -0.684488 3.644843
1312.776718 630.059459 158.046729 0.000000 0.000000 0.000000 0.000000 0.000000 0.000000 -116.637972 11.423641 -7.362491 63.362028 -12.786423 -7.362491 171.094570 -1.252241 29.468618 -152.894064 -6.895268 -5.621439 43.947863 8.181108 -29.468618 -13.605214 -0.818111 3.852566
1316.420746 625.237019 132.348946 0.000000 0.000000 0.000000 0.000000 0.000000 0.000000 -136.254273 -8.933000 -11.755705 43.745727 -7.057225 -11.755705 -177.663204 -0.029571 28.531695 -153.006287 -6.552337 -9.270510 42.784597 8.468521 -28.531695 -13.721540 -0.846852 4.045085
1314.719925 628.818026 144.450389 0.000000 0.000000 0.000000 0.000000 0.000000 0.000000 -114.737929 -0.854746 -15.410265 65.262071 4.167937 -15.410265 -169.764314 -4.898125 27.144812 -153.369487 -6.226715 -12.773379 41.498347 7.423697 -27.144812 -13.850165 -0.742370 4.221640
1334.396782 646.165652 148.355559 0.000000 0.000000 0.000000 0.000000 0.000000 0.000000 -116.903454 -2.758582 -18.096541 63.096546 6.484927 -18.096541 -154.594534 1.160827 25.329838 -153.225015 -6.232490 -16.074804 37.136182 8.715823 -25.329838 -14.286382 -0.871582 4.381533
1340.823784 648.244128 153.077176 0.000000 0.000000 0.000000 0.000000 0.000000 0.000000 -116.932323 -1.467285 -19.645745 63.067677 -1.517245 -19.645745 -138.898656 0.401158 23.115397 35.335752 1.846969 -19.122720 -153.336856 -0.970467 -23.115397 2.206211 0.005668 4.524135
1330.023880 654.599032 151.477153 0.000000 0.000000 0.000000 0.000000 0.000000 0.000000 -112.150704 -0.337537 -19.960535 67.849296 -0.921091 -19.960535 -118.798313 3.138831 20.536413 -153.636372 -6.369049 -21.869059 16.691869 7.871849 -20.536413 -16.330813 -0.787185 4.648882
1337.431641 662.410698 154.903157 0.000000 0.000000 0.000000 0.000000 0.000000 0.000000 -109.111809 8.144473 -19.021130 70.888191 -7.613436 -19.021130 -91.144379 -0.646059 17.633558 -154.448144 -6.801478 -24.270510 10.298202 5.874345 -17.633558 6.642051 0.104070 4.755283
1324.339714 676.416593 120.859195 0.000000 0.000000 0.000000 0.000000 0.000000 0.000000 -104.120178 1.430402 -16.886559 75.879822 -3.329183 -16.886559 -57.095620 2.099129 14.452610 38.799650 -5.477923 -26.289200 -71.942639 1.079092 -14.452610 8.831938 0.008009 4.842916
962.890318 439.311049 173.399757 0.000000 0.000000 0.000000 0.000000 0.000000 0.000000 19.986963 10.213982 -13.690942 180.000000 1.636139 -13.690942 24.297229 -1.234345 11.043737 155.702771 1.577347 -27.893295 14.983342 4.608663 -11.043737 18.000000 -0.322572 4.911436
962.789911 439.279946 146.595535 0.000000 0.000000 0.000000 0.000000 0.000000 0.000000 20.089586 -16.302356 -9.635073 180.000000 2.994223 -9.635073 24.330184 6.189986 7.460697 155.669816 -0.595526 -29.057495 14.926290 8.985210 -7.460697 18.000000 -0.482653 4.960574
641.318550 641.336324 144.154448 0.000000 0.000000 0.000000 0.000000 0.000000 0.000000 163.642929 16.022911 -4.973798 -16.357071 -24.572408 -4.973798 -155.926011 2.813770 3.759997 -130.644608 -9.295407 -29.763441 68.679337 8.944668 -3.759997 -11.132066 -0.894467 4.990134
1305.385551 662.289033 136.861656 0.000000 0.000000 0.000000 0.000000 0.000000 0.000000 -81.949824 -7.323215 -0.000000 98.050176 20.858169 -0.000000 9.536664 -1.671491 0.000000 -153.586691 -5.483073 -30.000000 24.402531 4.929815 -0.000000 -15.559747 -0.492982 5.000000
962.486899 439.186814 144.892786 0.000000 0.000000 0.000000 0.000000 0.000000 0.000000 20.465882 -3.165552 4.973798 180.000000 -6.438420 4.973798 24.357206 3.253375 -3.759997 155.642794 1.591989 -29.763441 14.800425 -5.101047 3.759997 18.000000 0.704756 4.990134
1216.314240 612.580640 140.471261 0.000000 0.000000 0.000000 0.000000 0.000000 0.000000 78.221991 3.469695 9.635073 -101.778009 -0.892593 9.635073 46.689014 -2.038691 -7.460697 -61.937558 -5.372677 -29.057495 44.546377 -1.730582 7.460697 -10.771750 1.035852 4.960574
1273.897820 573.707514 121.017093 0.000000 0.000000 0.000000 0.000000 0.000000 0.000000 77.469628 2.855483 13.690942 -102.530372 0.386562 13.690942 -155.691164 -5.770755 -11.043737 -120.750172 -1.609684 -27.893295 -156.229293 -5.880339 11.043737 2.162203 0.565053 4.911436
1337.358742 570.303276 116.018585 0.000000 0.000000 0.000000 0.000000 0.000000 0.000000 73.705918 10.650213 16.886559 -106.294082 -0.817708 16.886559 -155.918376 -5.823850 -14.452610 -149.887909 -5.386432 -26.289200 0.000000 0.000000 0.000000 0.000000 0.000000 0.000000
1342.446442 569.623497 110.885751 0.000000 0.000000 0.000000 0.000000 0.000000 0.000000 68.898287 3.160597 19.021130 -111.101713 -2.014813 19.021130 39.314088 -1.740241 -17.633558 -140.912764 3.420882 -24.270510 -153.216026 -6.934064 17.633558 2.759242 0.605646 4.755283
1335.759430 584.665475 104.119482 0.000000 0.000000 0.000000 0.000000 0.000000 0.000000 66.989329 4.748654 19.960535 -113.010671 -0.834247 19.960535 -154.807077 -4.868121 -20.536413 -142.328055 -0.445533 -21.869059 -153.049156 -5.744107 20.536413 2.866457 0.611612 4.648882
1337.950974 598.074245 105.780094 0.000000 0.000000 0.000000 0.000000 0.000000 0.000000 62.697633 1.728365 19.645745 -117.302367 3.403439 19.645745 19.366736 -1.348284 -23.115397 -144.826223 0.080697 -19.122720 9.911455 0.818740 23.115397 -17.004209 -0.139587 4.524135
1352.846489 601.043322 108.116781 0.000000 0.000000 0.000000 0.000000 0.000000 0.000000 59.083577 -8.423860 18.096541 -120.916423 -1.847125 18.096541 20.876734 2.949151 -25.329838 -142.301690 -1.219492 -16.074804 13.356960 2.485821 25.329838 -16.821524 -0.024961 4.381533
1347.310982 587.475100 98.876799 0.000000 0.000000 0.000000 0.000000 0.000000 0.000000 56.169135 -2.907954 15.410265 -123.830865 10.856594 15.410265 21.172503 -7.078647 -27.144812 -139.640745 3.160396 -12.773379 14.641496 -2.760045 27.144812 -16.282575 0.145296 4.221640
1326.982155 606.886139 82.671716 0.000000 0.000000 0.000000 0.000000 0.000000 0.000000 70.119981 -6.928058 11.755705 -109.880019 3.119683 11.755705 26.511889 2.693686 -28.531695 -111.264667 4.556013 -9.270510 31.153840 -1.811846 28.531695 -13.943905 -0.017924 4.045085
1354.391098 626.185555 79.369441 0.000000 0.000000 0.000000 0.000000 0.000000 0.000000 88.154395 4.591072 7.362491 -91.845605 -0.987116 7.362491 30.442275 -4.173389 -29.468618 -76.284233 -3.906162 -5.621439 43.854867 2.508217 29.468618 -10.818190 0.044467 3.852566
1370.667114 610.219567 80.967068 0.000000 0.000000 0.000000 0.000000 0.000000 0.000000 89.945118 -1.907757 2.506665 -90.054882 -1.746818 2.506665 44.053326 1.165660 -29.940802 -56.238091 -0.577261 -1.883716 55.411270 0.753270 29.940802 -7.805659 -0.207631 3.644843
1372.834854 597.828534 71.192947 0.000000 0.000000 0.000000 0.000000 0.000000 0.000000 93.407992 -2.172488 -2.506665 -86.592008 4.041294 -2.506665 54.165845 0.416253 -29.940802 -47.239220 1.114461 1.883716 56.575186 4.678239 29.940802 -6.344474 -0.122328 3.422736
1336.554337 597.454848 84.309302 0.000000 0.000000 0.000000 0.000000 0.000000 0.000000 95.622643 2.117446 -7.362491 -84.377357 -3.752695 -7.362491 56.597780 -0.480439 -29.468618 -45.108662 -0.169484 5.621439 55.386034 -0.040893 29.468618 -7.206870 -0.070576 3.187120
1310.567093 590.844769 59.960575 0.000000 0.000000 0.000000 0.000000 0.000000 0.000000 100.193768 4.313000 -11.755705 -79.806232 -4.007027 -11.755705 61.986347 4.181839 -28.531695 -37.593815 -2.969933 9.270510 62.907615 -1.393597 28.531695 -6.637230 0.687681 2.938926
1328.574371 576.493385 63.219618 0.000000 0.000000 0.000000 0.000000 0.000000 0.000000 101.943783 3.751670 -15.410265 -78.056217 -1.715470 -15.410265 61.902838 2.857183 -27.144812 -33.889586 -4.996242 12.773379 55.760387 6.742782 27.144812 -7.097415 -1.259091 2.679134
1316.178360 595.500870 58.981888 0.000000 0.000000 0.000000 0.000000 0.000000 0.000000 103.792097 6.991873 -18.096541 -76.207903 3.291740 -18.096541 65.535198 -4.382261 -25.329838 -28.739437 -2.925683 16.074804 68.415337 -0.135746 25.329838 -6.481753 0.369561 2.408768
1302.343140 568.138025 29.186304 0.000000 0.000000 0.000000 0.000000 0.000000 0.000000 101.222717 -2.901110 -19.645745 -78.777283 11.821267 -19.645745 90.757296 -2.383632 -23.115397 -18.578033 3.089935 19.122720 97.909038 -3.890416 23.115397 -5.050134 0.294932 2.128896
1274.166183 540.660596 53.950433 0.000000 0.000000 0.000000 0.000000 0.000000 0.000000 -126.898591 4.957424 -19.960535 53.101409 -6.928123 -19.960535 127.276662 -1.095501 -20.536413 8.808645 1.276219 21.869059 119.711272 -2.933553 20.536413 -4.115393 -0.284009 1.840623
1268.557091 468.331075 46.852452 0.000000 0.000000 0.000000 0.000000 0.000000 0.000000 -124.112133 17.042710 -19.021130 55.887867 16.786177 -19.021130 163.344780 1.102258 -17.633558 38.476068 10.720856 24.270510 145.889074 -3.382899 17.633558 -1.929933 -0.204739 1.545085
1278.673096 454.375906 70.202596 0.000000 0.000000 0.000000 0.000000 0.000000 0.000000 -126.805061 6.641836 -16.886559 53.194939 -9.574012 -16.886559 -174.009950 8.189367 -14.452610 27.419224 1.848634 26.289200 168.192977 -1.981292 14.452610 -0.976267 0.134739 1.243449
1285.008774 434.700390 41.632532 0.000000 0.000000 0.000000 0.000000 0.000000 0.000000 -132.005120 2.456865 -13.690942 47.994880 1.630287 -13.690942 -171.247775 -0.209489 -11.043737 26.625253 -2.962519 27.893295 178.805957 -0.025302 11.043737 0.023422 0.114349 0.936907
1288.157730 426.987666 74.365743 0.000000 0.000000 0.000000 0.000000 0.000000 0.000000 -123.987926 -1.465449 -9.635073 56.012074 3.613521 -9.635073 -166.356219 -1.574144 -7.460697 35.716336 -1.059489 29.057495 -172.960762 -0.374774 7.460697 0.819533 0.099456 0.626666
1291.221657 420.425448 71.175457 0.000000 0.000000 0.000000 0.000000 0.000000 0.000000 -122.265643 2.425642 -4.973798 57.734357 0.332279 -4.973798 -156.870161 -0.954841 -3.759997 38.220704 -2.125867 29.763441 -165.716368 2.054964 3.759997 1.405814 -0.051747 0.313953
