HIERARCHY
ROOT Hips
{
    OFFSET 0.0 0.0 0.0
    CHANNELS 6 Xposition Yposition Zposition Zrotation Xrotation Yrotation
    JOINT Spine
    {
        OFFSET 0.0 5.0 0.0
        CHANNELS 3 Zrotation Xrotation Yrotation
        JOINT Chest
        {
            OFFSET 0.0 5.0 0.0
            CHANNELS 3 Zrotation Xrotation Yrotation
            JOINT Neck
            {
                OFFSET 0.0 8.0 0.0
                CHANNELS 3 Zrotation Xrotation Yrotation
                JOINT Head
                {
                    OFFSET 0.0 5.0 0.0
                    CHANNELS 3 Zrotation Xrotation Yrotation
                    End Site
                    {
                        OFFSET 0.0 3.0 0.0
                    }
                }
            }
            JOINT LeftShoulder
            {
                OFFSET -5.0 0.0 0.0
                CHANNELS 3 Zrotation Xrotation Yrotation
                JOINT LeftArm
                {
                    OFFSET 0.0 -10.0 0.0
                    CHANNELS 3 Zrotation Xrotation Yrotation
                    JOINT LeftForeArm
                    {
                        OFFSET 0.0 -10.0 0.0
                        CHANNELS 3 Zrotation Xrotation Yrotation
                        End Site
                        {
                            OFFSET 0.0 -3.0 0.0
                        }
                    }
                }
            }
        }
    }
}

MOTION
Frames: 300
Frame Time: 0.033333

960.000000 445.000000 87.497614 0.000000 0.000000 0.000000 0.000000 0.000000 0.000000 23.025492 -9.841215 0.000000 180.000000 5.156621 0.000000 21.801409 -5.906855 -0.000000 158.198591 -6.117808 30.000000 15.945396 2.760962 0.000000 18.000000 0.302147 0.000000
1691.525230 140.756605 107.689260 0.000000 0.000000 0.000000 0.000000 0.000000 0.000000 -163.376529 -0.921552 4.973798 16.623471 7.396855 4.973798 -171.853121 -3.651890 3.759997 99.744051 -24.582767 29.763441 -171.126653 -2.801766 -3.759997 0.673538 0.396007 0.313953
1636.048050 128.802021 125.845870 0.000000 0.000000 0.000000 0.000000 0.000000 0.000000 157.904128 3.013581 9.635073 -22.095872 -12.321734 9.635073 -171.936471 -3.494729 7.460697 -143.675701 0.807697 29.057495 -173.500805 -4.123881 -7.460697 0.570999 0.458858 0.626666
1578.156967 80.474526 111.689100 0.000000 0.000000 0.000000 0.000000 0.000000 0.000000 -139.519796 -12.264807 13.690942 40.480204 0.604471 13.690942 -174.507724 -3.874248 11.043737 119.111399 -9.269518 27.893295 -173.607258 -3.609104 -11.043737 0.461920 0.411367 0.936907
960.418757 444.998421 115.966584 0.000000 0.000000 0.000000 0.000000 0.000000 0.000000 25.077893 -17.636514 16.886559 180.000000 1.334170 16.886559 23.861935 4.460597 14.452610 156.138065 -5.772019 26.289200 17.903699 9.600332 -14.452610 18.000000 0.600581 1.243449
960.523360 444.997533 110.541859 0.000000 0.000000 0.000000 0.000000 0.000000 0.000000 25.638906 27.225127 19.021130 180.000000 -16.534758 19.021130 24.425035 -4.012541 17.633558 155.574965 1.827687 24.270510 18.452907 -7.125177 -17.633558 18.000000 -0.049393 1.545085
960.627905 444.996447 137.454310 0.000000 0.000000 0.000000 0.000000 0.000000 0.000000 26.219073 -8.375304 19.960535 180.000000 0.005445 19.960535 25.006291 2.183011 20.536413 154.993709 -0.242872 21.869059 19.024920 -4.204158 -20.536413 18.000000 0.426454 1.840623
1126.242828 420.359820 136.802322 0.000000 0.000000 0.000000 0.000000 0.000000 0.000000 31.410514 5.193754 19.645745 -148.589486 -8.814100 19.645745 32.280463 0.231597 23.115397 -131.603972 -1.049037 19.122720 45.585331 -0.996854 -23.115397 -13.449727 0.117095 2.128896
1257.895088 650.549197 129.936117 0.000000 0.000000 0.000000 0.000000 0.000000 0.000000 25.073180 35.313422 18.096541 -154.926820 -17.784973 18.096541 46.260945 5.979304 25.329838 -154.651428 -5.833367 16.074804 27.339487 4.910041 -25.329838 -13.619892 1.526602 2.408768
960.941083 444.992008 157.663229 0.000000 0.000000 0.000000 0.000000 0.000000 0.000000 28.072001 12.819943 15.410265 180.000000 -3.951134 15.410265 26.849221 8.981273 27.144812 153.150779 -4.176959 12.773379 20.864045 6.124482 -27.144812 18.000000 -0.479545 2.679134
1163.815842 547.748709 143.021022 0.000000 0.000000 0.000000 0.000000 0.000000 0.000000 117.162728 3.939690 11.755705 -62.837272 -6.365507 11.755705 102.363764 3.326232 28.531695 -47.376450 -0.132458 9.270510 104.768601 2.053493 -28.531695 -6.003489 0.383398 2.938926
961.149372 444.988063 149.343330 0.000000 0.000000 0.000000 0.000000 0.000000 0.000000 29.395983 -19.554694 7.362491 180.000000 6.067486 7.362491 28.146217 -12.020596 29.468618 151.853783 8.245351 5.621439 22.170006 2.502847 -29.468618 18.000000 -1.018262 3.187120
1136.717377 590.104480 137.531219 0.000000 0.000000 0.000000 0.000000 0.000000 0.000000 115.752126 8.624140 2.506665 -64.247874 -11.090573 2.506665 73.638146 3.880972 29.940802 -21.842452 1.788954 1.883716 75.369282 -2.996866 -29.940802 -6.767207 -0.020160 3.422736
1163.079758 634.077559 130.162337 0.000000 0.000000 0.000000 0.000000 0.000000 0.000000 132.174340 -3.211221 -2.506665 -47.825660 4.179908 -2.506665 94.255711 1.360361 29.940802 -149.364979 -6.743342 -1.883716 30.021641 6.191376 -29.940802 -5.096180 -0.369344 3.644843
961.460830 444.980668 140.187071 0.000000 0.000000 0.000000 0.000000 0.000000 0.000000 31.497152 -14.037742 -7.362491 180.000000 -1.656568 -7.362491 30.152455 -5.918058 29.468618 149.847545 8.392478 -5.621439 24.175589 -21.010432 -29.468618 18.000000 1.607314 3.852566
1097.449951 565.089898 150.782870 0.000000 0.000000 0.000000 0.000000 0.000000 0.000000 -119.219568 -3.255821 -11.755705 60.780432 3.971833 -11.755705 -150.180642 -7.061785 28.531695 48.804955 0.964206 -9.270510 -149.874178 -6.192604 -28.531695 2.713854 0.528681 4.045085
1114.140244 528.302071 124.868570 0.000000 0.000000 0.000000 0.000000 0.000000 0.000000 -142.671523 -9.182339 -15.410265 37.328477 2.318535 -15.410265 -177.395681 3.233484 27.144812 34.687329 -1.045139 -12.773379 161.894167 -1.940907 -27.144812 -0.910956 -0.011649 4.221640
1116.433640 479.728639 149.718214 0.000000 0.000000 0.000000 0.000000 0.000000 0.000000 -102.267481 12.956051 -18.096541 77.732519 -11.990010 -18.096541 -163.695626 6.432113 25.329838 38.575767 1.494029 -16.074804 -176.001122 -2.701709 -25.329838 0.706594 -0.025836 4.381533
1135.931282 466.493965 148.763629 0.000000 0.000000 0.000000 0.000000 0.000000 0.000000 -112.868406 -2.323230 -19.645745 67.131594 -9.102105 -19.645745 -159.517862 5.419596 23.115397 36.204678 -1.641709 -19.122720 -154.426613 -5.662507 -23.115397 2.428729 0.486894 4.524135
1141.618767 467.420679 140.905570 0.000000 0.000000 0.000000 0.000000 0.000000 0.000000 -123.086385 7.044008 -19.960535 56.913615 -0.014776 -19.960535 -154.885724 0.010445 20.536413 36.481623 -3.887117 -21.869059 -153.965441 -5.507296 -20.536413 2.446728 0.505089 4.648882
1150.647926 469.370956 112.621704 0.000000 0.000000 0.000000 0.000000 0.000000 0.000000 -43.953779 -46.518591 -19.021130 136.046221 33.707902 -19.021130 -154.327268 -7.097501 17.633558 60.745168 16.402202 -24.270510 -153.350642 -6.918708 -17.633558 2.386216 0.626926 4.755283
1151.529922 496.420240 145.676362 0.000000 0.000000 0.000000 0.000000 0.000000 0.000000 -116.362129 -3.085459 -16.886559 63.637871 -3.094343 -16.886559 -149.081043 1.822740 14.452610 35.941860 -2.078489 -26.289200 -156.847177 0.536561 -14.452610 2.056513 -0.150201 4.842916
1148.402367 515.713574 129.146118 0.000000 0.000000 0.000000 0.000000 0.000000 0.000000 -118.252650 -9.537738 -13.690942 61.747350 -6.858229 -13.690942 -138.082896 -0.773367 11.043737 -156.312677 -7.242685 -27.893295 21.649626 10.881109 -11.043737 2.962417 -0.263116 4.911436
1175.363617 533.368646 144.388511 0.000000 0.000000 0.000000 0.000000 0.000000 0.000000 -95.476638 15.369116 -9.635073 84.523362 0.969449 -9.635073 -113.907461 0.986130 7.460697 -155.995907 -6.822388 -29.057495 12.512064 8.295568 -7.460697 -16.748794 -0.829557 4.960574
1199.533310 485.991104 131.517134 0.000000 0.000000 0.000000 0.000000 0.000000 0.000000 -100.003195 17.436524 -4.973798 79.996805 -3.007259 -4.973798 -86.083188 -0.851771 3.759997 38.843754 -2.642684 -29.763441 -106.539452 0.778575 -3.759997 6.197806 -0.169115 4.990134
962.588190 444.938442 129.122459 0.000000 0.000000 0.000000 0.000000 0.000000 0.000000 39.579754 -8.600349 -0.000000 180.000000 -7.072897 -0.000000 36.680773 12.885142 0.000000 143.319227 -9.087015 -30.000000 29.388385 13.321741 -0.000000 18.000000 0.535365 5.000000
1142.094727 445.716287 127.902444 0.000000 0.000000 0.000000 0.000000 0.000000 0.000000 -140.228454 2.147110 4.973798 39.771546 -26.093625 4.973798 -156.118008 -5.486450 -3.759997 3.479189 8.099600 -29.763441 -158.005660 -6.396787 3.759997 2.150019 0.526826 4.990134
1164.005928 424.847746 122.403263 0.000000 0.000000 0.000000 0.000000 0.000000 0.000000 -84.241076 18.326924 9.635073 95.758924 -9.008350 9.635073 -156.181584 -5.849330 -7.460697 166.928360 -3.650235 -29.057495 -154.947270 -6.140544 7.460697 2.644196 0.752816 4.960574
1124.208755 418.286655 116.812615 0.000000 0.000000 0.000000 0.000000 0.000000 0.000000 -117.427077 -30.248730 13.690942 62.572923 27.534683 13.690942 -155.943063 -6.273289 -11.043737 14.023837 -10.959862 -27.893295 -157.382674 -4.804253 11.043737 2.188130 0.569942 4.911436
962.990408 444.917226 113.148544 0.000000 0.000000 0.000000 0.000000 0.000000 0.000000 42.110883 13.163467 16.886559 180.000000 -7.259394 16.886559 37.946959 -9.227725 -14.452610 142.053041 -3.439894 -26.289200 29.293612 14.389320 14.452610 18.000000 -0.446442 4.842916
963.090170 444.911436 93.572552 0.000000 0.000000 0.000000 0.000000 0.000000 0.000000 42.659200 18.775048 19.021130 180.000000 -19.223830 19.021130 38.119107 11.269625 -17.633558 141.880893 11.443468 -24.270510 29.068887 -10.857003 17.633558 18.000000 0.221623 4.755283
1186.646461 396.272757 106.132697 0.000000 0.000000 0.000000 0.000000 0.000000 0.000000 -72.847419 0.481433 19.960535 107.152581 3.949579 19.960535 -156.703603 -4.629058 -20.536413 178.447294 -7.713733 -21.869059 -157.212393 -4.239463 20.536413 1.964058 0.540871 4.648882
1313.051605 426.636125 89.140261 0.000000 0.000000 0.000000 0.000000 0.000000 0.000000 90.994869 46.310995 19.645745 -89.005131 -28.394627 19.645745 -160.515303 -4.648981 -23.115397 -153.248861 -13.462312 -19.122720 -159.640525 -4.426731 23.115397 0.000000 0.000000 0.000000
1347.999344 420.772226 87.586100 0.000000 0.000000 0.000000 0.000000 0.000000 0.000000 90.154351 6.850237 18.096541 -89.845649 -2.452065 18.096541 -162.053401 -3.630122 -25.329838 -136.198880 4.953410 -16.074804 -160.991694 -5.321413 25.329838 0.000000 0.000000 0.000000
1344.315948 421.031681 66.392313 0.000000 0.000000 0.000000 0.000000 0.000000 0.000000 69.757587 12.342994 15.410265 -110.242413 0.468011 15.410265 25.616746 -1.860202 -27.144812 -157.821005 -4.298179 -12.773379 17.214985 3.673365 27.144812 -16.704706 0.030331 4.221640
1350.307617 440.309436 87.045590 0.000000 0.000000 0.000000 0.000000 0.000000 0.000000 71.124018 -0.812986 11.755705 -108.875982 0.096708 11.755705 42.739987 -1.011157 -28.531695 -142.315466 5.141252 -9.270510 16.600926 -1.619556 28.531695 -16.660102 -0.041041 4.045085
1357.685051 430.688889 82.444150 0.000000 0.000000 0.000000 0.000000 0.000000 0.000000 77.656077 3.787600 7.362491 -102.343923 5.316435 7.362491 39.407151 -0.244440 -29.468618 -136.343173 4.000179 -5.621439 22.144452 -2.648814 29.468618 -16.305135 0.001972 3.852566
1369.482193 445.909406 80.218722 0.000000 0.000000 0.000000 0.000000 0.000000 0.000000 88.051188 11.895925 2.506665 -91.948812 1.508848 2.506665 -161.283973 -3.481633 -29.940802 -119.799169 -0.150742 -1.883716 -164.575400 -3.732224 29.940802 1.401013 0.406573 3.644843
963.875156 444.858159 61.439345 0.000000 0.000000 0.000000 0.000000 0.000000 0.000000 45.304844 28.538261 -2.506665 180.000000 -8.766613 -2.506665 37.252439 4.922197 -29.940802 142.747561 -13.087382 1.883716 25.146244 -10.225796 29.940802 18.000000 0.919641 3.422736
963.971479 444.850633 49.424717 0.000000 0.000000 0.000000 0.000000 0.000000 0.000000 45.383640 45.026902 -7.362491 180.000000 16.157490 -7.362491 36.882310 -12.388302 -29.468618 143.117690 15.532021 5.621439 24.499789 -12.575477 29.468618 18.000000 0.223693 3.187120
1336.629524 469.010178 64.858853 0.000000 0.000000 0.000000 0.000000 0.000000 0.000000 -72.390177 -22.385179 -11.755705 107.609823 53.188717 -11.755705 -158.649984 -3.653938 -28.531695 2.583425 5.076127 9.270510 -39.658551 -6.466366 28.531695 10.837181 1.328241 2.938926
1311.966934 518.219100 56.987100 0.000000 0.000000 0.000000 0.000000 0.000000 0.000000 -63.565072 37.752856 -15.410265 116.434928 -17.282041 -15.410265 -14.840750 1.998398 -27.144812 -158.549348 -2.576498 12.773379 17.488774 1.578577 27.144812 7.174982 5.037256 2.679134
964.257793 444.826908 44.516428 0.000000 0.000000 0.000000 0.000000 0.000000 0.000000 45.262206 19.622622 -18.096541 180.000000 -12.313982 -18.096541 35.497192 -1.276164 -25.329838 144.502808 -6.848033 16.074804 22.522929 13.010880 25.329838 18.000000 -1.695917 2.408768
1275.921364 516.836239 51.438910 0.000000 0.000000 0.000000 0.000000 0.000000 0.000000 85.186295 -7.164752 -19.645745 -94.813705 0.997472 -19.645745 52.470689 -4.106714 -23.115397 -44.513683 -3.544443 19.122720 50.867598 1.736158 23.115397 -8.717188 -0.011566 2.128896
1263.254128 546.875424 46.357475 0.000000 0.000000 0.000000 0.000000 0.000000 0.000000 34.848242 -68.515346 -19.960535 -145.151758 29.930104 -19.960535 42.487561 -3.645228 -20.536413 -157.415675 -1.491394 21.869059 22.420880 2.446793 20.536413 -15.757912 -0.244679 1.840623
1258.788185 528.263061 56.454968 0.000000 0.000000 0.000000 0.000000 0.000000 0.000000 118.326865 20.041112 -19.021130 -61.673135 -36.049069 -19.021130 143.214759 2.429094 -17.633558 -156.228306 -2.308213 24.270510 28.173554 1.982721 17.633558 -15.182645 -0.198272 1.545085
1231.492081 471.383836 52.439365 0.000000 0.000000 0.000000 0.000000 0.000000 0.000000 -115.049381 0.722510 -16.886559 64.950619 28.238434 -16.886559 172.843704 -3.110395 -14.452610 -157.842300 -1.985578 26.289200 32.851042 2.401488 14.452610 -14.714896 -0.240149 1.243449
1223.928795 435.993515 50.110854 0.000000 0.000000 0.000000 0.000000 0.000000 0.000000 -115.322532 -4.317848 -13.690942 64.677468 16.411163 -13.690942 -168.597862 -3.888629 -11.043737 -158.853816 -1.660273 27.893295 31.099266 2.985169 11.043737 -14.890073 -0.298517 0.936907
1223.669701 418.195664 50.613341 0.000000 0.000000 0.000000 0.000000 0.000000 0.000000 -102.084053 30.199911 -9.635073 77.915947 -23.692429 -9.635073 -171.103858 -1.089700 -7.460697 162.056334 -4.450044 29.057495 -153.594437 -2.304680 7.460697 2.968481 0.331234 0.626666
1216.486244 414.503002 55.875940 0.000000 0.000000 0.000000 0.000000 0.000000 0.000000 69.261091 13.521202 -4.973798 -110.738909 23.371442 -4.973798 -158.083722 -3.174822 -3.759997 -173.244581 8.120620 29.763441 -154.635509 -4.525897 3.759997 2.928763 0.372456 0.313953
1212.090225 434.550980 76.058516 0.000000 0.000000 0.000000 0.000000 0.000000 0.000000 -112.403932 35.563468 0.000000 67.596068 -10.572436 0.000000 -157.060799 -2.871193 -0.000000 173.400765 -6.421442 30.000000 -154.473580 -2.723887 0.000000 2.734633 0.330874 0.000000
1214.024734 450.340490 67.054741 0.000000 0.000000 0.000000 0.000000 0.000000 0.000000 -110.634751 -3.588540 4.973798 69.365249 4.821105 4.973798 -137.583343 2.261334 3.759997 -158.589698 -2.547931 29.763441 20.879446 3.415651 -3.759997 -15.912055 -0.341565 0.313953
1204.271393 440.192921 63.429344 0.000000 0.000000 0.000000 0.000000 0.000000 0.000000 -99.498286 3.663508 9.635073 80.501714 14.521119 9.635073 -156.696469 -3.180794 7.460697 -178.487725 -12.434977 29.057495 -157.318323 -2.208906 -7.460697 2.108583 0.270971 0.626666
965.269558 444.725315 51.094341 0.000000 0.000000 0.000000 0.000000 0.000000 0.000000 40.845461 10.025073 13.690942 180.000000 -14.208002 13.690942 28.615377 10.890435 11.043737 151.384623 -2.582816 27.893295 16.305092 1.193824 -11.043737 18.000000 0.036745 0.936907
1182.456551 475.103824 55.853347 0.000000 0.000000 0.000000 0.000000 0.000000 0.000000 -168.146016 70.153944 16.886559 11.853984 52.518726 16.886559 -63.802645 0.918588 14.452610 -61.114510 -6.985305 26.289200 -47.869281 12.984579 -14.452610 -13.834956 -8.244380 1.243449
965.446390 444.704404 74.336265 0.000000 0.000000 0.000000 0.000000 0.000000 0.000000 39.578146 32.945130 19.021130 180.000000 -21.558547 19.021130 27.338029 8.511882 17.633558 152.661971 -13.464202 24.270510 15.463180 9.429795 -17.633558 18.000000 -0.188725 1.545085
965.533915 444.693669 63.266513 0.000000 0.000000 0.000000 0.000000 0.000000 0.000000 38.916706 -6.788635 19.960535 180.000000 3.272631 19.960535 26.716768 4.536509 20.536413 153.283232 6.605743 21.869059 15.076605 0.435166 -20.536413 18.000000 -0.260427 1.840623
965.620834 444.682749 69.046824 0.000000 0.000000 0.000000 0.000000 0.000000 0.000000 38.241653 -5.787352 19.645745 180.000000 -7.634346 19.645745 26.109467 -5.157106 23.115397 153.890533 -7.013782 19.122720 14.712258 0.585460 -23.115397 18.000000 0.473457 2.128896
965.707136 444.671645 78.338486 0.000000 0.000000 0.000000 0.000000 0.000000 0.000000 37.556504 28.161483 18.096541 180.000000 -21.571887 18.096541 25.517536 5.846538 25.329838 154.482464 -12.419639 16.074804 14.369537 6.493637 -25.329838 18.000000 -0.430319 2.408768
965.792812 444.660356 90.098009 0.000000 0.000000 0.000000 0.000000 0.000000 0.000000 36.864608 -31.045600 15.410265 180.000000 0.108851 15.410265 24.942131 -0.711468 27.144812 155.057869 -7.692983 12.773379 14.047797 2.810526 -27.144812 18.000000 0.231905 2.679134
965.877853 444.648882 95.568969 0.000000 0.000000 0.000000 0.000000 0.000000 0.000000 36.169118 29.904785 11.755705 180.000000 -1.892616 11.755705 24.384173 -10.455356 28.531695 155.615827 0.918915 9.270510 13.746367 -3.216023 -28.531695 18.000000 -0.424826 2.938926
965.962249 444.637226 78.076933 0.000000 0.000000 0.000000 0.000000 0.000000 0.000000 35.472980 -0.781655 7.362491 180.000000 -11.590940 7.362491 23.844373 4.263128 29.468618 156.155627 4.837370 5.621439 13.464570 -5.087207 -29.468618 18.000000 0.070488 3.187120
966.045991 444.625386 108.714415 0.000000 0.000000 0.000000 0.000000 0.000000 0.000000 34.778913 -34.331313 2.506665 180.000000 12.862116 2.506665 23.323250 -8.637725 29.940802 156.676750 10.659961 1.883716 13.201728 -8.368839 -29.940802 18.000000 0.242864 3.422736
966.129071 444.613364 113.218503 0.000000 0.000000 0.000000 0.000000 0.000000 0.000000 34.089406 -22.637037 -2.506665 180.000000 15.456290 -2.506665 22.821158 -0.693662 29.940802 157.178842 11.671255 -1.883716 12.957175 -0.801865 -29.940802 18.000000 -0.376014 3.644843
966.211478 444.601159 124.960363 0.000000 0.000000 0.000000 0.000000 0.000000 0.000000 33.406712 -18.951375 -7.362491 180.000000 10.881736 -7.362491 22.338307 -5.484948 29.468618 157.661693 4.665338 -5.621439 12.730264 1.565338 -29.468618 18.000000 -0.365650 3.852566
1171.486244 534.946783 108.138887 0.000000 0.000000 0.000000 0.000000 0.000000 0.000000 70.594720 -1.398418 -11.755705 -109.405280 -3.066575 -11.755705 49.953444 5.583839 28.531695 -151.467583 -4.797733 -9.270510 0.000000 0.000000 0.000000 0.000000 0.000000 0.000000
966.374240 444.576206 113.609069 0.000000 0.000000 0.000000 0.000000 0.000000 0.000000 32.069603 -26.251344 -15.410265 180.000000 8.679846 -15.410265 21.430544 -10.587988 27.144812 158.569456 4.281991 -12.773379 12.326901 -3.125144 -27.144812 18.000000 -0.063379 4.221640
1172.156410 555.047708 142.733338 0.000000 0.000000 0.000000 0.000000 0.000000 0.000000 -121.065102 -24.805216 -18.096541 58.934898 0.424418 -18.096541 -151.641456 -5.297017 25.329838 -177.360623 3.710556 -16.074804 -149.076048 -6.655576 -25.329838 0.000000 0.000000 0.000000
1161.826630 552.360713 116.317621 0.000000 0.000000 0.000000 0.000000 0.000000 0.000000 69.958407 44.740993 -19.645745 -110.041593 -40.208082 -19.645745 -152.437496 -5.711974 23.115397 -158.790607 -4.281530 -19.122720 -150.591725 -6.760976 -23.115397 3.219062 0.813103 4.524135
1165.827255 569.832902 131.006504 0.000000 0.000000 0.000000 0.000000 0.000000 0.000000 25.594208 2.593618 -19.960535 -154.405792 5.511996 -19.960535 11.723883 5.477514 20.536413 -161.543160 4.799333 -21.869059 7.769582 -1.937054 -20.536413 -17.248199 -0.059201 4.648882
1165.555573 565.067046 146.081083 0.000000 0.000000 0.000000 0.000000 0.000000 0.000000 43.355707 20.248980 -19.021130 -136.644293 -7.290836 -19.021130 15.984329 4.319895 17.633558 -140.773833 1.316855 -24.270510 13.679449 -1.047025 -17.633558 -16.392157 -0.116567 4.755283
1290.255775 608.533316 158.589982 0.000000 0.000000 0.000000 0.000000 0.000000 0.000000 -153.952071 -23.207246 -16.886559 26.047929 16.431015 -16.886559 -152.683807 -5.749888 14.452610 4.794196 11.963583 -26.289200 -154.287190 -5.849805 -14.452610 2.418080 0.526766 4.842916
1180.398903 551.817470 155.386442 0.000000 0.000000 0.000000 0.000000 0.000000 0.000000 51.640104 10.496815 -13.690942 -128.359896 12.434471 -13.690942 14.419400 -7.427368 11.043737 -33.521359 4.130457 -27.893295 -34.277510 9.248953 -11.043737 5.235387 -1.741076 4.911436
1162.708626 619.419501 147.325130 0.000000 0.000000 0.000000 0.000000 0.000000 0.000000 -88.968325 18.055469 -9.635073 91.031675 -31.175097 -9.635073 -52.690088 0.775584 7.460697 25.015222 -6.727577 -29.057495 -72.561734 1.422155 -7.460697 8.557489 -0.083780 4.960574
1110.899391 602.919216 160.218379 0.000000 0.000000 0.000000 0.000000 0.000000 0.000000 -86.972237 6.570131 -4.973798 93.027763 -0.067036 -4.973798 -39.551144 -3.396999 3.759997 34.838085 -2.567066 -29.763441 -44.185810 -0.617544 -3.759997 10.000609 0.255100 4.990134
1150.187302 553.686991 158.373807 0.000000 0.000000 0.000000 0.000000 0.000000 0.000000 -116.065142 -14.188261 -0.000000 63.934858 2.715499 -0.000000 -151.059314 -6.607110 0.000000 -0.492058 7.794940 -30.000000 -14.044098 -13.052881 -0.000000 1.929760 -0.760380 5.000000
967.144727 444.440682 154.147369 0.000000 0.000000 0.000000 0.000000 0.000000 0.000000 26.270296 -30.323733 4.973798 180.000000 17.929485 4.973798 17.996647 -5.297495 -3.759997 162.003353 13.794898 -29.763441 11.189167 -8.056893 3.759997 18.000000 0.177094 4.990134
1213.452644 620.002785 157.952074 0.000000 0.000000 0.000000 0.000000 0.000000 0.000000 140.390379 32.826729 9.635073 -39.609621 -20.672677 9.635073 77.724607 -4.086161 -7.460697 -153.982965 -6.717271 -29.057495 24.142749 5.543016 7.460697 -0.833727 0.401866 4.960574
1124.373779 618.464527 144.007217 0.000000 0.000000 0.000000 0.000000 0.000000 0.000000 99.329635 7.999726 13.690942 -80.670365 -32.229948 13.690942 85.960927 9.992421 -11.043737 -150.875293 -7.726846 -27.893295 31.644098 5.746367 11.043737 -14.835590 -0.574637 4.911436
967.360971 444.396582 165.891224 0.000000 0.000000 0.000000 0.000000 0.000000 0.000000 24.874716 -24.776290 16.886559 180.000000 3.338733 16.886559 17.291102 -3.273149 -14.452610 162.708898 -0.753414 -26.289200 11.098846 -4.133257 14.452610 18.000000 0.655943 4.842916
1107.875175 542.453964 157.332635 0.000000 0.000000 0.000000 0.000000 0.000000 0.000000 -128.741314 -12.476379 19.021130 51.258686 2.406460 19.021130 -177.225595 1.167884 -17.633558 19.954750 2.017849 -24.270510 162.677362 0.096569 17.633558 -1.443098 -0.247738 4.755283
1119.652290 522.766346 140.991532 0.000000 0.000000 0.000000 0.000000 0.000000 0.000000 -99.017754 -12.507048 19.960535 80.982246 -2.082507 19.960535 -150.289603 -6.720172 -20.536413 -152.613833 -7.037866 -21.869059 0.000000 0.000000 0.000000 0.000000 0.000000 0.000000
1132.908783 538.229613 158.077782 0.000000 0.000000 0.000000 0.000000 0.000000 0.000000 -127.874185 -3.407673 19.645745 52.125815 3.926592 19.645745 -165.450188 -4.533115 -23.115397 -152.521515 -7.459080 -19.122720 40.606225 8.620059 23.115397 -13.939378 -0.862006 4.524135
1146.969337 541.828065 146.250643 0.000000 0.000000 0.000000 0.000000 0.000000 0.000000 -113.631604 4.591446 18.096541 66.368396 -7.417746 18.096541 -159.067475 4.528397 -25.329838 113.981862 -9.422358 -16.074804 -145.449815 -6.110339 25.329838 0.000000 0.000000 0.000000
1165.252304 561.329677 151.585813 0.000000 0.000000 0.000000 0.000000 0.000000 0.000000 -112.861399 -1.873994 15.410265 67.138601 5.846467 15.410265 -159.396543 -4.000421 -27.144812 -151.967552 -7.036635 -12.773379 38.422588 8.543726 27.144812 -14.157741 -0.854373 4.221640
1174.726181 592.839689 136.062334 0.000000 0.000000 0.000000 0.000000 0.000000 0.000000 -110.369899 4.836369 11.755705 69.630101 -0.389176 11.755705 -148.108768 1.912386 -28.531695 -151.515612 -6.964371 -9.270510 34.277732 8.605874 28.531695 -14.572227 -0.860587 4.045085
1167.352524 605.194867 132.662132 0.000000 0.000000 0.000000 0.000000 0.000000 0.000000 -113.828445 2.795906 7.362491 66.171555 -15.286030 7.362491 -131.688453 -1.433325 -29.468618 -151.045756 -7.278584 -5.621439 27.200835 8.712566 29.468618 -15.279916 -0.871257 3.852566
1139.678879 602.981014 129.726216 0.000000 0.000000 0.000000 0.000000 0.000000 0.000000 -97.599684 -37.609791 2.506665 82.400316 14.680980 2.506665 -113.965806 -3.431522 -29.940802 -121.058781 -3.911419 -1.883716 -118.492407 10.417401 29.940802 10.137620 -4.702638 3.644843
1165.830002 580.020189 129.571492 0.000000 0.000000 0.000000 0.000000 0.000000 0.000000 -28.085052 7.580451 -2.506665 151.914948 25.028125 -2.506665 -150.589103 -6.170884 -29.940802 -172.678414 0.078422 1.883716 -149.717924 -6.015219 29.940802 0.000000 0.000000 0.000000
1184.501953 619.872494 133.768776 0.000000 0.000000 0.000000 0.000000 0.000000 0.000000 -113.790307 11.052462 -7.362491 66.209693 12.665165 -7.362491 -59.272274 0.525995 -29.468618 29.476823 -4.266151 5.621439 -88.148483 1.274021 29.468618 7.414604 0.159521 3.187120
968.090170 444.221640 119.722826 0.000000 0.000000 0.000000 0.000000 0.000000 0.000000 21.092887 9.254716 -11.755705 180.000000 -3.771730 -11.755705 15.757771 -1.007219 -28.531695 164.242229 -5.310267 9.270510 11.678908 1.240380 28.531695 18.000000 0.290137 2.938926
968.151278 444.204723 123.296397 0.000000 0.000000 0.000000 0.000000 0.000000 0.000000 20.844337 -15.078753 -15.410265 180.000000 1.183537 -15.410265 15.691895 4.291437 -27.144812 164.308105 7.128544 12.773379 11.804629 -3.322332 27.144812 18.000000 -0.062634 2.679134
968.211492 444.187640 125.270342 0.000000 0.000000 0.000000 0.000000 0.000000 0.000000 20.610265 -4.737208 -18.096541 180.000000 5.699006 -18.096541 15.637361 -6.411586 -25.329838 164.362639 5.563370 16.074804 11.943263 -6.765841 25.329838 18.000000 0.358425 2.408768
968.270806 444.170392 113.315925 0.000000 0.000000 0.000000 0.000000 0.000000 0.000000 20.390366 -5.870821 -19.645745 180.000000 -3.479009 -19.645745 15.594026 2.718169 -23.115397 164.405974 6.438711 19.122720 12.095062 -8.163144 23.115397 18.000000 0.595412 2.128896
968.329212 444.152979 103.328770 0.000000 0.000000 0.000000 0.000000 0.000000 0.000000 20.184343 16.811282 -19.960535 180.000000 -8.758249 -19.960535 15.561766 -2.949345 -20.536413 164.438234 -4.371586 21.869059 12.260289 -7.591084 20.536413 18.000000 0.526331 1.840623
968.386706 444.135403 104.075513 0.000000 0.000000 0.000000 0.000000 0.000000 0.000000 19.991916 7.480525 -19.021130 180.000000 -8.231577 -19.021130 15.540476 3.363344 -17.633558 164.459524 3.990136 24.270510 12.439222 -5.264445 17.633558 18.000000 -0.029361 1.545085
968.443279 444.117663 107.391224 0.000000 0.000000 0.000000 0.000000 0.000000 0.000000 19.812814 7.945628 -16.886559 180.000000 -10.002397 -16.886559 15.530069 1.301389 -14.452610 164.469931 -1.924298 26.289200 12.632146 -1.647052 14.452610 18.000000 -0.098489 1.243449
968.498927 444.099761 89.199068 0.000000 0.000000 0.000000 0.000000 0.000000 0.000000 19.646785 1.424426 -13.690942 180.000000 1.450538 -13.690942 15.530474 6.257656 -11.043737 164.469526 2.256837 27.893295 12.839349 -2.645306 11.043737 18.000000 0.085576 0.936907
968.553643 444.081696 92.283005 0.000000 0.000000 0.000000 0.000000 0.000000 0.000000 19.493591 -8.020758 -9.635073 180.000000 12.147126 -9.635073 15.541640 -10.156623 -7.460697 164.458360 11.007385 29.057495 13.061119 -3.192836 7.460697 18.000000 -0.314351 0.626666
1051.772690 653.004448 94.678085 0.000000 0.000000 0.000000 0.000000 0.000000 0.000000 -79.007834 -6.317044 -4.973798 100.992166 -13.675802 -4.973798 -126.715299 4.628772 -3.759997 -149.991181 -3.661372 29.763441 31.772279 5.148626 3.759997 -14.822772 -0.514863 0.313953
1061.669197 624.716241 78.703987 0.000000 0.000000 0.000000 0.000000 0.000000 0.000000 -94.718359 22.394215 0.000000 85.281641 -4.801939 0.000000 -144.150484 -3.289817 -0.000000 60.155085 -18.400155 30.000000 -152.711462 2.040788 0.000000 1.815393 -0.164221 0.000000
1072.053337 571.032879 85.516663 0.000000 0.000000 0.000000 0.000000 0.000000 0.000000 71.424080 -0.625735 4.973798 -108.575920 -2.819272 4.973798 -149.042361 -3.604572 3.759997 -149.913636 -0.371622 29.763441 -145.792107 -4.407579 -3.759997 3.947623 0.521367 0.313953
1070.057373 572.884376 56.130598 0.000000 0.000000 0.000000 0.000000 0.000000 0.000000 -80.850201 -38.488642 9.635073 99.149799 34.774810 9.635073 -147.567525 -3.707659 7.460697 -164.443014 2.335528 29.057495 -145.447997 -4.047011 -7.460697 4.032371 0.361075 0.626666
968.813035 443.988972 60.650492 0.000000 0.000000 0.000000 0.000000 0.000000 0.000000 18.912944 -16.259859 13.690942 180.000000 12.609282 13.690942 15.758200 1.148620 11.043737 164.241800 -0.654953 27.893295 14.397395 6.504715 -11.043737 18.000000 -1.013426 0.936907
968.862036 443.969952 60.408544 0.000000 0.000000 0.000000 0.000000 0.000000 0.000000 18.832684 22.548861 16.886559 180.000000 0.300321 16.886559 15.833735 -2.932425 14.452610 164.166265 0.407400 26.289200 14.711463 -0.864475 -14.452610 18.000000 -0.229298 1.243449
968.910065 443.950775 79.389192 0.000000 0.000000 0.000000 0.000000 0.000000 0.000000 18.764066 2.660293 19.021130 180.000000 -2.602016 19.021130 15.920102 -2.128417 17.633558 164.079898 -2.192333 24.270510 15.041323 1.837256 -17.633558 18.000000 0.440081 1.545085
968.957118 443.931442 35.250357 0.000000 0.000000 0.000000 0.000000 0.000000 0.000000 18.706990 -2.888271 19.960535 180.000000 9.099865 19.960535 16.017366 -3.846579 20.536413 163.982634 2.047863 21.869059 15.386894 -0.022277 -20.536413 18.000000 0.345839 1.840623
969.003188 443.911954 36.942213 0.000000 0.000000 0.000000 0.000000 0.000000 0.000000 18.661377 2.431027 19.645745 180.000000 10.959982 19.645745 16.125602 -2.260839 23.115397 163.874398 2.714195 19.122720 15.747980 1.865622 -23.115397 18.000000 -0.346394 2.128896
969.048271 443.892312 43.600526 0.000000 0.000000 0.000000 0.000000 0.000000 0.000000 18.627165 4.878770 18.096541 180.000000 -1.995864 18.096541 16.244896 10.555267 25.329838 163.755104 -3.010309 16.074804 16.124252 7.862710 -25.329838 18.000000 -0.353046 2.408768
969.092361 443.872515 50.730093 0.000000 0.000000 0.000000 0.000000 0.000000 0.000000 18.604312 8.154399 15.410265 180.000000 5.064294 15.410265 16.375340 -1.735143 27.144812 163.624660 4.204665 12.773379 16.515224 -3.312563 -27.144812 18.000000 0.109399 2.679134
1055.186234 577.357593 50.429435 0.000000 0.000000 0.000000 0.000000 0.000000 0.000000 85.510211 2.152709 11.755705 -94.489789 -14.020040 11.755705 37.103410 2.205128 28.531695 -148.111343 -3.340903 9.270510 24.294182 2.630614 -28.531695 -8.601915 -0.589411 2.938926
1122.856522 566.714029 36.685317 0.000000 0.000000 0.000000 0.000000 0.000000 0.000000 96.216240 6.950781 7.362491 -83.783760 4.570621 7.362491 46.189625 -15.812849 29.468618 -149.396962 -3.183974 5.621439 24.670091 1.681431 -29.468618 -7.107716 1.294560 3.187120
969.218632 443.812213 38.575157 0.000000 0.000000 0.000000 0.000000 0.000000 0.000000 18.603763 12.498869 2.506665 180.000000 1.743967 2.506665 16.834613 -13.179937 29.940802 163.165387 -10.016526 1.883716 17.768624 1.863013 -29.940802 18.000000 -0.122885 3.422736
1112.757797 605.798106 38.184481 0.000000 0.000000 0.000000 0.000000 0.000000 0.000000 110.914625 -11.252120 -2.506665 -69.085375 28.214146 -2.506665 67.769469 -21.252187 29.940802 -149.822316 -2.461978 -1.883716 29.049901 2.107277 -29.940802 -3.625079 0.260691 3.644843
1086.733246 592.557156 59.845254 0.000000 0.000000 0.000000 0.000000 0.000000 0.000000 -80.132323 -76.714719 -7.362491 99.867677 73.463888 -7.362491 36.201564 -10.785291 29.468618 -13.679556 0.655855 -5.621439 78.049842 7.173855 -29.468618 -5.127460 -0.138075 3.852566
1081.109390 570.394492 52.175448 0.000000 0.000000 0.000000 0.000000 0.000000 0.000000 -175.864613 -9.255402 -11.755705 4.135387 15.743031 -11.755705 134.713876 1.130941 28.531695 -10.005873 4.887356 -9.270510 135.737755 2.761339 -28.531695 -3.389365 -0.306609 4.045085
1089.776802 536.594539 62.581925 0.000000 0.000000 0.000000 0.000000 0.000000 0.000000 -139.033903 6.700492 -15.410265 40.966097 23.617297 -15.410265 161.695972 -7.723253 27.144812 3.114398 5.426036 -12.773379 148.805610 -3.466870 -27.144812 -2.611636 -0.030604 4.221640
1114.282036 523.965647 59.965350 0.000000 0.000000 0.000000 0.000000 0.000000 0.000000 -156.073983 18.202363 -18.096541 23.926017 -15.266926 -18.096541 174.825807 3.993174 25.329838 5.093343 -6.535891 -16.074804 161.266817 -1.303894 -25.329838 -1.814366 0.261332 4.381533
1122.145157 503.425248 78.545393 0.000000 0.000000 0.000000 0.000000 0.000000 0.000000 -144.538174 -14.903370 -19.645745 35.461826 15.817518 -19.645745 174.215003 -1.224230 23.115397 -151.750905 -2.353704 -19.122720 43.887064 3.729470 -23.115397 -13.611294 -0.372947 4.524135
1134.158249 484.688419 74.004165 0.000000 0.000000 0.000000 0.000000 0.000000 0.000000 -142.311443 -0.324489 -19.960535 37.688557 2.829626 -19.960535 -174.407776 -3.380325 20.536413 14.121014 0.431304 -21.869059 176.737053 0.800163 -20.536413 -0.386439 -0.136834 4.648882
1156.756668 500.025387 81.674854 0.000000 0.000000 0.000000 0.000000 0.000000 0.000000 -140.140767 6.173643 -19.021130 39.859233 18.870644 -19.021130 -176.866589 -3.892130 17.633558 -153.177991 -3.433040 -24.270510 40.555680 5.031018 -17.633558 -13.944432 -0.503102 4.755283
1163.818588 490.292573 74.521279 0.000000 0.000000 0.000000 0.000000 0.000000 0.000000 -126.918075 8.351580 -16.886559 53.081925 5.398476 -16.886559 -163.374411 0.614806 14.452610 -153.952175 -4.177373 -26.289200 36.914642 5.870172 -14.452610 0.798233 -0.197280 4.842916
1176.523705 490.346003 90.055030 0.000000 0.000000 0.000000 0.000000 0.000000 0.000000 -130.072590 -10.461337 -13.690942 49.927410 11.052942 -13.690942 -150.224616 1.406563 11.043737 24.749952 4.119451 -27.893295 -162.219632 1.100234 -11.043737 1.550269 -0.125632 4.911436
1165.045052 489.521159 95.740478 0.000000 0.000000 0.000000 0.000000 0.000000 0.000000 -134.421293 12.475682 -9.635073 45.578707 -3.928184 -9.635073 -138.114962 1.245110 7.460697 20.347125 -1.805892 -29.057495 -149.675125 -0.817873 -7.460697 1.919618 0.329326 4.960574
1186.003189 485.341580 79.334917 0.000000 0.000000 0.000000 0.000000 0.000000 0.000000 151.263424 -68.922400 -4.973798 -28.736576 78.563609 -4.973798 -155.571724 -3.953084 3.759997 -114.944239 19.537974 -29.763441 -157.446860 -4.589811 -3.759997 2.096391 0.446204 4.990134
1190.285912 497.609435 105.354532 0.000000 0.000000 0.000000 0.000000 0.000000 0.000000 -104.331435 -18.726200 -0.000000 75.668565 -1.522016 -0.000000 -153.934692 -3.963730 0.000000 -67.465008 -0.821517 -30.000000 -71.629168 4.882997 -0.000000 -13.965204 8.605973 5.000000
846.875610 502.341399 97.016743 0.000000 0.000000 0.000000 0.000000 0.000000 0.000000 -153.358185 21.321067 4.973798 26.641815 -31.718484 4.973798 -147.628169 -4.732839 -3.759997 -147.401289 -6.309645 -29.763441 0.000000 0.000000 0.000000 0.000000 0.000000 0.000000
969.711343 443.490827 107.864269 0.000000 0.000000 0.000000 0.000000 0.000000 0.000000 20.204512 4.162848 9.635073 180.000000 12.274701 9.635073 20.733157 -12.570782 -7.460697 159.266843 3.339965 -29.057495 24.065833 1.318911 7.460697 18.000000 0.968894 4.960574
969.735789 443.468267 100.038715 0.000000 0.000000 0.000000 0.000000 0.000000 0.000000 20.415894 -14.108656 13.690942 180.000000 11.318249 13.690942 21.087741 -7.574130 -11.043737 158.912259 -0.200535 -27.893295 24.320336 -0.380251 11.043737 18.000000 0.554422 4.911436
969.759168 443.445569 98.455800 0.000000 0.000000 0.000000 0.000000 0.000000 0.000000 20.642061 -0.402434 16.886559 180.000000 -9.916786 16.886559 21.453029 -0.251104 -14.452610 158.546971 -4.510831 -26.289200 24.533304 -9.509887 14.452610 18.000000 1.161349 4.842916
585.252171 514.469179 119.610648 0.000000 0.000000 0.000000 0.000000 0.000000 0.000000 74.723181 48.972594 19.021130 -105.276819 65.428622 19.021130 119.807175 11.254756 -17.633558 165.825978 7.517215 -24.270510 138.012220 -3.745429 17.633558 -12.357653 0.891528 4.755283
624.843979 517.601860 101.234678 0.000000 0.000000 0.000000 0.000000 0.000000 0.000000 103.202449 -16.180642 19.960535 -76.797551 -11.079023 19.960535 114.381580 4.063099 -20.536413 -53.015473 67.476185 -21.869059 145.467160 -6.835399 20.536413 -4.173333 0.611668 4.648882
969.822873 443.376664 117.971579 0.000000 0.000000 0.000000 0.000000 0.000000 0.000000 21.413420 -13.921931 19.645745 180.000000 -0.959906 19.645745 22.607712 12.169682 -23.115397 157.392288 4.955090 -19.122720 24.899813 5.502704 23.115397 18.000000 -0.628247 4.524135
969.841956 443.353428 132.058307 0.000000 0.000000 0.000000 0.000000 0.000000 0.000000 21.702987 -3.856701 18.096541 180.000000 9.712261 18.096541 23.009909 -2.133362 -25.329838 156.990091 3.420811 -16.074804 24.926562 7.888403 25.329838 18.000000 -0.678682 4.381533
969.859960 443.330059 128.053539 0.000000 0.000000 0.000000 0.000000 0.000000 0.000000 22.009579 -1.065201 15.410265 180.000000 8.264895 15.410265 23.419334 -6.273589 -27.144812 156.580666 -1.873783 -12.773379 24.904993 7.109578 27.144812 18.000000 0.296308 4.221640
594.905148 538.048757 149.531863 0.000000 0.000000 0.000000 0.000000 0.000000 0.000000 -57.080480 -50.532103 11.755705 122.919520 48.715791 11.755705 -12.750556 -7.734633 -28.531695 149.841027 8.758098 -9.270510 -8.274090 7.500779 28.531695 17.596979 -0.024622 4.045085
969.892723 443.282929 140.264589 0.000000 0.000000 0.000000 0.000000 0.000000 0.000000 22.675903 16.663118 7.362491 180.000000 7.542991 7.362491 24.255612 0.710537 -29.468618 155.744388 1.022106 -5.621439 24.720303 -4.105284 29.468618 18.000000 1.147180 3.852566
1257.001877 499.708382 151.392188 0.000000 0.000000 0.000000 0.000000 0.000000 0.000000 52.818511 -11.095215 2.506665 -127.181489 3.632898 2.506665 25.369497 -2.040484 -29.940802 -143.914951 1.605350 -1.883716 14.556766 3.092006 29.940802 -16.686776 -0.121328 3.644843
1279.050064 493.773898 144.321077 0.000000 0.000000 0.000000 0.000000 0.000000 0.000000 56.685213 -1.760288 -2.506665 -123.314787 7.126339 -2.506665 24.065452 -0.615792 -29.940802 -146.540317 5.321262 1.883716 13.097461 -1.984932 29.940802 -16.716891 0.046833 3.422736
1295.108986 477.099677 152.215524 0.000000 0.000000 0.000000 0.000000 0.000000 0.000000 65.723361 0.941465 -7.362491 -114.276639 -3.149027 -7.362491 23.725299 -0.068283 -29.468618 -147.984281 -2.982439 5.621439 13.187557 1.459807 29.468618 -16.751134 -0.198563 3.187120
1289.065018 496.763316 137.958611 0.000000 0.000000 0.000000 0.000000 0.000000 0.000000 61.662232 4.406509 -11.755705 -118.337768 -5.999455 -11.755705 31.397757 -0.743632 -28.531695 -148.047797 -3.418281 9.270510 12.491083 -1.579156 28.531695 -16.898368 0.175695 2.938926
1285.337105 480.691112 137.512306 0.000000 0.000000 0.000000 0.000000 0.000000 0.000000 58.021980 12.019439 -15.410265 -121.978020 1.654829 -15.410265 31.705930 -1.682236 -27.144812 -157.028684 -3.846028 12.773379 11.107306 0.512788 27.144812 -17.140016 0.035891 2.679134
1276.453171 465.093691 150.694242 0.000000 0.000000 0.000000 0.000000 0.000000 0.000000 70.157145 -0.064808 -18.096541 -109.842855 3.195670 -18.096541 40.303764 -0.877224 -25.329838 -145.293609 -0.525114 16.074804 10.431204 -2.767126 25.329838 -17.100572 -0.016648 2.408768
1253.658714 472.768564 145.640830 0.000000 0.000000 0.000000 0.000000 0.000000 0.000000 65.087926 -14.264773 -19.645745 -114.912074 25.648268 -19.645745 -157.680356 -7.459351 -23.115397 -137.727082 2.568019 19.122720 -153.053596 2.634656 23.115397 -16.054219 -0.900777 2.128896
1366.101608 507.691247 137.434782 0.000000 0.000000 0.000000 0.000000 0.000000 0.000000 108.715100 24.316954 -19.960535 -71.284900 26.202772 -19.960535 156.661132 -14.942568 -20.536413 -158.224303 -5.495081 21.869059 0.000000 0.000000 0.000000 0.000000 0.000000 0.000000
969.986295 443.064535 156.222356 0.000000 0.000000 0.000000 0.000000 0.000000 0.000000 26.662144 -14.445607 -19.021130 180.000000 -7.797385 -19.021130 28.015351 17.406814 -17.633558 151.984649 1.369871 24.270510 22.068935 -8.966859 17.633558 18.000000 0.293168 1.545085
1282.107124 481.511257 139.229048 0.000000 0.000000 0.000000 0.000000 0.000000 0.000000 80.650781 -7.577224 -16.886559 -99.349219 8.623825 -16.886559 1.511604 0.640457 -14.452610 -32.896908 3.270857 26.289200 -7.727072 6.929466 14.452610 13.531851 -5.903660 1.243449
1282.921486 484.777769 122.030377 0.000000 0.000000 0.000000 0.000000 0.000000 0.000000 -81.737646 5.001675 -13.690942 98.262354 35.241277 -13.690942 -23.867101 -3.082348 -11.043737 12.655668 3.232707 27.893295 -29.454911 8.694566 11.043737 9.861248 -1.445845 0.936907
1290.933037 513.180238 145.047861 0.000000 0.000000 0.000000 0.000000 0.000000 0.000000 -91.387864 8.926055 -9.635073 88.612136 3.334363 -9.635073 -41.685392 -10.453075 -7.460697 -161.156957 -6.539914 29.057495 15.157863 5.116266 7.460697 10.543436 -0.204929 0.626666
969.999452 442.964284 148.225801 0.000000 0.000000 0.000000 0.000000 0.000000 0.000000 29.025427 14.221916 -4.973798 180.000000 1.711851 -4.973798 29.437993 -18.466369 -3.759997 150.562007 -13.956080 29.763441 20.404746 12.870411 3.759997 18.000000 0.003764 0.313953
970.000000 442.938926 114.223928 0.000000 0.000000 0.000000 0.000000 0.000000 0.000000 29.678605 32.958133 0.000000 180.000000 -11.492727 0.000000 29.744881 3.611589 -0.000000 150.255119 -11.626484 30.000000 19.983107 2.207433 0.000000 18.000000 -0.793541 0.000000
1354.522934 467.411410 132.913820 0.000000 0.000000 0.000000 0.000000 0.000000 0.000000 150.622570 1.032242 4.973798 -29.377430 -8.002234 4.973798 140.176400 6.562443 3.759997 -12.221629 -3.743047 29.763441 132.794256 0.142285 -3.759997 -2.626015 0.369116 0.313953
969.997807 442.887864 127.336891 0.000000 0.000000 0.000000 0.000000 0.000000 0.000000 31.061399 17.539629 9.635073 180.000000 1.357653 9.635073 30.285790 2.316430 7.460697 149.714210 1.790323 29.057495 19.151579 1.997579 -7.460697 18.000000 -0.092590 0.626666
1246.736984 514.278152 135.472977 0.000000 0.000000 0.000000 0.000000 0.000000 0.000000 143.557092 9.955600 13.690942 -36.442908 -7.734258 13.690942 133.761037 -5.117419 11.043737 -156.950665 -6.076515 27.893295 0.000000 0.000000 0.000000 1.928484 0.468341 0.936907
1245.221100 458.637464 128.805817 0.000000 0.000000 0.000000 0.000000 0.000000 0.000000 160.701064 -15.229146 16.886559 -19.298936 14.011795 16.886559 140.193827 -1.163278 14.452610 -157.554825 -5.445788 26.289200 29.500467 4.443706 -14.452610 -15.049953 -0.444371 1.243449
1257.365570 418.514181 117.956175 0.000000 0.000000 0.000000 0.000000 0.000000 0.000000 -143.710676 0.769515 19.021130 36.289324 -6.453475 19.021130 163.220413 5.858918 17.633558 11.688054 1.607500 24.270510 152.038385 0.033366 -17.633558 -2.339948 0.060129 1.545085
1275.099564 408.163741 105.665840 0.000000 0.000000 0.000000 0.000000 0.000000 0.000000 -132.929531 -3.347395 19.960535 47.070469 -17.445025 19.960535 173.491912 8.735136 20.536413 -160.709681 -5.126940 21.869059 33.138793 5.058051 -20.536413 -14.686121 -0.505805 1.840623
1290.611115 384.880857 112.350385 0.000000 0.000000 0.000000 0.000000 0.000000 0.000000 -132.705235 -1.284580 19.645745 47.294765 4.750533 19.645745 -173.778854 -1.205162 23.115397 20.496835 2.807288 19.122720 -161.220290 -4.429342 -23.115397 1.723235 0.378159 2.128896
1302.817154 380.305352 97.674513 0.000000 0.000000 0.000000 0.000000 0.000000 0.000000 -131.493915 7.020621 18.096541 48.506085 -12.345580 18.096541 -165.393697 6.029203 25.329838 23.154815 -0.797727 16.074804 -178.200316 -0.819211 -25.329838 0.138141 -0.002011 2.408768
1304.997711 379.563582 81.446357 0.000000 0.000000 0.000000 0.000000 0.000000 0.000000 -126.727972 -8.385850 15.410265 53.272028 -1.547511 15.410265 -160.219593 10.128313 27.144812 28.448880 5.048908 12.773379 -174.368770 -1.417754 -27.144812 0.079526 -0.050115 2.679134
1311.668472 386.890390 97.042600 0.000000 0.000000 0.000000 0.000000 0.000000 0.000000 -122.308728 -4.517050 11.755705 57.691272 3.160120 11.755705 -158.801130 0.333378 28.531695 150.942637 -2.164739 9.270510 -154.878332 -3.836980 -28.531695 2.695409 0.409316 2.938926
1305.131836 395.180186 80.525725 0.000000 0.000000 0.000000 0.000000 0.000000 0.000000 -125.112810 18.458423 7.362491 54.887190 -4.576498 7.362491 -146.487292 0.466359 29.468618 -175.167369 -8.604459 5.621439 -159.224034 -4.135139 -29.468618 1.782042 0.537451 3.187120
1296.320457 392.734526 62.877056 0.000000 0.000000 0.000000 0.000000 0.000000 0.000000 -131.035750 0.474296 2.506665 48.964250 6.502982 2.506665 -128.969563 -1.974624 29.940802 38.856147 -3.617378 1.883716 -134.776850 0.273497 -29.940802 3.458429 0.188609 3.422736
1306.963577 386.612041 56.476422 0.000000 0.000000 0.000000 0.000000 0.000000 0.000000 -124.469622 2.083626 -2.506665 55.530378 -4.437461 -2.506665 -109.994856 0.659661 29.940802 37.691309 1.103306 -1.883716 -118.274788 -1.137937 -29.940802 5.098336 -0.064631 3.644843
969.892723 442.572198 83.669940 0.000000 0.000000 0.000000 0.000000 0.000000 0.000000 41.287575 11.301373 -7.362491 180.000000 -21.089110 -7.362491 30.974696 11.097962 29.468618 149.025304 -7.451394 -5.621439 15.072869 -2.576324 -29.468618 18.000000 -0.153975 3.852566
969.876883 442.545207 63.707380 0.000000 0.000000 0.000000 0.000000 0.000000 0.000000 42.241956 -0.948770 -11.755705 180.000000 -12.562768 -11.755705 30.826133 13.463753 28.531695 149.173867 0.816952 -9.270510 14.823070 1.095098 -28.531695 18.000000 0.515731 4.045085
969.859960 442.518116 76.942672 0.000000 0.000000 0.000000 0.000000 0.000000 0.000000 43.199779 23.546925 -15.410265 180.000000 9.074567 -15.410265 30.649504 -10.034226 27.144812 149.350496 1.636165 -12.773379 14.587557 -1.227817 -27.144812 18.000000 -0.384973 4.221640
969.841956 442.490926 51.238520 0.000000 0.000000 0.000000 0.000000 0.000000 0.000000 44.157210 -26.531665 -18.096541 180.000000 6.121112 -18.096541 30.446417 -1.637449 25.329838 149.553583 7.962603 -16.074804 14.366154 0.137053 -25.329838 18.000000 0.206185 4.381533
969.822873 442.463637 56.411898 0.000000 0.000000 0.000000 0.000000 0.000000 0.000000 45.110117 -23.977445 -19.645745 180.000000 19.535517 -19.645745 30.218633 -2.619256 23.115397 149.781367 18.419241 -19.122720 14.158653 -6.616707 -23.115397 18.000000 0.153155 4.524135
969.802712 442.436251 48.083009 0.000000 0.000000 0.000000 0.000000 0.000000 0.000000 46.054109 16.165111 -19.960535 180.000000 -4.584414 -19.960535 29.968037 0.257464 20.536413 150.031963 5.545264 -21.869059 13.964823 -1.113861 -20.536413 18.000000 -0.207658 4.648882
1187.040939 541.658249 62.262059 0.000000 0.000000 0.000000 0.000000 0.000000 0.000000 82.806623 -24.241605 -19.021130 -97.193377 23.458111 -19.021130 45.395981 9.916383 17.633558 -156.144455 -2.082868 -24.270510 0.000000 0.000000 0.000000 0.000000 0.000000 0.000000
1182.242889 522.024286 60.408867 0.000000 0.000000 0.000000 0.000000 0.000000 0.000000 -105.721938 -14.405163 -16.886559 74.278062 -0.390049 -16.886559 -155.708006 -2.497930 14.452610 -157.302521 -2.569383 -26.289200 0.000000 0.000000 0.000000 2.684983 0.224966 4.842916
1180.914459 527.065626 37.324950 0.000000 0.000000 0.000000 0.000000 0.000000 0.000000 88.055617 -0.495752 -13.690942 -91.944383 -1.664749 -13.690942 -158.862018 -2.197149 11.043737 -151.747289 -2.288248 -27.893295 0.000000 0.000000 0.000000 0.000000 0.000000 0.000000
1236.800194 541.387432 31.697119 0.000000 0.000000 0.000000 0.000000 0.000000 0.000000 -85.588400 9.874876 -9.635073 94.411600 0.198232 -9.635073 -159.297106 -2.949880 7.460697 -157.915391 -2.758486 -29.057495 26.607362 2.397236 -7.460697 14.926890 -0.401169 4.960574
1161.066513 575.006626 41.480769 0.000000 0.000000 0.000000 0.000000 0.000000 0.000000 -81.021168 -7.137255 -4.973798 98.978832 4.303781 -4.973798 -102.851701 -2.648592 3.759997 -157.041007 -2.076784 -29.763441 21.429890 2.818575 -3.759997 10.859432 0.034540 4.990134
1255.636253 512.645942 53.524934 0.000000 0.000000 0.000000 0.000000 0.000000 0.000000 77.832564 -0.054409 -0.000000 -102.167436 -2.085485 -0.000000 -158.264834 -1.916785 0.000000 -130.745502 1.069403 -30.000000 -157.699225 -2.718997 -0.000000 0.000000 0.000000 0.000000
1265.118484 521.473864 60.511882 0.000000 0.000000 0.000000 0.000000 0.000000 0.000000 64.078276 -3.729129 4.973798 -115.921724 10.055643 4.973798 41.397952 -4.992664 -3.759997 -139.329851 1.889305 -29.763441 20.223252 0.447295 3.759997 -16.047574 -0.032461 4.990134
1228.099480 522.138258 52.299086 0.000000 0.000000 0.000000 0.000000 0.000000 0.000000 71.050901 -1.657494 9.635073 -108.949099 -12.973613 9.635073 150.099970 5.975880 -7.460697 -139.894702 -1.140357 -29.057495 -156.275691 -3.287725 7.460697 0.000000 0.000000 0.000000
1240.357246 528.695873 37.630974 0.000000 0.000000 0.000000 0.000000 0.000000 0.000000 65.413351 -9.395065 13.690942 -114.586649 19.034961 13.690942 147.242328 -4.408419 -11.043737 -154.470720 -1.558345 -27.893295 25.557225 2.576836 11.043737 -15.444278 -0.257684 4.911436
1231.815262 551.380248 45.076268 0.000000 0.000000 0.000000 0.000000 0.000000 0.000000 56.412506 21.784742 16.886559 -123.587494 -17.199433 16.886559 -153.392336 6.016934 -14.452610 -154.784582 -3.123381 -26.289200 24.191555 4.254078 14.452610 -15.580844 -0.425408 4.842916
1221.475182 508.360147 53.846466 0.000000 0.000000 0.000000 0.000000 0.000000 0.000000 77.450622 -3.286827 19.021130 -102.549378 -6.595678 19.021130 -156.789784 -2.893186 -17.633558 -125.590168 -3.219607 -24.270510 -160.017240 -3.134819 17.633558 1.833434 0.422198 4.755283
969.477684 442.100429 75.050088 0.000000 0.000000 0.000000 0.000000 0.000000 0.000000 54.932575 14.739028 19.960535 180.000000 -0.257975 19.960535 25.919122 1.855857 -20.536413 154.080878 -5.375672 -21.869059 12.612867 3.395989 20.536413 18.000000 -0.029708 4.648882
1480.140495 518.878891 68.785523 0.000000 0.000000 0.000000 0.000000 0.000000 0.000000 -110.621767 86.277269 19.645745 69.378233 85.602515 19.645745 -158.235933 -2.846014 -23.115397 166.031448 3.332366 -19.122720 -155.186432 -2.992807 23.115397 2.641553 0.367573 4.524135
1271.640472 556.840560 68.539852 0.000000 0.000000 0.000000 0.000000 0.000000 0.000000 -94.404719 4.107627 18.096541 85.595281 -16.315304 18.096541 -62.417786 4.864899 -25.329838 23.992813 -3.452238 -16.074804 -76.856107 0.494180 25.329838 7.708835 -0.150687 4.381533
1258.556786 530.268441 86.386826 0.000000 0.000000 0.000000 0.000000 0.000000 0.000000 78.355945 -4.513974 15.410265 -101.644055 -1.295839 15.410265 35.068294 1.192842 -27.144812 -54.090640 2.079209 -12.773379 35.848220 2.004877 27.144812 -8.104639 -0.125328 4.221640
1250.800209 527.150567 66.984057 0.000000 0.000000 0.000000 0.000000 0.000000 0.000000 72.417769 -0.582139 11.755705 -107.582231 1.514019 11.755705 24.571109 -1.469370 -28.531695 -39.196117 -0.085308 -9.270510 10.411117 5.092383 28.531695 -9.048616 -1.300776 4.045085
1243.466148 571.776259 86.295232 0.000000 0.000000 0.000000 0.000000 0.000000 0.000000 86.301473 12.483179 7.362491 -93.698527 -10.587826 7.362491 24.553534 -1.297651 -29.468618 -153.460385 -4.406719 -5.621439 19.510484 3.243008 29.468618 -10.109500 4.494814 3.852566
1261.883812 566.052918 77.621059 0.000000 0.000000 0.000000 0.000000 0.000000 0.000000 94.015209 -17.463578 2.506665 -85.984791 11.590684 2.506665 38.959993 0.488991 -29.940802 -154.008305 -3.259588 -1.883716 20.870951 3.839669 29.940802 -10.872440 -2.685194 3.644843
1284.436798 527.190542 111.031995 0.000000 0.000000 0.000000 0.000000 0.000000 0.000000 111.186365 0.177036 -2.506665 -68.813635 -0.358276 -2.506665 58.506163 4.708541 -29.940802 -19.138727 -4.239912 1.883716 51.457372 5.137263 29.940802 -5.203198 0.584263 3.422736
1272.860069 533.494012 96.052374 0.000000 0.000000 0.000000 0.000000 0.000000 0.000000 72.301471 0.084678 -7.362491 -107.698529 -16.539184 -7.362491 78.802573 -1.704933 -29.468618 -154.772375 -4.570176 5.621439 26.927455 3.785743 29.468618 -15.307255 -0.378574 3.187120
1255.264664 498.243735 109.952103 0.000000 0.000000 0.000000 0.000000 0.000000 0.000000 164.596971 -32.786883 -11.755705 -15.403029 -36.468407 -11.755705 125.849126 2.898488 -28.531695 -156.067666 -5.008986 9.270510 33.087561 5.117602 28.531695 -14.691244 -0.511760 2.938926
1259.202232 470.407684 125.463068 0.000000 0.000000 0.000000 0.000000 0.000000 0.000000 -139.980397 6.510315 -15.410265 40.019603 -5.867057 -15.410265 165.887722 3.205831 -27.144812 -157.901492 -5.586211 12.773379 35.196094 5.439566 27.144812 -14.480391 -0.543957 2.679134
1236.502075 429.951335 105.290828 0.000000 0.000000 0.000000 0.000000 0.000000 0.000000 -113.295066 -9.849624 -18.096541 66.704934 0.405608 -18.096541 -174.664169 2.066908 -25.329838 -159.007335 -5.312835 16.074804 32.868990 7.143510 25.329838 -14.713101 -0.714351 2.408768
1253.359451 413.942538 97.388468 0.000000 0.000000 0.000000 0.000000 0.000000 0.000000 -123.348580 -14.660585 -19.645745 56.651420 8.635094 -19.645745 -167.815074 0.247785 -23.115397 -159.603180 -4.988879 19.122720 32.791747 5.521447 23.115397 -14.720825 -0.552145 2.128896
1281.206589 405.664523 97.997976 0.000000 0.000000 0.000000 0.000000 0.000000 0.000000 -124.414271 0.948197 -19.960535 55.585729 0.419552 -19.960535 -161.281803 -1.972928 -20.536413 28.568449 -0.935411 21.869059 -159.052798 -4.917957 20.536413 1.849141 0.428591 1.840623
1300.238571 418.760215 145.139243 0.000000 0.000000 0.000000 0.000000 0.000000 0.000000 -126.263092 -5.790992 -19.021130 53.736908 -3.139353 -19.021130 -159.739358 -2.836577 -17.633558 31.487961 -0.385123 24.270510 -170.323915 0.102049 17.633558 0.671815 -0.017016 1.545085
1321.889191 413.634385 144.765947 0.000000 0.000000 0.000000 0.000000 0.000000 0.000000 -133.874471 2.644441 -16.886559 46.125529 8.630444 -16.886559 -159.376251 -5.402729 -14.452610 30.696824 2.432502 26.289200 -164.929556 0.317020 14.452610 1.089735 -0.326336 1.243449
1336.221428 432.881820 133.420949 0.000000 0.000000 0.000000 0.000000 0.000000 0.000000 -115.020798 6.291807 -13.690942 64.979202 -0.479132 -13.690942 -135.609544 1.769860 -11.043737 -161.321630 -6.171223 27.893295 17.353502 8.661773 11.043737 -16.264650 -0.866177 0.936907
1329.124603 416.860342 139.825484 0.000000 0.000000 0.000000 0.000000 0.000000 0.000000 -134.023347 6.485871 -9.635073 45.976653 2.082293 -9.635073 -128.030830 -1.736304 -7.460697 28.249885 0.997026 29.057495 -136.447985 -0.432530 7.460697 4.038834 -0.058298 0.626666
1343.366776 427.060794 140.477122 0.000000 0.000000 0.000000 0.000000 0.000000 0.000000 -130.153347 -8.373148 -4.973798 49.846653 -3.087301 -4.973798 -103.564435 4.628452 -3.759997 27.398095 5.122629 29.763441 -115.461530 -1.605087 3.759997 5.470063 0.103066 0.313953
1376.991005 465.829636 143.392719 0.000000 0.000000 0.000000 0.000000 0.000000 0.000000 -120.272352 -0.811835 0.000000 59.727648 -2.891445 0.000000 -62.204131 4.246391 -0.000000 27.740602 -0.183762 30.000000 -80.461527 -0.762477 0.000000 7.450891 0.077519 0.000000
1384.978867 468.790376 143.625331 0.000000 0.000000 0.000000 0.000000 0.000000 0.000000 -93.720384 -38.266178 4.973798 86.279616 -25.578234 4.973798 3.847814 11.287776 3.759997 -160.438787 -5.811091 29.763441 15.990976 5.011713 -3.759997 7.894783 -1.430848 0.313953
1345.894547 516.257268 144.717192 0.000000 0.000000 0.000000 0.000000 0.000000 0.000000 127.577640 9.171957 9.635073 -52.422360 -2.074385 9.635073 53.096359 -0.204668 7.460697 -159.021748 -6.391356 29.057495 18.308456 5.113577 -7.460697 -4.062191 1.575194 0.626666
968.498927 441.455181 150.529261 0.000000 0.000000 0.000000 0.000000 0.000000 0.000000 47.920147 36.684500 13.690942 180.000000 -1.026119 13.690942 19.641385 5.436106 11.043737 160.358615 -1.311846 27.893295 13.993219 5.862718 -11.043737 18.000000 -0.442566 0.936907
1336.846733 493.527671 153.947144 0.000000 0.000000 0.000000 0.000000 0.000000 0.000000 102.681311 13.671895 16.886559 -77.318689 -29.787498 16.886559 35.985219 1.946058 14.452610 -159.617763 -6.858731 26.289200 19.375410 5.968278 -14.452610 -16.062459 -0.596828 1.243449
968.386706 441.394956 152.647702 0.000000 0.000000 0.000000 0.000000 0.000000 0.000000 46.120581 27.301843 19.021130 180.000000 2.359843 19.021130 19.316787 -2.585893 17.633558 160.683213 6.805995 24.270510 14.327067 -9.041164 -17.633558 18.000000 0.151560 1.545085
1263.984947 433.341283 162.628022 0.000000 0.000000 0.000000 0.000000 0.000000 0.000000 -115.578373 3.013190 19.960535 64.421627 -6.690504 19.960535 -82.396446 7.681656 20.536413 25.733383 2.841201 21.869059 -77.477544 -12.639476 -20.536413 5.836928 1.690891 1.840623
1352.596436 477.564354 140.091788 0.000000 0.000000 0.000000 0.000000 0.000000 0.000000 -99.196741 2.197504 19.645745 80.803259 -0.094288 19.645745 -125.272585 0.228566 23.115397 -162.405270 -6.363552 19.122720 17.377627 6.387526 -23.115397 -16.262237 -0.638753 2.128896
1384.326782 408.174427 141.946562 0.000000 0.000000 0.000000 0.000000 0.000000 0.000000 96.868601 -28.388178 18.096541 -83.131399 14.778410 18.096541 -160.848957 -5.710185 25.329838 -137.255583 7.734936 16.074804 -162.076720 -6.937206 -25.329838 0.000000 0.000000 0.000000
1387.580223 387.128634 121.360376 0.000000 0.000000 0.000000 0.000000 0.000000 0.000000 78.087764 0.382047 15.410265 -101.912236 -14.385802 15.410265 -161.807915 -6.093325 27.144812 -147.504361 -2.896357 12.773379 -162.566306 -7.087584 -27.144812 1.735427 0.869853 2.679134
1345.818558 392.423122 128.426682 0.000000 0.000000 0.000000 0.000000 0.000000 0.000000 71.782984 14.345468 11.755705 -108.217016 -13.243916 11.755705 -169.469261 -5.062955 28.531695 -153.903088 -6.857428 9.270510 -154.670689 6.738682 -28.531695 15.277725 -2.397354 2.938926
1331.471329 361.814139 152.995166 0.000000 0.000000 0.000000 0.000000 0.000000 0.000000 53.586100 24.829573 7.362491 -126.413900 -44.134330 7.362491 -162.290330 -5.307746 29.468618 -154.912165 -5.327305 5.621439 -162.550394 -7.468951 -29.468618 1.742175 0.803113 3.187120
1354.413986 427.213873 125.098432 0.000000 0.000000 0.000000 0.000000 0.000000 0.000000 -131.358118 12.457421 2.506665 48.641882 -7.302565 2.506665 -142.488821 -1.612163 29.940802 -161.977882 -6.343255 1.883716 12.673705 8.235673 -29.940802 1.397524 0.230180 3.422736
1330.326691 347.207226 119.728269 0.000000 0.000000 0.000000 0.000000 0.000000 0.000000 52.464175 -4.489410 -2.506665 -127.535825 -0.780760 -2.506665 14.270918 4.028115 29.940802 -122.057234 -1.053500 -1.883716 22.820874 -0.025914 -29.940802 -15.244909 -0.023650 3.644843
1317.103271 414.475805 135.135088 0.000000 0.000000 0.000000 0.000000 0.000000 0.000000 76.170457 25.605711 -7.362491 -103.829543 0.140710 -7.362491 -50.250674 -10.743850 29.468618 -52.503744 -10.063195 -5.621439 -92.793049 13.512979 -29.468618 3.303440 0.730619 3.852566
1331.844635 430.291482 120.435580 0.000000 0.000000 0.000000 0.000000 0.000000 0.000000 79.985160 -2.611697 -11.755705 -100.014840 3.870837 -11.755705 25.995082 -4.695849 28.531695 -75.062603 -0.030617 -9.270510 38.761234 1.445737 -28.531695 -11.442229 -0.057061 4.045085
1359.462433 496.472383 132.975574 0.000000 0.000000 0.000000 0.000000 0.000000 0.000000 84.268829 9.763045 -15.410265 -95.731171 2.720048 -15.410265 30.279153 -4.711304 27.144812 -63.318008 -3.222137 -12.773379 39.457716 3.897564 -27.144812 -9.485742 -0.162752 4.221640
1323.514366 546.771398 121.990148 0.000000 0.000000 0.000000 0.000000 0.000000 0.000000 84.407325 1.858225 -18.096541 -95.592675 3.411476 -18.096541 27.768249 1.917482 25.329838 -47.660055 3.852587 -16.074804 28.281511 -10.947153 -25.329838 -7.827901 1.645782 4.381533
1268.535347 591.567099 104.244232 0.000000 0.000000 0.000000 0.000000 0.000000 0.000000 90.890792 0.104385 -19.645745 -89.109208 0.676394 -19.645745 44.654760 -4.629634 23.115397 -48.200667 -2.706647 -19.122720 43.369388 0.238644 -23.115397 -8.974980 0.376264 4.524135
1303.157158 602.888768 113.965933 0.000000 0.000000 0.000000 0.000000 0.000000 0.000000 90.349289 -5.882185 -19.960535 -89.650711 0.532356 -19.960535 47.707312 2.648793 20.536413 -53.918782 -1.358790 -21.869059 40.070965 2.346220 -20.536413 -9.318632 -0.271234 4.648882
1314.841690 613.141973 92.790645 0.000000 0.000000 0.000000 0.000000 0.000000 0.000000 94.480501 -2.628475 -19.021130 -85.519499 5.499132 -19.021130 58.462862 -6.061939 17.633558 -52.020507 -1.125661 -24.270510 55.276552 7.466512 -17.633558 -7.777523 -1.077681 4.755283
1327.521400 639.394319 101.544765 0.000000 0.000000 0.000000 0.000000 0.000000 0.000000 99.879576 -1.694480 -16.886559 -80.120424 1.375695 -16.886559 69.161359 -3.533080 14.452610 -46.413613 3.979976 -26.289200 76.680143 -6.773718 -14.452610 -6.257768 -0.100780 4.842916
1277.812729 671.228578 100.815092 0.000000 0.000000 0.000000 0.000000 0.000000 0.000000 99.708534 1.399084 -13.690942 -80.291466 -10.136428 -13.690942 92.239140 1.038315 11.043737 -26.764021 -5.672615 -27.893295 98.168457 -1.973520 -11.043737 -4.372074 0.191806 4.911436
1309.642181 690.479329 77.886715 0.000000 0.000000 0.000000 0.000000 0.000000 0.000000 117.292414 -8.481080 -9.635073 -62.707586 9.697627 -9.635073 137.002702 -1.660055 7.460697 -32.045917 0.672052 -29.057495 135.211322 1.604254 -7.460697 -3.212944 0.021468 4.960574
1299.770966 664.126496 79.973636 0.000000 0.000000 0.000000 0.000000 0.000000 0.000000 158.531160 5.412739 -4.973798 -21.468840 -6.511686 -4.973798 161.478323 3.217810 3.759997 -12.838206 0.461830 -29.763441 151.269584 1.199663 -3.759997 -2.521934 -0.013139 4.990134
1313.353729 643.668108 73.196664 0.000000 0.000000 0.000000 0.000000 0.000000 0.000000 -154.315892 -3.399864 -0.000000 25.684108 4.654422 -0.000000 173.459940 -1.584839 0.000000 1.519689 5.443981 -30.000000 164.244875 -0.835165 -0.000000 -1.552244 -0.219517 5.000000
1342.841377 638.982847 69.791650 0.000000 0.000000 0.000000 0.000000 0.000000 0.000000 -138.993869 -4.808560 4.973798 41.006131 -10.039090 4.973798 175.724056 0.828672 -3.759997 -151.723069 -3.382145 -29.763441 43.242568 3.480528 3.759997 -13.675743 -0.348053 4.990134
1350.000229 614.724133 51.657688 0.000000 0.000000 0.000000 0.000000 0.000000 0.000000 -144.248147 -15.515159 9.635073 35.751853 -0.241670 9.635073 177.069273 3.126400 -7.460697 -152.227621 -2.531325 -29.057495 43.136563 4.451973 7.460697 -13.686344 -0.445197 4.960574
1328.535919 624.780936 73.081039 0.000000 0.000000 0.000000 0.000000 0.000000 0.000000 -165.447222 8.291398 13.690942 14.552778 -9.300760 13.690942 169.657511 0.156281 -11.043737 -152.168050 -3.352702 -27.893295 41.929642 2.899917 11.043737 -13.807036 -0.289992 4.911436
1318.810501 615.688248 58.783044 0.000000 0.000000 0.000000 0.000000 0.000000 0.000000 -120.063657 -11.667612 16.886559 59.936343 6.931821 16.886559 -165.389465 3.513000 -14.452610 -152.866764 -1.878402 -26.289200 39.162270 2.401508 14.452610 -14.083773 -0.240151 4.842916
1321.656418 659.275410 53.639032 0.000000 0.000000 0.000000 0.000000 0.000000 0.000000 -121.435085 9.111416 19.021130 58.564915 -22.000962 19.021130 -149.190712 8.430686 -17.633558 -151.926374 -2.910409 -24.270510 33.097066 3.552866 17.633558 -14.690293 -0.355287 4.755283
1328.445511 687.490232 46.567973 0.000000 0.000000 0.000000 0.000000 0.000000 0.000000 -104.253419 -2.941582 19.960535 75.746581 8.507512 19.960535 -110.140878 1.170485 -20.536413 -152.911692 -1.976675 -21.869059 23.882145 2.794427 20.536413 3.694979 -0.044649 4.648882
966.534206 440.564282 44.356661 0.000000 0.000000 0.000000 0.000000 0.000000 0.000000 25.865486 -7.281218 19.645745 180.000000 4.865814 19.645745 18.728337 -8.136416 -23.115397 161.271663 -2.331505 -19.122720 19.024234 -3.446788 23.115397 18.000000 1.257756 4.524135
966.454577 440.533056 63.012002 0.000000 0.000000 0.000000 0.000000 0.000000 0.000000 25.417507 12.579487 18.096541 180.000000 -1.933582 18.096541 18.825450 1.390634 -25.329838 161.174550 -0.591726 -16.074804 19.071566 2.077658 25.329838 18.000000 -0.230868 4.381533
966.374240 440.501809 58.420735 0.000000 0.000000 0.000000 0.000000 0.000000 0.000000 24.990320 -9.998695 15.410265 180.000000 -13.280178 15.410265 18.929718 5.467865 -27.144812 161.070282 -7.231416 -12.773379 19.102411 7.596784 27.144812 18.000000 -0.300113 4.221640
966.293204 440.470542 36.661275 0.000000 0.000000 0.000000 0.000000 0.000000 0.000000 24.583377 -18.413346 11.755705 180.000000 10.521256 11.755705 19.040946 -4.403868 -28.531695 160.959054 -1.681090 -9.270510 19.116765 5.474996 28.531695 18.000000 -0.249310 4.045085
966.211478 440.439256 76.035484 0.000000 0.000000 0.000000 0.000000 0.000000 0.000000 24.196129 -22.156619 7.362491 180.000000 9.195497 7.362491 19.158923 -7.870423 -29.468618 160.841077 -3.238356 -5.621439 19.114778 9.762247 29.468618 18.000000 -0.654651 3.852566
644.985180 745.864069 30.451384 0.000000 0.000000 0.000000 0.000000 0.000000 0.000000 96.086415 -27.543380 2.506665 -83.913585 5.257596 2.506665 -159.662371 -0.315397 -29.940802 -116.741565 -4.568051 -1.883716 -176.001217 5.576771 29.940802 -1.006627 -0.843057 3.644843
1269.020119 699.025490 51.692807 0.000000 0.000000 0.000000 0.000000 0.000000 0.000000 83.810916 -4.838571 -2.506665 -96.189084 4.044744 -2.506665 51.932890 -2.397123 -29.940802 -149.314466 -1.511240 1.883716 27.598511 2.319361 29.940802 -15.240149 -0.231936 3.422736
573.721218 678.450201 66.145476 0.000000 0.000000 0.000000 0.000000 0.000000 0.000000 18.756393 -19.767862 -7.362491 -161.243607 41.178680 -7.362491 -174.158094 -9.895696 -29.468618 178.010322 3.664963 5.621439 -154.394154 -3.276223 29.468618 11.886524 3.077033 3.187120
1261.580200 714.897366 39.844680 0.000000 0.000000 0.000000 0.000000 0.000000 0.000000 87.191276 4.756029 -11.755705 -92.808724 -8.870619 -11.755705 23.129119 7.734419 -28.531695 -149.376238 -2.929738 9.270510 24.545507 1.943811 28.531695 13.583501 -1.669538 2.938926
1314.655838 684.171546 63.667114 0.000000 0.000000 0.000000 0.000000 0.000000 0.000000 61.219932 7.354202 -15.410265 -118.780068 5.601989 -15.410265 25.476616 -11.592119 -27.144812 -150.404247 -2.988323 12.773379 24.621454 2.339370 27.144812 -15.537855 -0.233937 2.679134
1319.638939 674.820013 75.449240 0.000000 0.000000 0.000000 0.000000 0.000000 0.000000 82.055377 6.111790 -18.096541 -97.944623 0.326549 -18.096541 17.325085 -8.657255 -25.329838 -60.067277 1.225063 16.074804 23.747728 -2.674136 25.329838 -13.005173 -0.189543 2.408768
1367.852325 659.536314 48.436182 0.000000 0.000000 0.000000 0.000000 0.000000 0.000000 -150.278430 -11.653202 -19.645745 29.721570 17.891076 -19.645745 -151.222797 -2.363312 -23.115397 18.758043 9.303190 19.122720 -152.451920 -2.947889 23.115397 2.484143 0.195746 2.128896
1392.624664 638.981302 57.604016 0.000000 0.000000 0.000000 0.000000 0.000000 0.000000 -122.704248 -4.757446 -19.960535 57.295752 -2.585456 -19.960535 -134.513385 1.296508 -20.536413 30.292627 1.496959 21.869059 -146.694539 -3.068477 20.536413 2.430965 0.122471 1.840623
1401.291389 646.422758 56.492060 0.000000 0.000000 0.000000 0.000000 0.000000 0.000000 83.316637 0.128979 -19.021130 -96.683363 -10.905457 -19.021130 29.335627 3.463192 -17.633558 -136.281416 -1.712909 24.270510 19.119183 -0.274018 17.633558 -15.871560 -0.131782 1.545085
1381.838951 663.410475 73.600988 0.000000 0.000000 0.000000 0.000000 0.000000 0.000000 79.215331 -3.580915 -16.886559 -100.784669 1.111002 -16.886559 30.640455 -1.780823 -14.452610 -139.113455 -3.036887 26.289200 14.302413 2.701604 14.452610 -16.408036 0.026827 1.243449
1390.185928 664.248354 60.483425 0.000000 0.000000 0.000000 0.000000 0.000000 0.000000 75.546066 1.180865 -13.690942 -104.453934 -7.945373 -13.690942 38.995097 1.701321 -11.043737 -142.871297 -1.637017 27.893295 14.209110 -0.059787 11.043737 -16.737090 -0.041640 0.936907
1393.889923 677.551103 83.818862 0.000000 0.000000 0.000000 0.000000 0.000000 0.000000 84.293627 -6.598589 -9.635073 -95.706373 7.340143 -9.635073 -152.700272 -3.771392 -7.460697 -143.357755 1.514371 29.057495 -148.868889 -3.885864 7.460697 3.626268 0.459221 0.626666
905.601082 693.654528 101.660506 0.000000 0.000000 0.000000 0.000000 0.000000 0.000000 -84.410869 -7.736877 -4.973798 95.589131 -2.675814 -4.973798 -139.498802 -4.595159 -3.759997 -178.556713 -15.729303 29.763441 -142.061844 -4.754935 3.759997 3.411456 0.389076 0.313953
1337.643929 680.318756 83.873619 0.000000 0.000000 0.000000 0.000000 0.000000 0.000000 78.192517 -1.636500 0.000000 -101.807483 -6.633703 0.000000 48.289813 3.029021 -0.000000 -140.291980 -3.671889 30.000000 13.663140 3.599728 0.000000 -17.395561 -0.060405 0.000000
1322.670708 685.543334 99.595787 0.000000 0.000000 0.000000 0.000000 0.000000 0.000000 71.501063 -7.948115 4.973798 -108.498937 1.199235 4.973798 23.648228 4.944158 3.759997 -144.586500 -3.604992 29.763441 14.578018 0.794291 -3.759997 -16.885607 0.093121 0.313953
1305.530548 682.910864 96.970727 0.000000 0.000000 0.000000 0.000000 0.000000 0.000000 72.979287 -19.665051 9.635073 -107.020713 6.668786 9.635073 -148.728581 -3.960283 7.460697 -74.802907 6.254709 29.057495 -151.178244 -4.229730 -7.460697 2.601049 0.408672 0.626666
1359.363556 692.650115 101.847107 0.000000 0.000000 0.000000 0.000000 0.000000 0.000000 73.244804 2.951524 13.690942 -106.755196 -8.242945 13.690942 13.983499 10.561944 11.043737 -67.611809 1.078313 27.893295 13.130547 -2.622746 -11.043737 -11.004089 0.090864 0.936907
1299.495964 679.994059 101.668858 0.000000 0.000000 0.000000 0.000000 0.000000 0.000000 116.206779 -0.628889 16.886559 -63.793221 5.825272 16.886559 -150.858719 -5.016524 14.452610 -34.548592 -0.791058 26.289200 60.366751 -4.797868 -14.452610 -4.627493 0.235370 1.243449
1306.260338 711.527116 108.562002 0.000000 0.000000 0.000000 0.000000 0.000000 0.000000 -85.758672 2.084253 19.021130 94.241328 -17.354858 19.021130 -31.461750 5.472005 17.633558 -4.237664 -4.193491 24.270510 -15.215787 -1.868918 -17.633558 7.867754 1.796375 1.545085
1272.614822 704.778571 125.168218 0.000000 0.000000 0.000000 0.000000 0.000000 0.000000 -78.634637 -6.870036 19.960535 101.365363 0.742089 19.960535 -34.118569 3.169959 20.536413 22.539652 -1.456437 21.869059 -31.373170 3.585236 -20.536413 11.310693 -1.197203 1.840623
1310.345650 676.427021 122.125976 0.000000 0.000000 0.000000 0.000000 0.000000 0.000000 97.572435 6.230682 19.645745 -82.427565 0.201630 19.645745 50.400703 -0.501608 23.115397 -39.584286 -0.669384 19.122720 44.966766 1.871107 -23.115397 -8.852712 -0.399392 2.128896
1315.732956 671.025095 123.364033 0.000000 0.000000 0.000000 0.000000 0.000000 0.000000 97.797337 -5.106965 18.096541 -82.202663 6.791140 18.096541 49.825934 -3.207526 25.329838 -39.162923 6.349676 16.074804 36.475631 -3.365638 -25.329838 -8.191519 -0.646535 2.408768
1329.935532 653.525419 134.614340 0.000000 0.000000 0.000000 0.000000 0.000000 0.000000 96.469555 1.139906 15.410265 -83.530445 -1.070882 15.410265 63.882053 -0.176076 27.144812 -51.972064 -0.103162 12.773379 58.624362 -3.771890 -27.144812 -8.239564 0.278507 2.679134
1316.170578 674.246514 135.510509 0.000000 0.000000 0.000000 0.000000 0.000000 0.000000 -87.946330 -9.511796 11.755705 92.053670 3.824731 11.755705 -29.715798 -0.488543 28.531695 54.212796 0.898064 9.270510 -40.560774 2.524317 -28.531695 11.008015 0.148588 2.938926
1317.367287 678.027205 146.149932 0.000000 0.000000 0.000000 0.000000 0.000000 0.000000 95.152942 -6.564757 7.362491 -84.847058 10.010967 7.362491 98.792835 0.673457 29.468618 -150.515547 -5.354834 5.621439 32.983753 5.318771 -29.468618 -14.701625 -0.531877 3.187120
1318.168488 670.157025 145.408484 0.000000 0.000000 0.000000 0.000000 0.000000 0.000000 -151.252255 47.164709 2.506665 28.747745 -40.057554 2.506665 138.896993 -3.588057 29.940802 -151.946620 -6.722806 1.883716 38.784684 6.020142 -29.940802 -14.121532 -0.602014 3.422736
1323.412628 644.667885 155.242479 0.000000 0.000000 0.000000 0.000000 0.000000 0.000000 -97.904066 -0.293163 -2.506665 82.095934 5.358529 -2.506665 155.695030 -1.183085 29.940802 -152.500978 -6.424138 -1.883716 44.721081 6.869162 -29.940802 -13.527892 -0.686916 3.644843
1312.776718 630.059459 140.978973 0.000000 0.000000 0.000000 0.000000 0.000000 0.000000 -116.637972 6.272293 -7.362491 63.362028 6.590585 -7.362491 171.094570 -2.824680 29.468618 -152.894064 -6.532853 -5.621439 43.947863 8.154399 -29.468618 -13.605214 -0.815440 3.852566
1316.420746 625.237019 159.843902 0.000000 0.000000 0.000000 0.000000 0.000000 0.000000 -136.254273 -8.985470 -11.755705 43.745727 0.855521 -11.755705 -177.663204 4.044631 28.531695 -153.006287 -5.832323 -9.270510 42.784597 7.650084 -28.531695 -13.721540 -0.765008 4.045085
1314.719925 628.818026 151.381500 0.000000 0.000000 0.000000 0.000000 0.000000 0.000000 -114.737929 1.603347 -15.410265 65.262071 -6.554132 -15.410265 -169.764314 -0.016624 27.144812 -153.369487 -7.111221 -12.773379 41.498347 8.166641 -27.144812 -13.850165 -0.816664 4.221640
1334.396782 646.165652 130.647917 0.000000 0.000000 0.000000 0.000000 0.000000 0.000000 -116.903454 -4.669065 -18.096541 63.096546 8.543004 -18.096541 -154.594534 0.669254 25.329838 -153.225015 -5.984460 -16.074804 37.136182 8.875629 -25.329838 -14.286382 -0.887563 4.381533
1340.823784 648.244128 140.597821 0.000000 0.000000 0.000000 0.000000 0.000000 0.000000 -116.932323 -1.833325 -19.645745 63.067677 3.450664 -19.645745 -138.898656 -3.287569 23.115397 35.335752 -1.333576 -19.122720 -153.336856 -0.613573 -23.115397 2.206211 0.085829 4.524135
1330.023880 654.599032 162.205533 0.000000 0.000000 0.000000 0.000000 0.000000 0.000000 -112.150704 -2.830177 -19.960535 67.849296 7.968443 -19.960535 -118.798313 -2.715911 20.536413 -153.636372 -6.041039 -21.869059 16.691869 9.132961 -20.536413 -16.330813 -0.913296 4.648882
1337.431641 662.410698 150.259619 0.000000 0.000000 0.000000 0.000000 0.000000 0.000000 -109.111809 8.696404 -19.021130 70.888191 -8.538829 -19.021130 -91.144379 0.145949 17.633558 -154.448144 -6.658273 -24.270510 10.298202 6.383899 -17.633558 6.642051 0.143581 4.755283
1324.339714 676.416593 130.467099 0.000000 0.000000 0.000000 0.000000 0.000000 0.000000 -104.120178 3.886284 -16.886559 75.879822 5.212554 -16.886559 -57.095620 -3.214714 14.452610 38.799650 2.733526 -26.289200 -71.942639 0.223049 -14.452610 8.831938 -0.326148 4.842916
962.890318 439.311049 153.560085 0.000000 0.000000 0.000000 0.000000 0.000000 0.000000 19.986963 -11.097106 -13.690942 180.000000 -1.963189 -13.690942 24.297229 5.989870 11.043737 155.702771 3.449245 -27.893295 14.983342 0.900399 -11.043737 18.000000 0.114649 4.911436
962.789911 439.279946 150.733822 0.000000 0.000000 0.000000 0.000000 0.000000 0.000000 20.089586 -15.195964 -9.635073 180.000000 5.073998 -9.635073 24.330184 1.932519 7.460697 155.669816 10.905091 -29.057495 14.926290 -1.034772 -7.460697 18.000000 -0.115882 4.960574
641.318550 641.336324 127.044982 0.000000 0.000000 0.000000 0.000000 0.000000 0.000000 163.642929 -19.444615 -4.973798 -16.357071 9.462895 -4.973798 -155.926011 4.150311 3.759997 -130.644608 -7.676110 -29.763441 68.679337 9.992327 -3.759997 -11.132066 -0.999233 4.990134
1305.385551 662.289033 141.504933 0.000000 0.000000 0.000000 0.000000 0.000000 0.000000 -81.949824 -7.853281 -0.000000 98.050176 15.713448 -0.000000 9.536664 -5.632372 0.000000 -153.586691 -5.476081 -30.000000 24.402531 4.744150 -0.000000 -15.559747 -0.474415 5.000000
962.486899 439.186814 134.400971 0.000000 0.000000 0.000000 0.000000 0.000000 0.000000 20.465882 9.074930 4.973798 180.000000 0.063971 4.973798 24.357206 -4.605669 -3.759997 155.642794 -15.695632 -29.763441 14.800425 7.611369 3.759997 18.000000 0.091047 4.990134
1216.314240 612.580640 112.731209 0.000000 0.000000 0.000000 0.000000 0.000000 0.000000 78.221991 2.377862 9.635073 -101.778009 -0.474069 9.635073 46.689014 1.052206 -7.460697 -61.937558 -0.327408 -29.057495 44.546377 -4.262661 7.460697 -10.771750 0.257687 4.960574
1273.897820 573.707514 132.553968 0.000000 0.000000 0.000000 0.000000 0.000000 0.000000 77.469628 -1.466384 13.690942 -102.530372 4.390821 13.690942 -155.691164 -5.863076 -11.043737 -120.750172 0.211939 -27.893295 -156.229293 -5.844399 11.043737 2.162203 0.569243 4.911436
1337.358742 570.303276 139.639269 0.000000 0.000000 0.000000 0.000000 0.000000 0.000000 73.705918 -6.444476 16.886559 -106.294082 3.134965 16.886559 -155.918376 -5.217803 -14.452610 -149.887909 -4.295081 -26.289200 0.000000 0.000000 0.000000 0.000000 0.000000 0.000000
1342.446442 569.623497 133.575092 0.000000 0.000000 0.000000 0.000000 0.000000 0.000000 68.898287 3.105582 19.021130 -111.101713 4.892819 19.021130 39.314088 -2.528594 -17.633558 -140.912764 1.136300 -24.270510 -153.216026 -5.624662 17.633558 2.759242 0.636195 4.755283
1335.759430 584.665475 103.290022 0.000000 0.000000 0.000000 0.000000 0.000000 0.000000 66.989329 4.184887 19.960535 -113.010671 3.628026 19.960535 -154.807077 -5.362216 -20.536413 -142.328055 2.531060 -21.869059 -153.049156 -6.573794 20.536413 2.866457 0.612775 4.648882
1337.950974 598.074245 103.222480 0.000000 0.000000 0.000000 0.000000 0.000000 0.000000 62.697633 -0.453397 19.645745 -117.302367 3.523165 19.645745 19.366736 -3.103239 -23.115397 -144.826223 1.607091 -19.122720 9.911455 -0.292367 23.115397 -17.004209 -0.047532 4.524135
1352.846489 601.043322 96.163613 0.000000 0.000000 0.000000 0.000000 0.000000 0.000000 59.083577 -15.483755 18.096541 -120.916423 2.356296 18.096541 20.876734 4.074896 -25.329838 -142.301690 5.547300 -16.074804 13.356960 -0.731575 25.329838 -16.821524 -0.149264 4.381533
1347.310982 587.475100 95.363268 0.000000 0.000000 0.000000 0.000000 0.000000 0.000000 56.169135 2.062069 15.410265 -123.830865 1.329748 15.410265 21.172503 -1.626318 -27.144812 -139.640745 -0.722311 -12.773379 14.641496 0.397426 27.144812 -16.282575 -0.026913 4.221640
1326.982155 606.886139 98.557741 0.000000 0.000000 0.000000 0.000000 0.000000 0.000000 70.119981 -4.421453 11.755705 -109.880019 5.468605 11.755705 26.511889 0.975353 -28.531695 -111.264667 4.347280 -9.270510 31.153840 -0.191375 28.531695 -13.943905 0.014748 4.045085
1354.391098 626.185555 65.748980 0.000000 0.000000 0.000000 0.000000 0.000000 0.000000 88.154395 -3.381213 7.362491 -91.845605 -0.476987 7.362491 30.442275 -1.469929 -29.468618 -76.284233 -1.163789 -5.621439 43.854867 2.068390 29.468618 -10.818190 0.034466 3.852566
1370.667114 610.219567 83.506674 0.000000 0.000000 0.000000 0.000000 0.000000 0.000000 89.945118 5.866427 2.506665 -90.054882 -3.601624 2.506665 44.053326 1.829112 -29.940802 -56.238091 -3.724640 -1.883716 55.411270 -0.477414 29.940802 -7.805659 0.104292 3.644843
1372.834854 597.828534 69.548745 0.000000 0.000000 0.000000 0.000000 0.000000 0.000000 93.407992 5.062915 -2.506665 -86.592008 -5.601560 -2.506665 54.165845 4.670528 -29.940802 -47.239220 -2.674078 1.883716 56.575186 -0.950035 29.940802 -6.344474 -0.397245 3.422736
1336.554337 597.454848 67.801537 0.000000 0.000000 0.000000 0.000000 0.000000 0.000000 95.622643 -8.067785 -7.362491 -84.377357 5.770640 -7.362491 56.597780 0.109399 -29.468618 -45.108662 2.807158 5.621439 55.386034 4.477225 29.468618 -7.206870 -0.185019 3.187120
1310.567093 590.844769 77.265651 0.000000 0.000000 0.000000 0.000000 0.000000 0.000000 100.193768 1.999191 -11.755705 -79.806232 -6.826410 -11.755705 61.986347 3.308583 -28.531695 -37.593815 0.475610 9.270510 62.907615 -1.731027 28.531695 -6.637230 -0.009717 2.938926
1328.574371 576.493385 79.349215 0.000000 0.000000 0.000000 0.000000 0.000000 0.000000 101.943783 -0.627956 -15.410265 -78.056217 3.925862 -15.410265 61.902838 2.452800 -27.144812 -33.889586 3.212848 12.773379 55.760387 0.772020 27.144812 -7.097415 -0.339743 2.679134
1316.178360 595.500870 61.240118 0.000000 0.000000 0.000000 0.000000 0.000000 0.000000 103.792097 -1.562916 -18.096541 -76.207903 -6.915642 -18.096541 65.535198 2.253034 -25.329838 -28.739437 2.163597 16.074804 68.415337 -0.811937 25.329838 -6.481753 -0.331722 2.408768
1302.343140 568.138025 63.677850 0.000000 0.000000 0.000000 0.000000 0.000000 0.000000 101.222717 -8.737823 -19.645745 -78.777283 12.466584 -19.645745 90.757296 5.381195 -23.115397 -18.578033 5.026768 19.122720 97.909038 -2.728602 23.115397 -5.050134 0.264735 2.128896
1274.166183 540.660596 67.226703 0.000000 0.000000 0.000000 0.000000 0.000000 0.000000 -126.898591 38.123202 -19.960535 53.101409 -22.939576 -19.960535 127.276662 -5.366886 -20.536413 8.808645 -5.017682 21.869059 119.711272 1.660517 20.536413 -4.115393 -0.390586 1.840623
1268.557091 468.331075 51.513405 0.000000 0.000000 0.000000 0.000000 0.000000 0.000000 -124.112133 4.913522 -19.021130 55.887867 14.736597 -19.021130 163.344780 -2.084801 -17.633558 38.476068 1.809619 24.270510 145.889074 -0.029537 17.633558 -1.929933 -0.030292 1.545085
1278.673096 454.375906 59.444352 0.000000 0.000000 0.000000 0.000000 0.000000 0.000000 -126.805061 13.294352 -16.886559 53.194939 -4.104137 -16.886559 -174.009950 -2.504641 -14.452610 27.419224 -3.291594 26.289200 168.192977 1.970633 14.452610 -0.976267 -0.082912 1.243449
1285.008774 434.700390 43.326561 0.000000 0.000000 0.000000 0.000000 0.000000 0.000000 -132.005120 3.021968 -13.690942 47.994880 -6.424575 -13.690942 -171.247775 -0.924245 -11.043737 26.625253 -0.232892 27.893295 178.805957 -1.076716 11.043737 0.023422 0.109060 0.936907
1288.157730 426.987666 40.511463 0.000000 0.000000 0.000000 0.000000 0.000000 0.000000 -123.987926 7.599891 -9.635073 56.012074 -3.401646 -9.635073 -166.356219 -5.636247 -7.460697 35.716336 -0.966840 29.057495 -172.960762 0.099859 7.460697 0.819533 -0.038382 0.626666
1291.221657 420.425448 58.827494 0.000000 0.000000 0.000000 0.000000 0.000000 0.000000 -122.265643 10.110655 -4.973798 57.734357 -4.892242 -4.973798 -156.870161 -3.007031 -3.759997 38.220704 -1.683752 29.763441 -165.716368 -2.397710 3.759997 1.405814 0.204646 0.313953
