HIERARCHY
ROOT Hips
{
    OFFSET 0.0 0.0 0.0
    CHANNELS 6 Xposition Yposition Zposition Zrotation Xrotation Yrotation
    JOINT Spine
    {
        OFFSET 0.0 5.0 0.0
        CHANNELS 3 Zrotation Xrotation Yrotation
        JOINT Chest
        {
            OFFSET 0.0 5.0 0.0
            CHANNELS 3 Zrotation Xrotation Yrotation
            JOINT Neck
            {
                OFFSET 0.0 8.0 0.0
                CHANNELS 3 Zrotation Xrotation Yrotation
                JOINT Head
                {
                    OFFSET 0.0 5.0 0.0
                    CHANNELS 3 Zrotation Xrotation Yrotation
                    End Site
                    {
                        OFFSET 0.0 3.0 0.0
                    }
                }
            }
            JOINT LeftShoulder
            {
                OFFSET -5.0 0.0 0.0
                CHANNELS 3 Zrotation Xrotation Yrotation
                JOINT LeftArm
                {
                    OFFSET 0.0 -10.0 0.0
                    CHANNELS 3 Zrotation Xrotation Yrotation
                    JOINT LeftForeArm
                    {
                        OFFSET 0.0 -10.0 0.0
                        CHANNELS 3 Zrotation Xrotation Yrotation
                        End Site
                        {
                            OFFSET 0.0 -3.0 0.0
                        }
                    }
                }
            }
        }
    }
}

MOTION
Frames: 300
Frame Time: 0.033333

960.000000 445.000000 111.327135 0.000000 0.000000 0.000000 0.000000 0.000000 0.000000 23.025492 16.693542 0.000000 180.000000 6.032722 0.000000 21.801409 -10.854110 -0.000000 158.198591 -9.398164 30.000000 15.945396 -3.206747 0.000000 18.000000 0.151663 0.000000
1691.525230 140.756605 92.699671 0.000000 0.000000 0.000000 0.000000 0.000000 0.000000 -163.376529 0.790265 4.973798 16.623471 2.375141 4.973798 -171.853121 -3.377163 3.759997 99.744051 -5.771302 29.763441 -171.126653 -3.313525 -3.759997 0.673538 0.442985 0.313953
1636.048050 128.802021 116.173131 0.000000 0.000000 0.000000 0.000000 0.000000 0.000000 157.904128 -20.210814 9.635073 -22.095872 -7.587413 9.635073 -171.936471 -3.608356 7.460697 -143.675701 -2.202842 29.057495 -173.500805 -3.907394 -7.460697 0.570999 0.468250 0.626666
1578.156967 80.474526 108.167775 0.000000 0.000000 0.000000 0.000000 0.000000 0.000000 -139.519796 -8.896836 13.690942 40.480204 -0.223496 13.690942 -174.507724 -3.615237 11.043737 119.111399 12.259242 27.893295 -173.607258 -4.529734 -11.043737 0.461920 0.505896 0.936907
960.418757 444.998421 128.938884 0.000000 0.000000 0.000000 0.000000 0.000000 0.000000 25.077893 -14.384155 16.886559 180.000000 8.359692 16.886559 23.861935 2.506062 14.452610 156.138065 15.877895 26.289200 17.903699 -12.092234 -14.452610 18.000000 0.710352 1.243449
960.523360 444.997533 113.617634 0.000000 0.000000 0.000000 0.000000 0.000000 0.000000 25.638906 37.887610 19.021130 180.000000 -17.853757 19.021130 24.425035 5.810532 17.633558 155.574965 -8.774798 24.270510 18.452907 6.964107 -17.633558 18.000000 -1.022522 1.545085
960.627905 444.996447 142.923137 0.000000 0.000000 0.000000 0.000000 0.000000 0.000000 26.219073 -2.858521 19.960535 180.000000 -3.208835 19.960535 25.006291 6.629359 20.536413 154.993709 -8.138905 21.869059 19.024920 -2.646020 -20.536413 18.000000 0.494086 1.840623
1126.242828 420.359820 144.243931 0.000000 0.000000 0.000000 0.000000 0.000000 0.000000 31.410514 4.992124 19.645745 -148.589486 -1.454128 19.645745 32.280463 -2.756166 23.115397 -131.603972 1.318911 19.122720 45.585331 -2.100588 -23.115397 -13.449727 0.121740 2.128896
1257.895088 650.549197 132.347688 0.000000 0.000000 0.000000 0.000000 0.000000 0.000000 25.073180 8.790437 18.096541 -154.926820 17.747257 18.096541 46.260945 -3.130290 25.329838 -154.651428 -5.395879 16.074804 27.339487 5.062060 -25.329838 -13.619892 0.440895 2.408768
960.941083 444.992008 141.400515 0.000000 0.000000 0.000000 0.000000 0.000000 0.000000 28.072001 -22.454118 15.410265 180.000000 -4.751638 15.410265 26.849221 21.989266 27.144812 153.150779 9.424728 12.773379 20.864045 -0.081637 -27.144812 18.000000 0.628479 2.679134
1163.815842 547.748709 143.221372 0.000000 0.000000 0.000000 0.000000 0.000000 0.000000 117.162728 0.913341 11.755705 -62.837272 -7.942177 11.755705 102.363764 6.615684 28.531695 -47.376450 3.816826 9.270510 104.768601 -1.073568 -28.531695 -6.003489 -0.368043 2.938926
961.149372 444.988063 140.479040 0.000000 0.000000 0.000000 0.000000 0.000000 0.000000 29.395983 37.803920 7.362491 180.000000 -23.116789 7.362491 28.146217 21.619652 29.468618 151.853783 -2.659788 5.621439 22.170006 -10.755080 -29.468618 18.000000 -0.204485 3.187120
1136.717377 590.104480 143.545826 0.000000 0.000000 0.000000 0.000000 0.000000 0.000000 115.752126 9.634836 2.506665 -64.247874 -7.009980 2.506665 73.638146 3.307141 29.940802 -21.842452 -3.535017 1.883716 75.369282 -1.449893 -29.940802 -6.767207 0.316806 3.422736
1163.079758 634.077559 141.963143 0.000000 0.000000 0.000000 0.000000 0.000000 0.000000 132.174340 -1.499474 -2.506665 -47.825660 1.400239 -2.506665 94.255711 -2.509134 29.940802 -149.364979 -7.134766 -1.883716 30.021641 5.448273 -29.940802 -5.096180 0.285801 3.644843
961.460830 444.980668 136.822474 0.000000 0.000000 0.000000 0.000000 0.000000 0.000000 31.497152 2.535347 -7.362491 180.000000 8.666130 -7.362491 30.152455 -7.385915 29.468618 149.847545 -14.638420 -5.621439 24.175589 15.301303 -29.468618 18.000000 -0.910520 3.852566
1097.449951 565.089898 152.794447 0.000000 0.000000 0.000000 0.000000 0.000000 0.000000 -119.219568 4.270747 -11.755705 60.780432 -4.309770 -11.755705 -150.180642 -6.484597 28.531695 48.804955 -2.585147 -9.270510 -149.874178 -5.905238 -28.531695 2.713854 0.497549 4.045085
1114.140244 528.302071 151.161079 0.000000 0.000000 0.000000 0.000000 0.000000 0.000000 -142.671523 6.290962 -15.410265 37.328477 -7.443382 -15.410265 -177.395681 7.473951 27.144812 34.687329 1.546226 -12.773379 161.894167 -0.047659 -27.144812 -0.910956 -0.273422 4.221640
1116.433640 479.728639 151.088047 0.000000 0.000000 0.000000 0.000000 0.000000 0.000000 -102.267481 -10.124221 -18.096541 77.732519 6.825725 -18.096541 -163.695626 -1.182855 25.329838 38.575767 4.026936 -16.074804 -176.001122 -0.547964 -25.329838 0.706594 -0.027947 4.381533
1135.931282 466.493965 138.254863 0.000000 0.000000 0.000000 0.000000 0.000000 0.000000 -112.868406 -0.412735 -19.645745 67.131594 6.409827 -19.645745 -159.517862 -3.486725 23.115397 36.204678 -1.136142 -19.122720 -154.426613 -5.716531 -23.115397 2.428729 0.557428 4.524135
1141.618767 467.420679 133.537539 0.000000 0.000000 0.000000 0.000000 0.000000 0.000000 -123.086385 -6.265555 -19.960535 56.913615 -3.448683 -19.960535 -154.885724 -1.908822 20.536413 36.481623 1.567116 -21.869059 -153.965441 -6.543802 -20.536413 2.446728 0.553280 4.648882
1150.647926 469.370956 137.852514 0.000000 0.000000 0.000000 0.000000 0.000000 0.000000 -43.953779 -44.505203 -19.021130 136.046221 -24.381258 -19.021130 -154.327268 -5.671530 17.633558 60.745168 1.427491 -24.270510 -153.350642 -5.989811 -17.633558 2.386216 0.611320 4.755283
1151.529922 496.420240 147.588541 0.000000 0.000000 0.000000 0.000000 0.000000 0.000000 -116.362129 9.669128 -16.886559 63.637871 -8.782495 -16.886559 -149.081043 1.190477 14.452610 35.941860 -2.228954 -26.289200 -156.847177 -1.219317 -14.452610 2.056513 0.093163 4.842916
1148.402367 515.713574 156.643509 0.000000 0.000000 0.000000 0.000000 0.000000 0.000000 -118.252650 6.487719 -13.690942 61.747350 -2.954266 -13.690942 -138.082896 -3.876444 11.043737 -156.312677 -7.243881 -27.893295 21.649626 10.863207 -11.043737 2.962417 -0.413474 4.911436
1175.363617 533.368646 141.953962 0.000000 0.000000 0.000000 0.000000 0.000000 0.000000 -95.476638 -11.035499 -9.635073 84.523362 0.161317 -9.635073 -113.907461 -2.947326 7.460697 -155.995907 -6.992107 -29.057495 12.512064 9.001071 -7.460697 -16.748794 -0.900107 4.960574
1199.533310 485.991104 120.507381 0.000000 0.000000 0.000000 0.000000 0.000000 0.000000 -100.003195 -6.224637 -4.973798 79.996805 1.998057 -4.973798 -86.083188 0.629905 3.759997 38.843754 0.723978 -29.763441 -106.539452 0.718165 -3.759997 6.197806 -0.305728 4.990134
962.588190 444.938442 127.739067 0.000000 0.000000 0.000000 0.000000 0.000000 0.000000 39.579754 3.590747 -0.000000 180.000000 -0.436653 -0.000000 36.680773 -14.641801 0.000000 143.319227 1.578518 -30.000000 29.388385 -14.756882 -0.000000 18.000000 0.651039 5.000000
1142.094727 445.716287 111.106047 0.000000 0.000000 0.000000 0.000000 0.000000 0.000000 -140.228454 -18.583337 4.973798 39.771546 -19.668178 4.973798 -156.118008 -5.462710 -3.759997 3.479189 5.222248 -29.763441 -158.005660 -5.993981 3.759997 2.150019 0.533899 4.990134
1164.005928 424.847746 121.463113 0.000000 0.000000 0.000000 0.000000 0.000000 0.000000 -84.241076 40.636041 9.635073 95.758924 -32.245203 9.635073 -156.181584 -5.705959 -7.460697 166.928360 -14.759955 -29.057495 -154.947270 -5.764618 7.460697 2.644196 0.585742 4.960574
1124.208755 418.286655 109.511454 0.000000 0.000000 0.000000 0.000000 0.000000 0.000000 -117.427077 -35.911230 13.690942 62.572923 24.107085 13.690942 -155.943063 -5.348449 -11.043737 14.023837 25.524558 -27.893295 -157.382674 -5.769148 11.043737 2.188130 0.596176 4.911436
962.990408 444.917226 109.493211 0.000000 0.000000 0.000000 0.000000 0.000000 0.000000 42.110883 4.621144 16.886559 180.000000 -2.697498 16.886559 37.946959 -9.442741 -14.452610 142.053041 1.532852 -26.289200 29.293612 -3.053946 14.452610 18.000000 -0.446130 4.842916
963.090170 444.911436 104.839983 0.000000 0.000000 0.000000 0.000000 0.000000 0.000000 42.659200 37.555122 19.021130 180.000000 -7.925998 19.021130 38.119107 2.583886 -17.633558 141.880893 -8.073385 -24.270510 29.068887 -13.529710 17.633558 18.000000 1.807826 4.755283
1186.646461 396.272757 98.029826 0.000000 0.000000 0.000000 0.000000 0.000000 0.000000 -72.847419 -2.743819 19.960535 107.152581 -19.421256 19.960535 -156.703603 -4.014513 -20.536413 178.447294 -3.674585 -21.869059 -157.212393 -4.819271 20.536413 1.964058 0.472040 4.648882
1313.051605 426.636125 85.103040 0.000000 0.000000 0.000000 0.000000 0.000000 0.000000 90.994869 -28.164749 19.645745 -89.005131 28.239568 19.645745 -160.515303 -4.608794 -23.115397 -153.248861 10.330578 -19.122720 -159.640525 -5.532750 23.115397 0.000000 0.000000 0.000000
1347.999344 420.772226 82.405170 0.000000 0.000000 0.000000 0.000000 0.000000 0.000000 90.154351 -4.914135 18.096541 -89.845649 5.364621 18.096541 -162.053401 -4.125757 -25.329838 -136.198880 7.134177 -16.074804 -160.991694 -5.472362 25.329838 0.000000 0.000000 0.000000
1344.315948 421.031681 84.296331 0.000000 0.000000 0.000000 0.000000 0.000000 0.000000 69.757587 -8.054283 15.410265 -110.242413 -7.087897 15.410265 25.616746 1.350828 -27.144812 -157.821005 -3.824372 -12.773379 17.214985 3.257606 27.144812 -16.704706 -0.090127 4.221640
1350.307617 440.309436 90.524619 0.000000 0.000000 0.000000 0.000000 0.000000 0.000000 71.124018 0.411572 11.755705 -108.875982 -6.007786 11.755705 42.739987 4.667566 -28.531695 -142.315466 0.623419 -9.270510 16.600926 -1.504672 28.531695 -16.660102 -0.036869 4.045085
1357.685051 430.688889 76.669509 0.000000 0.000000 0.000000 0.000000 0.000000 0.000000 77.656077 -5.686165 7.362491 -102.343923 11.035428 7.362491 39.407151 -1.551458 -29.468618 -136.343173 0.810798 -5.621439 22.144452 3.226169 29.468618 -16.305135 -0.065511 3.852566
1369.482193 445.909406 63.013253 0.000000 0.000000 0.000000 0.000000 0.000000 0.000000 88.051188 14.490816 2.506665 -91.948812 -21.395562 2.506665 -161.283973 -3.196788 -29.940802 -119.799169 -1.171194 -1.883716 -164.575400 -4.670150 29.940802 1.401013 0.405097 3.644843
963.875156 444.858159 59.991341 0.000000 0.000000 0.000000 0.000000 0.000000 0.000000 45.304844 -26.423799 -2.506665 180.000000 11.354200 -2.506665 37.252439 6.901756 -29.940802 142.747561 2.991485 1.883716 25.146244 1.677958 29.940802 18.000000 -0.412663 3.422736
963.971479 444.850633 85.899589 0.000000 0.000000 0.000000 0.000000 0.000000 0.000000 45.383640 39.036008 -7.362491 180.000000 -1.144110 -7.362491 36.882310 -16.416309 -29.468618 143.117690 0.863661 5.621439 24.499789 -6.845267 29.468618 18.000000 -0.498226 3.187120
1336.629524 469.010178 86.698706 0.000000 0.000000 0.000000 0.000000 0.000000 0.000000 -72.390177 14.535909 -11.755705 107.609823 -9.780306 -11.755705 -158.649984 -2.398573 -28.531695 2.583425 -0.201688 9.270510 -39.658551 3.581898 28.531695 10.837181 -0.498034 2.938926
1311.966934 518.219100 53.408423 0.000000 0.000000 0.000000 0.000000 0.000000 0.000000 -63.565072 70.272761 -15.410265 116.434928 -58.718786 -15.410265 -14.840750 -3.555191 -27.144812 -158.549348 -3.611400 12.773379 17.488774 2.385443 27.144812 7.174982 -2.100442 2.679134
964.257793 444.826908 48.095644 0.000000 0.000000 0.000000 0.000000 0.000000 0.000000 45.262206 28.533655 -18.096541 180.000000 -15.420604 -18.096541 35.497192 -1.107803 -25.329838 144.502808 -6.398764 16.074804 22.522929 -3.561292 25.329838 18.000000 0.447442 2.408768
1275.921364 516.836239 46.526159 0.000000 0.000000 0.000000 0.000000 0.000000 0.000000 85.186295 1.197228 -19.645745 -94.813705 2.546168 -19.645745 52.470689 -1.865634 -23.115397 -44.513683 0.529504 19.122720 50.867598 -4.156185 23.115397 -8.717188 1.598323 2.128896
1263.254128 546.875424 48.825277 0.000000 0.000000 0.000000 0.000000 0.000000 0.000000 34.848242 -17.495894 -19.960535 -145.151758 26.255692 -19.960535 42.487561 -61.486556 -20.536413 -157.415675 -2.500689 21.869059 22.420880 2.662708 20.536413 -15.757912 -0.266271 1.840623
1258.788185 528.263061 33.006629 0.000000 0.000000 0.000000 0.000000 0.000000 0.000000 118.326865 -9.612873 -19.021130 -61.673135 11.078804 -19.021130 143.214759 0.177717 -17.633558 -156.228306 -2.323852 24.270510 28.173554 2.066625 17.633558 -15.182645 -0.206663 1.545085
1231.492081 471.383836 44.424361 0.000000 0.000000 0.000000 0.000000 0.000000 0.000000 -115.049381 21.470704 -16.886559 64.950619 1.293989 -16.886559 172.843704 -0.628078 -14.452610 -157.842300 -1.960444 26.289200 32.851042 2.443349 14.452610 -14.714896 -0.244335 1.243449
1223.928795 435.993515 41.917593 0.000000 0.000000 0.000000 0.000000 0.000000 0.000000 -115.322532 2.781196 -13.690942 64.677468 -10.983566 -13.690942 -168.597862 6.638362 -11.043737 -158.853816 -2.343733 27.893295 31.099266 3.340890 11.043737 -14.890073 -0.334089 0.936907
1223.669701 418.195664 43.855736 0.000000 0.000000 0.000000 0.000000 0.000000 0.000000 -102.084053 -33.500202 -9.635073 77.915947 -10.294813 -9.635073 -171.103858 6.536542 -7.460697 162.056334 8.034747 29.057495 -153.594437 -3.300693 7.460697 2.968481 0.364197 0.626666
1216.486244 414.503002 44.970351 0.000000 0.000000 0.000000 0.000000 0.000000 0.000000 69.261091 35.421355 -4.973798 -110.738909 -35.853417 -4.973798 -158.083722 -2.391853 -3.759997 -173.244581 -7.657125 29.763441 -154.635509 -2.295196 3.759997 2.928763 0.368225 0.313953
1212.090225 434.550980 61.042617 0.000000 0.000000 0.000000 0.000000 0.000000 0.000000 -112.403932 1.870405 0.000000 67.596068 26.391560 0.000000 -157.060799 -3.498180 -0.000000 173.400765 -0.569662 30.000000 -154.473580 -3.039661 0.000000 2.734633 0.271118 0.000000
1214.024734 450.340490 39.479012 0.000000 0.000000 0.000000 0.000000 0.000000 0.000000 -110.634751 10.093474 4.973798 69.365249 -15.501336 4.973798 -137.583343 3.757039 3.759997 -158.589698 -3.166939 29.763441 20.879446 3.732578 -3.759997 -15.912055 -0.373258 0.313953
1204.271393 440.192921 48.309000 0.000000 0.000000 0.000000 0.000000 0.000000 0.000000 -99.498286 0.086274 9.635073 80.501714 -0.057950 9.635073 -156.696469 -2.421808 7.460697 -178.487725 -5.101599 29.057495 -157.318323 -2.322017 -7.460697 2.108583 0.296543 0.626666
965.269558 444.725315 73.974221 0.000000 0.000000 0.000000 0.000000 0.000000 0.000000 40.845461 -7.690757 13.690942 180.000000 -11.041725 13.690942 28.615377 3.494393 11.043737 151.384623 -2.993725 27.893295 16.305092 5.810765 -11.043737 18.000000 0.181484 0.936907
1182.456551 475.103824 41.866313 0.000000 0.000000 0.000000 0.000000 0.000000 0.000000 -168.146016 76.707568 16.886559 11.853984 -77.327359 16.886559 -63.802645 -4.647065 14.452610 -61.114510 1.796773 26.289200 -47.869281 -10.960305 -14.452610 -13.834956 -0.681653 1.243449
965.446390 444.704404 58.956206 0.000000 0.000000 0.000000 0.000000 0.000000 0.000000 39.578146 20.279243 19.021130 180.000000 7.626001 19.021130 27.338029 -13.905769 17.633558 152.661971 -7.760719 24.270510 15.463180 2.151960 -17.633558 18.000000 0.181150 1.545085
965.533915 444.693669 48.271593 0.000000 0.000000 0.000000 0.000000 0.000000 0.000000 38.916706 -7.963652 19.960535 180.000000 -25.142269 19.960535 26.716768 18.548248 20.536413 153.283232 1.755257 21.869059 15.076605 1.460405 -20.536413 18.000000 -0.182025 1.840623
965.620834 444.682749 70.579539 0.000000 0.000000 0.000000 0.000000 0.000000 0.000000 38.241653 7.664335 19.645745 180.000000 -0.379132 19.645745 26.109467 -5.423159 23.115397 153.890533 -18.798357 19.122720 14.712258 6.571583 -23.115397 18.000000 0.554041 2.128896
965.707136 444.671645 84.000088 0.000000 0.000000 0.000000 0.000000 0.000000 0.000000 37.556504 29.803276 18.096541 180.000000 7.499049 18.096541 25.517536 -9.543176 25.329838 154.482464 -7.051728 16.074804 14.369537 5.664055 -25.329838 18.000000 -0.595021 2.408768
965.792812 444.660356 80.688958 0.000000 0.000000 0.000000 0.000000 0.000000 0.000000 36.864608 30.247755 15.410265 180.000000 -12.125103 15.410265 24.942131 -2.604694 27.144812 155.057869 0.960194 12.773379 14.047797 -2.653560 -27.144812 18.000000 0.225310 2.679134
965.877853 444.648882 81.452666 0.000000 0.000000 0.000000 0.000000 0.000000 0.000000 36.169118 40.825903 11.755705 180.000000 -23.981798 11.755705 24.384173 14.862729 28.531695 155.615827 4.604241 9.270510 13.746367 -9.627974 -28.531695 18.000000 0.089263 2.938926
965.962249 444.637226 84.767570 0.000000 0.000000 0.000000 0.000000 0.000000 0.000000 35.472980 17.130584 7.362491 180.000000 -4.238907 7.362491 23.844373 13.259207 29.468618 156.155627 0.681893 5.621439 13.464570 1.668893 -29.468618 18.000000 0.462061 3.187120
966.045991 444.625386 89.978942 0.000000 0.000000 0.000000 0.000000 0.000000 0.000000 34.778913 -28.578344 2.506665 180.000000 10.521567 2.506665 23.323250 6.223626 29.940802 156.676750 9.156604 1.883716 13.201728 5.276686 -29.940802 18.000000 -0.613806 3.422736
966.129071 444.613364 91.490404 0.000000 0.000000 0.000000 0.000000 0.000000 0.000000 34.089406 23.719897 -2.506665 180.000000 5.580088 -2.506665 22.821158 -1.530583 29.940802 157.178842 -6.486101 -1.883716 12.957175 0.772769 -29.940802 18.000000 0.040151 3.644843
966.211478 444.601159 102.184266 0.000000 0.000000 0.000000 0.000000 0.000000 0.000000 33.406712 38.161084 -7.362491 180.000000 2.580578 -7.362491 22.338307 -0.893761 29.468618 157.661693 8.727062 -5.621439 12.730264 -6.749997 -29.468618 18.000000 0.286648 3.852566
1171.486244 534.946783 119.114615 0.000000 0.000000 0.000000 0.000000 0.000000 0.000000 70.594720 2.607999 -11.755705 -109.405280 -3.840610 -11.755705 49.953444 -0.436567 28.531695 -151.467583 -5.340155 -9.270510 0.000000 0.000000 0.000000 0.000000 0.000000 0.000000
966.374240 444.576206 101.700538 0.000000 0.000000 0.000000 0.000000 0.000000 0.000000 32.069603 0.117254 -15.410265 180.000000 2.465978 -15.410265 21.430544 0.237275 27.144812 158.569456 7.065668 -12.773379 12.326901 -6.801339 -27.144812 18.000000 0.081083 4.221640
1172.156410 555.047708 126.132226 0.000000 0.000000 0.000000 0.000000 0.000000 0.000000 -121.065102 3.279300 -18.096541 58.934898 -20.705419 -18.096541 -151.641456 -5.060314 25.329838 -177.360623 -2.068004 -16.074804 -149.076048 -6.330403 -25.329838 0.000000 0.000000 0.000000
1161.826630 552.360713 121.865898 0.000000 0.000000 0.000000 0.000000 0.000000 0.000000 69.958407 -19.358101 -19.645745 -110.041593 -7.679795 -19.645745 -152.437496 -5.720703 23.115397 -158.790607 -2.047931 -19.122720 -150.591725 -6.428319 -23.115397 3.219062 0.828072 4.524135
1165.827255 569.832902 141.432642 0.000000 0.000000 0.000000 0.000000 0.000000 0.000000 25.594208 12.469754 -19.960535 -154.405792 5.124952 -19.960535 11.723883 -5.747530 20.536413 -161.543160 -4.729352 -21.869059 7.769582 2.302216 -20.536413 -17.248199 0.087474 4.648882
1165.555573 565.067046 122.615803 0.000000 0.000000 0.000000 0.000000 0.000000 0.000000 43.355707 4.177273 -19.021130 -136.644293 8.356362 -19.021130 15.984329 -10.015810 17.633558 -140.773833 -1.905663 -24.270510 13.679449 -2.456958 -17.633558 -16.392157 0.289128 4.755283
1290.255775 608.533316 119.673468 0.000000 0.000000 0.000000 0.000000 0.000000 0.000000 -153.952071 -15.821248 -16.886559 26.047929 16.505923 -16.886559 -152.683807 -5.534272 14.452610 4.794196 16.433194 -26.289200 -154.287190 -5.992478 -14.452610 2.418080 0.439420 4.842916
1180.398903 551.817470 139.749564 0.000000 0.000000 0.000000 0.000000 0.000000 0.000000 51.640104 13.493786 -13.690942 -128.359896 -5.546998 -13.690942 14.419400 4.323735 11.043737 -33.521359 30.859853 -27.893295 -34.277510 -10.796870 -11.043737 5.235387 0.844506 4.911436
1162.708626 619.419501 155.179078 0.000000 0.000000 0.000000 0.000000 0.000000 0.000000 -88.968325 -3.960619 -9.635073 91.031675 7.300345 -9.635073 -52.690088 -7.537991 7.460697 25.015222 -2.102659 -29.057495 -72.561734 -1.062939 -7.460697 8.557489 -0.080090 4.960574
1110.899391 602.919216 156.814515 0.000000 0.000000 0.000000 0.000000 0.000000 0.000000 -86.972237 -6.252680 -4.973798 93.027763 -5.272327 -4.973798 -39.551144 2.460390 3.759997 34.838085 -0.116135 -29.763441 -44.185810 -3.318456 -3.759997 10.000609 1.342998 4.990134
1150.187302 553.686991 141.042138 0.000000 0.000000 0.000000 0.000000 0.000000 0.000000 -116.065142 -8.973500 -0.000000 63.934858 28.422039 -0.000000 -151.059314 -7.119216 0.000000 -0.492058 8.668664 -30.000000 -14.044098 -12.880306 -0.000000 1.929760 1.293976 5.000000
967.144727 444.440682 167.897683 0.000000 0.000000 0.000000 0.000000 0.000000 0.000000 26.270296 -12.969646 4.973798 180.000000 -10.855175 4.973798 17.996647 -5.114160 -3.759997 162.003353 -8.268562 -29.763441 11.189167 -6.343616 3.759997 18.000000 0.987488 4.990134
1213.452644 620.002785 139.192911 0.000000 0.000000 0.000000 0.000000 0.000000 0.000000 140.390379 -0.526377 9.635073 -39.609621 -5.693931 9.635073 77.724607 4.199461 -7.460697 -153.982965 -6.837254 -29.057495 24.142749 6.170545 7.460697 -0.833727 0.918461 4.960574
1124.373779 618.464527 141.772468 0.000000 0.000000 0.000000 0.000000 0.000000 0.000000 99.329635 52.146275 13.690942 -80.670365 -54.185173 13.690942 85.960927 9.148415 -11.043737 -150.875293 -8.647526 -27.893295 31.644098 5.930767 11.043737 -14.835590 -0.593077 4.911436
967.360971 444.396582 154.130669 0.000000 0.000000 0.000000 0.000000 0.000000 0.000000 24.874716 -5.326430 16.886559 180.000000 1.537799 16.886559 17.291102 1.181946 -14.452610 162.708898 6.352990 -26.289200 11.098846 -0.215322 14.452610 18.000000 0.175062 4.842916
1107.875175 542.453964 152.385712 0.000000 0.000000 0.000000 0.000000 0.000000 0.000000 -128.741314 -12.502765 19.021130 51.258686 6.746064 19.021130 -177.225595 -0.909114 -17.633558 19.954750 1.699443 -24.270510 162.677362 3.128282 17.633558 -1.443098 -0.268149 4.755283
1119.652290 522.766346 150.215727 0.000000 0.000000 0.000000 0.000000 0.000000 0.000000 -99.017754 -3.536495 19.960535 80.982246 -10.833454 19.960535 -150.289603 -6.579958 -20.536413 -152.613833 -7.347976 -21.869059 0.000000 0.000000 0.000000 0.000000 0.000000 0.000000
1132.908783 538.229613 151.447380 0.000000 0.000000 0.000000 0.000000 0.000000 0.000000 -127.874185 -2.342133 19.645745 52.125815 16.032208 19.645745 -165.450188 -5.490448 -23.115397 -152.521515 -6.747702 -19.122720 40.606225 9.476223 23.115397 -13.939378 -0.947622 4.524135
1146.969337 541.828065 144.474946 0.000000 0.000000 0.000000 0.000000 0.000000 0.000000 -113.631604 -6.684904 18.096541 66.368396 2.947027 18.096541 -159.067475 2.158459 -25.329838 113.981862 8.989493 -16.074804 -145.449815 -7.672756 25.329838 0.000000 0.000000 0.000000
1165.252304 561.329677 133.370805 0.000000 0.000000 0.000000 0.000000 0.000000 0.000000 -112.861399 -9.766355 15.410265 67.138601 3.955794 15.410265 -159.396543 3.415689 -27.144812 -151.967552 -6.545020 -12.773379 38.422588 9.199574 27.144812 -14.157741 -0.919957 4.221640
1174.726181 592.839689 139.809862 0.000000 0.000000 0.000000 0.000000 0.000000 0.000000 -110.369899 -4.786168 11.755705 69.630101 2.775740 11.755705 -148.108768 0.288371 -28.531695 -151.515612 -6.424802 -9.270510 34.277732 9.759919 28.531695 -14.572227 -0.975992 4.045085
1167.352524 605.194867 143.253631 0.000000 0.000000 0.000000 0.000000 0.000000 0.000000 -113.828445 -18.666146 7.362491 66.171555 13.359395 7.362491 -131.688453 -5.659639 -29.468618 -151.045756 -5.796044 -5.621439 27.200835 9.361494 29.468618 -15.279916 -0.936149 3.852566
1139.678879 602.981014 144.527414 0.000000 0.000000 0.000000 0.000000 0.000000 0.000000 -97.599684 34.541037 2.506665 82.400316 -12.951154 2.506665 -113.965806 -5.301695 -29.940802 -121.058781 -9.265835 -1.883716 -118.492407 2.235307 29.940802 10.137620 -7.740850 3.644843
1165.830002 580.020189 124.864523 0.000000 0.000000 0.000000 0.000000 0.000000 0.000000 -28.085052 -13.782565 -2.506665 151.914948 4.389206 -2.506665 -150.589103 -5.902209 -29.940802 -172.678414 0.882647 1.883716 -149.717924 -6.308837 29.940802 0.000000 0.000000 0.000000
1184.501953 619.872494 118.527039 0.000000 0.000000 0.000000 0.000000 0.000000 0.000000 -113.790307 0.230128 -7.362491 66.209693 21.980063 -7.362491 -59.272274 -3.300004 -29.468618 29.476823 -0.643613 5.621439 -88.148483 1.534941 29.468618 7.414604 -0.118959 3.187120
968.090170 444.221640 137.186122 0.000000 0.000000 0.000000 0.000000 0.000000 0.000000 21.092887 16.200597 -11.755705 180.000000 0.294380 -11.755705 15.757771 -1.673542 -28.531695 164.242229 3.116466 9.270510 11.678908 2.859895 28.531695 18.000000 -1.173652 2.938926
968.151278 444.204723 121.564650 0.000000 0.000000 0.000000 0.000000 0.000000 0.000000 20.844337 16.343766 -15.410265 180.000000 4.437399 -15.410265 15.691895 -2.384045 -27.144812 164.308105 -0.815585 12.773379 11.804629 2.418596 27.144812 18.000000 -0.580043 2.679134
968.211492 444.187640 109.322813 0.000000 0.000000 0.000000 0.000000 0.000000 0.000000 20.610265 20.516606 -18.096541 180.000000 1.801112 -18.096541 15.637361 -9.333966 -25.329838 164.362639 -6.958660 16.074804 11.943263 1.536070 25.329838 18.000000 -0.102133 2.408768
968.270806 444.170392 101.049581 0.000000 0.000000 0.000000 0.000000 0.000000 0.000000 20.390366 14.620691 -19.645745 180.000000 4.623392 -19.645745 15.594026 -4.472444 -23.115397 164.405974 -2.283061 19.122720 12.095062 0.611906 23.115397 18.000000 0.468772 2.128896
968.329212 444.152979 88.691332 0.000000 0.000000 0.000000 0.000000 0.000000 0.000000 20.184343 -5.139586 -19.960535 180.000000 7.817246 -19.960535 15.561766 4.290725 -20.536413 164.438234 8.204985 21.869059 12.260289 0.426940 20.536413 18.000000 -0.504967 1.840623
968.386706 444.135403 117.634905 0.000000 0.000000 0.000000 0.000000 0.000000 0.000000 19.991916 28.245203 -19.021130 180.000000 -5.564942 -19.021130 15.540476 -2.339773 -17.633558 164.459524 -10.158314 24.270510 12.439222 6.297623 17.633558 18.000000 -0.351366 1.545085
968.443279 444.117663 87.089385 0.000000 0.000000 0.000000 0.000000 0.000000 0.000000 19.812814 -5.428167 -16.886559 180.000000 13.425290 -16.886559 15.530069 -11.769869 -14.452610 164.469931 7.023913 26.289200 12.632146 -7.695466 14.452610 18.000000 0.375617 1.243449
968.498927 444.099761 86.904168 0.000000 0.000000 0.000000 0.000000 0.000000 0.000000 19.646785 1.948015 -13.690942 180.000000 7.959111 -13.690942 15.530474 -7.801152 -11.043737 164.469526 8.748408 27.893295 12.839349 -8.060692 11.043737 18.000000 -0.161728 0.936907
968.553643 444.081696 89.000899 0.000000 0.000000 0.000000 0.000000 0.000000 0.000000 19.493591 -22.630298 -9.635073 180.000000 11.666665 -9.635073 15.541640 -1.843563 -7.460697 164.458360 3.452285 29.057495 13.061119 5.044145 7.460697 18.000000 -0.162305 0.626666
1051.772690 653.004448 88.498929 0.000000 0.000000 0.000000 0.000000 0.000000 0.000000 -79.007834 19.452284 -4.973798 100.992166 -0.164555 -4.973798 -126.715299 -2.502087 -3.759997 -149.991181 -4.157041 29.763441 31.772279 4.521510 3.759997 -14.822772 -0.452151 0.313953
1061.669197 624.716241 80.316115 0.000000 0.000000 0.000000 0.000000 0.000000 0.000000 -94.718359 -5.402090 0.000000 85.281641 -6.770247 0.000000 -144.150484 3.559779 -0.000000 60.155085 8.343917 30.000000 -152.711462 -1.778122 0.000000 1.815393 0.217461 0.000000
1072.053337 571.032879 66.241302 0.000000 0.000000 0.000000 0.000000 0.000000 0.000000 71.424080 -8.498335 4.973798 -108.575920 -10.240777 4.973798 -149.042361 -2.918166 3.759997 -149.913636 1.915125 29.763441 -145.792107 -4.772621 -3.759997 3.947623 0.365377 0.313953
1070.057373 572.884376 85.075872 0.000000 0.000000 0.000000 0.000000 0.000000 0.000000 -80.850201 24.057846 9.635073 99.149799 -22.403897 9.635073 -147.567525 -3.361832 7.460697 -164.443014 -3.517794 29.057495 -145.447997 -3.815521 -7.460697 4.032371 0.438711 0.626666
968.813035 443.988972 64.203775 0.000000 0.000000 0.000000 0.000000 0.000000 0.000000 18.912944 -6.649153 13.690942 180.000000 5.098960 13.690942 15.758200 7.217143 11.043737 164.241800 3.588819 27.893295 14.397395 5.385982 -11.043737 18.000000 -0.502124 0.936907
968.862036 443.969952 73.173091 0.000000 0.000000 0.000000 0.000000 0.000000 0.000000 18.832684 -24.307662 16.886559 180.000000 11.647539 16.886559 15.833735 -1.948095 14.452610 164.166265 9.186855 26.289200 14.711463 0.638418 -14.452610 18.000000 -0.244168 1.243449
968.910065 443.950775 60.254630 0.000000 0.000000 0.000000 0.000000 0.000000 0.000000 18.764066 21.556703 19.021130 180.000000 -9.964778 19.021130 15.920102 -3.201158 17.633558 164.079898 -8.958661 24.270510 15.041323 8.607173 -17.633558 18.000000 -1.351824 1.545085
968.957118 443.931442 51.413480 0.000000 0.000000 0.000000 0.000000 0.000000 0.000000 18.706990 -4.207114 19.960535 180.000000 -0.389696 19.960535 16.017366 -0.480679 20.536413 163.982634 0.186428 21.869059 15.386894 1.100413 -20.536413 18.000000 0.062934 1.840623
969.003188 443.911954 44.463545 0.000000 0.000000 0.000000 0.000000 0.000000 0.000000 18.661377 -24.324703 19.645745 180.000000 0.720057 19.645745 16.125602 -3.677627 23.115397 163.874398 1.236843 19.122720 15.747980 0.963577 -23.115397 18.000000 0.598534 2.128896
969.048271 443.892312 44.922111 0.000000 0.000000 0.000000 0.000000 0.000000 0.000000 18.627165 5.474795 18.096541 180.000000 7.450127 18.096541 16.244896 -8.729422 25.329838 163.755104 -4.794868 16.074804 16.124252 6.853303 -25.329838 18.000000 0.669969 2.408768
969.092361 443.872515 48.199694 0.000000 0.000000 0.000000 0.000000 0.000000 0.000000 18.604312 21.206456 15.410265 180.000000 -8.016305 15.410265 16.375340 -6.226042 27.144812 163.624660 -5.501262 12.773379 16.515224 -1.358724 -27.144812 18.000000 0.381132 2.679134
1055.186234 577.357593 50.654665 0.000000 0.000000 0.000000 0.000000 0.000000 0.000000 85.510211 4.297443 11.755705 -94.489789 -4.192748 11.755705 37.103410 10.146185 28.531695 -148.111343 -1.884537 9.270510 24.294182 1.895657 -28.531695 -8.601915 1.099372 2.938926
1122.856522 566.714029 50.986202 0.000000 0.000000 0.000000 0.000000 0.000000 0.000000 96.216240 -6.373522 7.362491 -83.783760 7.465436 7.362491 46.189625 -2.697987 29.468618 -149.396962 -2.030321 5.621439 24.670091 2.175517 -29.468618 -7.107716 0.450344 3.187120
969.218632 443.812213 47.875611 0.000000 0.000000 0.000000 0.000000 0.000000 0.000000 18.603763 -14.488318 2.506665 180.000000 -0.819073 2.506665 16.834613 2.252054 29.940802 163.165387 3.049943 1.883716 17.768624 -2.168439 -29.940802 18.000000 -0.585817 3.422736
1112.757797 605.798106 40.076697 0.000000 0.000000 0.000000 0.000000 0.000000 0.000000 110.914625 17.452861 -2.506665 -69.085375 16.308956 -2.506665 67.769469 -22.819652 29.940802 -149.822316 -2.886126 -1.883716 29.049901 1.976861 -29.940802 -3.625079 0.275090 3.644843
1086.733246 592.557156 63.086703 0.000000 0.000000 0.000000 0.000000 0.000000 0.000000 -80.132323 -51.468618 -7.362491 99.867677 70.047379 -7.362491 36.201564 4.574502 29.468618 -13.679556 4.240059 -5.621439 78.049842 3.650540 -29.468618 -5.127460 -0.441533 3.852566
1081.109390 570.394492 46.151160 0.000000 0.000000 0.000000 0.000000 0.000000 0.000000 -175.864613 -4.368981 -11.755705 4.135387 -16.497349 -11.755705 134.713876 9.800529 28.531695 -10.005873 -0.163038 -9.270510 135.737755 -0.505724 -28.531695 -3.389365 0.237836 4.045085
1089.776802 536.594539 47.131754 0.000000 0.000000 0.000000 0.000000 0.000000 0.000000 -139.033903 -11.772052 -15.410265 40.966097 -17.750427 -15.410265 161.695972 8.611719 27.144812 3.114398 1.121718 -12.773379 148.805610 -1.962554 -27.144812 -2.611636 0.117967 4.221640
1114.282036 523.965647 82.444665 0.000000 0.000000 0.000000 0.000000 0.000000 0.000000 -156.073983 -10.098812 -18.096541 23.926017 10.241070 -18.096541 174.825807 6.940187 25.329838 5.093343 6.036714 -16.074804 161.266817 -1.911556 -25.329838 -1.814366 0.173234 4.381533
1122.145157 503.425248 71.577948 0.000000 0.000000 0.000000 0.000000 0.000000 0.000000 -144.538174 11.364377 -19.645745 35.461826 -26.782596 -19.645745 174.215003 5.576359 23.115397 -151.750905 -3.704038 -19.122720 43.887064 3.418446 -23.115397 -13.611294 -0.341845 4.524135
1134.158249 484.688419 64.861951 0.000000 0.000000 0.000000 0.000000 0.000000 0.000000 -142.311443 -3.926564 -19.960535 37.688557 2.586826 -19.960535 -174.407776 1.703825 20.536413 14.121014 1.204178 -21.869059 176.737053 -0.858255 -20.536413 -0.386439 0.046315 4.648882
1156.756668 500.025387 74.815020 0.000000 0.000000 0.000000 0.000000 0.000000 0.000000 -140.140767 -19.543624 -19.021130 39.859233 -8.393536 -19.021130 -176.866589 -3.959601 17.633558 -153.177991 -4.016400 -24.270510 40.555680 4.656581 -17.633558 -13.944432 -0.465658 4.755283
1163.818588 490.292573 94.531846 0.000000 0.000000 0.000000 0.000000 0.000000 0.000000 -126.918075 8.699194 -16.886559 53.081925 -8.061058 -16.886559 -163.374411 -2.445717 14.452610 -153.952175 -4.662521 -26.289200 36.914642 4.422484 -14.452610 0.798233 0.068570 4.842916
1176.523705 490.346003 83.005215 0.000000 0.000000 0.000000 0.000000 0.000000 0.000000 -130.072590 3.707496 -13.690942 49.927410 2.017487 -13.690942 -150.224616 1.933997 11.043737 24.749952 -0.562482 -27.893295 -162.219632 0.252489 -11.043737 1.550269 0.193862 4.911436
1165.045052 489.521159 108.624267 0.000000 0.000000 0.000000 0.000000 0.000000 0.000000 -134.421293 -9.388523 -9.635073 45.578707 6.438591 -9.635073 -138.114962 -4.049560 7.460697 20.347125 3.316794 -29.057495 -149.675125 0.320556 -7.460697 1.919618 -0.227361 4.960574
1186.003189 485.341580 99.765329 0.000000 0.000000 0.000000 0.000000 0.000000 0.000000 151.263424 57.128448 -4.973798 -28.736576 81.195646 -4.973798 -155.571724 -4.743753 3.759997 -114.944239 4.262497 -29.763441 -157.446860 -4.387768 -3.759997 2.096391 0.466600 4.990134
1190.285912 497.609435 87.788018 0.000000 0.000000 0.000000 0.000000 0.000000 0.000000 -104.331435 12.389724 -0.000000 75.668565 -23.665982 -0.000000 -153.934692 -3.959385 0.000000 -67.465008 -3.931888 -30.000000 -71.629168 -6.310196 -0.000000 -13.965204 8.579990 5.000000
846.875610 502.341399 109.818519 0.000000 0.000000 0.000000 0.000000 0.000000 0.000000 -153.358185 -33.110828 4.973798 26.641815 25.510733 4.973798 -147.628169 -5.432391 -3.759997 -147.401289 -4.569588 -29.763441 0.000000 0.000000 0.000000 0.000000 0.000000 0.000000
969.711343 443.490827 112.458410 0.000000 0.000000 0.000000 0.000000 0.000000 0.000000 20.204512 -4.585014 9.635073 180.000000 -4.112466 9.635073 20.733157 -11.589057 -7.460697 159.266843 -6.421101 -29.057495 24.065833 -4.407825 7.460697 18.000000 1.304572 4.960574
969.735789 443.468267 99.647991 0.000000 0.000000 0.000000 0.000000 0.000000 0.000000 20.415894 -11.237822 13.690942 180.000000 8.601475 13.690942 21.087741 2.224032 -11.043737 158.912259 -1.587201 -27.893295 24.320336 0.870287 11.043737 18.000000 0.882293 4.911436
969.759168 443.445569 93.735962 0.000000 0.000000 0.000000 0.000000 0.000000 0.000000 20.642061 4.903303 16.886559 180.000000 4.200460 16.886559 21.453029 -5.547685 -14.452610 158.546971 1.290375 -26.289200 24.533304 0.611037 14.452610 18.000000 0.163554 4.842916
585.252171 514.469179 121.696273 0.000000 0.000000 0.000000 0.000000 0.000000 0.000000 74.723181 53.019334 19.021130 -105.276819 -46.405069 19.021130 119.807175 -9.337761 -17.633558 165.825978 -10.786187 -24.270510 138.012220 -9.231784 17.633558 -12.357653 1.349152 4.755283
624.843979 517.601860 133.493450 0.000000 0.000000 0.000000 0.000000 0.000000 0.000000 103.202449 -38.083304 19.960535 -76.797551 31.556550 19.960535 114.381580 8.211617 -20.536413 -53.015473 82.700179 -21.869059 145.467160 -6.773388 20.536413 -4.173333 1.106496 4.648882
969.822873 443.376664 125.392234 0.000000 0.000000 0.000000 0.000000 0.000000 0.000000 21.413420 -7.122049 19.645745 180.000000 6.421117 19.645745 22.607712 -11.433105 -23.115397 157.392288 0.137042 -19.122720 24.899813 4.080944 23.115397 18.000000 -0.730092 4.524135
969.841956 443.353428 120.253360 0.000000 0.000000 0.000000 0.000000 0.000000 0.000000 21.702987 6.195259 18.096541 180.000000 -3.388656 18.096541 23.009909 -0.780476 -25.329838 156.990091 -0.394572 -16.074804 24.926562 -9.491327 25.329838 18.000000 0.409659 4.381533
969.859960 443.330059 133.728454 0.000000 0.000000 0.000000 0.000000 0.000000 0.000000 22.009579 16.541609 15.410265 180.000000 4.202336 15.410265 23.419334 -5.703444 -27.144812 156.580666 -3.786017 -12.773379 24.904993 -0.329785 27.144812 18.000000 0.558206 4.221640
594.905148 538.048757 147.800974 0.000000 0.000000 0.000000 0.000000 0.000000 0.000000 -57.080480 8.238781 11.755705 122.919520 -21.809609 11.755705 -12.750556 3.728141 -28.531695 149.841027 -15.869986 -9.270510 -8.274090 7.458869 28.531695 17.596979 -0.279537 4.045085
969.892723 443.282929 129.277561 0.000000 0.000000 0.000000 0.000000 0.000000 0.000000 22.675903 5.094401 7.362491 180.000000 -3.594228 7.362491 24.255612 -11.427134 -29.468618 155.744388 -21.440123 -5.621439 24.720303 19.777000 29.468618 18.000000 -0.050970 3.852566
1257.001877 499.708382 154.905855 0.000000 0.000000 0.000000 0.000000 0.000000 0.000000 52.818511 -0.204576 2.506665 -127.181489 0.866792 2.506665 25.369497 -0.704965 -29.940802 -143.914951 1.212106 -1.883716 14.556766 -0.909712 29.940802 -16.686776 -0.049303 3.644843
1279.050064 493.773898 155.268397 0.000000 0.000000 0.000000 0.000000 0.000000 0.000000 56.685213 -8.438931 -2.506665 -123.314787 -0.230490 -2.506665 24.065452 1.282489 -29.940802 -146.540317 4.072518 1.883716 13.097461 -2.456232 29.940802 -16.716891 0.147867 3.422736
1295.108986 477.099677 153.279114 0.000000 0.000000 0.000000 0.000000 0.000000 0.000000 65.723361 1.062435 -7.362491 -114.276639 -8.694047 -7.362491 23.725299 2.364929 -29.468618 -147.984281 -6.066665 5.621439 13.187557 5.378185 29.468618 -16.751134 -0.340565 3.187120
1289.065018 496.763316 136.727923 0.000000 0.000000 0.000000 0.000000 0.000000 0.000000 61.662232 13.407482 -11.755705 -118.337768 -8.743663 -11.755705 31.397757 -2.593949 -28.531695 -148.047797 -8.118818 9.270510 12.491083 2.653930 28.531695 -16.898368 -0.143663 2.938926
1285.337105 480.691112 145.138932 0.000000 0.000000 0.000000 0.000000 0.000000 0.000000 58.021980 -6.877562 -15.410265 -121.978020 0.852300 -15.410265 31.705930 1.026526 -27.144812 -157.028684 -2.482771 12.773379 11.107306 2.514986 27.144812 -17.140016 -0.033705 2.679134
1276.453171 465.093691 156.755839 0.000000 0.000000 0.000000 0.000000 0.000000 0.000000 70.157145 2.672486 -18.096541 -109.842855 -2.201873 -18.096541 40.303764 -2.129267 -25.329838 -145.293609 1.417033 16.074804 10.431204 -2.053552 25.329838 -17.100572 -0.110016 2.408768
1253.658714 472.768564 152.285937 0.000000 0.000000 0.000000 0.000000 0.000000 0.000000 65.087926 31.174087 -19.645745 -114.912074 -0.381336 -19.645745 -157.680356 -6.763174 -23.115397 -137.727082 -0.524837 19.122720 -153.053596 3.744459 23.115397 -16.054219 -0.861417 2.128896
1366.101608 507.691247 127.245887 0.000000 0.000000 0.000000 0.000000 0.000000 0.000000 108.715100 -21.012364 -19.960535 -71.284900 19.437856 -19.960535 156.661132 -13.419344 -20.536413 -158.224303 -5.641715 21.869059 0.000000 0.000000 0.000000 0.000000 0.000000 0.000000
969.986295 443.064535 139.462476 0.000000 0.000000 0.000000 0.000000 0.000000 0.000000 26.662144 12.661932 -19.021130 180.000000 -14.811713 -19.021130 28.015351 6.925815 -17.633558 151.984649 -11.800097 24.270510 22.068935 0.111892 17.633558 18.000000 0.050203 1.545085
1282.107124 481.511257 141.670062 0.000000 0.000000 0.000000 0.000000 0.000000 0.000000 80.650781 -29.273222 -16.886559 -99.349219 -8.227863 -16.886559 1.511604 3.380758 -14.452610 -32.896908 3.379280 26.289200 -7.727072 -0.538270 14.452610 13.531851 -3.505372 1.243449
1282.921486 484.777769 144.969864 0.000000 0.000000 0.000000 0.000000 0.000000 0.000000 -81.737646 -5.494550 -13.690942 98.262354 1.946135 -13.690942 -23.867101 5.759591 -11.043737 12.655668 2.195897 27.893295 -29.454911 2.364174 11.043737 9.861248 -1.892088 0.936907
1290.933037 513.180238 134.131978 0.000000 0.000000 0.000000 0.000000 0.000000 0.000000 -91.387864 7.707613 -9.635073 88.612136 0.980601 -9.635073 -41.685392 -2.567134 -7.460697 -161.156957 -6.444315 29.057495 15.157863 5.902693 7.460697 10.543436 0.041695 0.626666
969.999452 442.964284 124.339563 0.000000 0.000000 0.000000 0.000000 0.000000 0.000000 29.025427 10.521714 -4.973798 180.000000 -5.282488 -4.973798 29.437993 -0.141880 -3.759997 150.562007 -7.147582 29.763441 20.404746 9.843189 3.759997 18.000000 -0.606574 0.313953
970.000000 442.938926 135.818713 0.000000 0.000000 0.000000 0.000000 0.000000 0.000000 29.678605 22.795040 0.000000 180.000000 15.540975 0.000000 29.744881 -19.528548 -0.000000 150.255119 -17.626165 30.000000 19.983107 11.564400 0.000000 18.000000 -0.088046 0.000000
1354.522934 467.411410 120.103897 0.000000 0.000000 0.000000 0.000000 0.000000 0.000000 150.622570 12.935299 4.973798 -29.377430 -6.799303 4.973798 140.176400 0.746545 3.759997 -12.221629 -0.149227 29.763441 132.794256 -4.679629 -3.759997 -2.626015 -0.115846 0.313953
969.997807 442.887864 139.150365 0.000000 0.000000 0.000000 0.000000 0.000000 0.000000 31.061399 -9.053517 9.635073 180.000000 4.048924 9.635073 30.285790 8.431244 7.460697 149.714210 10.774726 29.057495 19.151579 -16.334253 -7.460697 18.000000 -0.000951 0.626666
1246.736984 514.278152 124.980240 0.000000 0.000000 0.000000 0.000000 0.000000 0.000000 143.557092 18.707017 13.690942 -36.442908 6.900280 13.690942 133.761037 -1.257182 11.043737 -156.950665 -5.749245 27.893295 0.000000 0.000000 0.000000 1.928484 0.494901 0.936907
1245.221100 458.637464 105.373384 0.000000 0.000000 0.000000 0.000000 0.000000 0.000000 160.701064 19.640152 16.886559 -19.298936 -22.153402 16.886559 140.193827 1.812924 14.452610 -157.554825 -6.886431 26.289200 29.500467 5.351965 -14.452610 -15.049953 -0.535197 1.243449
1257.365570 418.514181 137.220391 0.000000 0.000000 0.000000 0.000000 0.000000 0.000000 -143.710676 -4.503807 19.021130 36.289324 -2.432141 19.021130 163.220413 2.424430 17.633558 11.688054 -1.675766 24.270510 152.038385 -0.145279 -17.633558 -2.339948 0.146194 1.545085
1275.099564 408.163741 107.384798 0.000000 0.000000 0.000000 0.000000 0.000000 0.000000 -132.929531 -9.482236 19.960535 47.070469 -1.346262 19.960535 173.491912 3.508493 20.536413 -160.709681 -4.784557 21.869059 33.138793 4.705994 -20.536413 -14.686121 -0.470599 1.840623
1290.611115 384.880857 92.178815 0.000000 0.000000 0.000000 0.000000 0.000000 0.000000 -132.705235 10.704526 19.645745 47.294765 3.816025 19.645745 -173.778854 -1.070005 23.115397 20.496835 1.773648 19.122720 -161.220290 -4.466420 -23.115397 1.723235 0.412567 2.128896
1302.817154 380.305352 107.430213 0.000000 0.000000 0.000000 0.000000 0.000000 0.000000 -131.493915 1.798759 18.096541 48.506085 -6.153783 18.096541 -165.393697 1.298226 25.329838 23.154815 -2.208708 16.074804 -178.200316 -0.633944 -25.329838 0.138141 0.011032 2.408768
1304.997711 379.563582 110.370368 0.000000 0.000000 0.000000 0.000000 0.000000 0.000000 -126.727972 10.833558 15.410265 53.272028 -16.263073 15.410265 -160.219593 5.970356 27.144812 28.448880 -6.882556 12.773379 -174.368770 0.155051 -27.144812 0.079526 -0.086068 2.679134
1311.668472 386.890390 75.188338 0.000000 0.000000 0.000000 0.000000 0.000000 0.000000 -122.308728 1.002620 11.755705 57.691272 2.091149 11.755705 -158.801130 -0.554352 28.531695 150.942637 -0.274458 9.270510 -154.878332 -4.251322 -28.531695 2.695409 0.483884 2.938926
1305.131836 395.180186 82.449049 0.000000 0.000000 0.000000 0.000000 0.000000 0.000000 -125.112810 -6.778914 7.362491 54.887190 22.771863 7.362491 -146.487292 -8.045442 29.468618 -175.167369 7.872202 5.621439 -159.224034 -4.975142 -29.468618 1.782042 0.494108 3.187120
1296.320457 392.734526 71.073391 0.000000 0.000000 0.000000 0.000000 0.000000 0.000000 -131.035750 -14.233177 2.506665 48.964250 11.271951 2.506665 -128.969563 -0.397907 29.940802 38.856147 4.561070 1.883716 -134.776850 -0.219179 -29.940802 3.458429 0.141898 3.422736
1306.963577 386.612041 85.845175 0.000000 0.000000 0.000000 0.000000 0.000000 0.000000 -124.469622 -1.167651 -2.506665 55.530378 -0.966848 -2.506665 -109.994856 3.917880 29.940802 37.691309 -2.103377 -1.883716 -118.274788 2.170107 -29.940802 5.098336 -0.155982 3.644843
969.892723 442.572198 72.850509 0.000000 0.000000 0.000000 0.000000 0.000000 0.000000 41.287575 -39.497639 -7.362491 180.000000 -2.550932 -7.362491 30.974696 7.851667 29.468618 149.025304 -5.485666 -5.621439 15.072869 1.764043 -29.468618 18.000000 -0.142919 3.852566
969.876883 442.545207 79.848367 0.000000 0.000000 0.000000 0.000000 0.000000 0.000000 42.241956 39.154001 -11.755705 180.000000 -12.152500 -11.755705 30.826133 -0.655980 28.531695 149.173867 4.935175 -9.270510 14.823070 -6.212897 -28.531695 18.000000 0.580644 4.045085
969.859960 442.518116 60.396654 0.000000 0.000000 0.000000 0.000000 0.000000 0.000000 43.199779 20.045773 -15.410265 180.000000 -28.103327 -15.410265 30.649504 12.811043 27.144812 149.350496 -4.787184 -12.773379 14.587557 1.021790 -27.144812 18.000000 -0.281064 4.221640
969.841956 442.490926 59.260096 0.000000 0.000000 0.000000 0.000000 0.000000 0.000000 44.157210 55.553580 -18.096541 180.000000 -8.778441 -18.096541 30.446417 -8.672637 25.329838 149.553583 -14.196908 -16.074804 14.366154 -2.340983 -25.329838 18.000000 0.407938 4.381533
969.822873 442.463637 50.822114 0.000000 0.000000 0.000000 0.000000 0.000000 0.000000 45.110117 -52.948270 -19.645745 180.000000 11.149220 -19.645745 30.218633 -3.724639 23.115397 149.781367 4.864005 -19.122720 14.158653 1.756483 -23.115397 18.000000 -0.040899 4.524135
969.802712 442.436251 63.745227 0.000000 0.000000 0.000000 0.000000 0.000000 0.000000 46.054109 -21.742557 -19.960535 180.000000 -18.017809 -19.960535 29.968037 0.156749 20.536413 150.031963 -14.122124 -21.869059 13.964823 -2.164179 -20.536413 18.000000 0.282233 4.648882
1187.040939 541.658249 38.879238 0.000000 0.000000 0.000000 0.000000 0.000000 0.000000 82.806623 -3.066343 -19.021130 -97.193377 16.829017 -19.021130 45.395981 3.655129 17.633558 -156.144455 -2.263337 -24.270510 0.000000 0.000000 0.000000 0.000000 0.000000 0.000000
1182.242889 522.024286 33.717457 0.000000 0.000000 0.000000 0.000000 0.000000 0.000000 -105.721938 -26.740213 -16.886559 74.278062 0.412476 -16.886559 -155.708006 -1.731597 14.452610 -157.302521 -1.756380 -26.289200 0.000000 0.000000 0.000000 2.684983 0.252957 4.842916
1180.914459 527.065626 49.486425 0.000000 0.000000 0.000000 0.000000 0.000000 0.000000 88.055617 2.773370 -13.690942 -91.944383 -1.572786 -13.690942 -158.862018 -2.598168 11.043737 -151.747289 -2.652603 -27.893295 0.000000 0.000000 0.000000 0.000000 0.000000 0.000000
1236.800194 541.387432 37.096287 0.000000 0.000000 0.000000 0.000000 0.000000 0.000000 -85.588400 1.043956 -9.635073 94.411600 -3.689684 -9.635073 -159.297106 7.084277 7.460697 -157.915391 -2.345134 -29.057495 26.607362 2.128445 -7.460697 14.926890 1.296217 4.960574
1161.066513 575.006626 68.150841 0.000000 0.000000 0.000000 0.000000 0.000000 0.000000 -81.021168 5.029568 -4.973798 98.978832 -10.168130 -4.973798 -102.851701 1.392291 3.759997 -157.041007 -3.009994 -29.763441 21.429890 2.805055 -3.759997 10.859432 -0.194237 4.990134
1255.636253 512.645942 50.422573 0.000000 0.000000 0.000000 0.000000 0.000000 0.000000 77.832564 7.793850 -0.000000 -102.167436 0.937660 -0.000000 -158.264834 -2.472631 0.000000 -130.745502 -0.730047 -30.000000 -157.699225 -2.486164 -0.000000 0.000000 0.000000 0.000000
1265.118484 521.473864 42.835257 0.000000 0.000000 0.000000 0.000000 0.000000 0.000000 64.078276 -3.196649 4.973798 -115.921724 1.647127 4.973798 41.397952 -1.056539 -3.759997 -139.329851 0.301309 -29.763441 20.223252 0.899805 3.759997 -16.047574 -0.011262 4.990134
1228.099480 522.138258 65.524101 0.000000 0.000000 0.000000 0.000000 0.000000 0.000000 71.050901 8.248260 9.635073 -108.949099 -3.964714 9.635073 150.099970 6.529053 -7.460697 -139.894702 0.318683 -29.057495 -156.275691 -3.075040 7.460697 0.000000 0.000000 0.000000
1240.357246 528.695873 50.442447 0.000000 0.000000 0.000000 0.000000 0.000000 0.000000 65.413351 -12.826745 13.690942 -114.586649 5.903710 13.690942 147.242328 -8.203356 -11.043737 -154.470720 -2.239355 -27.893295 25.557225 2.929606 11.043737 -15.444278 -0.292961 4.911436
1231.815262 551.380248 42.445101 0.000000 0.000000 0.000000 0.000000 0.000000 0.000000 56.412506 8.073202 16.886559 -123.587494 -12.565561 16.886559 -153.392336 10.450416 -14.452610 -154.784582 -2.587877 -26.289200 24.191555 3.207651 14.452610 -15.580844 -0.320765 4.842916
1221.475182 508.360147 63.832464 0.000000 0.000000 0.000000 0.000000 0.000000 0.000000 77.450622 -1.385032 19.021130 -102.549378 -9.208191 19.021130 -156.789784 -2.719462 -17.633558 -125.590168 -2.286797 -24.270510 -160.017240 -3.393786 17.633558 1.833434 0.422178 4.755283
969.477684 442.100429 64.310278 0.000000 0.000000 0.000000 0.000000 0.000000 0.000000 54.932575 26.318000 19.960535 180.000000 16.262377 19.960535 25.919122 -14.714989 -20.536413 154.080878 3.659860 -21.869059 12.612867 -8.524047 20.536413 18.000000 0.584615 4.648882
1480.140495 518.878891 55.696878 0.000000 0.000000 0.000000 0.000000 0.000000 0.000000 -110.621767 80.327729 19.645745 69.378233 -87.640239 19.645745 -158.235933 -2.413040 -23.115397 166.031448 4.885630 -19.122720 -155.186432 -3.721899 23.115397 2.641553 0.355998 4.524135
1271.640472 556.840560 87.233101 0.000000 0.000000 0.000000 0.000000 0.000000 0.000000 -94.404719 2.382300 18.096541 85.595281 -0.951361 18.096541 -62.417786 -2.872273 -25.329838 23.992813 -0.351526 -16.074804 -76.856107 -1.392312 25.329838 7.708835 0.384401 4.381533
1258.556786 530.268441 63.094530 0.000000 0.000000 0.000000 0.000000 0.000000 0.000000 78.355945 5.873563 15.410265 -101.644055 -6.974001 15.410265 35.068294 6.054410 -27.144812 -54.090640 -1.274436 -12.773379 35.848220 -3.551534 27.144812 -8.104639 1.044596 4.221640
1250.800209 527.150567 78.324112 0.000000 0.000000 0.000000 0.000000 0.000000 0.000000 72.417769 -0.115795 11.755705 -107.582231 2.397491 11.755705 24.571109 0.343363 -28.531695 -39.196117 6.704752 -9.270510 10.411117 -3.146091 28.531695 -9.048616 -0.802568 4.045085
1243.466148 571.776259 110.754018 0.000000 0.000000 0.000000 0.000000 0.000000 0.000000 86.301473 11.864116 7.362491 -93.698527 -2.283838 7.362491 24.553534 4.258992 -29.468618 -153.460385 -4.076951 -5.621439 19.510484 3.111120 29.468618 -10.109500 -2.554401 3.852566
1261.883812 566.052918 91.585873 0.000000 0.000000 0.000000 0.000000 0.000000 0.000000 94.015209 7.116756 2.506665 -85.984791 -15.330063 2.506665 38.959993 -3.817078 -29.940802 -154.008305 -4.934719 -1.883716 20.870951 3.220254 29.940802 -10.872440 -0.019365 3.644843
1284.436798 527.190542 97.357659 0.000000 0.000000 0.000000 0.000000 0.000000 0.000000 111.186365 18.627742 -2.506665 -68.813635 5.432358 -2.506665 58.506163 -0.449965 -29.940802 -19.138727 3.355687 1.883716 51.457372 -10.998051 29.940802 -5.203198 0.981149 3.422736
1272.860069 533.494012 97.640951 0.000000 0.000000 0.000000 0.000000 0.000000 0.000000 72.301471 -8.957901 -7.362491 -107.698529 11.439783 -7.362491 78.802573 6.188190 -29.468618 -154.772375 -4.066901 5.621439 26.927455 4.016866 29.468618 -15.307255 -0.401687 3.187120
1255.264664 498.243735 114.525856 0.000000 0.000000 0.000000 0.000000 0.000000 0.000000 164.596971 36.764102 -11.755705 -15.403029 17.730836 -11.755705 125.849126 -5.584606 -28.531695 -156.067666 -5.218740 9.270510 33.087561 4.461140 28.531695 -14.691244 -0.446114 2.938926
1259.202232 470.407684 116.605997 0.000000 0.000000 0.000000 0.000000 0.000000 0.000000 -139.980397 -13.319187 -15.410265 40.019603 11.303489 -15.410265 165.887722 5.238967 -27.144812 -157.901492 -4.581949 12.773379 35.196094 5.080044 27.144812 -14.480391 -0.508004 2.679134
1236.502075 429.951335 123.306351 0.000000 0.000000 0.000000 0.000000 0.000000 0.000000 -113.295066 6.416122 -18.096541 66.704934 -14.684787 -18.096541 -174.664169 8.234494 -25.329838 -159.007335 -6.017320 16.074804 32.868990 6.689447 25.329838 -14.713101 -0.668945 2.408768
1253.359451 413.942538 122.369413 0.000000 0.000000 0.000000 0.000000 0.000000 0.000000 -123.348580 -3.852646 -19.645745 56.651420 5.168896 -19.645745 -167.815074 0.061429 -23.115397 -159.603180 -5.402612 19.122720 32.791747 7.287177 23.115397 -14.720825 -0.728718 2.128896
1281.206589 405.664523 127.392800 0.000000 0.000000 0.000000 0.000000 0.000000 0.000000 -124.414271 -3.268475 -19.960535 55.585729 -2.498230 -19.960535 -161.281803 5.296367 -20.536413 28.568449 0.990063 21.869059 -159.052798 -4.702849 20.536413 1.849141 0.498603 1.840623
1300.238571 418.760215 117.187392 0.000000 0.000000 0.000000 0.000000 0.000000 0.000000 -126.263092 2.194573 -19.021130 53.736908 4.482161 -19.021130 -159.739358 0.872704 -17.633558 31.487961 1.561728 24.270510 -170.323915 -1.400823 17.633558 0.671815 -0.055163 1.545085
1321.889191 413.634385 122.296263 0.000000 0.000000 0.000000 0.000000 0.000000 0.000000 -133.874471 -11.735233 -16.886559 46.125529 -2.236144 -16.886559 -159.376251 4.179464 -14.452610 30.696824 0.596336 26.289200 -164.929556 -1.181601 14.452610 1.089735 0.104463 1.243449
1336.221428 432.881820 153.720783 0.000000 0.000000 0.000000 0.000000 0.000000 0.000000 -115.020798 -5.020583 -13.690942 64.979202 3.813985 -13.690942 -135.609544 -2.958256 -11.043737 -161.321630 -6.220583 27.893295 17.353502 7.538700 11.043737 -16.264650 -0.753870 0.936907
1329.124603 416.860342 142.672549 0.000000 0.000000 0.000000 0.000000 0.000000 0.000000 -134.023347 2.216337 -9.635073 45.976653 -7.344629 -9.635073 -128.030830 5.790355 -7.460697 28.249885 -3.519712 29.057495 -136.447985 1.803797 7.460697 4.038834 0.139981 0.626666
1343.366776 427.060794 149.969876 0.000000 0.000000 0.000000 0.000000 0.000000 0.000000 -130.153347 4.208661 -4.973798 49.846653 -4.770266 -4.973798 -103.564435 -0.051936 -3.759997 27.398095 0.878756 29.763441 -115.461530 -3.970740 3.759997 5.470063 0.131139 0.313953
1376.991005 465.829636 148.332754 0.000000 0.000000 0.000000 0.000000 0.000000 0.000000 -120.272352 3.450530 0.000000 59.727648 -6.344922 0.000000 -62.204131 2.722073 -0.000000 27.740602 -2.519146 30.000000 -80.461527 0.620109 0.000000 7.450891 -0.135990 0.000000
1384.978867 468.790376 132.022427 0.000000 0.000000 0.000000 0.000000 0.000000 0.000000 -93.720384 20.278026 4.973798 86.279616 -17.138787 4.973798 3.847814 -3.164565 3.759997 -160.438787 -6.484738 29.763441 15.990976 4.930973 -3.759997 7.894783 0.459654 0.313953
1345.894547 516.257268 150.143074 0.000000 0.000000 0.000000 0.000000 0.000000 0.000000 127.577640 7.099453 9.635073 -52.422360 -13.795530 9.635073 53.096359 7.003812 7.460697 -159.021748 -6.445352 29.057495 18.308456 5.772662 -7.460697 -4.062191 -2.258304 0.626666
968.498927 441.455181 153.951202 0.000000 0.000000 0.000000 0.000000 0.000000 0.000000 47.920147 -18.159563 13.690942 180.000000 0.248871 13.690942 19.641385 4.735649 11.043737 160.358615 5.199237 27.893295 13.993219 5.137303 -11.043737 18.000000 -1.122502 0.936907
1336.846733 493.527671 148.593855 0.000000 0.000000 0.000000 0.000000 0.000000 0.000000 102.681311 -10.604726 16.886559 -77.318689 -2.777178 16.886559 35.985219 -3.285469 14.452610 -159.617763 -6.648082 26.289200 19.375410 5.916188 -14.452610 -16.062459 -0.591619 1.243449
968.386706 441.394956 143.767016 0.000000 0.000000 0.000000 0.000000 0.000000 0.000000 46.120581 27.542133 19.021130 180.000000 -17.829614 19.021130 19.316787 -9.602642 17.633558 160.683213 3.753810 24.270510 14.327067 -4.742857 -17.633558 18.000000 -0.599927 1.545085
1263.984947 433.341283 152.017433 0.000000 0.000000 0.000000 0.000000 0.000000 0.000000 -115.578373 -13.119831 19.960535 64.421627 18.505587 19.960535 -82.396446 1.114735 20.536413 25.733383 9.229072 21.869059 -77.477544 0.151134 -20.536413 5.836928 0.850642 1.840623
1352.596436 477.564354 170.765149 0.000000 0.000000 0.000000 0.000000 0.000000 0.000000 -99.196741 -0.913886 19.645745 80.803259 2.321639 19.645745 -125.272585 0.955650 23.115397 -162.405270 -6.049900 19.122720 17.377627 7.027453 -23.115397 -16.262237 -0.702745 2.128896
1384.326782 408.174427 158.643355 0.000000 0.000000 0.000000 0.000000 0.000000 0.000000 96.868601 -6.747707 18.096541 -83.131399 -13.295327 18.096541 -160.848957 -5.796418 25.329838 -137.255583 -0.766571 16.074804 -162.076720 -6.852748 -25.329838 0.000000 0.000000 0.000000
1387.580223 387.128634 145.172235 0.000000 0.000000 0.000000 0.000000 0.000000 0.000000 78.087764 -18.773247 15.410265 -101.912236 -6.139709 15.410265 -161.807915 -5.762466 27.144812 -147.504361 -0.259058 12.773379 -162.566306 -6.870754 -27.144812 1.735427 0.800492 2.679134
1345.818558 392.423122 138.848073 0.000000 0.000000 0.000000 0.000000 0.000000 0.000000 71.782984 -25.782774 11.755705 -108.217016 -2.778706 11.755705 -169.469261 2.142716 28.531695 -153.903088 1.690648 9.270510 -154.670689 -1.627599 -28.531695 15.277725 1.686845 2.938926
1331.471329 361.814139 144.817464 0.000000 0.000000 0.000000 0.000000 0.000000 0.000000 53.586100 -3.417736 7.362491 -126.413900 12.297763 7.362491 -162.290330 -6.240960 29.468618 -154.912165 -0.266384 5.621439 -162.550394 -6.854440 -29.468618 1.742175 0.788574 3.187120
1354.413986 427.213873 121.169333 0.000000 0.000000 0.000000 0.000000 0.000000 0.000000 -131.358118 12.666162 2.506665 48.641882 -8.124377 2.506665 -142.488821 -0.333236 29.940802 -161.977882 -5.555210 1.883716 12.673705 8.157404 -29.940802 1.397524 0.166446 3.422736
1330.326691 347.207226 133.730832 0.000000 0.000000 0.000000 0.000000 0.000000 0.000000 52.464175 -2.948300 -2.506665 -127.535825 -10.789229 -2.506665 14.270918 11.083814 29.940802 -122.057234 -1.905648 -1.883716 22.820874 3.120522 -29.940802 -15.244909 -0.084712 3.644843
1317.103271 414.475805 132.289544 0.000000 0.000000 0.000000 0.000000 0.000000 0.000000 76.170457 -9.406708 -7.362491 -103.829543 -11.611657 -7.362491 -50.250674 -1.261042 29.468618 -52.503744 2.110518 -5.621439 -92.793049 -0.571952 -29.468618 3.303440 0.062504 3.852566
1331.844635 430.291482 140.349878 0.000000 0.000000 0.000000 0.000000 0.000000 0.000000 79.985160 -0.882029 -11.755705 -100.014840 -12.036276 -11.755705 25.995082 3.670871 28.531695 -75.062603 1.418625 -9.270510 38.761234 -2.076092 -28.531695 -11.442229 -0.374780 4.045085
1359.462433 496.472383 125.838321 0.000000 0.000000 0.000000 0.000000 0.000000 0.000000 84.268829 3.577949 -15.410265 -95.731171 0.325056 -15.410265 30.279153 2.401832 27.144812 -63.318008 -3.743758 -12.773379 39.457716 5.026348 -27.144812 -9.485742 -0.262503 4.221640
1323.514366 546.771398 107.002454 0.000000 0.000000 0.000000 0.000000 0.000000 0.000000 84.407325 0.305434 -18.096541 -95.592675 -1.493609 -18.096541 27.768249 3.838391 25.329838 -47.660055 -0.754390 -16.074804 28.281511 -0.300841 -25.329838 -7.827901 -0.064293 4.381533
1268.535347 591.567099 89.103418 0.000000 0.000000 0.000000 0.000000 0.000000 0.000000 90.890792 -0.409101 -19.645745 -89.109208 2.100872 -19.645745 44.654760 -1.710595 23.115397 -48.200667 -1.828739 -19.122720 43.369388 3.287301 -23.115397 -8.974980 0.779431 4.524135
1303.157158 602.888768 110.444461 0.000000 0.000000 0.000000 0.000000 0.000000 0.000000 90.349289 -6.619488 -19.960535 -89.650711 4.748142 -19.960535 47.707312 -0.071660 20.536413 -53.918782 1.113711 -21.869059 40.070965 1.278506 -20.536413 -9.318632 0.364941 4.648882
1314.841690 613.141973 112.494619 0.000000 0.000000 0.000000 0.000000 0.000000 0.000000 94.480501 -1.197907 -19.021130 -85.519499 -4.043633 -19.021130 58.462862 4.054121 17.633558 -52.020507 -0.957765 -24.270510 55.276552 5.430667 -17.633558 -7.777523 -1.384217 4.755283
1327.521400 639.394319 77.176460 0.000000 0.000000 0.000000 0.000000 0.000000 0.000000 99.879576 -2.144562 -16.886559 -80.120424 -3.543451 -16.886559 69.161359 -0.931007 14.452610 -46.413613 -2.388955 -26.289200 76.680143 -0.825877 -14.452610 -6.257768 -0.149246 4.842916
1277.812729 671.228578 84.611387 0.000000 0.000000 0.000000 0.000000 0.000000 0.000000 99.708534 0.533201 -13.690942 -80.291466 -5.037739 -13.690942 92.239140 -0.133200 11.043737 -26.764021 -2.409984 -27.893295 98.168457 2.893930 -11.043737 -4.372074 0.058627 4.911436
1309.642181 690.479329 67.351983 0.000000 0.000000 0.000000 0.000000 0.000000 0.000000 117.292414 11.512396 -9.635073 -62.707586 -9.318156 -9.635073 137.002702 0.263633 7.460697 -32.045917 -2.019358 -29.057495 135.211322 -1.231575 -7.460697 -3.212944 -0.006215 4.960574
1299.770966 664.126496 81.866176 0.000000 0.000000 0.000000 0.000000 0.000000 0.000000 158.531160 -0.378395 -4.973798 -21.468840 -11.199227 -4.973798 161.478323 6.062163 3.759997 -12.838206 2.555468 -29.763441 151.269584 0.336581 -3.759997 -2.521934 -0.126923 4.990134
1313.353729 643.668108 90.409011 0.000000 0.000000 0.000000 0.000000 0.000000 0.000000 -154.315892 -2.363489 -0.000000 25.684108 8.112706 -0.000000 173.459940 -0.435021 0.000000 1.519689 -1.889277 -30.000000 164.244875 1.034635 -0.000000 -1.552244 0.091733 5.000000
1342.841377 638.982847 64.220674 0.000000 0.000000 0.000000 0.000000 0.000000 0.000000 -138.993869 4.879023 4.973798 41.006131 -8.380088 4.973798 175.724056 -1.365483 -3.759997 -151.723069 -3.479682 -29.763441 43.242568 3.023508 3.759997 -13.675743 -0.302351 4.990134
1350.000229 614.724133 52.850052 0.000000 0.000000 0.000000 0.000000 0.000000 0.000000 -144.248147 -3.622729 9.635073 35.751853 11.064638 9.635073 177.069273 1.776977 -7.460697 -152.227621 -2.692568 -29.057495 43.136563 4.179147 7.460697 -13.686344 -0.417915 4.960574
1328.535919 624.780936 67.210076 0.000000 0.000000 0.000000 0.000000 0.000000 0.000000 -165.447222 24.975939 13.690942 14.552778 5.076639 13.690942 169.657511 -4.281074 -11.043737 -152.168050 -3.115845 -27.893295 41.929642 3.856663 11.043737 -13.807036 -0.385666 4.911436
1318.810501 615.688248 64.735050 0.000000 0.000000 0.000000 0.000000 0.000000 0.000000 -120.063657 -2.283016 16.886559 59.936343 3.678601 16.886559 -165.389465 -1.597086 -14.452610 -152.866764 -2.440938 -26.289200 39.162270 3.417006 14.452610 -14.083773 -0.341701 4.842916
1321.656418 659.275410 63.726604 0.000000 0.000000 0.000000 0.000000 0.000000 0.000000 -121.435085 -1.615394 19.021130 58.564915 7.194241 19.021130 -149.190712 -2.810327 -17.633558 -151.926374 -2.515722 -24.270510 33.097066 2.656480 17.633558 -14.690293 -0.265648 4.755283
1328.445511 687.490232 59.380614 0.000000 0.000000 0.000000 0.000000 0.000000 0.000000 -104.253419 3.980517 19.960535 75.746581 -5.556617 19.960535 -110.140878 -1.215058 -20.536413 -152.911692 -2.908620 -21.869059 23.882145 1.935216 20.536413 3.694979 0.253244 4.648882
966.534206 440.564282 51.636155 0.000000 0.000000 0.000000 0.000000 0.000000 0.000000 25.865486 -17.358382 19.645745 180.000000 8.388022 19.645745 18.728337 -5.160640 -23.115397 161.271663 9.537757 -19.122720 19.024234 -3.081258 23.115397 18.000000 -1.125339 4.524135
966.454577 440.533056 45.750361 0.000000 0.000000 0.000000 0.000000 0.000000 0.000000 25.417507 -10.860450 18.096541 180.000000 1.714665 18.096541 18.825450 -2.902342 -25.329838 161.174550 -2.647591 -16.074804 19.071566 2.474377 25.329838 18.000000 -0.434209 4.381533
966.374240 440.501809 19.129580 0.000000 0.000000 0.000000 0.000000 0.000000 0.000000 24.990320 -35.406524 15.410265 180.000000 9.102625 15.410265 18.929718 -5.094196 -27.144812 161.070282 -1.085138 -12.773379 19.102411 17.611430 27.144812 18.000000 -0.978467 4.221640
966.293204 440.470542 52.821680 0.000000 0.000000 0.000000 0.000000 0.000000 0.000000 24.583377 -13.205736 11.755705 180.000000 1.890768 11.755705 19.040946 -0.413283 -28.531695 160.959054 1.889291 -9.270510 19.116765 -4.623681 28.531695 18.000000 -0.375302 4.045085
966.211478 440.439256 56.623208 0.000000 0.000000 0.000000 0.000000 0.000000 0.000000 24.196129 14.095130 7.362491 180.000000 2.802814 7.362491 19.158923 -4.216215 -29.468618 160.841077 -1.241698 -5.621439 19.114778 1.431245 29.468618 18.000000 -0.824405 3.852566
644.985180 745.864069 60.884637 0.000000 0.000000 0.000000 0.000000 0.000000 0.000000 96.086415 13.885117 2.506665 -83.913585 -23.177054 2.506665 -159.662371 -7.993118 -29.940802 -116.741565 2.856263 -1.883716 -176.001217 -8.134789 29.940802 -1.006627 -0.407109 3.644843
1269.020119 699.025490 66.088919 0.000000 0.000000 0.000000 0.000000 0.000000 0.000000 83.810916 0.039795 -2.506665 -96.189084 1.415316 -2.506665 51.932890 3.807101 -29.940802 -149.314466 -1.985476 1.883716 27.598511 2.419196 29.940802 -15.240149 -0.241920 3.422736
573.721218 678.450201 44.042551 0.000000 0.000000 0.000000 0.000000 0.000000 0.000000 18.756393 -28.199693 -7.362491 -161.243607 47.665883 -7.362491 -174.158094 -2.114318 -29.468618 178.010322 5.879147 5.621439 -154.394154 2.084796 29.468618 11.886524 -1.303579 3.187120
1261.580200 714.897366 58.854850 0.000000 0.000000 0.000000 0.000000 0.000000 0.000000 87.191276 -15.724769 -11.755705 -92.808724 -6.269821 -11.755705 23.129119 14.573666 -28.531695 -149.376238 -1.857339 9.270510 24.545507 2.176645 28.531695 13.583501 3.381476 2.938926
1314.655838 684.171546 47.992698 0.000000 0.000000 0.000000 0.000000 0.000000 0.000000 61.219932 -1.645765 -15.410265 -118.780068 9.714996 -15.410265 25.476616 -1.029140 -27.144812 -150.404247 -1.790526 12.773379 24.621454 1.816523 27.144812 -15.537855 -0.181652 2.679134
1319.638939 674.820013 70.115767 0.000000 0.000000 0.000000 0.000000 0.000000 0.000000 82.055377 -6.552369 -18.096541 -97.944623 21.225735 -18.096541 17.325085 -7.552751 -25.329838 -60.067277 4.334027 16.074804 23.747728 0.338613 25.329838 -13.005173 -0.271302 2.408768
1367.852325 659.536314 64.236203 0.000000 0.000000 0.000000 0.000000 0.000000 0.000000 -150.278430 37.789107 -19.645745 29.721570 -32.027817 -19.645745 -151.222797 -2.214101 -23.115397 18.758043 0.106360 19.122720 -152.451920 -2.603094 23.115397 2.484143 0.217319 2.128896
1392.624664 638.981302 45.915677 0.000000 0.000000 0.000000 0.000000 0.000000 0.000000 -122.704248 -12.429862 -19.960535 57.295752 -4.518926 -19.960535 -134.513385 4.784470 -20.536413 30.292627 0.625516 21.869059 -146.694539 -0.579608 20.536413 2.430965 0.134636 1.840623
1401.291389 646.422758 77.696085 0.000000 0.000000 0.000000 0.000000 0.000000 0.000000 83.316637 -0.254878 -19.021130 -96.683363 5.453486 -19.021130 29.335627 -1.459129 -17.633558 -136.281416 4.111795 24.270510 19.119183 -2.009163 17.633558 -15.871560 0.144291 1.545085
1381.838951 663.410475 98.630458 0.000000 0.000000 0.000000 0.000000 0.000000 0.000000 79.215331 -1.660095 -16.886559 -100.784669 3.524530 -16.886559 30.640455 1.983815 -14.452610 -139.113455 -0.380911 26.289200 14.302413 1.497951 14.452610 -16.408036 0.066832 1.243449
1390.185928 664.248354 59.367213 0.000000 0.000000 0.000000 0.000000 0.000000 0.000000 75.546066 -2.780409 -13.690942 -104.453934 1.406513 -13.690942 38.995097 1.370792 -11.043737 -142.871297 -0.767496 27.893295 14.209110 0.065052 11.043737 -16.737090 -0.067633 0.936907
1393.889923 677.551103 87.249720 0.000000 0.000000 0.000000 0.000000 0.000000 0.000000 84.293627 -0.192484 -9.635073 -95.706373 -6.678066 -9.635073 -152.700272 -2.897267 -7.460697 -143.357755 -3.579017 29.057495 -148.868889 -3.367381 7.460697 3.626268 0.499829 0.626666
905.601082 693.654528 86.004561 0.000000 0.000000 0.000000 0.000000 0.000000 0.000000 -84.410869 -3.082457 -4.973798 95.589131 -13.772326 -4.973798 -139.498802 -4.105918 -3.759997 -178.556713 -9.440408 29.763441 -142.061844 -5.081576 3.759997 3.411456 0.442349 0.313953
1337.643929 680.318756 113.265690 0.000000 0.000000 0.000000 0.000000 0.000000 0.000000 78.192517 1.600064 0.000000 -101.807483 -0.899715 0.000000 48.289813 2.757724 -0.000000 -140.291980 -1.626108 30.000000 13.663140 -0.839982 0.000000 -17.395561 0.119301 0.000000
1322.670708 685.543334 108.548398 0.000000 0.000000 0.000000 0.000000 0.000000 0.000000 71.501063 -8.809460 4.973798 -108.498937 9.139873 4.973798 23.648228 -7.442416 3.759997 -144.586500 -0.066179 29.763441 14.578018 0.332784 -3.759997 -16.885607 -0.030668 0.313953
1305.530548 682.910864 116.393549 0.000000 0.000000 0.000000 0.000000 0.000000 0.000000 72.979287 -4.966180 9.635073 -107.020713 14.041127 9.635073 -148.728581 -3.969423 7.460697 -74.802907 25.895098 29.057495 -151.178244 -5.275557 -7.460697 2.601049 0.437912 0.626666
1359.363556 692.650115 128.406585 0.000000 0.000000 0.000000 0.000000 0.000000 0.000000 73.244804 -8.317394 13.690942 -106.755196 -1.926065 13.690942 13.983499 0.998733 11.043737 -67.611809 2.759758 27.893295 13.130547 0.886743 -11.043737 -11.004089 0.119816 0.936907
1299.495964 679.994059 117.685972 0.000000 0.000000 0.000000 0.000000 0.000000 0.000000 116.206779 12.458999 16.886559 -63.793221 -10.268134 16.886559 -150.858719 -4.527330 14.452610 -34.548592 0.157930 26.289200 60.366751 -8.593335 -14.452610 -4.627493 0.082868 1.243449
1306.260338 711.527116 136.174957 0.000000 0.000000 0.000000 0.000000 0.000000 0.000000 -85.758672 15.031151 19.021130 94.241328 -6.669880 19.021130 -31.461750 -1.833592 17.633558 -4.237664 -5.076155 24.270510 -15.215787 -2.677682 -17.633558 7.867754 1.587346 1.545085
1272.614822 704.778571 130.560956 0.000000 0.000000 0.000000 0.000000 0.000000 0.000000 -78.634637 -5.402869 19.960535 101.365363 -16.915154 19.960535 -34.118569 1.348317 20.536413 22.539652 -5.061181 21.869059 -31.373170 0.620484 -20.536413 11.310693 1.024096 1.840623
1310.345650 676.427021 130.328224 0.000000 0.000000 0.000000 0.000000 0.000000 0.000000 97.572435 11.643822 19.645745 -82.427565 -11.320826 19.645745 50.400703 0.298651 23.115397 -39.584286 -8.596506 19.122720 44.966766 -1.853859 -23.115397 -8.852712 0.436193 2.128896
1315.732956 671.025095 130.796475 0.000000 0.000000 0.000000 0.000000 0.000000 0.000000 97.797337 3.280281 18.096541 -82.202663 -4.431367 18.096541 49.825934 3.481651 25.329838 -39.162923 -2.866107 16.074804 36.475631 -1.677292 -25.329838 -8.191519 -0.119713 2.408768
1329.935532 653.525419 126.936918 0.000000 0.000000 0.000000 0.000000 0.000000 0.000000 96.469555 -0.822040 15.410265 -83.530445 0.189295 15.410265 63.882053 4.013705 27.144812 -51.972064 0.754721 12.773379 58.624362 -0.562220 -27.144812 -8.239564 0.160673 2.679134
1316.170578 674.246514 133.818881 0.000000 0.000000 0.000000 0.000000 0.000000 0.000000 -87.946330 2.298019 11.755705 92.053670 2.989323 11.755705 -29.715798 -1.446322 28.531695 54.212796 -1.354239 9.270510 -40.560774 0.548128 -28.531695 11.008015 0.156056 2.938926
1317.367287 678.027205 137.800040 0.000000 0.000000 0.000000 0.000000 0.000000 0.000000 95.152942 3.285467 7.362491 -84.847058 -5.980514 7.362491 98.792835 3.207315 29.468618 -150.515547 -5.985256 5.621439 32.983753 5.522767 -29.468618 -14.701625 -0.552277 3.187120
1318.168488 670.157025 157.128168 0.000000 0.000000 0.000000 0.000000 0.000000 0.000000 -151.252255 7.293598 2.506665 28.747745 60.621416 2.506665 138.896993 -6.827509 29.940802 -151.946620 -5.769518 1.883716 38.784684 5.617087 -29.940802 -14.121532 -0.561709 3.422736
1323.412628 644.667885 147.906111 0.000000 0.000000 0.000000 0.000000 0.000000 0.000000 -97.904066 -26.038659 -2.506665 82.095934 1.170301 -2.506665 155.695030 5.243435 29.940802 -152.500978 -5.689511 -1.883716 44.721081 6.855719 -29.940802 -13.527892 -0.685572 3.644843
1312.776718 630.059459 161.771231 0.000000 0.000000 0.000000 0.000000 0.000000 0.000000 -116.637972 2.522451 -7.362491 63.362028 1.232988 -7.362491 171.094570 2.467829 29.468618 -152.894064 -6.161931 -5.621439 43.947863 7.135035 -29.468618 -13.605214 -0.713503 3.852566
1316.420746 625.237019 156.239185 0.000000 0.000000 0.000000 0.000000 0.000000 0.000000 -136.254273 4.927500 -11.755705 43.745727 -8.495438 -11.755705 -177.663204 1.884163 28.531695 -153.006287 -6.913605 -9.270510 42.784597 9.159076 -28.531695 -13.721540 -0.915908 4.045085
1314.719925 628.818026 161.890803 0.000000 0.000000 0.000000 0.000000 0.000000 0.000000 -114.737929 -5.962271 -15.410265 65.262071 -3.627312 -15.410265 -169.764314 2.099496 27.144812 -153.369487 -6.291730 -12.773379 41.498347 7.382866 -27.144812 -13.850165 -0.738287 4.221640
1334.396782 646.165652 160.115271 0.000000 0.000000 0.000000 0.000000 0.000000 0.000000 -116.903454 10.655815 -18.096541 63.096546 -10.274637 -18.096541 -154.594534 1.012245 25.329838 -153.225015 -7.135342 -16.074804 37.136182 8.367572 -25.329838 -14.286382 -0.836757 4.381533
1340.823784 648.244128 146.410073 0.000000 0.000000 0.000000 0.000000 0.000000 0.000000 -116.932323 -6.380846 -19.645745 63.067677 4.455289 -19.645745 -138.898656 -1.325687 23.115397 35.335752 3.252755 -19.122720 -153.336856 -1.555667 -23.115397 2.206211 -0.071141 4.524135
1330.023880 654.599032 134.712471 0.000000 0.000000 0.000000 0.000000 0.000000 0.000000 -112.150704 -3.317344 -19.960535 67.849296 5.050423 -19.960535 -118.798313 0.073551 20.536413 -153.636372 -5.885337 -21.869059 16.691869 8.610464 -20.536413 -16.330813 -0.861046 4.648882
1337.431641 662.410698 155.501662 0.000000 0.000000 0.000000 0.000000 0.000000 0.000000 -109.111809 -2.520831 -19.021130 70.888191 6.432761 -19.021130 -91.144379 -1.622514 17.633558 -154.448144 -6.307594 -24.270510 10.298202 6.411381 -17.633558 6.642051 -0.198267 4.755283
1324.339714 676.416593 148.476082 0.000000 0.000000 0.000000 0.000000 0.000000 0.000000 -104.120178 3.684319 -16.886559 75.879822 -5.311333 -16.886559 -57.095620 1.492732 14.452610 38.799650 1.212463 -26.289200 -71.942639 -2.728899 -14.452610 8.831938 0.114792 4.842916
962.890318 439.311049 153.926643 0.000000 0.000000 0.000000 0.000000 0.000000 0.000000 19.986963 6.278618 -13.690942 180.000000 -2.742909 -13.690942 24.297229 5.209449 11.043737 155.702771 -10.242836 -27.893295 14.983342 9.235485 -11.043737 18.000000 -0.361857 4.911436
962.789911 439.279946 128.257684 0.000000 0.000000 0.000000 0.000000 0.000000 0.000000 20.089586 -6.169518 -9.635073 180.000000 6.392822 -9.635073 24.330184 3.838568 7.460697 155.669816 6.560291 -29.057495 14.926290 -1.867148 -7.460697 18.000000 0.125738 4.960574
641.318550 641.336324 123.860963 0.000000 0.000000 0.000000 0.000000 0.000000 0.000000 163.642929 6.423661 -4.973798 -16.357071 -6.197402 -4.973798 -155.926011 -2.300789 3.759997 -130.644608 -8.459927 -29.763441 68.679337 10.054475 -3.759997 -11.132066 -1.005447 4.990134
1305.385551 662.289033 130.053498 0.000000 0.000000 0.000000 0.000000 0.000000 0.000000 -81.949824 8.546939 -0.000000 98.050176 -7.116514 -0.000000 9.536664 -5.481570 0.000000 -153.586691 -6.231844 -30.000000 24.402531 4.848822 -0.000000 -15.559747 -0.484882 5.000000
962.486899 439.186814 129.820058 0.000000 0.000000 0.000000 0.000000 0.000000 0.000000 20.465882 14.912757 4.973798 180.000000 -4.235275 4.973798 24.357206 -6.644198 -3.759997 155.642794 -6.080912 -29.763441 14.800425 0.829264 3.759997 18.000000 -0.372544 4.990134
1216.314240 612.580640 144.909998 0.000000 0.000000 0.000000 0.000000 0.000000 0.000000 78.221991 2.329678 9.635073 -101.778009 -3.999698 9.635073 46.689014 4.931724 -7.460697 -61.937558 5.621899 -29.057495 44.546377 -1.124603 7.460697 -10.771750 -0.032475 4.960574
1273.897820 573.707514 124.593494 0.000000 0.000000 0.000000 0.000000 0.000000 0.000000 77.469628 -5.492468 13.690942 -102.530372 3.378394 13.690942 -155.691164 -5.510090 -11.043737 -120.750172 1.060353 -27.893295 -156.229293 -5.726234 11.043737 2.162203 0.471944 4.911436
1337.358742 570.303276 117.920057 0.000000 0.000000 0.000000 0.000000 0.000000 0.000000 73.705918 1.264990 16.886559 -106.294082 1.772767 16.886559 -155.918376 -5.403417 -14.452610 -149.887909 -4.650568 -26.289200 0.000000 0.000000 0.000000 0.000000 0.000000 0.000000
1342.446442 569.623497 89.562309 0.000000 0.000000 0.000000 0.000000 0.000000 0.000000 68.898287 3.742419 19.021130 -111.101713 2.937788 19.021130 39.314088 0.192134 -17.633558 -140.912764 -0.920033 -24.270510 -153.216026 -5.824536 17.633558 2.759242 0.731607 4.755283
1335.759430 584.665475 110.388528 0.000000 0.000000 0.000000 0.000000 0.000000 0.000000 66.989329 -2.912518 19.960535 -113.010671 -3.258793 19.960535 -154.807077 -4.145673 -20.536413 -142.328055 0.837039 -21.869059 -153.049156 -5.612579 20.536413 2.866457 0.707809 4.648882
1337.950974 598.074245 95.093484 0.000000 0.000000 0.000000 0.000000 0.000000 0.000000 62.697633 -3.773636 19.645745 -117.302367 14.266488 19.645745 19.366736 -5.467779 -23.115397 -144.826223 5.516640 -19.122720 9.911455 -3.044254 23.115397 -17.004209 -0.039935 4.524135
1352.846489 601.043322 105.898217 0.000000 0.000000 0.000000 0.000000 0.000000 0.000000 59.083577 -2.908469 18.096541 -120.916423 -6.406684 18.096541 20.876734 2.066072 -25.329838 -142.301690 0.104716 -16.074804 13.356960 -1.302085 25.329838 -16.821524 0.050076 4.381533
1347.310982 587.475100 91.585854 0.000000 0.000000 0.000000 0.000000 0.000000 0.000000 56.169135 7.618980 15.410265 -123.830865 -1.634579 15.410265 21.172503 -1.028292 -27.144812 -139.640745 1.883822 -12.773379 14.641496 -1.484962 27.144812 -16.282575 0.038187 4.221640
1326.982155 606.886139 105.366366 0.000000 0.000000 0.000000 0.000000 0.000000 0.000000 70.119981 3.326277 11.755705 -109.880019 -5.458134 11.755705 26.511889 -1.309780 -28.531695 -111.264667 -0.447868 -9.270510 31.153840 -1.946374 28.531695 -13.943905 -0.134560 4.045085
1354.391098 626.185555 93.261636 0.000000 0.000000 0.000000 0.000000 0.000000 0.000000 88.154395 2.953981 7.362491 -91.845605 -4.169370 7.362491 30.442275 2.076107 -29.468618 -76.284233 1.226620 -5.621439 43.854867 -0.336744 29.468618 -10.818190 -0.299658 3.852566
1370.667114 610.219567 65.335237 0.000000 0.000000 0.000000 0.000000 0.000000 0.000000 89.945118 8.629885 2.506665 -90.054882 -5.655608 2.506665 44.053326 1.960965 -29.940802 -56.238091 -0.008537 -1.883716 55.411270 -3.346495 29.940802 -7.805659 -0.284244 3.644843
1372.834854 597.828534 88.856255 0.000000 0.000000 0.000000 0.000000 0.000000 0.000000 93.407992 -1.175016 -2.506665 -86.592008 1.853189 -2.506665 54.165845 -0.494289 -29.940802 -47.239220 -0.206351 1.883716 56.575186 2.305137 29.940802 -6.344474 -0.447043 3.422736
1336.554337 597.454848 58.768337 0.000000 0.000000 0.000000 0.000000 0.000000 0.000000 95.622643 3.333953 -7.362491 -84.377357 -2.095983 -7.362491 56.597780 0.905524 -29.468618 -45.108662 1.410215 5.621439 55.386034 -3.107166 29.468618 -7.206870 -0.674096 3.187120
1310.567093 590.844769 59.132242 0.000000 0.000000 0.000000 0.000000 0.000000 0.000000 100.193768 -8.271696 -11.755705 -79.806232 -0.945291 -11.755705 61.986347 4.603611 -28.531695 -37.593815 0.966607 9.270510 62.907615 1.334811 28.531695 -6.637230 0.433739 2.938926
1328.574371 576.493385 96.230087 0.000000 0.000000 0.000000 0.000000 0.000000 0.000000 101.943783 1.844023 -15.410265 -78.056217 -4.872675 -15.410265 61.902838 2.111668 -27.144812 -33.889586 -2.603190 12.773379 55.760387 -0.058054 27.144812 -7.097415 0.314937 2.679134
1316.178360 595.500870 67.037562 0.000000 0.000000 0.000000 0.000000 0.000000 0.000000 103.792097 6.227510 -18.096541 -76.207903 -3.458836 -18.096541 65.535198 -3.462670 -25.329838 -28.739437 -1.313516 16.074804 68.415337 -1.454560 25.329838 -6.481753 -0.602508 2.408768
1302.343140 568.138025 70.900450 0.000000 0.000000 0.000000 0.000000 0.000000 0.000000 101.222717 0.114053 -19.645745 -78.777283 2.521538 -19.645745 90.757296 -1.711547 -23.115397 -18.578033 0.517582 19.122720 97.909038 4.608146 23.115397 -5.050134 -0.522709 2.128896
1274.166183 540.660596 75.698783 0.000000 0.000000 0.000000 0.000000 0.000000 0.000000 -126.898591 -13.396313 -19.960535 53.101409 24.964750 -19.960535 127.276662 -4.706034 -20.536413 8.808645 0.852351 21.869059 119.711272 0.720892 20.536413 -4.115393 0.023967 1.840623
1268.557091 468.331075 65.382165 0.000000 0.000000 0.000000 0.000000 0.000000 0.000000 -124.112133 0.031094 -19.021130 55.887867 -1.426737 -19.021130 163.344780 -0.725987 -17.633558 38.476068 1.644705 24.270510 145.889074 0.132662 17.633558 -1.929933 -0.308285 1.545085
1278.673096 454.375906 45.039562 0.000000 0.000000 0.000000 0.000000 0.000000 0.000000 -126.805061 -3.505576 -16.886559 53.194939 11.902901 -16.886559 -174.009950 -0.320727 -14.452610 27.419224 8.025610 26.289200 168.192977 -0.528181 14.452610 -0.976267 -0.170306 1.243449
1285.008774 434.700390 59.711058 0.000000 0.000000 0.000000 0.000000 0.000000 0.000000 -132.005120 -6.632771 -13.690942 47.994880 2.565959 -13.690942 -171.247775 2.576764 -11.043737 26.625253 -0.709741 27.893295 178.805957 1.038487 11.043737 0.023422 -0.156757 0.936907
1288.157730 426.987666 41.077036 0.000000 0.000000 0.000000 0.000000 0.000000 0.000000 -123.987926 2.267396 -9.635073 56.012074 -10.776702 -9.635073 -166.356219 4.884298 -7.460697 35.716336 -0.014686 29.057495 -172.960762 0.389465 7.460697 0.819533 -0.017611 0.626666
1291.221657 420.425448 57.382576 0.000000 0.000000 0.000000 0.000000 0.000000 0.000000 -122.265643 -3.519975 -4.973798 57.734357 6.398961 -4.973798 -156.870161 -3.559125 -3.759997 38.220704 2.033060 29.763441 -165.716368 1.684991 3.759997 1.405814 -0.061956 0.313953
