HIERARCHY
ROOT Hips
{
    OFFSET 0.0 0.0 0.0
    CHANNELS 6 Xposition Yposition Zposition Zrotation Xrotation Yrotation
    JOINT Spine
    {
        OFFSET 0.0 5.0 0.0
        CHANNELS 3 Zrotation Xrotation Yrotation
        JOINT Chest
        {
            OFFSET 0.0 5.0 0.0
            CHANNELS 3 Zrotation Xrotation Yrotation
            JOINT Neck
            {
                OFFSET 0.0 8.0 0.0
                CHANNELS 3 Zrotation Xrotation Yrotation
                JOINT Head
                {
                    OFFSET 0.0 5.0 0.0
                    CHANNELS 3 Zrotation Xrotation Yrotation
                    End Site
                    {
                        OFFSET 0.0 3.0 0.0
                    }
                }
            }
            JOINT LeftShoulder
            {
                OFFSET -5.0 0.0 0.0
                CHANNELS 3 Zrotation Xrotation Yrotation
                JOINT LeftArm
                {
                    OFFSET 0.0 -10.0 0.0
                    CHANNELS 3 Zrotation Xrotation Yrotation
                    JOINT LeftForeArm
                    {
                        OFFSET 0.0 -10.0 0.0
                        CHANNELS 3 Zrotation Xrotation Yrotation
                        End Site
                        {
                            OFFSET 0.0 -3.0 0.0
                        }
                    }
                }
            }
        }
    }
}

MOTION
Frames: 300
Frame Time: 0.033333

960.000000 445.000000 94.035154 0.000000 0.000000 0.000000 0.000000 0.000000 0.000000 23.025492 16.502929 0.000000 180.000000 1.448809 0.000000 21.801409 -1.310865 -0.000000 158.198591 6.902291 30.000000 15.945396 -4.068995 0.000000 18.000000 -0.113450 0.000000
1691.525230 140.756605 107.772018 0.000000 0.000000 0.000000 0.000000 0.000000 0.000000 -163.376529 -10.832244 4.973798 16.623471 2.959081 4.973798 -171.853121 -3.083104 3.759997 99.744051 18.988859 29.763441 -171.126653 -3.537122 -3.759997 0.673538 0.439682 0.313953
1636.048050 128.802021 118.720808 0.000000 0.000000 0.000000 0.000000 0.000000 0.000000 157.904128 6.007375 9.635073 -22.095872 -10.350921 9.635073 -171.936471 -3.958573 7.460697 -143.675701 0.182079 29.057495 -173.500805 -4.535730 -7.460697 0.570999 0.388564 0.626666
1578.156967 80.474526 117.078200 0.000000 0.000000 0.000000 0.000000 0.000000 0.000000 -139.519796 5.127393 13.690942 40.480204 -0.831638 13.690942 -174.507724 -3.679060 11.043737 119.111399 6.655926 27.893295 -173.607258 -4.328690 -11.043737 0.461920 0.435747 0.936907
960.418757 444.998421 111.949135 0.000000 0.000000 0.000000 0.000000 0.000000 0.000000 25.077893 41.300748 16.886559 180.000000 -6.740524 16.886559 23.861935 3.218977 14.452610 156.138065 -6.861693 26.289200 17.903699 -1.843870 -14.452610 18.000000 -0.557829 1.243449
960.523360 444.997533 134.526758 0.000000 0.000000 0.000000 0.000000 0.000000 0.000000 25.638906 -42.937277 19.021130 180.000000 7.268003 19.021130 24.425035 2.260460 17.633558 155.574965 20.630926 24.270510 18.452907 -1.778870 -17.633558 18.000000 -0.649261 1.545085
960.627905 444.996447 121.808172 0.000000 0.000000 0.000000 0.000000 0.000000 0.000000 26.219073 16.705382 19.960535 180.000000 -10.151576 19.960535 25.006291 9.489401 20.536413 154.993709 5.372610 21.869059 19.024920 -7.747907 -20.536413 18.000000 0.640140 1.840623
1126.242828 420.359820 140.718722 0.000000 0.000000 0.000000 0.000000 0.000000 0.000000 31.410514 -9.982033 19.645745 -148.589486 3.800181 19.645745 32.280463 -1.091266 23.115397 -131.603972 1.281589 19.122720 45.585331 2.384789 -23.115397 -13.449727 -0.059680 2.128896
1257.895088 650.549197 130.933367 0.000000 0.000000 0.000000 0.000000 0.000000 0.000000 25.073180 -4.774973 18.096541 -154.926820 -7.766904 18.096541 46.260945 -3.896039 25.329838 -154.651428 -5.748629 16.074804 27.339487 5.682650 -25.329838 -13.619892 -0.664803 2.408768
960.941083 444.992008 136.003686 0.000000 0.000000 0.000000 0.000000 0.000000 0.000000 28.072001 -6.051189 15.410265 180.000000 4.581559 15.410265 26.849221 6.236426 27.144812 153.150779 18.775986 12.773379 20.864045 -5.863463 -27.144812 18.000000 0.448560 2.679134
1163.815842 547.748709 132.650611 0.000000 0.000000 0.000000 0.000000 0.000000 0.000000 117.162728 1.901809 11.755705 -62.837272 19.226280 11.755705 102.363764 -3.572857 28.531695 -47.376450 0.880418 9.270510 104.768601 -3.875734 -28.531695 -6.003489 0.759541 2.938926
961.149372 444.988063 140.151208 0.000000 0.000000 0.000000 0.000000 0.000000 0.000000 29.395983 25.145266 7.362491 180.000000 -2.008146 7.362491 28.146217 -13.767529 29.468618 151.853783 0.993324 5.621439 22.170006 -12.510341 -29.468618 18.000000 1.501088 3.187120
1136.717377 590.104480 149.989863 0.000000 0.000000 0.000000 0.000000 0.000000 0.000000 115.752126 -3.870117 2.506665 -64.247874 -8.806317 2.506665 73.638146 -1.578269 29.940802 -21.842452 0.173551 1.883716 75.369282 -4.013331 -29.940802 -6.767207 0.269707 3.422736
1163.079758 634.077559 148.850246 0.000000 0.000000 0.000000 0.000000 0.000000 0.000000 132.174340 -0.490265 -2.506665 -47.825660 -1.101020 -2.506665 94.255711 3.630560 29.940802 -149.364979 -7.150463 -1.883716 30.021641 5.748829 -29.940802 -5.096180 -1.041956 3.644843
961.460830 444.980668 148.755228 0.000000 0.000000 0.000000 0.000000 0.000000 0.000000 31.497152 33.081252 -7.362491 180.000000 1.715042 -7.362491 30.152455 -11.557547 29.468618 149.847545 7.167431 -5.621439 24.175589 -1.083614 -29.468618 18.000000 0.023362 3.852566
1097.449951 565.089898 155.331967 0.000000 0.000000 0.000000 0.000000 0.000000 0.000000 -119.219568 -1.874405 -11.755705 60.780432 5.076692 -11.755705 -150.180642 -7.186412 28.531695 48.804955 -1.011936 -9.270510 -149.874178 -5.802613 -28.531695 2.713854 0.550830 4.045085
1114.140244 528.302071 148.539824 0.000000 0.000000 0.000000 0.000000 0.000000 0.000000 -142.671523 3.026706 -15.410265 37.328477 -8.112164 -15.410265 -177.395681 1.913724 27.144812 34.687329 -2.928796 -12.773379 161.894167 1.723732 -27.144812 -0.910956 -0.068959 4.221640
1116.433640 479.728639 146.059938 0.000000 0.000000 0.000000 0.000000 0.000000 0.000000 -102.267481 5.228061 -18.096541 77.732519 -6.868381 -18.096541 -163.695626 4.538008 25.329838 38.575767 0.763798 -16.074804 -176.001122 -1.301112 -25.329838 0.706594 -0.117384 4.381533
1135.931282 466.493965 136.156444 0.000000 0.000000 0.000000 0.000000 0.000000 0.000000 -112.868406 -1.673133 -19.645745 67.131594 10.978597 -19.645745 -159.517862 -5.949012 23.115397 36.204678 -2.915489 -19.122720 -154.426613 -5.487726 -23.115397 2.428729 0.528273 4.524135
1141.618767 467.420679 135.400378 0.000000 0.000000 0.000000 0.000000 0.000000 0.000000 -123.086385 9.236929 -19.960535 56.913615 -11.398764 -19.960535 -154.885724 -1.604958 20.536413 36.481623 -5.694498 -21.869059 -153.965441 -5.402405 -20.536413 2.446728 0.537880 4.648882
1150.647926 469.370956 167.662768 0.000000 0.000000 0.000000 0.000000 0.000000 0.000000 -43.953779 -10.980949 -19.021130 136.046221 -29.051627 -19.021130 -154.327268 -6.680450 17.633558 60.745168 -7.633136 -24.270510 -153.350642 -6.470385 -17.633558 2.386216 0.597725 4.755283
1151.529922 496.420240 159.337233 0.000000 0.000000 0.000000 0.000000 0.000000 0.000000 -116.362129 -3.254371 -16.886559 63.637871 -1.590794 -16.886559 -149.081043 -2.506090 14.452610 35.941860 -3.505263 -26.289200 -156.847177 0.209980 -14.452610 2.056513 0.101757 4.842916
1148.402367 515.713574 159.059194 0.000000 0.000000 0.000000 0.000000 0.000000 0.000000 -118.252650 -16.613776 -13.690942 61.747350 12.394035 -13.690942 -138.082896 -1.435357 11.043737 -156.312677 -6.241731 -27.893295 21.649626 9.200700 -11.043737 2.962417 -0.030133 4.911436
1175.363617 533.368646 163.018710 0.000000 0.000000 0.000000 0.000000 0.000000 0.000000 -95.476638 -1.781971 -9.635073 84.523362 2.480447 -9.635073 -113.907461 6.843364 7.460697 -155.995907 -6.405960 -29.057495 12.512064 8.367053 -7.460697 -16.748794 -0.836705 4.960574
1199.533310 485.991104 123.789966 0.000000 0.000000 0.000000 0.000000 0.000000 0.000000 -100.003195 2.374428 -4.973798 79.996805 -6.304495 -4.973798 -86.083188 -1.707893 3.759997 38.843754 1.393535 -29.763441 -106.539452 -2.897313 -3.759997 6.197806 0.015830 4.990134
962.588190 444.938442 136.320735 0.000000 0.000000 0.000000 0.000000 0.000000 0.000000 39.579754 -30.762011 -0.000000 180.000000 15.495802 -0.000000 36.680773 6.798473 0.000000 143.319227 7.756559 -30.000000 29.388385 5.309547 -0.000000 18.000000 -0.549207 5.000000
1142.094727 445.716287 121.651476 0.000000 0.000000 0.000000 0.000000 0.000000 0.000000 -140.228454 -29.776485 4.973798 39.771546 32.828392 4.973798 -156.118008 -6.440890 -3.759997 3.479189 9.031515 -29.763441 -158.005660 -6.045611 3.759997 2.150019 0.608031 4.990134
1164.005928 424.847746 112.392206 0.000000 0.000000 0.000000 0.000000 0.000000 0.000000 -84.241076 20.660430 9.635073 95.758924 20.920040 9.635073 -156.181584 -6.569347 -7.460697 166.928360 0.097323 -29.057495 -154.947270 -6.527561 7.460697 2.644196 0.625152 4.960574
1124.208755 418.286655 125.704657 0.000000 0.000000 0.000000 0.000000 0.000000 0.000000 -117.427077 -21.439596 13.690942 62.572923 23.555684 13.690942 -155.943063 -5.538265 -11.043737 14.023837 10.921032 -27.893295 -157.382674 -5.229258 11.043737 2.188130 0.520249 4.911436
962.990408 444.917226 107.298410 0.000000 0.000000 0.000000 0.000000 0.000000 0.000000 42.110883 41.098014 16.886559 180.000000 8.512122 16.886559 37.946959 -5.612139 -14.452610 142.053041 -1.203830 -26.289200 29.293612 4.104118 14.452610 18.000000 -0.681725 4.842916
963.090170 444.911436 115.547268 0.000000 0.000000 0.000000 0.000000 0.000000 0.000000 42.659200 9.017199 19.021130 180.000000 -4.195876 19.021130 38.119107 -10.916180 -17.633558 141.880893 4.003274 -24.270510 29.068887 -2.195670 17.633558 18.000000 -0.633693 4.755283
1186.646461 396.272757 108.866250 0.000000 0.000000 0.000000 0.000000 0.000000 0.000000 -72.847419 12.982506 19.960535 107.152581 6.764799 19.960535 -156.703603 -5.244842 -20.536413 178.447294 5.370539 -21.869059 -157.212393 -5.726139 20.536413 1.964058 0.443087 4.648882
1313.051605 426.636125 99.493459 0.000000 0.000000 0.000000 0.000000 0.000000 0.000000 90.994869 18.951377 19.645745 -89.005131 -19.956713 19.645745 -160.515303 -3.805582 -23.115397 -153.248861 0.566034 -19.122720 -159.640525 -5.054438 23.115397 0.000000 0.000000 0.000000
1347.999344 420.772226 81.092235 0.000000 0.000000 0.000000 0.000000 0.000000 0.000000 90.154351 2.564751 18.096541 -89.845649 -9.107870 18.096541 -162.053401 -3.944086 -25.329838 -136.198880 -2.868636 -16.074804 -160.991694 -4.914275 25.329838 0.000000 0.000000 0.000000
1344.315948 421.031681 72.261692 0.000000 0.000000 0.000000 0.000000 0.000000 0.000000 69.757587 10.135755 15.410265 -110.242413 -4.549716 15.410265 25.616746 3.414031 -27.144812 -157.821005 -3.539507 -12.773379 17.214985 3.249766 27.144812 -16.704706 -0.073528 4.221640
1350.307617 440.309436 87.225571 0.000000 0.000000 0.000000 0.000000 0.000000 0.000000 71.124018 1.360370 11.755705 -108.875982 -4.182371 11.755705 42.739987 -3.703428 -28.531695 -142.315466 -4.177407 -9.270510 16.600926 2.393512 28.531695 -16.660102 0.174012 4.045085
1357.685051 430.688889 74.964253 0.000000 0.000000 0.000000 0.000000 0.000000 0.000000 77.656077 -0.067870 7.362491 -102.343923 -7.922287 7.362491 39.407151 4.973269 -29.468618 -136.343173 -3.462634 -5.621439 22.144452 1.488925 29.468618 -16.305135 0.138588 3.852566
1369.482193 445.909406 77.404621 0.000000 0.000000 0.000000 0.000000 0.000000 0.000000 88.051188 -8.620427 2.506665 -91.948812 12.864073 2.506665 -161.283973 -3.516898 -29.940802 -119.799169 -1.123614 -1.883716 -164.575400 -2.914842 29.940802 1.401013 0.354365 3.644843
963.875156 444.858159 64.708997 0.000000 0.000000 0.000000 0.000000 0.000000 0.000000 45.304844 33.171696 -2.506665 180.000000 -25.219809 -2.506665 37.252439 -9.616935 -29.940802 142.747561 -1.810171 1.883716 25.146244 -5.114021 29.940802 18.000000 0.366030 3.422736
963.971479 444.850633 85.450470 0.000000 0.000000 0.000000 0.000000 0.000000 0.000000 45.383640 -50.967431 -7.362491 180.000000 20.206741 -7.362491 36.882310 -7.146857 -29.468618 143.117690 15.115123 5.621439 24.499789 3.676717 29.468618 18.000000 0.546232 3.187120
1336.629524 469.010178 62.751843 0.000000 0.000000 0.000000 0.000000 0.000000 0.000000 -72.390177 9.427492 -11.755705 107.609823 -11.601007 -11.755705 -158.649984 -2.213283 -28.531695 2.583425 2.322785 9.270510 -39.658551 1.419713 28.531695 10.837181 -0.908440 2.938926
1311.966934 518.219100 60.554959 0.000000 0.000000 0.000000 0.000000 0.000000 0.000000 -63.565072 -13.163677 -15.410265 116.434928 -47.180198 -15.410265 -14.840750 -1.506182 -27.144812 -158.549348 -3.058173 12.773379 17.488774 2.753668 27.144812 7.174982 -3.835293 2.679134
964.257793 444.826908 60.343632 0.000000 0.000000 0.000000 0.000000 0.000000 0.000000 45.262206 -39.012025 -18.096541 180.000000 34.626938 -18.096541 35.497192 -13.111582 -25.329838 144.502808 13.553930 16.074804 22.522929 -1.596096 25.329838 18.000000 0.754901 2.408768
1275.921364 516.836239 54.519738 0.000000 0.000000 0.000000 0.000000 0.000000 0.000000 85.186295 2.537682 -19.645745 -94.813705 -0.105164 -19.645745 52.470689 6.186832 -23.115397 -44.513683 -1.355402 19.122720 50.867598 -0.589332 23.115397 -8.717188 0.558668 2.128896
1263.254128 546.875424 60.002446 0.000000 0.000000 0.000000 0.000000 0.000000 0.000000 34.848242 10.407766 -19.960535 -145.151758 31.319410 -19.960535 42.487561 -40.991954 -20.536413 -157.415675 -2.693190 21.869059 22.420880 2.039062 20.536413 -15.757912 -0.203906 1.840623
1258.788185 528.263061 63.811050 0.000000 0.000000 0.000000 0.000000 0.000000 0.000000 118.326865 -11.780041 -19.021130 -61.673135 33.256319 -19.021130 143.214759 -7.446671 -17.633558 -156.228306 -1.982498 24.270510 28.173554 2.333759 17.633558 -15.182645 -0.233376 1.545085
1231.492081 471.383836 59.394999 0.000000 0.000000 0.000000 0.000000 0.000000 0.000000 -115.049381 41.534648 -16.886559 64.950619 -55.724033 -16.886559 172.843704 4.688008 -14.452610 -157.842300 -3.592723 26.289200 32.851042 3.069846 14.452610 -14.714896 -0.306985 1.243449
1223.928795 435.993515 50.206634 0.000000 0.000000 0.000000 0.000000 0.000000 0.000000 -115.322532 -6.160265 -13.690942 64.677468 -3.509317 -13.690942 -168.597862 5.594789 -11.043737 -158.853816 -2.221523 27.893295 31.099266 2.844584 11.043737 -14.890073 -0.284458 0.936907
1223.669701 418.195664 54.181353 0.000000 0.000000 0.000000 0.000000 0.000000 0.000000 -102.084053 8.279004 -9.635073 77.915947 15.972312 -9.635073 -171.103858 6.408563 -7.460697 162.056334 -3.695336 29.057495 -153.594437 -2.199890 7.460697 2.968481 0.356885 0.626666
1216.486244 414.503002 58.227231 0.000000 0.000000 0.000000 0.000000 0.000000 0.000000 69.261091 -11.487295 -4.973798 -110.738909 22.128516 -4.973798 -158.083722 -2.752304 -3.759997 -173.244581 -0.990397 29.763441 -154.635509 -2.507801 3.759997 2.928763 0.278651 0.313953
1212.090225 434.550980 59.630298 0.000000 0.000000 0.000000 0.000000 0.000000 0.000000 -112.403932 -5.282169 0.000000 67.596068 -0.356125 0.000000 -157.060799 -2.237049 -0.000000 173.400765 -2.949892 30.000000 -154.473580 -2.158551 0.000000 2.734633 0.312503 0.000000
1214.024734 450.340490 55.153438 0.000000 0.000000 0.000000 0.000000 0.000000 0.000000 -110.634751 -6.816931 4.973798 69.365249 -1.217324 4.973798 -137.583343 1.214755 3.759997 -158.589698 -2.564091 29.763441 20.879446 4.975341 -3.759997 -15.912055 -0.497534 0.313953
1204.271393 440.192921 60.087357 0.000000 0.000000 0.000000 0.000000 0.000000 0.000000 -99.498286 12.581580 9.635073 80.501714 -15.395239 9.635073 -156.696469 -2.615631 7.460697 -178.487725 -14.771388 29.057495 -157.318323 -2.573223 -7.460697 2.108583 0.294475 0.626666
965.269558 444.725315 55.788740 0.000000 0.000000 0.000000 0.000000 0.000000 0.000000 40.845461 5.386271 13.690942 180.000000 -24.266621 13.690942 28.615377 17.399046 11.043737 151.384623 0.095814 27.893295 16.305092 -1.515124 -11.043737 18.000000 0.328904 0.936907
1182.456551 475.103824 60.373411 0.000000 0.000000 0.000000 0.000000 0.000000 0.000000 -168.146016 79.613203 16.886559 11.853984 80.979280 16.886559 -63.802645 -12.152216 14.452610 -61.114510 1.008792 26.289200 -47.869281 -2.875310 -14.452610 -13.834956 7.772807 1.243449
965.446390 444.704404 64.020580 0.000000 0.000000 0.000000 0.000000 0.000000 0.000000 39.578146 -33.735423 19.021130 180.000000 -9.808586 19.021130 27.338029 19.098212 17.633558 152.661971 7.776336 24.270510 15.463180 -0.429360 -17.633558 18.000000 -0.038205 1.545085
965.533915 444.693669 77.078147 0.000000 0.000000 0.000000 0.000000 0.000000 0.000000 38.916706 26.148331 19.960535 180.000000 -1.990832 19.960535 26.716768 -10.552122 20.536413 153.283232 2.901033 21.869059 15.076605 -5.957827 -20.536413 18.000000 0.191803 1.840623
965.620834 444.682749 69.591842 0.000000 0.000000 0.000000 0.000000 0.000000 0.000000 38.241653 -24.247962 19.645745 180.000000 -2.765528 19.645745 26.109467 3.848347 23.115397 153.890533 -6.895172 19.122720 14.712258 9.457560 -23.115397 18.000000 -0.336189 2.128896
965.707136 444.671645 84.212978 0.000000 0.000000 0.000000 0.000000 0.000000 0.000000 37.556504 -1.664631 18.096541 180.000000 25.390484 18.096541 25.517536 -16.436355 25.329838 154.482464 8.268222 16.074804 14.369537 -4.526632 -25.329838 18.000000 -0.228745 2.408768
965.792812 444.660356 90.822546 0.000000 0.000000 0.000000 0.000000 0.000000 0.000000 36.864608 7.582444 15.410265 180.000000 5.283078 15.410265 24.942131 0.870459 27.144812 155.057869 -1.605151 12.773379 14.047797 2.868349 -27.144812 18.000000 0.103204 2.679134
965.877853 444.648882 77.867503 0.000000 0.000000 0.000000 0.000000 0.000000 0.000000 36.169118 12.322679 11.755705 180.000000 4.793591 11.755705 24.384173 -7.643331 28.531695 155.615827 3.102342 9.270510 13.746367 -2.919443 -28.531695 18.000000 -0.136496 2.938926
965.962249 444.637226 84.388548 0.000000 0.000000 0.000000 0.000000 0.000000 0.000000 35.472980 9.114908 7.362491 180.000000 -9.912915 7.362491 23.844373 11.257112 29.468618 156.155627 6.069550 5.621439 13.464570 -3.897561 -29.468618 18.000000 0.458406 3.187120
966.045991 444.625386 90.248906 0.000000 0.000000 0.000000 0.000000 0.000000 0.000000 34.778913 19.024105 2.506665 180.000000 8.379288 2.506665 23.323250 2.128767 29.940802 156.676750 -3.441591 1.883716 13.201728 2.775589 -29.940802 18.000000 -0.104282 3.422736
966.129071 444.613364 108.029088 0.000000 0.000000 0.000000 0.000000 0.000000 0.000000 34.089406 12.540368 -2.506665 180.000000 -6.629292 -2.506665 22.821158 -8.491223 29.940802 157.178842 -6.159811 -1.883716 12.957175 0.129017 -29.940802 18.000000 0.494280 3.644843
966.211478 444.601159 102.403111 0.000000 0.000000 0.000000 0.000000 0.000000 0.000000 33.406712 15.649684 -7.362491 180.000000 -7.231280 -7.362491 22.338307 8.581245 29.468618 157.661693 2.271631 -5.621439 12.730264 1.763272 -29.468618 18.000000 -0.052449 3.852566
1171.486244 534.946783 110.585799 0.000000 0.000000 0.000000 0.000000 0.000000 0.000000 70.594720 9.330454 -11.755705 -109.405280 -3.802838 -11.755705 49.953444 -7.867581 28.531695 -151.467583 -5.657383 -9.270510 0.000000 0.000000 0.000000 0.000000 0.000000 0.000000
966.374240 444.576206 98.456285 0.000000 0.000000 0.000000 0.000000 0.000000 0.000000 32.069603 9.892092 -15.410265 180.000000 -0.374324 -15.410265 21.430544 -5.721191 27.144812 158.569456 3.435600 -12.773379 12.326901 0.669212 -27.144812 18.000000 -0.186852 4.221640
1172.156410 555.047708 113.886468 0.000000 0.000000 0.000000 0.000000 0.000000 0.000000 -121.065102 -23.023203 -18.096541 58.934898 5.543381 -18.096541 -151.641456 -5.511524 25.329838 -177.360623 10.329304 -16.074804 -149.076048 -7.681980 -25.329838 0.000000 0.000000 0.000000
1161.826630 552.360713 116.972527 0.000000 0.000000 0.000000 0.000000 0.000000 0.000000 69.958407 59.028637 -19.645745 -110.041593 -9.962838 -19.645745 -152.437496 -6.308424 23.115397 -158.790607 -2.733511 -19.122720 -150.591725 -7.031565 -23.115397 3.219062 0.718159 4.524135
1165.827255 569.832902 118.295160 0.000000 0.000000 0.000000 0.000000 0.000000 0.000000 25.594208 12.616284 -19.960535 -154.405792 -26.583588 -19.960535 11.723883 0.169252 20.536413 -161.543160 -1.256370 -21.869059 7.769582 -1.983413 -20.536413 -17.248199 0.102941 4.648882
1165.555573 565.067046 134.408414 0.000000 0.000000 0.000000 0.000000 0.000000 0.000000 43.355707 5.517156 -19.021130 -136.644293 0.224637 -19.021130 15.984329 1.371958 17.633558 -140.773833 4.585291 -24.270510 13.679449 -2.082634 -17.633558 -16.392157 0.061680 4.755283
1290.255775 608.533316 140.770882 0.000000 0.000000 0.000000 0.000000 0.000000 0.000000 -153.952071 6.104387 -16.886559 26.047929 -16.184895 -16.886559 -152.683807 -4.840338 14.452610 4.794196 -4.033920 -26.289200 -154.287190 -4.985773 -14.452610 2.418080 0.525810 4.842916
1180.398903 551.817470 131.453729 0.000000 0.000000 0.000000 0.000000 0.000000 0.000000 51.640104 9.476758 -13.690942 -128.359896 18.671981 -13.690942 14.419400 -8.005504 11.043737 -33.521359 24.643851 -27.893295 -34.277510 -9.481066 -11.043737 5.235387 -0.224843 4.911436
1162.708626 619.419501 141.221384 0.000000 0.000000 0.000000 0.000000 0.000000 0.000000 -88.968325 23.495112 -9.635073 91.031675 0.221665 -9.635073 -52.690088 -0.163283 7.460697 25.015222 -3.314952 -29.057495 -72.561734 -4.187674 -7.460697 8.557489 0.267639 4.960574
1110.899391 602.919216 143.692963 0.000000 0.000000 0.000000 0.000000 0.000000 0.000000 -86.972237 21.222517 -4.973798 93.027763 -17.499440 -4.973798 -39.551144 1.029973 3.759997 34.838085 -6.222375 -29.763441 -44.185810 -1.372274 -3.759997 10.000609 -0.063902 4.990134
1150.187302 553.686991 133.770974 0.000000 0.000000 0.000000 0.000000 0.000000 0.000000 -116.065142 -18.752184 -0.000000 63.934858 -4.479926 -0.000000 -151.059314 -5.824462 0.000000 -0.492058 7.698909 -30.000000 -14.044098 3.057086 -0.000000 1.929760 -0.748493 5.000000
967.144727 444.440682 152.887712 0.000000 0.000000 0.000000 0.000000 0.000000 0.000000 26.270296 14.120661 4.973798 180.000000 8.247051 4.973798 17.996647 -5.407564 -3.759997 162.003353 -10.126783 -29.763441 11.189167 -0.176274 3.759997 18.000000 -0.017007 4.990134
1213.452644 620.002785 154.187468 0.000000 0.000000 0.000000 0.000000 0.000000 0.000000 140.390379 -2.335908 9.635073 -39.609621 7.990496 9.635073 77.724607 -19.924861 -7.460697 -153.982965 -6.839921 -29.057495 24.142749 5.162081 7.460697 -0.833727 1.215782 4.960574
1124.373779 618.464527 156.856710 0.000000 0.000000 0.000000 0.000000 0.000000 0.000000 99.329635 -44.305820 13.690942 -80.670365 21.964726 13.690942 85.960927 -1.936697 -11.043737 -150.875293 -6.576208 -27.893295 31.644098 6.648216 11.043737 -14.835590 -0.664822 4.911436
967.360971 444.396582 163.037776 0.000000 0.000000 0.000000 0.000000 0.000000 0.000000 24.874716 -15.363193 16.886559 180.000000 13.543459 16.886559 17.291102 0.851539 -14.452610 162.708898 -0.187281 -26.289200 11.098846 -1.427966 14.452610 18.000000 0.347089 4.842916
1107.875175 542.453964 141.118176 0.000000 0.000000 0.000000 0.000000 0.000000 0.000000 -128.741314 -2.128933 19.021130 51.258686 1.040794 19.021130 -177.225595 2.906497 -17.633558 19.954750 2.452159 -24.270510 162.677362 0.525799 17.633558 -1.443098 -0.070591 4.755283
1119.652290 522.766346 144.632720 0.000000 0.000000 0.000000 0.000000 0.000000 0.000000 -99.017754 9.000174 19.960535 80.982246 -4.147328 19.960535 -150.289603 -7.040090 -20.536413 -152.613833 -7.473339 -21.869059 0.000000 0.000000 0.000000 0.000000 0.000000 0.000000
1132.908783 538.229613 175.156079 0.000000 0.000000 0.000000 0.000000 0.000000 0.000000 -127.874185 -5.083727 19.645745 52.125815 -7.232775 19.645745 -165.450188 5.075548 -23.115397 -152.521515 -7.527862 -19.122720 40.606225 8.231533 23.115397 -13.939378 -0.823153 4.524135
1146.969337 541.828065 142.853864 0.000000 0.000000 0.000000 0.000000 0.000000 0.000000 -113.631604 3.813503 18.096541 66.368396 8.835209 18.096541 -159.067475 -6.843268 -25.329838 113.981862 0.892114 -16.074804 -145.449815 -7.305028 25.329838 0.000000 0.000000 0.000000
1165.252304 561.329677 140.390661 0.000000 0.000000 0.000000 0.000000 0.000000 0.000000 -112.861399 -8.049309 15.410265 67.138601 4.193743 15.410265 -159.396543 -0.021043 -27.144812 -151.967552 -6.336911 -12.773379 38.422588 9.120855 27.144812 -14.157741 -0.912085 4.221640
1174.726181 592.839689 150.988065 0.000000 0.000000 0.000000 0.000000 0.000000 0.000000 -110.369899 12.637689 11.755705 69.630101 -7.872868 11.755705 -148.108768 -4.426929 -28.531695 -151.515612 -7.513490 -9.270510 34.277732 8.232196 28.531695 -14.572227 -0.823220 4.045085
1167.352524 605.194867 123.212685 0.000000 0.000000 0.000000 0.000000 0.000000 0.000000 -113.828445 -0.161773 7.362491 66.171555 11.299511 7.362491 -131.688453 -1.076296 -29.468618 -151.045756 -6.436795 -5.621439 27.200835 9.339424 29.468618 -15.279916 -0.933942 3.852566
1139.678879 602.981014 130.569870 0.000000 0.000000 0.000000 0.000000 0.000000 0.000000 -97.599684 -27.466843 2.506665 82.400316 -27.677154 2.506665 -113.965806 8.571270 -29.940802 -121.058781 2.754339 -1.883716 -118.492407 -2.271348 29.940802 10.137620 1.992157 3.644843
1165.830002 580.020189 140.507715 0.000000 0.000000 0.000000 0.000000 0.000000 0.000000 -28.085052 41.492255 -2.506665 151.914948 -16.958412 -2.506665 -150.589103 -5.864040 -29.940802 -172.678414 6.471388 1.883716 -149.717924 -7.274021 29.940802 0.000000 0.000000 0.000000
1184.501953 619.872494 139.604001 0.000000 0.000000 0.000000 0.000000 0.000000 0.000000 -113.790307 22.620314 -7.362491 66.209693 -25.295937 -7.362491 -59.272274 5.113671 -29.468618 29.476823 -6.664442 5.621439 -88.148483 3.676531 29.468618 7.414604 0.065095 3.187120
968.090170 444.221640 129.637756 0.000000 0.000000 0.000000 0.000000 0.000000 0.000000 21.092887 -19.864671 -11.755705 180.000000 4.868669 -11.755705 15.757771 0.072564 -28.531695 164.242229 1.596355 9.270510 11.678908 4.025358 28.531695 18.000000 -0.193152 2.938926
968.151278 444.204723 128.456599 0.000000 0.000000 0.000000 0.000000 0.000000 0.000000 20.844337 -23.732892 -15.410265 180.000000 20.920907 -15.410265 15.691895 -8.469731 -27.144812 164.308105 -2.245263 12.773379 11.804629 1.770615 27.144812 18.000000 0.601010 2.679134
968.211492 444.187640 100.056293 0.000000 0.000000 0.000000 0.000000 0.000000 0.000000 20.610265 6.180393 -18.096541 180.000000 -1.881315 -18.096541 15.637361 2.100585 -25.329838 164.362639 6.503372 16.074804 11.943263 -7.079747 25.329838 18.000000 0.852120 2.408768
968.270806 444.170392 96.164416 0.000000 0.000000 0.000000 0.000000 0.000000 0.000000 20.390366 -2.163428 -19.645745 180.000000 8.026875 -19.645745 15.594026 -4.378891 -23.115397 164.405974 -5.230122 19.122720 12.095062 7.348057 23.115397 18.000000 -0.432687 2.128896
968.329212 444.152979 119.213297 0.000000 0.000000 0.000000 0.000000 0.000000 0.000000 20.184343 5.092325 -19.960535 180.000000 -4.097150 -19.960535 15.561766 0.459298 -20.536413 164.438234 -6.645098 21.869059 12.260289 7.151129 20.536413 18.000000 -0.381651 1.840623
968.386706 444.135403 94.033518 0.000000 0.000000 0.000000 0.000000 0.000000 0.000000 19.991916 11.306051 -19.021130 180.000000 -5.011276 -19.021130 15.540476 6.388335 -17.633558 164.459524 -0.334186 24.270510 12.439222 1.545031 17.633558 18.000000 -0.239141 1.545085
968.443279 444.117663 93.399626 0.000000 0.000000 0.000000 0.000000 0.000000 0.000000 19.812814 2.177899 -16.886559 180.000000 0.715066 -16.886559 15.530069 2.839924 -14.452610 164.469931 1.134162 26.289200 12.632146 4.628064 14.452610 18.000000 -0.358070 1.243449
968.498927 444.099761 101.833090 0.000000 0.000000 0.000000 0.000000 0.000000 0.000000 19.646785 -15.846309 -13.690942 180.000000 2.973670 -13.690942 15.530474 -0.972529 -11.043737 164.469526 3.104039 27.893295 12.839349 -4.865246 11.043737 18.000000 0.136476 0.936907
968.553643 444.081696 77.885791 0.000000 0.000000 0.000000 0.000000 0.000000 0.000000 19.493591 -5.716450 -9.635073 180.000000 -7.603134 -9.635073 15.541640 2.291186 -7.460697 164.458360 -2.193377 29.057495 13.061119 5.747167 7.460697 18.000000 -0.194385 0.626666
1051.772690 653.004448 66.988548 0.000000 0.000000 0.000000 0.000000 0.000000 0.000000 -79.007834 -3.189405 -4.973798 100.992166 -3.381044 -4.973798 -126.715299 -3.239651 -3.759997 -149.991181 -4.207935 29.763441 31.772279 5.873048 3.759997 -14.822772 -0.587305 0.313953
1061.669197 624.716241 74.760249 0.000000 0.000000 0.000000 0.000000 0.000000 0.000000 -94.718359 -11.739064 0.000000 85.281641 -4.592914 0.000000 -144.150484 0.076706 -0.000000 60.155085 3.591301 30.000000 -152.711462 -0.203966 0.000000 1.815393 -0.180811 0.000000
1072.053337 571.032879 60.987632 0.000000 0.000000 0.000000 0.000000 0.000000 0.000000 71.424080 1.062709 4.973798 -108.575920 15.459883 4.973798 -149.042361 -4.206797 3.759997 -149.913636 6.912266 29.763441 -145.792107 -5.418745 -3.759997 3.947623 0.547319 0.313953
1070.057373 572.884376 63.226924 0.000000 0.000000 0.000000 0.000000 0.000000 0.000000 -80.850201 -14.073175 9.635073 99.149799 -10.016953 9.635073 -147.567525 -3.096860 7.460697 -164.443014 -3.310398 29.057495 -145.447997 -3.261779 -7.460697 4.032371 0.479822 0.626666
968.813035 443.988972 67.164432 0.000000 0.000000 0.000000 0.000000 0.000000 0.000000 18.912944 20.621726 13.690942 180.000000 7.312880 13.690942 15.758200 3.173884 11.043737 164.241800 3.134244 27.893295 14.397395 -1.726039 -11.043737 18.000000 0.693413 0.936907
968.862036 443.969952 53.074306 0.000000 0.000000 0.000000 0.000000 0.000000 0.000000 18.832684 6.261239 16.886559 180.000000 -4.419199 16.886559 15.833735 3.216672 14.452610 164.166265 -9.732671 26.289200 14.711463 0.927784 -14.452610 18.000000 0.248932 1.243449
968.910065 443.950775 52.028515 0.000000 0.000000 0.000000 0.000000 0.000000 0.000000 18.764066 0.100598 19.021130 180.000000 2.751412 19.021130 15.920102 -2.268392 17.633558 164.079898 -1.347986 24.270510 15.041323 1.333884 -17.633558 18.000000 0.776830 1.545085
968.957118 443.931442 45.621858 0.000000 0.000000 0.000000 0.000000 0.000000 0.000000 18.706990 10.385721 19.960535 180.000000 -4.383404 19.960535 16.017366 -6.529208 20.536413 163.982634 -2.935709 21.869059 15.386894 -7.170814 -20.536413 18.000000 0.730520 1.840623
969.003188 443.911954 67.715199 0.000000 0.000000 0.000000 0.000000 0.000000 0.000000 18.661377 -2.327850 19.645745 180.000000 6.602289 19.645745 16.125602 -5.151655 23.115397 163.874398 -2.875902 19.122720 15.747980 2.936834 -23.115397 18.000000 0.276289 2.128896
969.048271 443.892312 56.550204 0.000000 0.000000 0.000000 0.000000 0.000000 0.000000 18.627165 -18.492711 18.096541 180.000000 -9.085144 18.096541 16.244896 -5.370026 25.329838 163.755104 -5.213973 16.074804 16.124252 -1.627283 -25.329838 18.000000 0.512749 2.408768
969.092361 443.872515 54.563348 0.000000 0.000000 0.000000 0.000000 0.000000 0.000000 18.604312 26.949328 15.410265 180.000000 -17.691794 15.410265 16.375340 4.722492 27.144812 163.624660 -11.120357 12.773379 16.515224 -4.750250 -27.144812 18.000000 1.266365 2.679134
1055.186234 577.357593 44.610610 0.000000 0.000000 0.000000 0.000000 0.000000 0.000000 85.510211 -10.334869 11.755705 -94.489789 9.795761 11.755705 37.103410 -0.978001 28.531695 -148.111343 -1.759326 9.270510 24.294182 2.276356 -28.531695 -8.601915 -0.196600 2.938926
1122.856522 566.714029 42.315674 0.000000 0.000000 0.000000 0.000000 0.000000 0.000000 96.216240 3.141158 7.362491 -83.783760 3.583479 7.362491 46.189625 -3.363132 29.468618 -149.396962 -2.447274 5.621439 24.670091 1.645307 -29.468618 -7.107716 0.974506 3.187120
969.218632 443.812213 59.447154 0.000000 0.000000 0.000000 0.000000 0.000000 0.000000 18.603763 -12.045725 2.506665 180.000000 0.024568 2.506665 16.834613 -2.076296 29.940802 163.165387 15.277506 1.883716 17.768624 -8.845940 -29.940802 18.000000 -0.036799 3.422736
1112.757797 605.798106 55.332203 0.000000 0.000000 0.000000 0.000000 0.000000 0.000000 110.914625 -10.420919 -2.506665 -69.085375 10.255224 -2.506665 67.769469 -10.587135 29.940802 -149.822316 -2.811329 -1.883716 29.049901 1.902416 -29.940802 -3.625079 0.358199 3.644843
1086.733246 592.557156 52.889718 0.000000 0.000000 0.000000 0.000000 0.000000 0.000000 -80.132323 -28.205219 -7.362491 99.867677 -47.650244 -7.362491 36.201564 -2.961145 29.468618 -13.679556 -3.186684 -5.621439 78.049842 4.385404 -29.468618 -5.127460 -0.332312 3.852566
1081.109390 570.394492 52.741056 0.000000 0.000000 0.000000 0.000000 0.000000 0.000000 -175.864613 -9.496776 -11.755705 4.135387 5.827188 -11.755705 134.713876 -3.187061 28.531695 -10.005873 3.125759 -9.270510 135.737755 0.391879 -28.531695 -3.389365 -0.085982 4.045085
1089.776802 536.594539 57.119093 0.000000 0.000000 0.000000 0.000000 0.000000 0.000000 -139.033903 -6.421594 -15.410265 40.966097 -1.014878 -15.410265 161.695972 -2.422900 27.144812 3.114398 -0.752973 -12.773379 148.805610 0.487645 -27.144812 -2.611636 0.005345 4.221640
1114.282036 523.965647 63.923733 0.000000 0.000000 0.000000 0.000000 0.000000 0.000000 -156.073983 -10.629345 -18.096541 23.926017 4.710757 -18.096541 174.825807 0.865091 25.329838 5.093343 4.400217 -16.074804 161.266817 -2.435127 -25.329838 -1.814366 0.013951 4.381533
1122.145157 503.425248 73.990057 0.000000 0.000000 0.000000 0.000000 0.000000 0.000000 -144.538174 -11.879424 -19.645745 35.461826 10.315174 -19.645745 174.215003 0.812928 23.115397 -151.750905 -2.775870 -19.122720 43.887064 2.336896 -23.115397 -13.611294 -0.233690 4.524135
1134.158249 484.688419 66.186797 0.000000 0.000000 0.000000 0.000000 0.000000 0.000000 -142.311443 -3.219066 -19.960535 37.688557 -0.405533 -19.960535 -174.407776 5.708876 20.536413 14.121014 1.416088 -21.869059 176.737053 -0.576649 -20.536413 -0.386439 0.022548 4.648882
1156.756668 500.025387 62.550035 0.000000 0.000000 0.000000 0.000000 0.000000 0.000000 -140.140767 -21.997192 -19.021130 39.859233 21.017628 -19.021130 -176.866589 1.439548 17.633558 -153.177991 -2.578525 -24.270510 40.555680 4.943504 -17.633558 -13.944432 -0.494350 4.755283
1163.818588 490.292573 90.917025 0.000000 0.000000 0.000000 0.000000 0.000000 0.000000 -126.918075 -3.341667 -16.886559 53.081925 5.671261 -16.886559 -163.374411 2.869832 14.452610 -153.952175 -3.342428 -26.289200 36.914642 5.408261 -14.452610 0.798233 0.094709 4.842916
1176.523705 490.346003 60.172095 0.000000 0.000000 0.000000 0.000000 0.000000 0.000000 -130.072590 -4.925676 -13.690942 49.927410 8.947755 -13.690942 -150.224616 -0.516706 11.043737 24.749952 2.964231 -27.893295 -162.219632 -0.386557 -11.043737 1.550269 0.149517 4.911436
1165.045052 489.521159 79.351399 0.000000 0.000000 0.000000 0.000000 0.000000 0.000000 -134.421293 14.724403 -9.635073 45.578707 -5.375497 -9.635073 -138.114962 -2.419103 7.460697 20.347125 -3.183288 -29.057495 -149.675125 0.432746 -7.460697 1.919618 -0.091103 4.960574
1186.003189 485.341580 85.693999 0.000000 0.000000 0.000000 0.000000 0.000000 0.000000 151.263424 73.895809 -4.973798 -28.736576 -60.061403 -4.973798 -155.571724 -4.085183 3.759997 -114.944239 22.783406 -29.763441 -157.446860 -5.720901 -3.759997 2.096391 0.470057 4.990134
1190.285912 497.609435 93.770952 0.000000 0.000000 0.000000 0.000000 0.000000 0.000000 -104.331435 -12.827202 -0.000000 75.668565 -12.393573 -0.000000 -153.934692 -4.230998 0.000000 -67.465008 1.194914 -30.000000 -71.629168 0.217479 -0.000000 -13.965204 -6.946315 5.000000
846.875610 502.341399 106.586601 0.000000 0.000000 0.000000 0.000000 0.000000 0.000000 -153.358185 -21.035906 4.973798 26.641815 -2.247832 4.973798 -147.628169 -5.463902 -3.759997 -147.401289 -5.766408 -29.763441 0.000000 0.000000 0.000000 0.000000 0.000000 0.000000
969.711343 443.490827 91.248453 0.000000 0.000000 0.000000 0.000000 0.000000 0.000000 20.204512 10.031646 9.635073 180.000000 -9.769252 9.635073 20.733157 -2.558960 -7.460697 159.266843 -4.646043 -29.057495 24.065833 5.060739 7.460697 18.000000 0.377909 4.960574
969.735789 443.468267 101.241340 0.000000 0.000000 0.000000 0.000000 0.000000 0.000000 20.415894 16.157050 13.690942 180.000000 -1.878973 13.690942 21.087741 -1.582176 -11.043737 158.912259 -4.073664 -27.893295 24.320336 -12.957286 11.043737 18.000000 1.950239 4.911436
969.759168 443.445569 96.803616 0.000000 0.000000 0.000000 0.000000 0.000000 0.000000 20.642061 -0.788781 16.886559 180.000000 4.963268 16.886559 21.453029 -4.969288 -14.452610 158.546971 -8.185214 -26.289200 24.533304 3.466683 14.452610 18.000000 0.616972 4.842916
585.252171 514.469179 133.097849 0.000000 0.000000 0.000000 0.000000 0.000000 0.000000 74.723181 35.823977 19.021130 -105.276819 65.447754 19.021130 119.807175 -6.999752 -17.633558 165.825978 0.995017 -24.270510 138.012220 8.857253 17.633558 -12.357653 -0.088322 4.755283
624.843979 517.601860 123.620927 0.000000 0.000000 0.000000 0.000000 0.000000 0.000000 103.202449 8.762742 19.960535 -76.797551 19.415623 19.960535 114.381580 -4.013758 -20.536413 -53.015473 59.442984 -21.869059 145.467160 -0.259177 20.536413 -4.173333 -1.109833 4.648882
969.822873 443.376664 138.479622 0.000000 0.000000 0.000000 0.000000 0.000000 0.000000 21.413420 -18.232588 19.645745 180.000000 10.689259 19.645745 22.607712 0.416042 -23.115397 157.392288 7.044535 -19.122720 24.899813 -10.431968 23.115397 18.000000 1.051787 4.524135
969.841956 443.353428 136.378229 0.000000 0.000000 0.000000 0.000000 0.000000 0.000000 21.702987 -15.645951 18.096541 180.000000 9.664046 18.096541 23.009909 3.934288 -25.329838 156.990091 3.380629 -16.074804 24.926562 8.267293 25.329838 18.000000 -0.918776 4.381533
969.859960 443.330059 139.521975 0.000000 0.000000 0.000000 0.000000 0.000000 0.000000 22.009579 -10.342124 15.410265 180.000000 4.676975 15.410265 23.419334 -1.270830 -27.144812 156.580666 -5.970562 -12.773379 24.904993 15.994046 27.144812 18.000000 -0.406528 4.221640
594.905148 538.048757 121.879435 0.000000 0.000000 0.000000 0.000000 0.000000 0.000000 -57.080480 31.594324 11.755705 122.919520 -1.711157 11.755705 -12.750556 -20.484625 -28.531695 149.841027 -1.659269 -9.270510 -8.274090 -0.922946 28.531695 17.596979 -0.437559 4.045085
969.892723 443.282929 151.309020 0.000000 0.000000 0.000000 0.000000 0.000000 0.000000 22.675903 -16.102526 7.362491 180.000000 -0.577119 7.362491 24.255612 2.400772 -29.468618 155.744388 9.251211 -5.621439 24.720303 4.508760 29.468618 18.000000 -1.608512 3.852566
1257.001877 499.708382 169.726024 0.000000 0.000000 0.000000 0.000000 0.000000 0.000000 52.818511 -6.285449 2.506665 -127.181489 4.721588 2.506665 25.369497 0.008835 -29.940802 -143.914951 3.938101 -1.883716 14.556766 -0.320164 29.940802 -16.686776 -0.154268 3.644843
1279.050064 493.773898 142.148777 0.000000 0.000000 0.000000 0.000000 0.000000 0.000000 56.685213 -1.236755 -2.506665 -123.314787 -3.082292 -2.506665 24.065452 4.133006 -29.940802 -146.540317 3.875398 1.883716 13.097461 -4.634288 29.940802 -16.716891 0.201268 3.422736
1295.108986 477.099677 156.764403 0.000000 0.000000 0.000000 0.000000 0.000000 0.000000 65.723361 8.831882 -7.362491 -114.276639 -10.919538 -7.362491 23.725299 1.231865 -29.468618 -147.984281 3.400581 5.621439 13.187557 -2.512853 29.468618 -16.751134 0.002107 3.187120
1289.065018 496.763316 130.856850 0.000000 0.000000 0.000000 0.000000 0.000000 0.000000 61.662232 0.402279 -11.755705 -118.337768 1.218455 -11.755705 31.397757 -2.059179 -28.531695 -148.047797 0.087520 9.270510 12.491083 0.112204 28.531695 -16.898368 -0.101185 2.938926
1285.337105 480.691112 153.941193 0.000000 0.000000 0.000000 0.000000 0.000000 0.000000 58.021980 -3.562198 -15.410265 -121.978020 9.801646 -15.410265 31.705930 -5.623194 -27.144812 -157.028684 1.454654 12.773379 11.107306 -0.989027 27.144812 -17.140016 0.072494 2.679134
1276.453171 465.093691 151.962667 0.000000 0.000000 0.000000 0.000000 0.000000 0.000000 70.157145 -1.020578 -18.096541 -109.842855 0.536706 -18.096541 40.303764 -4.086289 -25.329838 -145.293609 -5.158020 16.074804 10.431204 2.883176 25.329838 -17.100572 0.024491 2.408768
1253.658714 472.768564 146.982881 0.000000 0.000000 0.000000 0.000000 0.000000 0.000000 65.087926 -12.257244 -19.645745 -114.912074 34.034409 -19.645745 -157.680356 -7.407785 -23.115397 -137.727082 3.019306 19.122720 -153.053596 15.144832 23.115397 -16.054219 -0.972254 2.128896
1366.101608 507.691247 146.485639 0.000000 0.000000 0.000000 0.000000 0.000000 0.000000 108.715100 -55.684833 -19.960535 -71.284900 27.976393 -19.960535 156.661132 -4.983517 -20.536413 -158.224303 -5.103033 21.869059 0.000000 0.000000 0.000000 0.000000 0.000000 0.000000
969.986295 443.064535 153.972507 0.000000 0.000000 0.000000 0.000000 0.000000 0.000000 26.662144 6.758059 -19.021130 180.000000 6.596068 -19.021130 28.015351 -10.453469 -17.633558 151.984649 -5.628624 24.270510 22.068935 5.315581 17.633558 18.000000 -0.662321 1.545085
1282.107124 481.511257 147.844341 0.000000 0.000000 0.000000 0.000000 0.000000 0.000000 80.650781 27.430437 -16.886559 -99.349219 -36.398443 -16.886559 1.511604 6.475225 -14.452610 -32.896908 -4.828251 26.289200 -7.727072 0.681257 14.452610 13.531851 -0.928455 1.243449
1282.921486 484.777769 148.684413 0.000000 0.000000 0.000000 0.000000 0.000000 0.000000 -81.737646 -30.072127 -13.690942 98.262354 12.290936 -13.690942 -23.867101 2.821861 -11.043737 12.655668 4.507818 27.893295 -29.454911 0.594863 11.043737 9.861248 -0.073854 0.936907
1290.933037 513.180238 133.516814 0.000000 0.000000 0.000000 0.000000 0.000000 0.000000 -91.387864 -4.748437 -9.635073 88.612136 -0.301117 -9.635073 -41.685392 -0.285352 -7.460697 -161.156957 -6.170587 29.057495 15.157863 5.591947 7.460697 10.543436 -1.242037 0.626666
969.999452 442.964284 154.786666 0.000000 0.000000 0.000000 0.000000 0.000000 0.000000 29.025427 0.451522 -4.973798 180.000000 10.443433 -4.973798 29.437993 -12.540527 -3.759997 150.562007 4.247570 29.763441 20.404746 5.866905 3.759997 18.000000 0.455660 0.313953
970.000000 442.938926 142.895501 0.000000 0.000000 0.000000 0.000000 0.000000 0.000000 29.678605 -18.618406 0.000000 180.000000 14.331859 0.000000 29.744881 12.588841 -0.000000 150.255119 14.862233 30.000000 19.983107 -4.455566 0.000000 18.000000 0.505733 0.000000
1354.522934 467.411410 121.464322 0.000000 0.000000 0.000000 0.000000 0.000000 0.000000 150.622570 13.002294 4.973798 -29.377430 -6.405879 4.973798 140.176400 4.597948 3.759997 -12.221629 -7.662870 29.763441 132.794256 2.786973 -3.759997 -2.626015 0.228619 0.313953
969.997807 442.887864 94.827955 0.000000 0.000000 0.000000 0.000000 0.000000 0.000000 31.061399 -16.743189 9.635073 180.000000 1.121363 9.635073 30.285790 -6.284730 7.460697 149.714210 8.741432 29.057495 19.151579 -6.507646 -7.460697 18.000000 0.795351 0.626666
1246.736984 514.278152 122.753859 0.000000 0.000000 0.000000 0.000000 0.000000 0.000000 143.557092 -1.505075 13.690942 -36.442908 -5.235795 13.690942 133.761037 1.263957 11.043737 -156.950665 -5.946026 27.893295 0.000000 0.000000 0.000000 1.928484 0.450819 0.936907
1245.221100 458.637464 111.505106 0.000000 0.000000 0.000000 0.000000 0.000000 0.000000 160.701064 -6.520686 16.886559 -19.298936 17.723209 16.886559 140.193827 0.448476 14.452610 -157.554825 -5.055431 26.289200 29.500467 5.446384 -14.452610 -15.049953 -0.544638 1.243449
1257.365570 418.514181 127.151005 0.000000 0.000000 0.000000 0.000000 0.000000 0.000000 -143.710676 -1.359009 19.021130 36.289324 -0.757670 19.021130 163.220413 -4.880864 17.633558 11.688054 -0.466077 24.270510 152.038385 -0.406503 -17.633558 -2.339948 -0.091811 1.545085
1275.099564 408.163741 107.497951 0.000000 0.000000 0.000000 0.000000 0.000000 0.000000 -132.929531 9.394320 19.960535 47.070469 -19.013826 19.960535 173.491912 5.027584 20.536413 -160.709681 -5.508917 21.869059 33.138793 4.933751 -20.536413 -14.686121 -0.493375 1.840623
1290.611115 384.880857 102.095183 0.000000 0.000000 0.000000 0.000000 0.000000 0.000000 -132.705235 -0.988322 19.645745 47.294765 -9.215013 19.645745 -173.778854 5.476373 23.115397 20.496835 -2.569251 19.122720 -161.220290 -3.748260 -23.115397 1.723235 0.358421 2.128896
1302.817154 380.305352 86.836902 0.000000 0.000000 0.000000 0.000000 0.000000 0.000000 -131.493915 -0.711036 18.096541 48.506085 4.857998 18.096541 -165.393697 -3.819149 25.329838 23.154815 0.508019 16.074804 -178.200316 0.510439 -25.329838 0.138141 -0.020716 2.408768
1304.997711 379.563582 101.592127 0.000000 0.000000 0.000000 0.000000 0.000000 0.000000 -126.727972 -2.483683 15.410265 53.272028 -3.226486 15.410265 -160.219593 3.516629 27.144812 28.448880 3.761086 12.773379 -174.368770 -3.051149 -27.144812 0.079526 0.087322 2.679134
1311.668472 386.890390 66.497145 0.000000 0.000000 0.000000 0.000000 0.000000 0.000000 -122.308728 -9.677041 11.755705 57.691272 -6.038247 11.755705 -158.801130 4.121222 28.531695 150.942637 6.458278 9.270510 -154.878332 -4.955188 -28.531695 2.695409 0.509765 2.938926
1305.131836 395.180186 75.932065 0.000000 0.000000 0.000000 0.000000 0.000000 0.000000 -125.112810 13.497073 7.362491 54.887190 -24.286855 7.362491 -146.487292 6.043221 29.468618 -175.167369 -7.997859 5.621439 -159.224034 -4.109705 -29.468618 1.782042 0.513937 3.187120
1296.320457 392.734526 76.930255 0.000000 0.000000 0.000000 0.000000 0.000000 0.000000 -131.035750 -13.856620 2.506665 48.964250 2.042066 2.506665 -128.969563 3.258416 29.940802 38.856147 2.732727 1.883716 -134.776850 0.211679 -29.940802 3.458429 0.311567 3.422736
1306.963577 386.612041 62.508384 0.000000 0.000000 0.000000 0.000000 0.000000 0.000000 -124.469622 1.375278 -2.506665 55.530378 2.662987 -2.506665 -109.994856 -0.071314 29.940802 37.691309 -6.196965 -1.883716 -118.274788 5.838850 -29.940802 5.098336 -0.240339 3.644843
969.892723 442.572198 58.061109 0.000000 0.000000 0.000000 0.000000 0.000000 0.000000 41.287575 32.645276 -7.362491 180.000000 -9.489160 -7.362491 30.974696 -8.165454 29.468618 149.025304 -26.873960 -5.621439 15.072869 8.571902 -29.468618 18.000000 -0.504236 3.852566
969.876883 442.545207 73.866316 0.000000 0.000000 0.000000 0.000000 0.000000 0.000000 42.241956 23.048724 -11.755705 180.000000 20.837738 -11.755705 30.826133 -20.981203 28.531695 149.173867 -9.724908 -9.270510 14.823070 4.061929 -28.531695 18.000000 0.205421 4.045085
969.859960 442.518116 46.387684 0.000000 0.000000 0.000000 0.000000 0.000000 0.000000 43.199779 21.925028 -15.410265 180.000000 4.358225 -15.410265 30.649504 -7.433854 27.144812 149.350496 -21.609501 -12.773379 14.587557 4.094817 -27.144812 18.000000 0.197540 4.221640
969.841956 442.490926 49.882977 0.000000 0.000000 0.000000 0.000000 0.000000 0.000000 44.157210 -32.479055 -18.096541 180.000000 4.363182 -18.096541 30.446417 7.346966 25.329838 149.553583 -4.100593 -16.074804 14.366154 4.862598 -25.329838 18.000000 -0.173533 4.381533
969.822873 442.463637 41.324592 0.000000 0.000000 0.000000 0.000000 0.000000 0.000000 45.110117 -19.823929 -19.645745 180.000000 9.691254 -19.645745 30.218633 -11.916040 23.115397 149.781367 -3.707899 -19.122720 14.158653 3.635330 -23.115397 18.000000 0.006289 4.524135
969.802712 442.436251 53.224461 0.000000 0.000000 0.000000 0.000000 0.000000 0.000000 46.054109 -23.341284 -19.960535 180.000000 6.018852 -19.960535 29.968037 -4.061113 20.536413 150.031963 0.817344 -21.869059 13.964823 -5.004212 -20.536413 18.000000 0.569165 4.648882
1187.040939 541.658249 58.358803 0.000000 0.000000 0.000000 0.000000 0.000000 0.000000 82.806623 7.566271 -19.021130 -97.193377 -18.521244 -19.021130 45.395981 10.873849 17.633558 -156.144455 -1.946164 -24.270510 0.000000 0.000000 0.000000 0.000000 0.000000 0.000000
1182.242889 522.024286 56.375293 0.000000 0.000000 0.000000 0.000000 0.000000 0.000000 -105.721938 0.073859 -16.886559 74.278062 -3.571441 -16.886559 -155.708006 -1.975376 14.452610 -157.302521 -2.150471 -26.289200 0.000000 0.000000 0.000000 2.684983 0.202702 4.842916
1180.914459 527.065626 46.905224 0.000000 0.000000 0.000000 0.000000 0.000000 0.000000 88.055617 -1.886836 -13.690942 -91.944383 3.615620 -13.690942 -158.862018 -3.062316 11.043737 -151.747289 -2.391011 -27.893295 0.000000 0.000000 0.000000 0.000000 0.000000 0.000000
1236.800194 541.387432 40.827380 0.000000 0.000000 0.000000 0.000000 0.000000 0.000000 -85.588400 8.398083 -9.635073 94.411600 -14.727430 -9.635073 -159.297106 14.248147 7.460697 -157.915391 -2.571509 -29.057495 26.607362 2.492751 -7.460697 14.926890 -0.490965 4.960574
1161.066513 575.006626 59.046868 0.000000 0.000000 0.000000 0.000000 0.000000 0.000000 -81.021168 -0.987850 -4.973798 98.978832 6.950852 -4.973798 -102.851701 -1.844636 3.759997 -157.041007 -2.528951 -29.763441 21.429890 2.725370 -3.759997 10.859432 -0.087248 4.990134
1255.636253 512.645942 59.311226 0.000000 0.000000 0.000000 0.000000 0.000000 0.000000 77.832564 4.879299 -0.000000 -102.167436 -2.405855 -0.000000 -158.264834 -2.543159 0.000000 -130.745502 -2.617130 -30.000000 -157.699225 -2.599240 -0.000000 0.000000 0.000000 0.000000
1265.118484 521.473864 45.870425 0.000000 0.000000 0.000000 0.000000 0.000000 0.000000 64.078276 -0.484114 4.973798 -115.921724 2.648231 4.973798 41.397952 -3.286972 -3.759997 -139.329851 2.498339 -29.763441 20.223252 -0.448321 3.759997 -16.047574 -0.227433 4.990134
1228.099480 522.138258 65.188896 0.000000 0.000000 0.000000 0.000000 0.000000 0.000000 71.050901 -0.982696 9.635073 -108.949099 8.352993 9.635073 150.099970 -9.573203 -7.460697 -139.894702 -3.767456 -29.057495 -156.275691 -2.191225 7.460697 0.000000 0.000000 0.000000
1240.357246 528.695873 55.050602 0.000000 0.000000 0.000000 0.000000 0.000000 0.000000 65.413351 15.586867 13.690942 -114.586649 0.037977 13.690942 147.242328 -2.592154 -11.043737 -154.470720 -2.573748 -27.893295 25.557225 2.876753 11.043737 -15.444278 -0.287675 4.911436
1231.815262 551.380248 61.407007 0.000000 0.000000 0.000000 0.000000 0.000000 0.000000 56.412506 0.711432 16.886559 -123.587494 -11.369127 16.886559 -153.392336 0.585861 -14.452610 -154.784582 -2.659712 -26.289200 24.191555 3.322892 14.452610 -15.580844 -0.332289 4.842916
1221.475182 508.360147 76.133262 0.000000 0.000000 0.000000 0.000000 0.000000 0.000000 77.450622 3.058701 19.021130 -102.549378 -14.356365 19.021130 -156.789784 -2.463539 -17.633558 -125.590168 -3.826320 -24.270510 -160.017240 -3.187620 17.633558 1.833434 0.367746 4.755283
969.477684 442.100429 55.843319 0.000000 0.000000 0.000000 0.000000 0.000000 0.000000 54.932575 29.060761 19.960535 180.000000 -42.908064 19.960535 25.919122 17.754719 -20.536413 154.080878 -10.007845 -21.869059 12.612867 -4.710703 20.536413 18.000000 0.249429 4.648882
1480.140495 518.878891 78.507666 0.000000 0.000000 0.000000 0.000000 0.000000 0.000000 -110.621767 30.258246 19.645745 69.378233 84.412270 19.645745 -158.235933 -2.807550 -23.115397 166.031448 2.870980 -19.122720 -155.186432 -2.987685 23.115397 2.641553 0.224169 4.524135
1271.640472 556.840560 94.227708 0.000000 0.000000 0.000000 0.000000 0.000000 0.000000 -94.404719 -12.806799 18.096541 85.595281 2.054194 18.096541 -62.417786 1.878023 -25.329838 23.992813 0.044340 -16.074804 -76.856107 0.442306 25.329838 7.708835 0.009675 4.381533
1258.556786 530.268441 81.000164 0.000000 0.000000 0.000000 0.000000 0.000000 0.000000 78.355945 9.297855 15.410265 -101.644055 5.327996 15.410265 35.068294 -6.127129 -27.144812 -54.090640 -3.314263 -12.773379 35.848220 -6.276497 27.144812 -8.104639 0.952940 4.221640
1250.800209 527.150567 50.698360 0.000000 0.000000 0.000000 0.000000 0.000000 0.000000 72.417769 16.327817 11.755705 -107.582231 -7.774500 11.755705 24.571109 2.952248 -28.531695 -39.196117 -1.063600 -9.270510 10.411117 0.155904 28.531695 -9.048616 1.492396 4.045085
1243.466148 571.776259 86.775166 0.000000 0.000000 0.000000 0.000000 0.000000 0.000000 86.301473 4.929025 7.362491 -93.698527 -0.811070 7.362491 24.553534 1.997607 -29.468618 -153.460385 -3.522329 -5.621439 19.510484 3.231075 29.468618 -10.109500 -0.091623 3.852566
1261.883812 566.052918 94.868452 0.000000 0.000000 0.000000 0.000000 0.000000 0.000000 94.015209 -13.274560 2.506665 -85.984791 15.174273 2.506665 38.959993 -2.936733 -29.940802 -154.008305 -3.836593 -1.883716 20.870951 3.850281 29.940802 -10.872440 -1.259488 3.644843
1284.436798 527.190542 81.224190 0.000000 0.000000 0.000000 0.000000 0.000000 0.000000 111.186365 14.188583 -2.506665 -68.813635 -5.262131 -2.506665 58.506163 -7.580919 -29.940802 -19.138727 -9.442492 1.883716 51.457372 8.738045 29.940802 -5.203198 1.145536 3.422736
1272.860069 533.494012 96.257201 0.000000 0.000000 0.000000 0.000000 0.000000 0.000000 72.301471 -15.124973 -7.362491 -107.698529 2.901229 -7.362491 78.802573 1.621957 -29.468618 -154.772375 -4.518083 5.621439 26.927455 4.947473 29.468618 -15.307255 -0.494747 3.187120
1255.264664 498.243735 115.988547 0.000000 0.000000 0.000000 0.000000 0.000000 0.000000 164.596971 58.300332 -11.755705 -15.403029 -60.881963 -11.755705 125.849126 3.225851 -28.531695 -156.067666 -5.509728 9.270510 33.087561 4.104496 28.531695 -14.691244 -0.410450 2.938926
1259.202232 470.407684 97.409874 0.000000 0.000000 0.000000 0.000000 0.000000 0.000000 -139.980397 11.744094 -15.410265 40.019603 -13.401061 -15.410265 165.887722 3.647603 -27.144812 -157.901492 -5.856974 12.773379 35.196094 5.101836 27.144812 -14.480391 -0.510184 2.679134
1236.502075 429.951335 101.386099 0.000000 0.000000 0.000000 0.000000 0.000000 0.000000 -113.295066 11.056355 -18.096541 66.704934 -13.204073 -18.096541 -174.664169 3.512619 -25.329838 -159.007335 -5.969662 16.074804 32.868990 6.203112 25.329838 -14.713101 -0.620311 2.408768
1253.359451 413.942538 123.129942 0.000000 0.000000 0.000000 0.000000 0.000000 0.000000 -123.348580 -2.045670 -19.645745 56.651420 3.088614 -19.645745 -167.815074 1.361822 -23.115397 -159.603180 -5.038616 19.122720 32.791747 8.600700 23.115397 -14.720825 -0.860070 2.128896
1281.206589 405.664523 123.724256 0.000000 0.000000 0.000000 0.000000 0.000000 0.000000 -124.414271 -2.463395 -19.960535 55.585729 -3.545853 -19.960535 -161.281803 0.883996 -20.536413 28.568449 -0.791211 21.869059 -159.052798 -4.762280 20.536413 1.849141 0.425372 1.840623
1300.238571 418.760215 125.535772 0.000000 0.000000 0.000000 0.000000 0.000000 0.000000 -126.263092 4.787526 -19.021130 53.736908 -5.517264 -19.021130 -159.739358 0.093927 -17.633558 31.487961 -2.898850 24.270510 -170.323915 0.608013 17.633558 0.671815 0.023982 1.545085
1321.889191 413.634385 132.386718 0.000000 0.000000 0.000000 0.000000 0.000000 0.000000 -133.874471 -6.613852 -16.886559 46.125529 1.097934 -16.886559 -159.376251 -2.027602 -14.452610 30.696824 1.057276 26.289200 -164.929556 0.712756 14.452610 1.089735 0.154209 1.243449
1336.221428 432.881820 144.681073 0.000000 0.000000 0.000000 0.000000 0.000000 0.000000 -115.020798 4.539102 -13.690942 64.979202 2.199022 -13.690942 -135.609544 -0.420287 -11.043737 -161.321630 -5.841075 27.893295 17.353502 8.226084 11.043737 -16.264650 -0.822608 0.936907
1329.124603 416.860342 147.769485 0.000000 0.000000 0.000000 0.000000 0.000000 0.000000 -134.023347 6.182509 -9.635073 45.976653 -6.656588 -9.635073 -128.030830 0.449821 -7.460697 28.249885 -4.156998 29.057495 -136.447985 1.524985 7.460697 4.038834 -0.182533 0.626666
1343.366776 427.060794 131.765216 0.000000 0.000000 0.000000 0.000000 0.000000 0.000000 -130.153347 -4.811040 -4.973798 49.846653 9.672350 -4.973798 -103.564435 0.864284 -3.759997 27.398095 4.360008 29.763441 -115.461530 -1.270123 3.759997 5.470063 0.269027 0.313953
1376.991005 465.829636 121.974643 0.000000 0.000000 0.000000 0.000000 0.000000 0.000000 -120.272352 -7.596324 0.000000 59.727648 2.445604 0.000000 -62.204131 6.912237 -0.000000 27.740602 2.018804 30.000000 -80.461527 -1.852745 0.000000 7.450891 0.282042 0.000000
1384.978867 468.790376 160.116276 0.000000 0.000000 0.000000 0.000000 0.000000 0.000000 -93.720384 -20.113440 4.973798 86.279616 -37.124290 4.973798 3.847814 -2.753785 3.759997 -160.438787 -6.431123 29.763441 15.990976 5.357033 -3.759997 7.894783 1.095398 0.313953
1345.894547 516.257268 141.773388 0.000000 0.000000 0.000000 0.000000 0.000000 0.000000 127.577640 5.030135 9.635073 -52.422360 -10.943378 9.635073 53.096359 7.978631 7.460697 -159.021748 -6.537268 29.057495 18.308456 5.349606 -7.460697 -4.062191 -1.018231 0.626666
968.498927 441.455181 160.091768 0.000000 0.000000 0.000000 0.000000 0.000000 0.000000 47.920147 -22.224144 13.690942 180.000000 -2.858750 13.690942 19.641385 3.843793 11.043737 160.358615 -7.080302 27.893295 13.993219 1.875425 -11.043737 18.000000 -0.258458 0.936907
1336.846733 493.527671 133.796224 0.000000 0.000000 0.000000 0.000000 0.000000 0.000000 102.681311 8.353894 16.886559 -77.318689 -14.227822 16.886559 35.985219 -4.367469 14.452610 -159.617763 -7.129500 26.289200 19.375410 5.398683 -14.452610 -16.062459 -0.539868 1.243449
968.386706 441.394956 134.973480 0.000000 0.000000 0.000000 0.000000 0.000000 0.000000 46.120581 -7.340379 19.021130 180.000000 6.275497 19.021130 19.316787 4.011064 17.633558 160.683213 1.061629 24.270510 14.327067 2.288822 -17.633558 18.000000 0.017078 1.545085
1263.984947 433.341283 154.299157 0.000000 0.000000 0.000000 0.000000 0.000000 0.000000 -115.578373 -16.669210 19.960535 64.421627 3.388349 19.960535 -82.396446 9.761880 20.536413 25.733383 10.437819 21.869059 -77.477544 -10.262250 -20.536413 5.836928 0.329671 1.840623
1352.596436 477.564354 152.899677 0.000000 0.000000 0.000000 0.000000 0.000000 0.000000 -99.196741 2.069074 19.645745 80.803259 -9.938863 19.645745 -125.272585 5.091953 23.115397 -162.405270 -6.366497 19.122720 17.377627 6.780502 -23.115397 -16.262237 -0.678050 2.128896
1384.326782 408.174427 158.761118 0.000000 0.000000 0.000000 0.000000 0.000000 0.000000 96.868601 -0.881749 18.096541 -83.131399 -15.341129 18.096541 -160.848957 -6.349887 25.329838 -137.255583 -8.868622 16.074804 -162.076720 -6.421473 -25.329838 0.000000 0.000000 0.000000
1387.580223 387.128634 132.293462 0.000000 0.000000 0.000000 0.000000 0.000000 0.000000 78.087764 -1.292213 15.410265 -101.912236 -1.334009 15.410265 -161.807915 -6.315413 27.144812 -147.504361 -3.847529 12.773379 -162.566306 -6.668061 -27.144812 1.735427 0.829030 2.679134
1345.818558 392.423122 142.452635 0.000000 0.000000 0.000000 0.000000 0.000000 0.000000 71.782984 4.616076 11.755705 -108.217016 2.166300 11.755705 -169.469261 -5.072315 28.531695 -153.903088 -2.831575 9.270510 -154.670689 1.934746 -28.531695 15.277725 -2.705133 2.938926
1331.471329 361.814139 139.023649 0.000000 0.000000 0.000000 0.000000 0.000000 0.000000 53.586100 14.081245 7.362491 -126.413900 4.756159 7.362491 -162.290330 -6.310639 29.468618 -154.912165 -0.914530 5.621439 -162.550394 -7.116592 -29.468618 1.742175 0.913172 3.187120
1354.413986 427.213873 123.343971 0.000000 0.000000 0.000000 0.000000 0.000000 0.000000 -131.358118 1.900446 2.506665 48.641882 -25.631485 2.506665 -142.488821 3.193644 29.940802 -161.977882 -6.393256 1.883716 12.673705 8.192163 -29.940802 1.397524 -0.013157 3.422736
1330.326691 347.207226 140.099385 0.000000 0.000000 0.000000 0.000000 0.000000 0.000000 52.464175 -5.062578 -2.506665 -127.535825 -5.357975 -2.506665 14.270918 0.399851 29.940802 -122.057234 2.450576 -1.883716 22.820874 0.173149 -29.940802 -15.244909 -0.075755 3.644843
1317.103271 414.475805 127.524294 0.000000 0.000000 0.000000 0.000000 0.000000 0.000000 76.170457 8.788598 -7.362491 -103.829543 -10.137255 -7.362491 -50.250674 -0.147844 29.468618 -52.503744 -5.542753 -5.621439 -92.793049 -1.136993 -29.468618 3.303440 -1.123389 3.852566
1331.844635 430.291482 127.758124 0.000000 0.000000 0.000000 0.000000 0.000000 0.000000 79.985160 -0.090545 -11.755705 -100.014840 5.330404 -11.755705 25.995082 3.213482 28.531695 -75.062603 0.759531 -9.270510 38.761234 0.000806 -28.531695 -11.442229 0.441810 4.045085
1359.462433 496.472383 104.470563 0.000000 0.000000 0.000000 0.000000 0.000000 0.000000 84.268829 -3.322399 -15.410265 -95.731171 2.382606 -15.410265 30.279153 -0.632897 27.144812 -63.318008 0.518174 -12.773379 39.457716 1.533158 -27.144812 -9.485742 0.669779 4.221640
1323.514366 546.771398 103.517743 0.000000 0.000000 0.000000 0.000000 0.000000 0.000000 84.407325 -0.737608 -18.096541 -95.592675 1.471748 -18.096541 27.768249 5.908403 25.329838 -47.660055 4.489579 -16.074804 28.281511 3.570927 -25.329838 -7.827901 -0.822444 4.381533
1268.535347 591.567099 115.574820 0.000000 0.000000 0.000000 0.000000 0.000000 0.000000 90.890792 9.153327 -19.645745 -89.109208 -8.090722 -19.645745 44.654760 2.598293 23.115397 -48.200667 -7.552651 -19.122720 43.369388 0.537598 -23.115397 -8.974980 0.274936 4.524135
1303.157158 602.888768 97.919574 0.000000 0.000000 0.000000 0.000000 0.000000 0.000000 90.349289 -0.978491 -19.960535 -89.650711 -0.993381 -19.960535 47.707312 0.336342 20.536413 -53.918782 1.340907 -21.869059 40.070965 4.400044 -20.536413 -9.318632 -1.092306 4.648882
1314.841690 613.141973 87.688726 0.000000 0.000000 0.000000 0.000000 0.000000 0.000000 94.480501 -0.124947 -19.021130 -85.519499 -5.026712 -19.021130 58.462862 1.597641 17.633558 -52.020507 5.342365 -24.270510 55.276552 -11.190007 -17.633558 -7.777523 -0.464657 4.755283
1327.521400 639.394319 100.060471 0.000000 0.000000 0.000000 0.000000 0.000000 0.000000 99.879576 -10.112020 -16.886559 -80.120424 1.041348 -16.886559 69.161359 6.744238 14.452610 -46.413613 0.965099 -26.289200 76.680143 3.914798 -14.452610 -6.257768 -0.095183 4.842916
1277.812729 671.228578 87.617719 0.000000 0.000000 0.000000 0.000000 0.000000 0.000000 99.708534 12.145744 -13.690942 -80.291466 -6.758691 -13.690942 92.239140 -0.922016 11.043737 -26.764021 2.012662 -27.893295 98.168457 -10.395228 -11.043737 -4.372074 0.100147 4.911436
1309.642181 690.479329 85.058121 0.000000 0.000000 0.000000 0.000000 0.000000 0.000000 117.292414 2.032465 -9.635073 -62.707586 -10.933502 -9.635073 137.002702 3.995315 7.460697 -32.045917 -2.298082 -29.057495 135.211322 -0.168352 -7.460697 -3.212944 -0.031671 4.960574
1299.770966 664.126496 85.136996 0.000000 0.000000 0.000000 0.000000 0.000000 0.000000 158.531160 11.617030 -4.973798 -21.468840 -9.584276 -4.973798 161.478323 0.548153 3.759997 -12.838206 -3.777737 -29.763441 151.269584 0.927606 -3.759997 -2.521934 -0.122785 4.990134
1313.353729 643.668108 73.526105 0.000000 0.000000 0.000000 0.000000 0.000000 0.000000 -154.315892 -2.470935 -0.000000 25.684108 -17.086157 -0.000000 173.459940 8.158738 0.000000 1.519689 1.153994 -30.000000 164.244875 -2.025357 -0.000000 -1.552244 0.039643 5.000000
1342.841377 638.982847 64.866849 0.000000 0.000000 0.000000 0.000000 0.000000 0.000000 -138.993869 -40.895331 4.973798 41.006131 32.632204 4.973798 175.724056 -3.977156 -3.759997 -151.723069 -2.447823 -29.763441 43.242568 4.267343 3.759997 -13.675743 -0.426734 4.990134
1350.000229 614.724133 48.469447 0.000000 0.000000 0.000000 0.000000 0.000000 0.000000 -144.248147 -13.533483 9.635073 35.751853 19.147404 9.635073 177.069273 -1.679523 -7.460697 -152.227621 -2.043010 -29.057495 43.136563 3.611421 7.460697 -13.686344 -0.361142 4.960574
1328.535919 624.780936 58.504725 0.000000 0.000000 0.000000 0.000000 0.000000 0.000000 -165.447222 14.787462 13.690942 14.552778 -16.425016 13.690942 169.657511 3.224461 -11.043737 -152.168050 -2.938422 -27.893295 41.929642 4.002424 11.043737 -13.807036 -0.400242 4.911436
1318.810501 615.688248 54.946980 0.000000 0.000000 0.000000 0.000000 0.000000 0.000000 -120.063657 6.361644 16.886559 59.936343 7.060260 16.886559 -165.389465 -2.270394 -14.452610 -152.866764 -2.050958 -26.289200 39.162270 2.678695 14.452610 -14.083773 -0.267869 4.842916
1321.656418 659.275410 71.732141 0.000000 0.000000 0.000000 0.000000 0.000000 0.000000 -121.435085 4.487251 19.021130 58.564915 4.381003 19.021130 -149.190712 -5.810115 -17.633558 -151.926374 -3.095776 -24.270510 33.097066 2.929475 17.633558 -14.690293 -0.292948 4.755283
1328.445511 687.490232 53.675812 0.000000 0.000000 0.000000 0.000000 0.000000 0.000000 -104.253419 1.033522 19.960535 75.746581 -2.352117 19.960535 -110.140878 4.196668 -20.536413 -152.911692 -2.487360 -21.869059 23.882145 2.608623 20.536413 3.694979 -0.102405 4.648882
966.534206 440.564282 59.121987 0.000000 0.000000 0.000000 0.000000 0.000000 0.000000 25.865486 16.746108 19.645745 180.000000 -16.146112 19.645745 18.728337 7.372667 -23.115397 161.271663 -15.295914 -19.122720 19.024234 8.345312 23.115397 18.000000 -0.334965 4.524135
966.454577 440.533056 36.955930 0.000000 0.000000 0.000000 0.000000 0.000000 0.000000 25.417507 39.419196 18.096541 180.000000 -3.562675 18.096541 18.825450 3.638869 -25.329838 161.174550 -7.241629 -16.074804 19.071566 -3.403275 25.329838 18.000000 0.845778 4.381533
966.374240 440.501809 49.762962 0.000000 0.000000 0.000000 0.000000 0.000000 0.000000 24.990320 19.795584 15.410265 180.000000 -9.927820 15.410265 18.929718 5.007163 -27.144812 161.070282 -2.210182 -12.773379 19.102411 -1.062530 27.144812 18.000000 0.879786 4.221640
966.293204 440.470542 42.151335 0.000000 0.000000 0.000000 0.000000 0.000000 0.000000 24.583377 -12.572283 11.755705 180.000000 -2.569258 11.755705 19.040946 -1.735549 -28.531695 160.959054 6.487805 -9.270510 19.116765 -12.402904 28.531695 18.000000 0.406476 4.045085
966.211478 440.439256 52.516441 0.000000 0.000000 0.000000 0.000000 0.000000 0.000000 24.196129 13.947157 7.362491 180.000000 -3.518092 7.362491 19.158923 -4.171300 -29.468618 160.841077 -6.305397 -5.621439 19.114778 13.788431 29.468618 18.000000 -0.539122 3.852566
644.985180 745.864069 59.221188 0.000000 0.000000 0.000000 0.000000 0.000000 0.000000 96.086415 8.159454 2.506665 -83.913585 -8.639152 2.506665 -159.662371 -9.425309 -29.940802 -116.741565 -2.608832 -1.883716 -176.001217 -5.361095 29.940802 -1.006627 -0.617056 3.644843
1269.020119 699.025490 54.453641 0.000000 0.000000 0.000000 0.000000 0.000000 0.000000 83.810916 -6.956752 -2.506665 -96.189084 9.849695 -2.506665 51.932890 -4.909332 -29.940802 -149.314466 -1.515743 1.883716 27.598511 2.035217 29.940802 -15.240149 -0.203522 3.422736
573.721218 678.450201 61.910198 0.000000 0.000000 0.000000 0.000000 0.000000 0.000000 18.756393 -34.034941 -7.362491 -161.243607 51.246443 -7.362491 -174.158094 -1.204975 -29.468618 178.010322 6.801542 5.621439 -154.394154 -1.586319 29.468618 11.886524 0.041291 3.187120
1261.580200 714.897366 44.342012 0.000000 0.000000 0.000000 0.000000 0.000000 0.000000 87.191276 14.927015 -11.755705 -92.808724 -14.311509 -11.755705 23.129119 -0.756785 -28.531695 -149.376238 -3.131511 9.270510 24.545507 1.871137 28.531695 13.583501 1.716172 2.938926
1314.655838 684.171546 61.919261 0.000000 0.000000 0.000000 0.000000 0.000000 0.000000 61.219932 6.278176 -15.410265 -118.780068 4.058859 -15.410265 25.476616 -1.049061 -27.144812 -150.404247 -2.080745 12.773379 24.621454 2.344337 27.144812 -15.537855 -0.234434 2.679134
1319.638939 674.820013 34.267066 0.000000 0.000000 0.000000 0.000000 0.000000 0.000000 82.055377 18.211966 -18.096541 -97.944623 -7.703926 -18.096541 17.325085 -0.950195 -25.329838 -60.067277 2.344348 16.074804 23.747728 -3.345046 25.329838 -13.005173 -0.355791 2.408768
1367.852325 659.536314 77.528034 0.000000 0.000000 0.000000 0.000000 0.000000 0.000000 -150.278430 8.685693 -19.645745 29.721570 34.038099 -19.645745 -151.222797 -2.824744 -23.115397 18.758043 4.191141 19.122720 -152.451920 -2.391270 23.115397 2.484143 0.158552 2.128896
1392.624664 638.981302 70.069204 0.000000 0.000000 0.000000 0.000000 0.000000 0.000000 -122.704248 4.920048 -19.960535 57.295752 -3.291114 -19.960535 -134.513385 -3.228328 -20.536413 30.292627 -2.477053 21.869059 -146.694539 -0.212240 20.536413 2.430965 -0.027369 1.840623
1401.291389 646.422758 57.019539 0.000000 0.000000 0.000000 0.000000 0.000000 0.000000 83.316637 6.338953 -19.021130 -96.683363 -6.474500 -19.021130 29.335627 -0.133924 -17.633558 -136.281416 1.568362 24.270510 19.119183 -3.099597 17.633558 -15.871560 0.199211 1.545085
1381.838951 663.410475 88.780709 0.000000 0.000000 0.000000 0.000000 0.000000 0.000000 79.215331 -7.396155 -16.886559 -100.784669 6.411181 -16.886559 30.640455 -5.630260 -14.452610 -139.113455 -0.190997 26.289200 14.302413 0.605387 14.452610 -16.408036 0.042391 1.243449
1390.185928 664.248354 75.124170 0.000000 0.000000 0.000000 0.000000 0.000000 0.000000 75.546066 5.928530 -13.690942 -104.453934 2.656810 -13.690942 38.995097 -8.186630 -11.043737 -142.871297 -0.455758 27.893295 14.209110 -1.233428 11.043737 -16.737090 0.022468 0.936907
1393.889923 677.551103 89.469002 0.000000 0.000000 0.000000 0.000000 0.000000 0.000000 84.293627 -0.805872 -9.635073 -95.706373 4.222116 -9.635073 -152.700272 -3.672489 -7.460697 -143.357755 4.829699 29.057495 -148.868889 -5.021990 7.460697 3.626268 0.453068 0.626666
905.601082 693.654528 103.112781 0.000000 0.000000 0.000000 0.000000 0.000000 0.000000 -84.410869 -5.335910 -4.973798 95.589131 4.127874 -4.973798 -139.498802 -4.338446 -3.759997 -178.556713 50.988976 29.763441 -142.061844 -5.305212 3.759997 3.411456 0.425358 0.313953
1337.643929 680.318756 101.650601 0.000000 0.000000 0.000000 0.000000 0.000000 0.000000 78.192517 -6.726601 0.000000 -101.807483 6.515134 0.000000 48.289813 4.770780 -0.000000 -140.291980 7.746153 30.000000 13.663140 -2.580367 0.000000 -17.395561 -0.107817 0.000000
1322.670708 685.543334 93.131492 0.000000 0.000000 0.000000 0.000000 0.000000 0.000000 71.501063 3.992786 4.973798 -108.498937 -11.314693 4.973798 23.648228 8.052792 3.759997 -144.586500 -5.033083 29.763441 14.578018 2.654874 -3.759997 -16.885607 0.051445 0.313953
1305.530548 682.910864 103.859412 0.000000 0.000000 0.000000 0.000000 0.000000 0.000000 72.979287 21.154817 9.635073 -107.020713 -27.744434 9.635073 -148.728581 -4.300753 7.460697 -74.802907 -12.140820 29.057495 -151.178244 -4.029819 -7.460697 2.601049 0.355078 0.626666
1359.363556 692.650115 106.023495 0.000000 0.000000 0.000000 0.000000 0.000000 0.000000 73.244804 0.047006 13.690942 -106.755196 -5.389565 13.690942 13.983499 4.174889 11.043737 -67.611809 -2.530074 27.893295 13.130547 -6.073001 -11.043737 -11.004089 0.444170 0.936907
1299.495964 679.994059 114.563693 0.000000 0.000000 0.000000 0.000000 0.000000 0.000000 116.206779 10.090976 16.886559 -63.793221 -19.500349 16.886559 -150.858719 -4.168662 14.452610 -34.548592 -1.853680 26.289200 60.366751 -5.130743 -14.452610 -4.627493 0.141074 1.243449
1306.260338 711.527116 129.047500 0.000000 0.000000 0.000000 0.000000 0.000000 0.000000 -85.758672 7.918758 19.021130 94.241328 -0.431278 19.021130 -31.461750 0.170096 17.633558 -4.237664 2.763811 24.270510 -15.215787 -5.749908 -17.633558 7.867754 -0.604812 1.545085
1272.614822 704.778571 129.398847 0.000000 0.000000 0.000000 0.000000 0.000000 0.000000 -78.634637 4.849969 19.960535 101.365363 4.302488 19.960535 -34.118569 3.465811 20.536413 22.539652 2.309907 21.869059 -31.373170 -1.083954 -20.536413 11.310693 -0.076824 1.840623
1310.345650 676.427021 133.663190 0.000000 0.000000 0.000000 0.000000 0.000000 0.000000 97.572435 -5.596909 19.645745 -82.427565 5.996436 19.645745 50.400703 -3.358586 23.115397 -39.584286 3.079740 19.122720 44.966766 -3.806663 -23.115397 -8.852712 0.847766 2.128896
1315.732956 671.025095 117.598443 0.000000 0.000000 0.000000 0.000000 0.000000 0.000000 97.797337 8.249594 18.096541 -82.202663 2.648624 18.096541 49.825934 -2.680367 25.329838 -39.162923 0.843252 16.074804 36.475631 -0.639699 -25.329838 -8.191519 -2.220454 2.408768
1329.935532 653.525419 148.691599 0.000000 0.000000 0.000000 0.000000 0.000000 0.000000 96.469555 3.373177 15.410265 -83.530445 2.712540 15.410265 63.882053 1.161887 27.144812 -51.972064 3.958610 12.773379 58.624362 -3.048844 -27.144812 -8.239564 0.128521 2.679134
1316.170578 674.246514 133.946509 0.000000 0.000000 0.000000 0.000000 0.000000 0.000000 -87.946330 4.948032 11.755705 92.053670 -12.835844 11.755705 -29.715798 -0.013778 28.531695 54.212796 -3.993751 9.270510 -40.560774 -4.810141 -28.531695 11.008015 0.295112 2.938926
1317.367287 678.027205 139.999558 0.000000 0.000000 0.000000 0.000000 0.000000 0.000000 95.152942 3.520128 7.362491 -84.847058 -14.378407 7.362491 98.792835 1.467917 29.468618 -150.515547 -6.135392 5.621439 32.983753 4.977477 -29.468618 -14.701625 -0.497748 3.187120
1318.168488 670.157025 151.967711 0.000000 0.000000 0.000000 0.000000 0.000000 0.000000 -151.252255 26.184537 2.506665 28.747745 -11.897467 2.506665 138.896993 -1.414728 29.940802 -151.946620 -6.508480 1.883716 38.784684 6.114808 -29.940802 -14.121532 -0.611481 3.422736
1323.412628 644.667885 119.587106 0.000000 0.000000 0.000000 0.000000 0.000000 0.000000 -97.904066 2.928104 -2.506665 82.095934 16.326220 -2.506665 155.695030 -7.684599 29.940802 -152.500978 -6.089984 -1.883716 44.721081 6.744196 -29.940802 -13.527892 -0.674420 3.644843
1312.776718 630.059459 161.470191 0.000000 0.000000 0.000000 0.000000 0.000000 0.000000 -116.637972 12.554907 -7.362491 63.362028 2.596270 -7.362491 171.094570 -5.268174 29.468618 -152.894064 -7.260846 -5.621439 43.947863 7.297741 -29.468618 -13.605214 -0.729774 3.852566
1316.420746 625.237019 130.319190 0.000000 0.000000 0.000000 0.000000 0.000000 0.000000 -136.254273 -1.102295 -11.755705 43.745727 10.329634 -11.755705 -177.663204 -4.449881 28.531695 -153.006287 -6.248546 -9.270510 42.784597 7.677067 -28.531695 -13.721540 -0.767707 4.045085
1314.719925 628.818026 150.771036 0.000000 0.000000 0.000000 0.000000 0.000000 0.000000 -114.737929 3.593992 -15.410265 65.262071 -5.983630 -15.410265 -169.764314 -0.576804 27.144812 -153.369487 -6.882567 -12.773379 41.498347 8.487709 -27.144812 -13.850165 -0.848771 4.221640
1334.396782 646.165652 158.373271 0.000000 0.000000 0.000000 0.000000 0.000000 0.000000 -116.903454 3.495138 -18.096541 63.096546 -0.357166 -18.096541 -154.594534 -1.806587 25.329838 -153.225015 -6.527720 -16.074804 37.136182 8.373198 -25.329838 -14.286382 -0.837320 4.381533
1340.823784 648.244128 139.409391 0.000000 0.000000 0.000000 0.000000 0.000000 0.000000 -116.932323 11.698857 -19.645745 63.067677 -1.000092 -19.645745 -138.898656 -6.745435 23.115397 35.335752 -0.179021 -19.122720 -153.336856 -0.744330 -23.115397 2.206211 0.037150 4.524135
1330.023880 654.599032 177.112169 0.000000 0.000000 0.000000 0.000000 0.000000 0.000000 -112.150704 -2.081326 -19.960535 67.849296 -1.656521 -19.960535 -118.798313 0.768115 20.536413 -153.636372 -6.406304 -21.869059 16.691869 8.288340 -20.536413 -16.330813 -0.828834 4.648882
1337.431641 662.410698 148.675626 0.000000 0.000000 0.000000 0.000000 0.000000 0.000000 -109.111809 -2.927577 -19.021130 70.888191 0.185854 -19.021130 -91.144379 -0.912168 17.633558 -154.448144 -6.460580 -24.270510 10.298202 7.268796 -17.633558 6.642051 -0.327903 4.755283
1324.339714 676.416593 138.658140 0.000000 0.000000 0.000000 0.000000 0.000000 0.000000 -104.120178 -7.073127 -16.886559 75.879822 17.701731 -16.886559 -57.095620 -0.611109 14.452610 38.799650 6.735356 -26.289200 -71.942639 -0.556168 -14.452610 8.831938 -0.194047 4.842916
962.890318 439.311049 146.093869 0.000000 0.000000 0.000000 0.000000 0.000000 0.000000 19.986963 16.983659 -13.690942 180.000000 -1.719078 -13.690942 24.297229 -6.038456 11.043737 155.702771 -10.206338 -27.893295 14.983342 3.992021 -11.043737 18.000000 0.007284 4.911436
962.789911 439.279946 147.453246 0.000000 0.000000 0.000000 0.000000 0.000000 0.000000 20.089586 -11.272407 -9.635073 180.000000 9.791178 -9.635073 24.330184 -12.140949 7.460697 155.669816 -1.103989 -29.057495 14.926290 7.646089 -7.460697 18.000000 -0.993310 4.960574
641.318550 641.336324 141.781643 0.000000 0.000000 0.000000 0.000000 0.000000 0.000000 163.642929 -6.658208 -4.973798 -16.357071 12.999501 -4.973798 -155.926011 -0.801690 3.759997 -130.644608 -7.710112 -29.763441 68.679337 10.662670 -3.759997 -11.132066 -1.066267 4.990134
1305.385551 662.289033 142.005562 0.000000 0.000000 0.000000 0.000000 0.000000 0.000000 -81.949824 21.396942 -0.000000 98.050176 -29.069257 -0.000000 9.536664 3.838211 0.000000 -153.586691 -6.179514 -30.000000 24.402531 5.510047 -0.000000 -15.559747 -0.551005 5.000000
962.486899 439.186814 134.848619 0.000000 0.000000 0.000000 0.000000 0.000000 0.000000 20.465882 14.840451 4.973798 180.000000 -8.847057 4.973798 24.357206 9.068270 -3.759997 155.642794 0.358074 -29.763441 14.800425 0.615520 3.759997 18.000000 -0.133372 4.990134
1216.314240 612.580640 135.801713 0.000000 0.000000 0.000000 0.000000 0.000000 0.000000 78.221991 -7.549713 9.635073 -101.778009 -1.647523 9.635073 46.689014 9.500811 -7.460697 -61.937558 5.777592 -29.057495 44.546377 0.745373 7.460697 -10.771750 -0.005740 4.960574
1273.897820 573.707514 134.638593 0.000000 0.000000 0.000000 0.000000 0.000000 0.000000 77.469628 -1.821322 13.690942 -102.530372 5.702822 13.690942 -155.691164 -5.332900 -11.043737 -120.750172 5.016173 -27.893295 -156.229293 -5.960552 11.043737 2.162203 0.490761 4.911436
1337.358742 570.303276 108.532367 0.000000 0.000000 0.000000 0.000000 0.000000 0.000000 73.705918 1.570852 16.886559 -106.294082 3.254522 16.886559 -155.918376 -5.649720 -14.452610 -149.887909 -4.670713 -26.289200 0.000000 0.000000 0.000000 0.000000 0.000000 0.000000
1342.446442 569.623497 114.390807 0.000000 0.000000 0.000000 0.000000 0.000000 0.000000 68.898287 -6.998936 19.021130 -111.101713 11.105552 19.021130 39.314088 -2.255759 -17.633558 -140.912764 2.626923 -24.270510 -153.216026 -5.652122 17.633558 2.759242 0.711396 4.755283
1335.759430 584.665475 113.269408 0.000000 0.000000 0.000000 0.000000 0.000000 0.000000 66.989329 5.335240 19.960535 -113.010671 -3.566699 19.960535 -154.807077 -4.286608 -20.536413 -142.328055 3.169348 -21.869059 -153.049156 -6.509336 20.536413 2.866457 0.730801 4.648882
1337.950974 598.074245 114.675715 0.000000 0.000000 0.000000 0.000000 0.000000 0.000000 62.697633 -3.722978 19.645745 -117.302367 2.780960 19.645745 19.366736 -0.924207 -23.115397 -144.826223 0.221124 -19.122720 9.911455 -0.144718 23.115397 -17.004209 -0.029344 4.524135
1352.846489 601.043322 99.182795 0.000000 0.000000 0.000000 0.000000 0.000000 0.000000 59.083577 -3.817172 18.096541 -120.916423 2.300398 18.096541 20.876734 -0.790441 -25.329838 -142.301690 -1.860752 -16.074804 13.356960 -0.674233 25.329838 -16.821524 0.089599 4.381533
1347.310982 587.475100 102.801341 0.000000 0.000000 0.000000 0.000000 0.000000 0.000000 56.169135 4.118501 15.410265 -123.830865 1.919434 15.410265 21.172503 -2.697817 -27.144812 -139.640745 -3.036231 -12.773379 14.641496 1.322956 27.144812 -16.282575 0.057641 4.221640
1326.982155 606.886139 91.699827 0.000000 0.000000 0.000000 0.000000 0.000000 0.000000 70.119981 -0.048212 11.755705 -109.880019 2.202933 11.755705 26.511889 0.682902 -28.531695 -111.264667 0.202476 -9.270510 31.153840 0.633235 28.531695 -13.943905 0.020985 4.045085
1354.391098 626.185555 91.213462 0.000000 0.000000 0.000000 0.000000 0.000000 0.000000 88.154395 -3.900771 7.362491 -91.845605 2.929477 7.362491 30.442275 -4.218676 -29.468618 -76.284233 0.298301 -5.621439 43.854867 -2.029505 29.468618 -10.818190 0.205958 3.852566
1370.667114 610.219567 88.277079 0.000000 0.000000 0.000000 0.000000 0.000000 0.000000 89.945118 -2.626996 2.506665 -90.054882 -6.363846 2.506665 44.053326 3.179325 -29.940802 -56.238091 0.016857 -1.883716 55.411270 -0.171825 29.940802 -7.805659 0.100632 3.644843
1372.834854 597.828534 45.174322 0.000000 0.000000 0.000000 0.000000 0.000000 0.000000 93.407992 -3.952081 -2.506665 -86.592008 -1.863587 -2.506665 54.165845 1.920594 -29.940802 -47.239220 -2.361506 1.883716 56.575186 2.657082 29.940802 -6.344474 -0.367946 3.422736
1336.554337 597.454848 85.916427 0.000000 0.000000 0.000000 0.000000 0.000000 0.000000 95.622643 2.934769 -7.362491 -84.377357 -4.853634 -7.362491 56.597780 0.817557 -29.468618 -45.108662 -1.349897 5.621439 55.386034 -5.949230 29.468618 -7.206870 1.475139 3.187120
1310.567093 590.844769 46.674423 0.000000 0.000000 0.000000 0.000000 0.000000 0.000000 100.193768 4.519697 -11.755705 -79.806232 1.982804 -11.755705 61.986347 1.590986 -28.531695 -37.593815 -0.962321 9.270510 62.907615 1.877076 28.531695 -6.637230 -0.727506 2.938926
1328.574371 576.493385 55.543300 0.000000 0.000000 0.000000 0.000000 0.000000 0.000000 101.943783 -0.156157 -15.410265 -78.056217 -3.369862 -15.410265 61.902838 5.798951 -27.144812 -33.889586 3.153098 12.773379 55.760387 -0.579085 27.144812 -7.097415 -0.909183 2.679134
1316.178360 595.500870 57.241439 0.000000 0.000000 0.000000 0.000000 0.000000 0.000000 103.792097 -4.805781 -18.096541 -76.207903 -7.871877 -18.096541 65.535198 6.622081 -25.329838 -28.739437 -1.647190 16.074804 68.415337 2.003800 25.329838 -6.481753 0.316243 2.408768
1302.343140 568.138025 51.446680 0.000000 0.000000 0.000000 0.000000 0.000000 0.000000 101.222717 -9.133052 -19.645745 -78.777283 2.993177 -19.645745 90.757296 2.011034 -23.115397 -18.578033 -2.764629 19.122720 97.909038 6.177201 23.115397 -5.050134 -0.297375 2.128896
1274.166183 540.660596 67.250711 0.000000 0.000000 0.000000 0.000000 0.000000 0.000000 -126.898591 -20.157465 -19.960535 53.101409 8.661728 -19.960535 127.276662 -0.906572 -20.536413 8.808645 -0.625289 21.869059 119.711272 0.997355 20.536413 -4.115393 0.043453 1.840623
1268.557091 468.331075 39.750663 0.000000 0.000000 0.000000 0.000000 0.000000 0.000000 -124.112133 -9.869789 -19.021130 55.887867 -2.658370 -19.021130 163.344780 3.935044 -17.633558 38.476068 1.937617 24.270510 145.889074 4.929458 17.633558 -1.929933 -0.266603 1.545085
1278.673096 454.375906 60.786698 0.000000 0.000000 0.000000 0.000000 0.000000 0.000000 -126.805061 -4.258896 -16.886559 53.194939 -2.180146 -16.886559 -174.009950 -1.905810 -14.452610 27.419224 0.955332 26.289200 168.192977 -0.430157 14.452610 -0.976267 0.042757 1.243449
1285.008774 434.700390 52.873983 0.000000 0.000000 0.000000 0.000000 0.000000 0.000000 -132.005120 -1.822467 -13.690942 47.994880 -7.620123 -13.690942 -171.247775 4.249709 -11.043737 26.625253 3.400412 27.893295 178.805957 -1.627486 11.043737 0.023422 -0.035900 0.936907
1288.157730 426.987666 60.317964 0.000000 0.000000 0.000000 0.000000 0.000000 0.000000 -123.987926 2.795765 -9.635073 56.012074 -0.812672 -9.635073 -166.356219 -2.906186 -7.460697 35.716336 1.824776 29.057495 -172.960762 -0.813777 7.460697 0.819533 0.158830 0.626666
1291.221657 420.425448 61.241710 0.000000 0.000000 0.000000 0.000000 0.000000 0.000000 -122.265643 1.881506 -4.973798 57.734357 -0.275581 -4.973798 -156.870161 -0.641649 -3.759997 38.220704 -2.335242 29.763441 -165.716368 1.948817 3.759997 1.405814 -0.047874 0.313953
