HIERARCHY
ROOT Hips
{
    OFFSET 0.0 0.0 0.0
    CHANNELS 6 Xposition Yposition Zposition Zrotation Xrotation Yrotation
    JOINT Spine
    {
        OFFSET 0.0 5.0 0.0
        CHANNELS 3 Zrotation Xrotation Yrotation
        JOINT Chest
        {
            OFFSET 0.0 5.0 0.0
            CHANNELS 3 Zrotation Xrotation Yrotation
            JOINT Neck
            {
                OFFSET 0.0 8.0 0.0
                CHANNELS 3 Zrotation Xrotation Yrotation
                JOINT Head
                {
                    OFFSET 0.0 5.0 0.0
                    CHANNELS 3 Zrotation Xrotation Yrotation
                    End Site
                    {
                        OFFSET 0.0 3.0 0.0
                    }
                }
            }
            JOINT LeftShoulder
            {
                OFFSET -5.0 0.0 0.0
                CHANNELS 3 Zrotation Xrotation Yrotation
                JOINT LeftArm
                {
                    OFFSET 0.0 -10.0 0.0
                    CHANNELS 3 Zrotation Xrotation Yrotation
                    JOINT LeftForeArm
                    {
                        OFFSET 0.0 -10.0 0.0
                        CHANNELS 3 Zrotation Xrotation Yrotation
                        End Site
                        {
                            OFFSET 0.0 -3.0 0.0
                        }
                    }
                }
            }
        }
    }
}

MOTION
Frames: 300
Frame Time: 0.033333

960.000000 445.000000 106.042583 0.000000 0.000000 0.000000 0.000000 0.000000 0.000000 23.025492 -22.905163 0.000000 180.000000 9.728379 0.000000 21.801409 -6.334178 -0.000000 158.198591 12.189014 30.000000 15.945396 -3.265085 0.000000 18.000000 0.323247 0.000000
1691.525230 140.756605 92.529285 0.000000 0.000000 0.000000 0.000000 0.000000 0.000000 -163.376529 -6.417027 4.973798 16.623471 0.779876 4.973798 -171.853121 -3.441269 3.759997 99.744051 -7.693500 29.763441 -171.126653 -3.446008 -3.759997 0.673538 0.494650 0.313953
1636.048050 128.802021 105.777503 0.000000 0.000000 0.000000 0.000000 0.000000 0.000000 157.904128 -36.615911 9.635073 -22.095872 22.185430 9.635073 -171.936471 -4.155350 7.460697 -143.675701 -1.587881 29.057495 -173.500805 -3.909677 -7.460697 0.570999 0.403396 0.626666
1578.156967 80.474526 135.702564 0.000000 0.000000 0.000000 0.000000 0.000000 0.000000 -139.519796 4.504287 13.690942 40.480204 -12.908394 13.690942 -174.507724 -3.322154 11.043737 119.111399 0.424079 27.893295 -173.607258 -4.318909 -11.043737 0.461920 0.486954 0.936907
960.418757 444.998421 119.789660 0.000000 0.000000 0.000000 0.000000 0.000000 0.000000 25.077893 -23.985649 16.886559 180.000000 15.953794 16.886559 23.861935 -3.618295 14.452610 156.138065 15.580121 26.289200 17.903699 4.534855 -14.452610 18.000000 -1.122666 1.243449
960.523360 444.997533 122.914950 0.000000 0.000000 0.000000 0.000000 0.000000 0.000000 25.638906 21.652675 19.021130 180.000000 -7.116611 19.021130 24.425035 4.644370 17.633558 155.574965 0.952739 24.270510 18.452907 -0.531748 -17.633558 18.000000 -0.351192 1.545085
960.627905 444.996447 134.700588 0.000000 0.000000 0.000000 0.000000 0.000000 0.000000 26.219073 -4.793018 19.960535 180.000000 5.934888 19.960535 25.006291 -3.369807 20.536413 154.993709 -1.266776 21.869059 19.024920 -4.742977 -20.536413 18.000000 0.045806 1.840623
1126.242828 420.359820 127.857634 0.000000 0.000000 0.000000 0.000000 0.000000 0.000000 31.410514 -1.394933 19.645745 -148.589486 -2.818658 19.645745 32.280463 2.357139 23.115397 -131.603972 -0.121274 19.122720 45.585331 0.982304 -23.115397 -13.449727 -0.058409 2.128896
1257.895088 650.549197 144.738700 0.000000 0.000000 0.000000 0.000000 0.000000 0.000000 25.073180 -9.392627 18.096541 -154.926820 -13.438353 18.096541 46.260945 9.672328 25.329838 -154.651428 -5.929657 16.074804 27.339487 4.946895 -25.329838 -13.619892 0.979254 2.408768
960.941083 444.992008 134.739822 0.000000 0.000000 0.000000 0.000000 0.000000 0.000000 28.072001 16.425673 15.410265 180.000000 -23.870788 15.410265 26.849221 12.001562 27.144812 153.150779 -12.964498 12.773379 20.864045 -4.684116 -27.144812 18.000000 1.596474 2.679134
1163.815842 547.748709 156.530039 0.000000 0.000000 0.000000 0.000000 0.000000 0.000000 117.162728 3.854898 11.755705 -62.837272 0.970543 11.755705 102.363764 -5.762778 28.531695 -47.376450 -7.179640 9.270510 104.768601 5.730921 -28.531695 -6.003489 -0.223107 2.938926
961.149372 444.988063 133.832519 0.000000 0.000000 0.000000 0.000000 0.000000 0.000000 29.395983 -6.120429 7.362491 180.000000 -14.459943 7.362491 28.146217 2.645853 29.468618 151.853783 2.780998 5.621439 22.170006 -2.544854 -29.468618 18.000000 -0.264303 3.187120
1136.717377 590.104480 145.659128 0.000000 0.000000 0.000000 0.000000 0.000000 0.000000 115.752126 -1.162865 2.506665 -64.247874 -12.241001 2.506665 73.638146 2.441028 29.940802 -21.842452 -5.402808 1.883716 75.369282 1.276684 -29.940802 -6.767207 -0.655663 3.422736
1163.079758 634.077559 158.171234 0.000000 0.000000 0.000000 0.000000 0.000000 0.000000 132.174340 2.650582 -2.506665 -47.825660 -0.455349 -2.506665 94.255711 -3.515454 29.940802 -149.364979 -7.430832 -1.883716 30.021641 5.414911 -29.940802 -5.096180 0.277828 3.644843
961.460830 444.980668 147.976656 0.000000 0.000000 0.000000 0.000000 0.000000 0.000000 31.497152 -20.939807 -7.362491 180.000000 -19.892062 -7.362491 30.152455 10.901486 29.468618 149.847545 -14.817269 -5.621439 24.175589 12.881801 -29.468618 18.000000 0.029776 3.852566
1097.449951 565.089898 163.296513 0.000000 0.000000 0.000000 0.000000 0.000000 0.000000 -119.219568 -6.670179 -11.755705 60.780432 3.923022 -11.755705 -150.180642 -6.863988 28.531695 48.804955 -1.156858 -9.270510 -149.874178 -5.608405 -28.531695 2.713854 0.602392 4.045085
1114.140244 528.302071 156.129732 0.000000 0.000000 0.000000 0.000000 0.000000 0.000000 -142.671523 -4.854148 -15.410265 37.328477 3.532144 -15.410265 -177.395681 -1.226348 27.144812 34.687329 0.610436 -12.773379 161.894167 2.818111 -27.144812 -0.910956 -0.180695 4.221640
1116.433640 479.728639 147.475431 0.000000 0.000000 0.000000 0.000000 0.000000 0.000000 -102.267481 6.668813 -18.096541 77.732519 -3.024513 -18.096541 -163.695626 -1.910216 25.329838 38.575767 0.064761 -16.074804 -176.001122 0.802786 -25.329838 0.706594 -0.159417 4.381533
1135.931282 466.493965 131.715971 0.000000 0.000000 0.000000 0.000000 0.000000 0.000000 -112.868406 -13.064272 -19.645745 67.131594 -3.491849 -19.645745 -159.517862 3.924388 23.115397 36.204678 -2.079579 -19.122720 -154.426613 -5.381881 -23.115397 2.428729 0.508794 4.524135
1141.618767 467.420679 135.663469 0.000000 0.000000 0.000000 0.000000 0.000000 0.000000 -123.086385 0.173538 -19.960535 56.913615 -1.139864 -19.960535 -154.885724 1.257046 20.536413 36.481623 -2.283131 -21.869059 -153.965441 -5.444713 -20.536413 2.446728 0.492944 4.648882
1150.647926 469.370956 133.127909 0.000000 0.000000 0.000000 0.000000 0.000000 0.000000 -43.953779 -30.406869 -19.021130 136.046221 29.214152 -19.021130 -154.327268 -7.723929 17.633558 60.745168 1.054721 -24.270510 -153.350642 -6.613386 -17.633558 2.386216 0.586591 4.755283
1151.529922 496.420240 143.127308 0.000000 0.000000 0.000000 0.000000 0.000000 0.000000 -116.362129 1.157447 -16.886559 63.637871 4.566018 -16.886559 -149.081043 -2.527780 14.452610 35.941860 -2.125808 -26.289200 -156.847177 2.384630 -14.452610 2.056513 0.006202 4.842916
1148.402367 515.713574 149.948066 0.000000 0.000000 0.000000 0.000000 0.000000 0.000000 -118.252650 3.476238 -13.690942 61.747350 7.222869 -13.690942 -138.082896 -1.172856 11.043737 -156.312677 -7.095657 -27.893295 21.649626 10.348695 -11.043737 2.962417 -0.082303 4.911436
1175.363617 533.368646 121.232482 0.000000 0.000000 0.000000 0.000000 0.000000 0.000000 -95.476638 -11.092855 -9.635073 84.523362 2.949932 -9.635073 -113.907461 -0.054594 7.460697 -155.995907 -6.624651 -29.057495 12.512064 8.765286 -7.460697 -16.748794 -0.876529 4.960574
1199.533310 485.991104 136.830304 0.000000 0.000000 0.000000 0.000000 0.000000 0.000000 -100.003195 -15.649485 -4.973798 79.996805 5.006733 -4.973798 -86.083188 -2.612390 3.759997 38.843754 1.425503 -29.763441 -106.539452 2.500170 -3.759997 6.197806 -0.129363 4.990134
962.588190 444.938442 146.306740 0.000000 0.000000 0.000000 0.000000 0.000000 0.000000 39.579754 -38.933118 -0.000000 180.000000 32.309983 -0.000000 36.680773 -13.790211 0.000000 143.319227 25.427299 -30.000000 29.388385 -10.129253 -0.000000 18.000000 -1.354591 5.000000
1142.094727 445.716287 136.365306 0.000000 0.000000 0.000000 0.000000 0.000000 0.000000 -140.228454 32.149535 4.973798 39.771546 12.401293 4.973798 -156.118008 -5.941897 -3.759997 3.479189 7.276197 -29.763441 -158.005660 -5.932177 3.759997 2.150019 0.589610 4.990134
1164.005928 424.847746 114.401581 0.000000 0.000000 0.000000 0.000000 0.000000 0.000000 -84.241076 -3.187196 9.635073 95.758924 -9.282430 9.635073 -156.181584 -6.083600 -7.460697 166.928360 -6.347021 -29.057495 -154.947270 -6.210576 7.460697 2.644196 0.645930 4.960574
1124.208755 418.286655 123.532553 0.000000 0.000000 0.000000 0.000000 0.000000 0.000000 -117.427077 -20.281217 13.690942 62.572923 -3.628715 13.690942 -155.943063 -5.392717 -11.043737 14.023837 -5.465020 -27.893295 -157.382674 -5.112362 11.043737 2.188130 0.521128 4.911436
962.990408 444.917226 106.976992 0.000000 0.000000 0.000000 0.000000 0.000000 0.000000 42.110883 19.135100 16.886559 180.000000 21.352369 16.886559 37.946959 -1.615159 -14.452610 142.053041 -5.625880 -26.289200 29.293612 18.250286 14.452610 18.000000 -1.881567 4.842916
963.090170 444.911436 107.629277 0.000000 0.000000 0.000000 0.000000 0.000000 0.000000 42.659200 -23.002630 19.021130 180.000000 11.985036 19.021130 38.119107 -16.243098 -17.633558 141.880893 3.703865 -24.270510 29.068887 -5.741448 17.633558 18.000000 0.852301 4.755283
1186.646461 396.272757 104.914717 0.000000 0.000000 0.000000 0.000000 0.000000 0.000000 -72.847419 -9.452494 19.960535 107.152581 33.101053 19.960535 -156.703603 -5.404328 -20.536413 178.447294 9.813000 -21.869059 -157.212393 -5.027490 20.536413 1.964058 0.463474 4.648882
1313.051605 426.636125 99.261558 0.000000 0.000000 0.000000 0.000000 0.000000 0.000000 90.994869 -15.241569 19.645745 -89.005131 -7.460830 19.645745 -160.515303 -4.071995 -23.115397 -153.248861 -2.643808 -19.122720 -159.640525 -4.470684 23.115397 0.000000 0.000000 0.000000
1347.999344 420.772226 83.923993 0.000000 0.000000 0.000000 0.000000 0.000000 0.000000 90.154351 -4.755735 18.096541 -89.845649 -1.456586 18.096541 -162.053401 -3.565174 -25.329838 -136.198880 5.616990 -16.074804 -160.991694 -5.268580 25.329838 0.000000 0.000000 0.000000
1344.315948 421.031681 96.691762 0.000000 0.000000 0.000000 0.000000 0.000000 0.000000 69.757587 -1.237683 15.410265 -110.242413 -3.270469 15.410265 25.616746 4.909999 -27.144812 -157.821005 -3.682046 -12.773379 17.214985 3.223949 27.144812 -16.704706 0.106005 4.221640
1350.307617 440.309436 81.129458 0.000000 0.000000 0.000000 0.000000 0.000000 0.000000 71.124018 12.955722 11.755705 -108.875982 0.814569 11.755705 42.739987 -2.343559 -28.531695 -142.315466 -3.760431 -9.270510 16.600926 3.837302 28.531695 -16.660102 0.000530 4.045085
1357.685051 430.688889 91.535445 0.000000 0.000000 0.000000 0.000000 0.000000 0.000000 77.656077 4.868913 7.362491 -102.343923 4.190562 7.362491 39.407151 -0.743690 -29.468618 -136.343173 -1.611557 -5.621439 22.144452 1.625847 29.468618 -16.305135 0.018235 3.852566
1369.482193 445.909406 54.077336 0.000000 0.000000 0.000000 0.000000 0.000000 0.000000 88.051188 7.939504 2.506665 -91.948812 -3.605427 2.506665 -161.283973 -3.114168 -29.940802 -119.799169 -3.766189 -1.883716 -164.575400 -3.013613 29.940802 1.401013 0.392584 3.644843
963.875156 444.858159 70.305250 0.000000 0.000000 0.000000 0.000000 0.000000 0.000000 45.304844 -50.447728 -2.506665 180.000000 18.411744 -2.506665 37.252439 6.737422 -29.940802 142.747561 8.480228 1.883716 25.146244 10.909677 29.940802 18.000000 -0.091838 3.422736
963.971479 444.850633 52.417661 0.000000 0.000000 0.000000 0.000000 0.000000 0.000000 45.383640 -24.500445 -7.362491 180.000000 24.161951 -7.362491 36.882310 -21.121751 -29.468618 143.117690 6.726176 5.621439 24.499789 -1.357641 29.468618 18.000000 0.147614 3.187120
1336.629524 469.010178 63.865596 0.000000 0.000000 0.000000 0.000000 0.000000 0.000000 -72.390177 28.389372 -11.755705 107.609823 -21.753339 -11.755705 -158.649984 -2.155798 -28.531695 2.583425 -4.890012 9.270510 -39.658551 5.906990 28.531695 10.837181 -0.724558 2.938926
1311.966934 518.219100 47.007721 0.000000 0.000000 0.000000 0.000000 0.000000 0.000000 -63.565072 64.850347 -15.410265 116.434928 -41.022065 -15.410265 -14.840750 -4.815833 -27.144812 -158.549348 -3.591868 12.773379 17.488774 2.085210 27.144812 7.174982 0.091132 2.679134
964.257793 444.826908 44.098938 0.000000 0.000000 0.000000 0.000000 0.000000 0.000000 45.262206 -41.797055 -18.096541 180.000000 -1.964802 -18.096541 35.497192 24.588099 -25.329838 144.502808 1.305585 16.074804 22.522929 12.501190 25.329838 18.000000 -0.384867 2.408768
1275.921364 516.836239 64.136798 0.000000 0.000000 0.000000 0.000000 0.000000 0.000000 85.186295 -4.868236 -19.645745 -94.813705 0.952425 -19.645745 52.470689 4.201553 -23.115397 -44.513683 -0.427602 19.122720 50.867598 2.216661 23.115397 -8.717188 -0.243641 2.128896
1263.254128 546.875424 46.225013 0.000000 0.000000 0.000000 0.000000 0.000000 0.000000 34.848242 23.922024 -19.960535 -145.151758 28.887929 -19.960535 42.487561 26.792824 -20.536413 -157.415675 -2.122170 21.869059 22.420880 2.266932 20.536413 -15.757912 -0.226693 1.840623
1258.788185 528.263061 39.185065 0.000000 0.000000 0.000000 0.000000 0.000000 0.000000 118.326865 21.583421 -19.021130 -61.673135 14.657518 -19.021130 143.214759 -20.332327 -17.633558 -156.228306 -2.791928 24.270510 28.173554 2.202625 17.633558 -15.182645 -0.220263 1.545085
1231.492081 471.383836 44.947479 0.000000 0.000000 0.000000 0.000000 0.000000 0.000000 -115.049381 -10.675191 -16.886559 64.950619 9.698973 -16.886559 172.843704 -1.784675 -14.452610 -157.842300 -2.259539 26.289200 32.851042 3.046033 14.452610 -14.714896 -0.304603 1.243449
1223.928795 435.993515 41.592645 0.000000 0.000000 0.000000 0.000000 0.000000 0.000000 -115.322532 -11.074849 -13.690942 64.677468 11.233908 -13.690942 -168.597862 -7.213755 -11.043737 -158.853816 -2.405661 27.893295 31.099266 1.931982 11.043737 -14.890073 -0.193198 0.936907
1223.669701 418.195664 46.178060 0.000000 0.000000 0.000000 0.000000 0.000000 0.000000 -102.084053 9.510785 -9.635073 77.915947 -10.849305 -9.635073 -171.103858 6.546601 -7.460697 162.056334 -0.477499 29.057495 -153.594437 -2.532617 7.460697 2.968481 0.315056 0.626666
1216.486244 414.503002 53.864821 0.000000 0.000000 0.000000 0.000000 0.000000 0.000000 69.261091 -41.029524 -4.973798 -110.738909 27.015383 -4.973798 -158.083722 -2.244966 -3.759997 -173.244581 7.391437 29.763441 -154.635509 -3.240564 3.759997 2.928763 0.316731 0.313953
1212.090225 434.550980 63.080464 0.000000 0.000000 0.000000 0.000000 0.000000 0.000000 -112.403932 20.391817 0.000000 67.596068 16.597802 0.000000 -157.060799 -2.790494 -0.000000 173.400765 -9.657621 30.000000 -154.473580 -1.340894 0.000000 2.734633 0.332869 0.000000
1214.024734 450.340490 51.806632 0.000000 0.000000 0.000000 0.000000 0.000000 0.000000 -110.634751 4.025821 4.973798 69.365249 -1.842764 4.973798 -137.583343 5.408335 3.759997 -158.589698 -2.380992 29.763441 20.879446 2.927677 -3.759997 -15.912055 -0.292768 0.313953
1204.271393 440.192921 77.021436 0.000000 0.000000 0.000000 0.000000 0.000000 0.000000 -99.498286 7.265459 9.635073 80.501714 -6.490408 9.635073 -156.696469 -2.409887 7.460697 -178.487725 -14.639838 29.057495 -157.318323 -2.029129 -7.460697 2.108583 0.230431 0.626666
965.269558 444.725315 67.216203 0.000000 0.000000 0.000000 0.000000 0.000000 0.000000 40.845461 3.978107 13.690942 180.000000 8.268162 13.690942 28.615377 -2.084551 11.043737 151.384623 4.384314 27.893295 16.305092 -1.585395 -11.043737 18.000000 -0.271594 0.936907
1182.456551 475.103824 80.440448 0.000000 0.000000 0.000000 0.000000 0.000000 0.000000 -168.146016 -62.421799 16.886559 11.853984 -68.138612 16.886559 -63.802645 4.149780 14.452610 -61.114510 0.099643 26.289200 -47.869281 -4.576657 -14.452610 -13.834956 8.292067 1.243449
965.446390 444.704404 79.445440 0.000000 0.000000 0.000000 0.000000 0.000000 0.000000 39.578146 -11.016371 19.021130 180.000000 -15.088811 19.021130 27.338029 -1.391126 17.633558 152.661971 -3.180870 24.270510 15.463180 -6.078891 -17.633558 18.000000 0.321404 1.545085
965.533915 444.693669 53.651283 0.000000 0.000000 0.000000 0.000000 0.000000 0.000000 38.916706 26.934681 19.960535 180.000000 -23.424244 19.960535 26.716768 3.919557 20.536413 153.283232 -3.300052 21.869059 15.076605 -4.910383 -20.536413 18.000000 0.258917 1.840623
965.620834 444.682749 67.248108 0.000000 0.000000 0.000000 0.000000 0.000000 0.000000 38.241653 18.559048 19.645745 180.000000 -9.060253 19.645745 26.109467 6.201267 23.115397 153.890533 -13.929279 19.122720 14.712258 9.269686 -23.115397 18.000000 -0.452359 2.128896
965.707136 444.671645 77.333393 0.000000 0.000000 0.000000 0.000000 0.000000 0.000000 37.556504 48.298095 18.096541 180.000000 -23.644724 18.096541 25.517536 5.297677 25.329838 154.482464 2.054058 16.074804 14.369537 -1.647659 -25.329838 18.000000 0.329312 2.408768
965.792812 444.660356 69.456887 0.000000 0.000000 0.000000 0.000000 0.000000 0.000000 36.864608 -10.603563 15.410265 180.000000 23.975598 15.410265 24.942131 -23.593257 27.144812 155.057869 1.551762 12.773379 14.047797 7.792860 -27.144812 18.000000 -0.326631 2.679134
965.877853 444.648882 66.626321 0.000000 0.000000 0.000000 0.000000 0.000000 0.000000 36.169118 -25.066482 11.755705 180.000000 10.560714 11.755705 24.384173 2.627689 28.531695 155.615827 10.144731 9.270510 13.746367 -3.418108 -28.531695 18.000000 -0.415693 2.938926
965.962249 444.637226 100.693286 0.000000 0.000000 0.000000 0.000000 0.000000 0.000000 35.472980 -25.288318 7.362491 180.000000 2.304963 7.362491 23.844373 2.142666 29.468618 156.155627 13.972949 5.621439 13.464570 -7.019522 -29.468618 18.000000 -0.244150 3.187120
966.045991 444.625386 92.837222 0.000000 0.000000 0.000000 0.000000 0.000000 0.000000 34.778913 1.639723 2.506665 180.000000 19.189764 2.506665 23.323250 -7.962643 29.940802 156.676750 -3.339154 1.883716 13.201728 6.603289 -29.940802 18.000000 -0.358459 3.422736
966.129071 444.613364 97.034746 0.000000 0.000000 0.000000 0.000000 0.000000 0.000000 34.089406 33.040138 -2.506665 180.000000 5.239031 -2.506665 22.821158 -14.349732 29.940802 157.178842 -6.768081 -1.883716 12.957175 6.000362 -29.940802 18.000000 -0.378687 3.644843
966.211478 444.601159 116.069647 0.000000 0.000000 0.000000 0.000000 0.000000 0.000000 33.406712 -0.841937 -7.362491 180.000000 18.367120 -7.362491 22.338307 -6.041403 29.468618 157.661693 6.211201 -5.621439 12.730264 5.782979 -29.468618 18.000000 -0.390899 3.852566
1171.486244 534.946783 107.986244 0.000000 0.000000 0.000000 0.000000 0.000000 0.000000 70.594720 -9.463686 -11.755705 -109.405280 6.381872 -11.755705 49.953444 -3.991069 28.531695 -151.467583 -4.500620 -9.270510 0.000000 0.000000 0.000000 0.000000 0.000000 0.000000
966.374240 444.576206 114.028065 0.000000 0.000000 0.000000 0.000000 0.000000 0.000000 32.069603 -40.629017 -15.410265 180.000000 21.257579 -15.410265 21.430544 -3.733631 27.144812 158.569456 6.533954 -12.773379 12.326901 0.447277 -27.144812 18.000000 0.364447 4.221640
1172.156410 555.047708 120.789244 0.000000 0.000000 0.000000 0.000000 0.000000 0.000000 -121.065102 2.942176 -18.096541 58.934898 -6.988663 -18.096541 -151.641456 -4.920533 25.329838 -177.360623 7.741397 -16.074804 -149.076048 -7.064183 -25.329838 0.000000 0.000000 0.000000
1161.826630 552.360713 128.184679 0.000000 0.000000 0.000000 0.000000 0.000000 0.000000 69.958407 3.102270 -19.645745 -110.041593 -7.834291 -19.645745 -152.437496 -5.695100 23.115397 -158.790607 -2.852389 -19.122720 -150.591725 -6.258922 -23.115397 3.219062 0.813636 4.524135
1165.827255 569.832902 129.345095 0.000000 0.000000 0.000000 0.000000 0.000000 0.000000 25.594208 19.447033 -19.960535 -154.405792 11.419280 -19.960535 11.723883 -5.518959 20.536413 -161.543160 -4.512137 -21.869059 7.769582 3.564362 -20.536413 -17.248199 -0.266374 4.648882
1165.555573 565.067046 130.310090 0.000000 0.000000 0.000000 0.000000 0.000000 0.000000 43.355707 -9.075408 -19.021130 -136.644293 0.886841 -19.021130 15.984329 4.487075 17.633558 -140.773833 -1.406246 -24.270510 13.679449 2.092971 -17.633558 -16.392157 -0.044164 4.755283
1290.255775 608.533316 134.771226 0.000000 0.000000 0.000000 0.000000 0.000000 0.000000 -153.952071 -7.953869 -16.886559 26.047929 7.489334 -16.886559 -152.683807 -5.517002 14.452610 4.794196 7.681339 -26.289200 -154.287190 -5.636865 -14.452610 2.418080 0.581474 4.842916
1180.398903 551.817470 138.176426 0.000000 0.000000 0.000000 0.000000 0.000000 0.000000 51.640104 -13.787552 -13.690942 -128.359896 13.575784 -13.690942 14.419400 -10.759621 11.043737 -33.521359 17.101052 -27.893295 -34.277510 -5.099678 -11.043737 5.235387 -0.552721 4.911436
1162.708626 619.419501 149.277278 0.000000 0.000000 0.000000 0.000000 0.000000 0.000000 -88.968325 -0.080074 -9.635073 91.031675 21.594465 -9.635073 -52.690088 -0.733106 7.460697 25.015222 13.709205 -29.057495 -72.561734 -6.329675 -7.460697 8.557489 0.216694 4.960574
1110.899391 602.919216 129.340759 0.000000 0.000000 0.000000 0.000000 0.000000 0.000000 -86.972237 15.271330 -4.973798 93.027763 -4.031375 -4.973798 -39.551144 -1.974400 3.759997 34.838085 -0.338432 -29.763441 -44.185810 -1.805761 -3.759997 10.000609 -0.080105 4.990134
1150.187302 553.686991 134.746068 0.000000 0.000000 0.000000 0.000000 0.000000 0.000000 -116.065142 3.992860 -0.000000 63.934858 -15.805868 -0.000000 -151.059314 -5.938087 0.000000 -0.492058 7.273065 -30.000000 -14.044098 -13.274014 -0.000000 1.929760 1.238656 5.000000
967.144727 444.440682 157.362293 0.000000 0.000000 0.000000 0.000000 0.000000 0.000000 26.270296 8.613361 4.973798 180.000000 0.504363 4.973798 17.996647 2.988983 -3.759997 162.003353 1.518679 -29.763441 11.189167 1.966123 3.759997 18.000000 -0.447146 4.990134
1213.452644 620.002785 154.183801 0.000000 0.000000 0.000000 0.000000 0.000000 0.000000 140.390379 -7.445788 9.635073 -39.609621 18.304990 9.635073 77.724607 -8.935333 -7.460697 -153.982965 -6.485551 -29.057495 24.142749 5.611802 7.460697 -0.833727 -0.007200 4.960574
1124.373779 618.464527 162.177356 0.000000 0.000000 0.000000 0.000000 0.000000 0.000000 99.329635 -5.018084 13.690942 -80.670365 20.836464 13.690942 85.960927 8.243144 -11.043737 -150.875293 -6.829949 -27.893295 31.644098 6.022222 11.043737 -14.835590 -0.602222 4.911436
967.360971 444.396582 148.364986 0.000000 0.000000 0.000000 0.000000 0.000000 0.000000 24.874716 -9.462306 16.886559 180.000000 4.363653 16.886559 17.291102 1.230546 -14.452610 162.708898 6.144694 -26.289200 11.098846 -3.276497 14.452610 18.000000 0.170607 4.842916
1107.875175 542.453964 145.558300 0.000000 0.000000 0.000000 0.000000 0.000000 0.000000 -128.741314 1.700971 19.021130 51.258686 -1.018093 19.021130 -177.225595 -0.739906 -17.633558 19.954750 -3.245035 -24.270510 162.677362 1.874303 17.633558 -1.443098 -0.020048 4.755283
1119.652290 522.766346 166.857440 0.000000 0.000000 0.000000 0.000000 0.000000 0.000000 -99.017754 5.306821 19.960535 80.982246 7.665146 19.960535 -150.289603 -7.347622 -20.536413 -152.613833 -7.183631 -21.869059 0.000000 0.000000 0.000000 0.000000 0.000000 0.000000
1132.908783 538.229613 168.530423 0.000000 0.000000 0.000000 0.000000 0.000000 0.000000 -127.874185 -4.912346 19.645745 52.125815 -4.293997 19.645745 -165.450188 0.931838 -23.115397 -152.521515 -6.942175 -19.122720 40.606225 9.489554 23.115397 -13.939378 -0.948955 4.524135
1146.969337 541.828065 157.039474 0.000000 0.000000 0.000000 0.000000 0.000000 0.000000 -113.631604 1.511873 18.096541 66.368396 -4.166879 18.096541 -159.067475 -1.262571 -25.329838 113.981862 -11.220822 -16.074804 -145.449815 -5.888332 25.329838 0.000000 0.000000 0.000000
1165.252304 561.329677 138.110525 0.000000 0.000000 0.000000 0.000000 0.000000 0.000000 -112.861399 4.162120 15.410265 67.138601 2.632332 15.410265 -159.396543 -4.972200 -27.144812 -151.967552 -6.737103 -12.773379 38.422588 8.085956 27.144812 -14.157741 -0.808596 4.221640
1174.726181 592.839689 145.934384 0.000000 0.000000 0.000000 0.000000 0.000000 0.000000 -110.369899 -1.148388 11.755705 69.630101 -5.019400 11.755705 -148.108768 0.243946 -28.531695 -151.515612 -7.063610 -9.270510 34.277732 8.703706 28.531695 -14.572227 -0.870371 4.045085
1167.352524 605.194867 147.503380 0.000000 0.000000 0.000000 0.000000 0.000000 0.000000 -113.828445 -5.437775 7.362491 66.171555 -0.025047 7.362491 -131.688453 2.380413 -29.468618 -151.045756 -6.471513 -5.621439 27.200835 8.374003 29.468618 -15.279916 -0.837400 3.852566
1139.678879 602.981014 152.284052 0.000000 0.000000 0.000000 0.000000 0.000000 0.000000 -97.599684 -1.422136 2.506665 82.400316 -32.575938 2.506665 -113.965806 3.728043 -29.940802 -121.058781 -8.454169 -1.883716 -118.492407 8.485600 29.940802 10.137620 -6.468855 3.644843
1165.830002 580.020189 142.387266 0.000000 0.000000 0.000000 0.000000 0.000000 0.000000 -28.085052 -41.240311 -2.506665 151.914948 10.209382 -2.506665 -150.589103 -5.186334 -29.940802 -172.678414 13.332794 1.883716 -149.717924 -6.562713 29.940802 0.000000 0.000000 0.000000
1184.501953 619.872494 136.317201 0.000000 0.000000 0.000000 0.000000 0.000000 0.000000 -113.790307 0.106893 -7.362491 66.209693 18.568728 -7.362491 -59.272274 3.824594 -29.468618 29.476823 4.226664 5.621439 -88.148483 -0.805156 29.468618 7.414604 0.026567 3.187120
968.090170 444.221640 120.491536 0.000000 0.000000 0.000000 0.000000 0.000000 0.000000 21.092887 8.410578 -11.755705 180.000000 -5.106098 -11.755705 15.757771 11.688647 -28.531695 164.242229 1.479034 9.270510 11.678908 1.237889 28.531695 18.000000 -0.275568 2.938926
968.151278 444.204723 95.769032 0.000000 0.000000 0.000000 0.000000 0.000000 0.000000 20.844337 -18.620594 -15.410265 180.000000 0.772889 -15.410265 15.691895 5.391043 -27.144812 164.308105 5.172565 12.773379 11.804629 0.403137 27.144812 18.000000 -0.366968 2.679134
968.211492 444.187640 111.183655 0.000000 0.000000 0.000000 0.000000 0.000000 0.000000 20.610265 -26.675850 -18.096541 180.000000 0.995774 -18.096541 15.637361 -1.169833 -25.329838 164.362639 1.564579 16.074804 11.943263 1.866986 25.329838 18.000000 -0.120148 2.408768
968.270806 444.170392 102.193511 0.000000 0.000000 0.000000 0.000000 0.000000 0.000000 20.390366 12.981162 -19.645745 180.000000 3.287296 -19.645745 15.594026 -6.431963 -23.115397 164.405974 -2.473512 19.122720 12.095062 0.469932 23.115397 18.000000 -0.041247 2.128896
968.329212 444.152979 96.889082 0.000000 0.000000 0.000000 0.000000 0.000000 0.000000 20.184343 -19.786251 -19.960535 180.000000 10.416340 -19.960535 15.561766 -1.703820 -20.536413 164.438234 -2.095630 21.869059 12.260289 2.844602 20.536413 18.000000 0.046370 1.840623
968.386706 444.135403 95.138253 0.000000 0.000000 0.000000 0.000000 0.000000 0.000000 19.991916 -20.335881 -19.021130 180.000000 5.690292 -19.021130 15.540476 -0.597007 -17.633558 164.459524 5.568249 24.270510 12.439222 6.617751 17.633558 18.000000 -0.682577 1.545085
968.443279 444.117663 97.456302 0.000000 0.000000 0.000000 0.000000 0.000000 0.000000 19.812814 -13.438534 -16.886559 180.000000 1.110611 -16.886559 15.530069 9.505778 -14.452610 164.469931 4.906650 26.289200 12.632146 1.337798 14.452610 18.000000 0.098870 1.243449
968.498927 444.099761 85.871944 0.000000 0.000000 0.000000 0.000000 0.000000 0.000000 19.646785 -22.782512 -13.690942 180.000000 9.668612 -13.690942 15.530474 -9.631974 -11.043737 164.469526 -0.533077 27.893295 12.839349 1.063876 11.043737 18.000000 0.038294 0.936907
968.553643 444.081696 95.038592 0.000000 0.000000 0.000000 0.000000 0.000000 0.000000 19.493591 -7.182552 -9.635073 180.000000 7.506520 -9.635073 15.541640 0.463867 -7.460697 164.458360 6.392188 29.057495 13.061119 1.020640 7.460697 18.000000 -0.897816 0.626666
1051.772690 653.004448 70.760345 0.000000 0.000000 0.000000 0.000000 0.000000 0.000000 -79.007834 7.195673 -4.973798 100.992166 11.432188 -4.973798 -126.715299 -4.870977 -3.759997 -149.991181 -4.293371 29.763441 31.772279 5.803461 3.759997 -14.822772 -0.580346 0.313953
1061.669197 624.716241 69.718294 0.000000 0.000000 0.000000 0.000000 0.000000 0.000000 -94.718359 -16.408405 0.000000 85.281641 -18.267876 0.000000 -144.150484 3.671073 -0.000000 60.155085 5.261633 30.000000 -152.711462 -1.713861 0.000000 1.815393 -0.212817 0.000000
1072.053337 571.032879 81.598981 0.000000 0.000000 0.000000 0.000000 0.000000 0.000000 71.424080 -7.865411 4.973798 -108.575920 2.128598 4.973798 -149.042361 -3.151862 3.759997 -149.913636 1.806786 29.763441 -145.792107 -4.010461 -3.759997 3.947623 0.589322 0.313953
1070.057373 572.884376 55.057657 0.000000 0.000000 0.000000 0.000000 0.000000 0.000000 -80.850201 51.482122 9.635073 99.149799 -44.135737 9.635073 -147.567525 -3.445220 7.460697 -164.443014 -11.449142 29.057495 -145.447997 -3.020802 -7.460697 4.032371 0.393777 0.626666
968.813035 443.988972 59.878963 0.000000 0.000000 0.000000 0.000000 0.000000 0.000000 18.912944 -2.596009 13.690942 180.000000 -1.630413 13.690942 15.758200 2.589779 11.043737 164.241800 8.086675 27.893295 14.397395 -11.855294 -11.043737 18.000000 0.334760 0.936907
968.862036 443.969952 57.200210 0.000000 0.000000 0.000000 0.000000 0.000000 0.000000 18.832684 24.492988 16.886559 180.000000 -5.775966 16.886559 15.833735 -8.651965 14.452610 164.166265 -8.096584 26.289200 14.711463 -2.195604 -14.452610 18.000000 -0.178721 1.243449
968.910065 443.950775 54.957235 0.000000 0.000000 0.000000 0.000000 0.000000 0.000000 18.764066 -0.312271 19.021130 180.000000 4.964165 19.021130 15.920102 5.846371 17.633558 164.079898 0.802035 24.270510 15.041323 1.521292 -17.633558 18.000000 -0.004329 1.545085
968.957118 443.931442 36.781459 0.000000 0.000000 0.000000 0.000000 0.000000 0.000000 18.706990 4.304441 19.960535 180.000000 2.607540 19.960535 16.017366 3.404375 20.536413 163.982634 1.014591 21.869059 15.386894 -1.621833 -20.536413 18.000000 0.652669 1.840623
969.003188 443.911954 69.054851 0.000000 0.000000 0.000000 0.000000 0.000000 0.000000 18.661377 -15.408995 19.645745 180.000000 -6.729111 19.645745 16.125602 2.404941 23.115397 163.874398 1.584040 19.122720 15.747980 -9.823514 -23.115397 18.000000 0.247042 2.128896
969.048271 443.892312 37.356089 0.000000 0.000000 0.000000 0.000000 0.000000 0.000000 18.627165 19.781133 18.096541 180.000000 9.002771 18.096541 16.244896 -9.589841 25.329838 163.755104 3.619417 16.074804 16.124252 -0.480522 -25.329838 18.000000 -0.117239 2.408768
969.092361 443.872515 50.212911 0.000000 0.000000 0.000000 0.000000 0.000000 0.000000 18.604312 9.131577 15.410265 180.000000 -12.415331 15.410265 16.375340 3.621224 27.144812 163.624660 -2.201594 12.773379 16.515224 0.868466 -27.144812 18.000000 -0.839617 2.679134
1055.186234 577.357593 58.484980 0.000000 0.000000 0.000000 0.000000 0.000000 0.000000 85.510211 0.718567 11.755705 -94.489789 3.581464 11.755705 37.103410 -5.849210 28.531695 -148.111343 -2.720543 9.270510 24.294182 2.593573 -28.531695 -8.601915 -0.456429 2.938926
1122.856522 566.714029 52.977860 0.000000 0.000000 0.000000 0.000000 0.000000 0.000000 96.216240 2.796994 7.362491 -83.783760 -2.340165 7.362491 46.189625 1.326182 29.468618 -149.396962 -2.457680 5.621439 24.670091 2.602623 -29.468618 -7.107716 -2.086788 3.187120
969.218632 443.812213 47.549236 0.000000 0.000000 0.000000 0.000000 0.000000 0.000000 18.603763 5.829427 2.506665 180.000000 -6.019792 2.506665 16.834613 7.987164 29.940802 163.165387 1.635592 1.883716 17.768624 -1.869694 -29.940802 18.000000 0.197588 3.422736
1112.757797 605.798106 47.853798 0.000000 0.000000 0.000000 0.000000 0.000000 0.000000 110.914625 -13.715657 -2.506665 -69.085375 7.451396 -2.506665 67.769469 -1.576630 29.940802 -149.822316 -2.219224 -1.883716 29.049901 2.475285 -29.940802 -3.625079 -0.667090 3.644843
1086.733246 592.557156 51.141327 0.000000 0.000000 0.000000 0.000000 0.000000 0.000000 -80.132323 -9.871770 -7.362491 99.867677 -26.289727 -7.362491 36.201564 11.908260 29.468618 -13.679556 1.771750 -5.621439 78.049842 -8.251800 -29.468618 -5.127460 0.367127 3.852566
1081.109390 570.394492 64.883558 0.000000 0.000000 0.000000 0.000000 0.000000 0.000000 -175.864613 0.236561 -11.755705 4.135387 6.669780 -11.755705 134.713876 0.175630 28.531695 -10.005873 1.363383 -9.270510 135.737755 -0.705611 -28.531695 -3.389365 0.000130 4.045085
1089.776802 536.594539 84.000527 0.000000 0.000000 0.000000 0.000000 0.000000 0.000000 -139.033903 -10.297186 -15.410265 40.966097 13.237052 -15.410265 161.695972 -6.544466 27.144812 3.114398 -2.028335 -12.773379 148.805610 0.524714 -27.144812 -2.611636 0.006910 4.221640
1114.282036 523.965647 76.677416 0.000000 0.000000 0.000000 0.000000 0.000000 0.000000 -156.073983 -1.982633 -18.096541 23.926017 -12.219185 -18.096541 174.825807 -0.005322 25.329838 5.093343 0.759557 -16.074804 161.266817 -0.048617 -25.329838 -1.814366 -0.040881 4.381533
1122.145157 503.425248 47.638991 0.000000 0.000000 0.000000 0.000000 0.000000 0.000000 -144.538174 15.862519 -19.645745 35.461826 -2.012389 -19.645745 174.215003 2.607203 23.115397 -151.750905 -3.469493 -19.122720 43.887064 4.140338 -23.115397 -13.611294 -0.414034 4.524135
1134.158249 484.688419 58.915855 0.000000 0.000000 0.000000 0.000000 0.000000 0.000000 -142.311443 -4.208666 -19.960535 37.688557 -1.686218 -19.960535 -174.407776 3.070287 20.536413 14.121014 0.990664 -21.869059 176.737053 0.572466 -20.536413 -0.386439 -0.043256 4.648882
1156.756668 500.025387 84.196328 0.000000 0.000000 0.000000 0.000000 0.000000 0.000000 -140.140767 5.107106 -19.021130 39.859233 -6.067206 -19.021130 -176.866589 -1.348738 17.633558 -153.177991 -4.044696 -24.270510 40.555680 3.748563 -17.633558 -13.944432 -0.374856 4.755283
1163.818588 490.292573 75.893794 0.000000 0.000000 0.000000 0.000000 0.000000 0.000000 -126.918075 17.028324 -16.886559 53.081925 -7.408751 -16.886559 -163.374411 0.869460 14.452610 -153.952175 -4.403895 -26.289200 36.914642 3.902463 -14.452610 0.798233 0.390003 4.842916
1176.523705 490.346003 85.573318 0.000000 0.000000 0.000000 0.000000 0.000000 0.000000 -130.072590 -4.691323 -13.690942 49.927410 3.605444 -13.690942 -150.224616 -1.918754 11.043737 24.749952 -1.075453 -27.893295 -162.219632 3.061384 -11.043737 1.550269 -0.085824 4.911436
1165.045052 489.521159 97.865346 0.000000 0.000000 0.000000 0.000000 0.000000 0.000000 -134.421293 -9.936643 -9.635073 45.578707 6.918024 -9.635073 -138.114962 -2.075372 7.460697 20.347125 4.117313 -29.057495 -149.675125 -0.887661 -7.460697 1.919618 0.025767 4.960574
1186.003189 485.341580 82.838635 0.000000 0.000000 0.000000 0.000000 0.000000 0.000000 151.263424 70.006073 -4.973798 -28.736576 46.518811 -4.973798 -155.571724 -3.819982 3.759997 -114.944239 7.955870 -29.763441 -157.446860 -4.269947 -3.759997 2.096391 0.365650 4.990134
1190.285912 497.609435 106.019588 0.000000 0.000000 0.000000 0.000000 0.000000 0.000000 -104.331435 4.324857 -0.000000 75.668565 32.165590 -0.000000 -153.934692 -5.104307 0.000000 -67.465008 6.829739 -30.000000 -71.629168 0.163605 -0.000000 -13.965204 -8.439108 5.000000
846.875610 502.341399 102.374602 0.000000 0.000000 0.000000 0.000000 0.000000 0.000000 -153.358185 -4.717438 4.973798 26.641815 -20.452345 4.973798 -147.628169 -4.781341 -3.759997 -147.401289 -5.809037 -29.763441 0.000000 0.000000 0.000000 0.000000 0.000000 0.000000
969.711343 443.490827 94.273978 0.000000 0.000000 0.000000 0.000000 0.000000 0.000000 20.204512 11.594393 9.635073 180.000000 -2.569869 9.635073 20.733157 4.678382 -7.460697 159.266843 -2.080289 -29.057495 24.065833 -8.044765 7.460697 18.000000 0.583582 4.960574
969.735789 443.468267 111.331249 0.000000 0.000000 0.000000 0.000000 0.000000 0.000000 20.415894 -12.706475 13.690942 180.000000 4.827029 13.690942 21.087741 -0.554545 -11.043737 158.912259 4.704036 -27.893295 24.320336 -7.391975 11.043737 18.000000 0.756625 4.911436
969.759168 443.445569 107.213970 0.000000 0.000000 0.000000 0.000000 0.000000 0.000000 20.642061 -3.960704 16.886559 180.000000 -11.345173 16.886559 21.453029 12.867758 -14.452610 158.546971 -2.942406 -26.289200 24.533304 9.789135 14.452610 18.000000 0.845608 4.842916
585.252171 514.469179 140.985902 0.000000 0.000000 0.000000 0.000000 0.000000 0.000000 74.723181 59.971472 19.021130 -105.276819 53.565004 19.021130 119.807175 -14.219631 -17.633558 165.825978 3.586528 -24.270510 138.012220 11.727373 17.633558 -12.357653 -0.866512 4.755283
624.843979 517.601860 113.009335 0.000000 0.000000 0.000000 0.000000 0.000000 0.000000 103.202449 -34.375547 19.960535 -76.797551 -9.218542 19.960535 114.381580 5.947380 -20.536413 -53.015473 73.103167 -21.869059 145.467160 -6.889635 20.536413 -4.173333 -0.359412 4.648882
969.822873 443.376664 142.183896 0.000000 0.000000 0.000000 0.000000 0.000000 0.000000 21.413420 17.539231 19.645745 180.000000 -6.214380 19.645745 22.607712 3.493650 -23.115397 157.392288 -5.440014 -19.122720 24.899813 -6.766545 23.115397 18.000000 1.445141 4.524135
969.841956 443.353428 116.305823 0.000000 0.000000 0.000000 0.000000 0.000000 0.000000 21.702987 -37.600662 18.096541 180.000000 10.123561 18.096541 23.009909 -5.618560 -25.329838 156.990091 7.963588 -16.074804 24.926562 -8.474293 25.329838 18.000000 0.727674 4.381533
969.859960 443.330059 128.495822 0.000000 0.000000 0.000000 0.000000 0.000000 0.000000 22.009579 -13.681575 15.410265 180.000000 9.110484 15.410265 23.419334 -10.664509 -27.144812 156.580666 12.191728 -12.773379 24.904993 -10.791634 27.144812 18.000000 0.972566 4.221640
594.905148 538.048757 140.871690 0.000000 0.000000 0.000000 0.000000 0.000000 0.000000 -57.080480 14.450099 11.755705 122.919520 -8.961241 11.755705 -12.750556 -3.647168 -28.531695 149.841027 -2.437261 -9.270510 -8.274090 -14.084396 28.531695 17.596979 0.507872 4.045085
969.892723 443.282929 135.547991 0.000000 0.000000 0.000000 0.000000 0.000000 0.000000 22.675903 -7.166274 7.362491 180.000000 4.430527 7.362491 24.255612 -3.202890 -29.468618 155.744388 -13.347014 -5.621439 24.720303 9.764032 29.468618 18.000000 0.323413 3.852566
1257.001877 499.708382 130.680700 0.000000 0.000000 0.000000 0.000000 0.000000 0.000000 52.818511 9.209699 2.506665 -127.181489 -7.237578 2.506665 25.369497 2.872545 -29.940802 -143.914951 -3.700029 -1.883716 14.556766 -0.965825 29.940802 -16.686776 0.273397 3.644843
1279.050064 493.773898 132.451563 0.000000 0.000000 0.000000 0.000000 0.000000 0.000000 56.685213 -0.199267 -2.506665 -123.314787 -0.356989 -2.506665 24.065452 2.494461 -29.940802 -146.540317 1.040762 1.883716 13.097461 -0.577730 29.940802 -16.716891 0.072025 3.422736
1295.108986 477.099677 149.635330 0.000000 0.000000 0.000000 0.000000 0.000000 0.000000 65.723361 8.154340 -7.362491 -114.276639 -9.392788 -7.362491 23.725299 2.060500 -29.468618 -147.984281 -0.806008 5.621439 13.187557 -2.875707 29.468618 -16.751134 0.220370 3.187120
1289.065018 496.763316 154.984635 0.000000 0.000000 0.000000 0.000000 0.000000 0.000000 61.662232 4.406207 -11.755705 -118.337768 3.492902 -11.755705 31.397757 -4.289399 -28.531695 -148.047797 0.868000 9.270510 12.491083 -0.552814 28.531695 -16.898368 -0.102155 2.938926
1285.337105 480.691112 137.078518 0.000000 0.000000 0.000000 0.000000 0.000000 0.000000 58.021980 12.217940 -15.410265 -121.978020 0.065362 -15.410265 31.705930 -3.019107 -27.144812 -157.028684 -2.252769 12.773379 11.107306 -1.638685 27.144812 -17.140016 0.038720 2.679134
1276.453171 465.093691 156.439279 0.000000 0.000000 0.000000 0.000000 0.000000 0.000000 70.157145 4.613623 -18.096541 -109.842855 -5.504290 -18.096541 40.303764 -1.237588 -25.329838 -145.293609 -0.304410 16.074804 10.431204 -2.902357 25.329838 -17.100572 0.130058 2.408768
1253.658714 472.768564 135.964077 0.000000 0.000000 0.000000 0.000000 0.000000 0.000000 65.087926 12.290320 -19.645745 -114.912074 -8.925062 -19.645745 -157.680356 -6.161226 -23.115397 -137.727082 -2.277915 19.122720 -153.053596 8.956963 23.115397 -16.054219 -0.827837 2.128896
1366.101608 507.691247 147.895131 0.000000 0.000000 0.000000 0.000000 0.000000 0.000000 108.715100 6.955405 -19.960535 -71.284900 7.404342 -19.960535 156.661132 9.019688 -20.536413 -158.224303 -5.356676 21.869059 0.000000 0.000000 0.000000 0.000000 0.000000 0.000000
969.986295 443.064535 147.726511 0.000000 0.000000 0.000000 0.000000 0.000000 0.000000 26.662144 -11.841384 -19.021130 180.000000 5.732753 -19.021130 28.015351 1.735525 -17.633558 151.984649 20.900471 24.270510 22.068935 -11.396180 17.633558 18.000000 -0.246712 1.545085
1282.107124 481.511257 137.702905 0.000000 0.000000 0.000000 0.000000 0.000000 0.000000 80.650781 31.280635 -16.886559 -99.349219 -26.819896 -16.886559 1.511604 1.524283 -14.452610 -32.896908 -7.397838 26.289200 -7.727072 -3.013960 14.452610 13.531851 4.479880 1.243449
1282.921486 484.777769 145.366106 0.000000 0.000000 0.000000 0.000000 0.000000 0.000000 -81.737646 -5.223629 -13.690942 98.262354 -15.830142 -13.690942 -23.867101 1.021428 -11.043737 12.655668 -2.691414 27.893295 -29.454911 -2.923265 11.043737 9.861248 1.121059 0.936907
1290.933037 513.180238 133.606439 0.000000 0.000000 0.000000 0.000000 0.000000 0.000000 -91.387864 -8.280540 -9.635073 88.612136 14.876081 -9.635073 -41.685392 1.747374 -7.460697 -161.156957 -5.290551 29.057495 15.157863 5.360683 7.460697 10.543436 -1.532774 0.626666
969.999452 442.964284 123.746611 0.000000 0.000000 0.000000 0.000000 0.000000 0.000000 29.025427 14.164753 -4.973798 180.000000 -6.972288 -4.973798 29.437993 4.991915 -3.759997 150.562007 -17.426520 29.763441 20.404746 13.046709 3.759997 18.000000 -1.299450 0.313953
970.000000 442.938926 126.264465 0.000000 0.000000 0.000000 0.000000 0.000000 0.000000 29.678605 -29.843619 0.000000 180.000000 -2.820552 0.000000 29.744881 -0.308992 -0.000000 150.255119 5.303866 30.000000 19.983107 -2.607207 0.000000 18.000000 -0.249895 0.000000
1354.522934 467.411410 128.831775 0.000000 0.000000 0.000000 0.000000 0.000000 0.000000 150.622570 17.494351 4.973798 -29.377430 -11.302351 4.973798 140.176400 -0.349746 3.759997 -12.221629 3.430403 29.763441 132.794256 -7.535905 -3.759997 -2.626015 -0.113037 0.313953
969.997807 442.887864 139.130396 0.000000 0.000000 0.000000 0.000000 0.000000 0.000000 31.061399 -13.909346 9.635073 180.000000 -11.448497 9.635073 30.285790 6.833334 7.460697 149.714210 1.371995 29.057495 19.151579 -8.091832 -7.460697 18.000000 0.860847 0.626666
1246.736984 514.278152 124.792967 0.000000 0.000000 0.000000 0.000000 0.000000 0.000000 143.557092 3.860828 13.690942 -36.442908 -7.533350 13.690942 133.761037 8.346921 11.043737 -156.950665 -5.925854 27.893295 0.000000 0.000000 0.000000 1.928484 0.511413 0.936907
1245.221100 458.637464 109.925016 0.000000 0.000000 0.000000 0.000000 0.000000 0.000000 160.701064 -2.650881 16.886559 -19.298936 -0.064537 16.886559 140.193827 4.230324 14.452610 -157.554825 -5.535315 26.289200 29.500467 4.987128 -14.452610 -15.049953 -0.498713 1.243449
1257.365570 418.514181 97.071513 0.000000 0.000000 0.000000 0.000000 0.000000 0.000000 -143.710676 12.140372 19.021130 36.289324 3.365342 19.021130 163.220413 -6.988935 17.633558 11.688054 1.057937 24.270510 152.038385 -1.961402 -17.633558 -2.339948 0.187268 1.545085
1275.099564 408.163741 108.275634 0.000000 0.000000 0.000000 0.000000 0.000000 0.000000 -132.929531 -20.075595 19.960535 47.070469 24.512009 19.960535 173.491912 -11.822217 20.536413 -160.709681 -4.241612 21.869059 33.138793 5.540518 -20.536413 -14.686121 -0.554052 1.840623
1290.611115 384.880857 92.123561 0.000000 0.000000 0.000000 0.000000 0.000000 0.000000 -132.705235 0.468986 19.645745 47.294765 6.726709 19.645745 -173.778854 -0.959053 23.115397 20.496835 5.184014 19.122720 -161.220290 -4.634185 -23.115397 1.723235 0.370315 2.128896
1302.817154 380.305352 116.469994 0.000000 0.000000 0.000000 0.000000 0.000000 0.000000 -131.493915 4.790265 18.096541 48.506085 -3.966406 18.096541 -165.393697 -0.640212 25.329838 23.154815 -2.979057 16.074804 -178.200316 0.554451 -25.329838 0.138141 -0.072534 2.408768
1304.997711 379.563582 107.246595 0.000000 0.000000 0.000000 0.000000 0.000000 0.000000 -126.727972 -0.664801 15.410265 53.272028 1.646435 15.410265 -160.219593 -3.660753 27.144812 28.448880 -2.841178 12.773379 -174.368770 0.168605 -27.144812 0.079526 0.102060 2.679134
1311.668472 386.890390 111.838912 0.000000 0.000000 0.000000 0.000000 0.000000 0.000000 -122.308728 2.761529 11.755705 57.691272 -17.804105 11.755705 -158.801130 3.929052 28.531695 150.942637 -12.367052 9.270510 -154.878332 -3.565008 -28.531695 2.695409 0.424895 2.938926
1305.131836 395.180186 87.081964 0.000000 0.000000 0.000000 0.000000 0.000000 0.000000 -125.112810 9.060775 7.362491 54.887190 -18.875301 7.362491 -146.487292 5.688983 29.468618 -175.167369 -4.925773 5.621439 -159.224034 -4.017870 -29.468618 1.782042 0.540115 3.187120
1296.320457 392.734526 79.406648 0.000000 0.000000 0.000000 0.000000 0.000000 0.000000 -131.035750 -9.035049 2.506665 48.964250 7.108812 2.506665 -128.969563 0.776085 29.940802 38.856147 5.247102 1.883716 -134.776850 -0.928594 -29.940802 3.458429 -0.055396 3.422736
1306.963577 386.612041 87.361961 0.000000 0.000000 0.000000 0.000000 0.000000 0.000000 -124.469622 8.981469 -2.506665 55.530378 -12.579651 -2.506665 -109.994856 0.973837 29.940802 37.691309 -0.098441 -1.883716 -118.274788 -0.516553 -29.940802 5.098336 -0.016265 3.644843
969.892723 442.572198 61.043191 0.000000 0.000000 0.000000 0.000000 0.000000 0.000000 41.287575 5.944046 -7.362491 180.000000 9.655433 -7.362491 30.974696 -7.397585 29.468618 149.025304 4.281913 -5.621439 15.072869 -2.689471 -29.468618 18.000000 0.198712 3.852566
969.876883 442.545207 46.768708 0.000000 0.000000 0.000000 0.000000 0.000000 0.000000 42.241956 -24.149265 -11.755705 180.000000 -5.331837 -11.755705 30.826133 4.516664 28.531695 149.173867 1.538979 -9.270510 14.823070 0.578401 -28.531695 18.000000 -0.189708 4.045085
969.859960 442.518116 64.204816 0.000000 0.000000 0.000000 0.000000 0.000000 0.000000 43.199779 -26.114449 -15.410265 180.000000 9.364504 -15.410265 30.649504 -2.048512 27.144812 149.350496 -3.834188 -12.773379 14.587557 8.117759 -27.144812 18.000000 -0.598988 4.221640
969.841956 442.490926 71.452763 0.000000 0.000000 0.000000 0.000000 0.000000 0.000000 44.157210 40.487907 -18.096541 180.000000 -12.505568 -18.096541 30.446417 -7.136004 25.329838 149.553583 -16.311572 -16.074804 14.366154 1.589665 -25.329838 18.000000 -0.057692 4.381533
969.822873 442.463637 44.482725 0.000000 0.000000 0.000000 0.000000 0.000000 0.000000 45.110117 -42.864046 -19.645745 180.000000 3.820339 -19.645745 30.218633 13.096833 23.115397 149.781367 1.587163 -19.122720 14.158653 0.333332 -23.115397 18.000000 0.643743 4.524135
969.802712 442.436251 40.412117 0.000000 0.000000 0.000000 0.000000 0.000000 0.000000 46.054109 -25.362791 -19.960535 180.000000 21.447042 -19.960535 29.968037 -8.270879 20.536413 150.031963 3.668870 -21.869059 13.964823 -3.751479 -20.536413 18.000000 0.446056 4.648882
1187.040939 541.658249 45.449003 0.000000 0.000000 0.000000 0.000000 0.000000 0.000000 82.806623 -11.215056 -19.021130 -97.193377 10.362813 -19.021130 45.395981 9.008743 17.633558 -156.144455 -2.263060 -24.270510 0.000000 0.000000 0.000000 0.000000 0.000000 0.000000
1182.242889 522.024286 37.623438 0.000000 0.000000 0.000000 0.000000 0.000000 0.000000 -105.721938 -12.405044 -16.886559 74.278062 1.886658 -16.886559 -155.708006 -2.083153 14.452610 -157.302521 -2.062487 -26.289200 0.000000 0.000000 0.000000 2.684983 0.204956 4.842916
1180.914459 527.065626 56.015518 0.000000 0.000000 0.000000 0.000000 0.000000 0.000000 88.055617 -7.307112 -13.690942 -91.944383 1.952975 -13.690942 -158.862018 -2.220836 11.043737 -151.747289 -1.823899 -27.893295 0.000000 0.000000 0.000000 0.000000 0.000000 0.000000
1236.800194 541.387432 49.570283 0.000000 0.000000 0.000000 0.000000 0.000000 0.000000 -85.588400 -19.394050 -9.635073 94.411600 3.967540 -9.635073 -159.297106 10.087821 7.460697 -157.915391 -1.746965 -29.057495 26.607362 1.897718 -7.460697 14.926890 0.785955 4.960574
1161.066513 575.006626 53.487344 0.000000 0.000000 0.000000 0.000000 0.000000 0.000000 -81.021168 12.513135 -4.973798 98.978832 -0.706317 -4.973798 -102.851701 5.350118 3.759997 -157.041007 -2.401697 -29.763441 21.429890 1.809262 -3.759997 10.859432 0.430542 4.990134
1255.636253 512.645942 55.127998 0.000000 0.000000 0.000000 0.000000 0.000000 0.000000 77.832564 -3.975204 -0.000000 -102.167436 5.400356 -0.000000 -158.264834 -2.770712 0.000000 -130.745502 2.631408 -30.000000 -157.699225 -2.975779 -0.000000 0.000000 0.000000 0.000000
1265.118484 521.473864 68.032063 0.000000 0.000000 0.000000 0.000000 0.000000 0.000000 64.078276 -1.006746 4.973798 -115.921724 -8.564600 4.973798 41.397952 3.979265 -3.759997 -139.329851 -1.968955 -29.763441 20.223252 0.597160 3.759997 -16.047574 0.145007 4.990134
1228.099480 522.138258 48.544494 0.000000 0.000000 0.000000 0.000000 0.000000 0.000000 71.050901 8.273919 9.635073 -108.949099 -8.629803 9.635073 150.099970 -5.486219 -7.460697 -139.894702 -3.832416 -29.057495 -156.275691 -3.094670 7.460697 0.000000 0.000000 0.000000
1240.357246 528.695873 65.269417 0.000000 0.000000 0.000000 0.000000 0.000000 0.000000 65.413351 -2.527972 13.690942 -114.586649 -11.749478 13.690942 147.242328 1.198430 -11.043737 -154.470720 -2.599066 -27.893295 25.557225 2.805590 11.043737 -15.444278 -0.280559 4.911436
1231.815262 551.380248 44.732562 0.000000 0.000000 0.000000 0.000000 0.000000 0.000000 56.412506 15.468180 16.886559 -123.587494 -17.132384 16.886559 -153.392336 6.232827 -14.452610 -154.784582 -3.164444 -26.289200 24.191555 3.839761 14.452610 -15.580844 -0.383976 4.842916
1221.475182 508.360147 66.629407 0.000000 0.000000 0.000000 0.000000 0.000000 0.000000 77.450622 -8.005152 19.021130 -102.549378 -1.943240 19.021130 -156.789784 -2.626052 -17.633558 -125.590168 -1.173282 -24.270510 -160.017240 -2.920192 17.633558 1.833434 0.458330 4.755283
969.477684 442.100429 67.072332 0.000000 0.000000 0.000000 0.000000 0.000000 0.000000 54.932575 19.209336 19.960535 180.000000 -11.048088 19.960535 25.919122 -1.559342 -20.536413 154.080878 -4.456282 -21.869059 12.612867 4.577104 20.536413 18.000000 0.019479 4.648882
1480.140495 518.878891 66.379161 0.000000 0.000000 0.000000 0.000000 0.000000 0.000000 -110.621767 -82.748819 19.645745 69.378233 63.806082 19.645745 -158.235933 -2.472008 -23.115397 166.031448 3.564637 -19.122720 -155.186432 -2.922353 23.115397 2.641553 0.324747 4.524135
1271.640472 556.840560 55.282714 0.000000 0.000000 0.000000 0.000000 0.000000 0.000000 -94.404719 -12.799097 18.096541 85.595281 -0.831442 18.096541 -62.417786 2.526543 -25.329838 23.992813 -3.173038 -16.074804 -76.856107 0.939782 25.329838 7.708835 0.038891 4.381533
1258.556786 530.268441 93.016323 0.000000 0.000000 0.000000 0.000000 0.000000 0.000000 78.355945 -5.188240 15.410265 -101.644055 1.165508 15.410265 35.068294 3.424142 -27.144812 -54.090640 7.390638 -12.773379 35.848220 -2.893766 27.144812 -8.104639 0.472189 4.221640
1250.800209 527.150567 81.297943 0.000000 0.000000 0.000000 0.000000 0.000000 0.000000 72.417769 -9.425075 11.755705 -107.582231 8.697996 11.755705 24.571109 0.740655 -28.531695 -39.196117 4.057386 -9.270510 10.411117 3.548669 28.531695 -9.048616 0.545492 4.045085
1243.466148 571.776259 71.568833 0.000000 0.000000 0.000000 0.000000 0.000000 0.000000 86.301473 -23.723437 7.362491 -93.698527 1.151453 7.362491 24.553534 1.806772 -29.468618 -153.460385 -3.640127 -5.621439 19.510484 3.281676 29.468618 -10.109500 -0.019718 3.852566
1261.883812 566.052918 104.315614 0.000000 0.000000 0.000000 0.000000 0.000000 0.000000 94.015209 12.871049 2.506665 -85.984791 -17.154946 2.506665 38.959993 -2.661905 -29.940802 -154.008305 -4.933874 -1.883716 20.870951 2.970182 29.940802 -10.872440 0.592864 3.644843
1284.436798 527.190542 108.697025 0.000000 0.000000 0.000000 0.000000 0.000000 0.000000 111.186365 6.134371 -2.506665 -68.813635 -13.180642 -2.506665 58.506163 3.074502 -29.940802 -19.138727 0.294270 1.883716 51.457372 -7.517045 29.940802 -5.203198 0.749470 3.422736
1272.860069 533.494012 111.875626 0.000000 0.000000 0.000000 0.000000 0.000000 0.000000 72.301471 -12.683248 -7.362491 -107.698529 12.009930 -7.362491 78.802573 2.244664 -29.468618 -154.772375 -4.478901 5.621439 26.927455 3.959709 29.468618 -15.307255 -0.395971 3.187120
1255.264664 498.243735 107.927355 0.000000 0.000000 0.000000 0.000000 0.000000 0.000000 164.596971 -52.628370 -11.755705 -15.403029 -29.571931 -11.755705 125.849126 7.058225 -28.531695 -156.067666 -4.864809 9.270510 33.087561 4.474918 28.531695 -14.691244 -0.447492 2.938926
1259.202232 470.407684 113.751087 0.000000 0.000000 0.000000 0.000000 0.000000 0.000000 -139.980397 -11.440258 -15.410265 40.019603 7.174246 -15.410265 165.887722 2.795336 -27.144812 -157.901492 -5.011246 12.773379 35.196094 5.349425 27.144812 -14.480391 -0.534943 2.679134
1236.502075 429.951335 124.973034 0.000000 0.000000 0.000000 0.000000 0.000000 0.000000 -113.295066 -5.499018 -18.096541 66.704934 9.427340 -18.096541 -174.664169 -3.820334 -25.329838 -159.007335 -5.274444 16.074804 32.868990 6.059241 25.329838 -14.713101 -0.605924 2.408768
1253.359451 413.942538 126.415903 0.000000 0.000000 0.000000 0.000000 0.000000 0.000000 -123.348580 1.616094 -19.645745 56.651420 -2.098966 -19.645745 -167.815074 -0.613655 -23.115397 -159.603180 -5.848338 19.122720 32.791747 6.902504 23.115397 -14.720825 -0.690250 2.128896
1281.206589 405.664523 130.437870 0.000000 0.000000 0.000000 0.000000 0.000000 0.000000 -124.414271 3.520002 -19.960535 55.585729 0.414738 -19.960535 -161.281803 4.038954 -20.536413 28.568449 1.524044 21.869059 -159.052798 -5.068753 20.536413 1.849141 0.373685 1.840623
1300.238571 418.760215 137.001497 0.000000 0.000000 0.000000 0.000000 0.000000 0.000000 -126.263092 -6.892241 -19.021130 53.736908 2.860295 -19.021130 -159.739358 5.260393 -17.633558 31.487961 5.467009 24.270510 -170.323915 -1.594430 17.633558 0.671815 0.040248 1.545085
1321.889191 413.634385 128.622284 0.000000 0.000000 0.000000 0.000000 0.000000 0.000000 -133.874471 1.551196 -16.886559 46.125529 3.333876 -16.886559 -159.376251 0.884229 -14.452610 30.696824 1.817586 26.289200 -164.929556 -1.699731 14.452610 1.089735 0.040057 1.243449
1336.221428 432.881820 138.403371 0.000000 0.000000 0.000000 0.000000 0.000000 0.000000 -115.020798 -0.262691 -13.690942 64.979202 1.395169 -13.690942 -135.609544 0.670171 -11.043737 -161.321630 -6.147938 27.893295 17.353502 7.357061 11.043737 -16.264650 -0.735706 0.936907
1329.124603 416.860342 142.979370 0.000000 0.000000 0.000000 0.000000 0.000000 0.000000 -134.023347 1.880051 -9.635073 45.976653 -3.357741 -9.635073 -128.030830 1.511693 -7.460697 28.249885 -3.678064 29.057495 -136.447985 1.888832 7.460697 4.038834 -0.078289 0.626666
1343.366776 427.060794 150.985818 0.000000 0.000000 0.000000 0.000000 0.000000 0.000000 -130.153347 -4.920330 -4.973798 49.846653 0.383757 -4.973798 -103.564435 1.715713 -3.759997 27.398095 2.240879 29.763441 -115.461530 0.688689 3.759997 5.470063 -0.128835 0.313953
1376.991005 465.829636 150.882885 0.000000 0.000000 0.000000 0.000000 0.000000 0.000000 -120.272352 10.309321 0.000000 59.727648 -19.832813 0.000000 -62.204131 -0.589439 -0.000000 27.740602 0.951521 30.000000 -80.461527 -6.706540 0.000000 7.450891 0.136340 0.000000
1384.978867 468.790376 145.202653 0.000000 0.000000 0.000000 0.000000 0.000000 0.000000 -93.720384 -17.620924 4.973798 86.279616 20.459662 4.973798 3.847814 -1.776149 3.759997 -160.438787 -6.122639 29.763441 15.990976 5.128312 -3.759997 7.894783 0.408820 0.313953
1345.894547 516.257268 146.448882 0.000000 0.000000 0.000000 0.000000 0.000000 0.000000 127.577640 13.512883 9.635073 -52.422360 3.903124 9.635073 53.096359 1.648381 7.460697 -159.021748 -6.050973 29.057495 18.308456 4.882496 -7.460697 -4.062191 2.373078 0.626666
968.498927 441.455181 144.421289 0.000000 0.000000 0.000000 0.000000 0.000000 0.000000 47.920147 -35.375122 13.690942 180.000000 23.293563 13.690942 19.641385 -5.501133 11.043737 160.358615 7.300209 27.893295 13.993219 -4.689193 -11.043737 18.000000 0.675025 0.936907
1336.846733 493.527671 158.642448 0.000000 0.000000 0.000000 0.000000 0.000000 0.000000 102.681311 14.709295 16.886559 -77.318689 -36.054696 16.886559 35.985219 6.314195 14.452610 -159.617763 -6.692245 26.289200 19.375410 5.981367 -14.452610 -16.062459 -0.598137 1.243449
968.386706 441.394956 151.221516 0.000000 0.000000 0.000000 0.000000 0.000000 0.000000 46.120581 -9.128331 19.021130 180.000000 -9.462796 19.021130 19.316787 -2.268557 17.633558 160.683213 4.440998 24.270510 14.327067 -9.782369 -17.633558 18.000000 0.748240 1.545085
1263.984947 433.341283 162.431868 0.000000 0.000000 0.000000 0.000000 0.000000 0.000000 -115.578373 3.506279 19.960535 64.421627 -9.284889 19.960535 -82.396446 -0.615726 20.536413 25.733383 -1.323452 21.869059 -77.477544 -2.937246 -20.536413 5.836928 1.144908 1.840623
1352.596436 477.564354 154.937527 0.000000 0.000000 0.000000 0.000000 0.000000 0.000000 -99.196741 10.124427 19.645745 80.803259 -1.579498 19.645745 -125.272585 -4.252666 23.115397 -162.405270 -7.178298 19.122720 17.377627 7.509154 -23.115397 -16.262237 -0.750915 2.128896
1384.326782 408.174427 146.069754 0.000000 0.000000 0.000000 0.000000 0.000000 0.000000 96.868601 -22.205860 18.096541 -83.131399 4.548933 18.096541 -160.848957 -6.290697 25.329838 -137.255583 -0.341916 16.074804 -162.076720 -6.834241 -25.329838 0.000000 0.000000 0.000000
1387.580223 387.128634 138.254385 0.000000 0.000000 0.000000 0.000000 0.000000 0.000000 78.087764 10.696918 15.410265 -101.912236 -1.111079 15.410265 -161.807915 -6.313080 27.144812 -147.504361 -1.259896 12.773379 -162.566306 -7.134435 -27.144812 1.735427 0.852713 2.679134
1345.818558 392.423122 152.957452 0.000000 0.000000 0.000000 0.000000 0.000000 0.000000 71.782984 3.214299 11.755705 -108.217016 11.223704 11.755705 -169.469261 -0.056506 28.531695 -153.903088 1.399460 9.270510 -154.670689 5.134405 -28.531695 15.277725 0.094108 2.938926
1331.471329 361.814139 134.339371 0.000000 0.000000 0.000000 0.000000 0.000000 0.000000 53.586100 -1.689446 7.362491 -126.413900 16.289513 7.362491 -162.290330 -6.381993 29.468618 -154.912165 -1.907210 5.621439 -162.550394 -6.467602 -29.468618 1.742175 0.819543 3.187120
1354.413986 427.213873 136.709599 0.000000 0.000000 0.000000 0.000000 0.000000 0.000000 -131.358118 11.044313 2.506665 48.641882 -26.540121 2.506665 -142.488821 5.656720 29.940802 -161.977882 -6.262330 1.883716 12.673705 8.811192 -29.940802 1.397524 -0.134412 3.422736
1330.326691 347.207226 120.965449 0.000000 0.000000 0.000000 0.000000 0.000000 0.000000 52.464175 1.425364 -2.506665 -127.535825 2.095064 -2.506665 14.270918 3.700016 29.940802 -122.057234 2.720874 -1.883716 22.820874 -2.604512 -29.940802 -15.244909 0.019613 3.644843
1317.103271 414.475805 134.320293 0.000000 0.000000 0.000000 0.000000 0.000000 0.000000 76.170457 13.767116 -7.362491 -103.829543 -11.220102 -7.362491 -50.250674 3.823806 29.468618 -52.503744 -0.663663 -5.621439 -92.793049 2.955345 -29.468618 3.303440 -0.324032 3.852566
1331.844635 430.291482 118.346713 0.000000 0.000000 0.000000 0.000000 0.000000 0.000000 79.985160 7.018011 -11.755705 -100.014840 -3.215562 -11.755705 25.995082 0.301258 28.531695 -75.062603 -1.153413 -9.270510 38.761234 3.299398 -28.531695 -11.442229 -0.325065 4.045085
1359.462433 496.472383 114.330802 0.000000 0.000000 0.000000 0.000000 0.000000 0.000000 84.268829 12.951986 -15.410265 -95.731171 -4.153481 -15.410265 30.279153 -2.220714 27.144812 -63.318008 -4.960392 -12.773379 39.457716 1.521946 -27.144812 -9.485742 -0.105233 4.221640
1323.514366 546.771398 139.232845 0.000000 0.000000 0.000000 0.000000 0.000000 0.000000 84.407325 -0.982864 -18.096541 -95.592675 7.075023 -18.096541 27.768249 -4.262266 25.329838 -47.660055 3.015258 -16.074804 28.281511 -0.833519 -25.329838 -7.827901 0.299134 4.381533
1268.535347 591.567099 125.826630 0.000000 0.000000 0.000000 0.000000 0.000000 0.000000 90.890792 17.801111 -19.645745 -89.109208 4.146553 -19.645745 44.654760 -5.238046 23.115397 -48.200667 -2.243286 -19.122720 43.369388 2.798345 -23.115397 -8.974980 0.290994 4.524135
1303.157158 602.888768 96.641598 0.000000 0.000000 0.000000 0.000000 0.000000 0.000000 90.349289 -0.094363 -19.960535 -89.650711 0.334342 -19.960535 47.707312 1.858722 20.536413 -53.918782 3.540959 -21.869059 40.070965 -9.286604 -20.536413 -9.318632 1.216345 4.648882
1314.841690 613.141973 93.058077 0.000000 0.000000 0.000000 0.000000 0.000000 0.000000 94.480501 3.875596 -19.021130 -85.519499 -2.648110 -19.021130 58.462862 -1.231968 17.633558 -52.020507 -5.295713 -24.270510 55.276552 5.385995 -17.633558 -7.777523 -0.755192 4.755283
1327.521400 639.394319 118.809364 0.000000 0.000000 0.000000 0.000000 0.000000 0.000000 99.879576 -1.256488 -16.886559 -80.120424 4.239553 -16.886559 69.161359 0.647857 14.452610 -46.413613 0.622932 -26.289200 76.680143 -0.725456 -14.452610 -6.257768 0.060992 4.842916
1277.812729 671.228578 99.768020 0.000000 0.000000 0.000000 0.000000 0.000000 0.000000 99.708534 5.490213 -13.690942 -80.291466 -2.473055 -13.690942 92.239140 -0.492162 11.043737 -26.764021 -5.182145 -27.893295 98.168457 6.240677 -11.043737 -4.372074 -0.438020 4.911436
1309.642181 690.479329 78.186366 0.000000 0.000000 0.000000 0.000000 0.000000 0.000000 117.292414 6.068626 -9.635073 -62.707586 1.518596 -9.635073 137.002702 -2.213666 7.460697 -32.045917 -1.248593 -29.057495 135.211322 0.238011 -7.460697 -3.212944 -0.108461 4.960574
1299.770966 664.126496 79.394134 0.000000 0.000000 0.000000 0.000000 0.000000 0.000000 158.531160 7.396071 -4.973798 -21.468840 -17.016337 -4.973798 161.478323 -2.381113 3.759997 -12.838206 -6.279363 -29.763441 151.269584 0.848693 -3.759997 -2.521934 0.165246 4.990134
1313.353729 643.668108 71.927443 0.000000 0.000000 0.000000 0.000000 0.000000 0.000000 -154.315892 5.296067 -0.000000 25.684108 5.438738 -0.000000 173.459940 -0.683459 0.000000 1.519689 5.087147 -30.000000 164.244875 -2.066363 -0.000000 -1.552244 0.013503 5.000000
1342.841377 638.982847 89.176953 0.000000 0.000000 0.000000 0.000000 0.000000 0.000000 -138.993869 -2.182350 4.973798 41.006131 7.097876 4.973798 175.724056 -0.487590 -3.759997 -151.723069 -2.905496 -29.763441 43.242568 4.048733 3.759997 -13.675743 -0.404873 4.990134
1350.000229 614.724133 85.104499 0.000000 0.000000 0.000000 0.000000 0.000000 0.000000 -144.248147 7.021299 9.635073 35.751853 -2.466840 9.635073 177.069273 2.708056 -7.460697 -152.227621 -3.452707 -29.057495 43.136563 3.824533 7.460697 -13.686344 -0.382453 4.960574
1328.535919 624.780936 77.494311 0.000000 0.000000 0.000000 0.000000 0.000000 0.000000 -165.447222 14.689277 13.690942 14.552778 -14.894905 13.690942 169.657511 1.441571 -11.043737 -152.168050 -3.070087 -27.893295 41.929642 3.790664 11.043737 -13.807036 -0.379066 4.911436
1318.810501 615.688248 56.115105 0.000000 0.000000 0.000000 0.000000 0.000000 0.000000 -120.063657 7.642155 16.886559 59.936343 -5.308053 16.886559 -165.389465 -3.838748 -14.452610 -152.866764 -3.470121 -26.289200 39.162270 2.455830 14.452610 -14.083773 -0.245583 4.842916
1321.656418 659.275410 81.119545 0.000000 0.000000 0.000000 0.000000 0.000000 0.000000 -121.435085 14.537379 19.021130 58.564915 -12.793723 19.021130 -149.190712 -0.988722 -17.633558 -151.926374 -3.546580 -24.270510 33.097066 4.004527 17.633558 -14.690293 -0.400453 4.755283
1328.445511 687.490232 49.859835 0.000000 0.000000 0.000000 0.000000 0.000000 0.000000 -104.253419 0.682040 19.960535 75.746581 -8.492234 19.960535 -110.140878 -5.025856 -20.536413 -152.911692 -2.569290 -21.869059 23.882145 2.922759 20.536413 3.694979 0.156721 4.648882
966.534206 440.564282 34.973549 0.000000 0.000000 0.000000 0.000000 0.000000 0.000000 25.865486 7.291743 19.645745 180.000000 -12.749070 19.645745 18.728337 8.208875 -23.115397 161.271663 1.720463 -19.122720 19.024234 -8.213514 23.115397 18.000000 1.217587 4.524135
966.454577 440.533056 51.456646 0.000000 0.000000 0.000000 0.000000 0.000000 0.000000 25.417507 8.232126 18.096541 180.000000 -7.222256 18.096541 18.825450 3.802490 -25.329838 161.174550 -1.923020 -16.074804 19.071566 -1.969270 25.329838 18.000000 1.387159 4.381533
966.374240 440.501809 44.433712 0.000000 0.000000 0.000000 0.000000 0.000000 0.000000 24.990320 -4.504061 15.410265 180.000000 5.507415 15.410265 18.929718 -1.858887 -27.144812 161.070282 -2.260137 -12.773379 19.102411 5.384291 27.144812 18.000000 0.021537 4.221640
966.293204 440.470542 41.101889 0.000000 0.000000 0.000000 0.000000 0.000000 0.000000 24.583377 -9.084676 11.755705 180.000000 5.837564 11.755705 19.040946 -5.018281 -28.531695 160.959054 -4.846977 -9.270510 19.116765 20.774983 28.531695 18.000000 -2.063049 4.045085
966.211478 440.439256 54.239435 0.000000 0.000000 0.000000 0.000000 0.000000 0.000000 24.196129 -5.438989 7.362491 180.000000 11.558863 7.362491 19.158923 -11.695560 -29.468618 160.841077 10.458139 -5.621439 19.114778 0.162661 29.468618 18.000000 -0.857741 3.852566
644.985180 745.864069 48.583075 0.000000 0.000000 0.000000 0.000000 0.000000 0.000000 96.086415 26.910287 2.506665 -83.913585 -35.777342 2.506665 -159.662371 8.185810 -29.940802 -116.741565 -26.917979 -1.883716 -176.001217 11.253548 29.940802 -1.006627 -0.215704 3.644843
1269.020119 699.025490 46.076689 0.000000 0.000000 0.000000 0.000000 0.000000 0.000000 83.810916 6.035078 -2.506665 -96.189084 -5.552797 -2.506665 51.932890 1.087007 -29.940802 -149.314466 -2.725762 1.883716 27.598511 2.517813 29.940802 -15.240149 -0.251781 3.422736
573.721218 678.450201 48.987790 0.000000 0.000000 0.000000 0.000000 0.000000 0.000000 18.756393 20.270698 -7.362491 -161.243607 -29.985715 -7.362491 -174.158094 0.898557 -29.468618 178.010322 -9.293281 5.621439 -154.394154 6.076488 29.468618 11.886524 0.361159 3.187120
1261.580200 714.897366 42.274412 0.000000 0.000000 0.000000 0.000000 0.000000 0.000000 87.191276 -14.128991 -11.755705 -92.808724 -0.295677 -11.755705 23.129119 5.066465 -28.531695 -149.376238 -1.638450 9.270510 24.545507 2.625674 28.531695 13.583501 -5.137885 2.938926
1314.655838 684.171546 57.402754 0.000000 0.000000 0.000000 0.000000 0.000000 0.000000 61.219932 -5.801051 -15.410265 -118.780068 0.876013 -15.410265 25.476616 1.765415 -27.144812 -150.404247 -2.037238 12.773379 24.621454 1.247874 27.144812 -15.537855 -0.124787 2.679134
1319.638939 674.820013 64.976447 0.000000 0.000000 0.000000 0.000000 0.000000 0.000000 82.055377 -6.880804 -18.096541 -97.944623 5.356640 -18.096541 17.325085 -8.273191 -25.329838 -60.067277 2.880055 16.074804 23.747728 -1.288843 25.329838 -13.005173 0.116749 2.408768
1367.852325 659.536314 59.282220 0.000000 0.000000 0.000000 0.000000 0.000000 0.000000 -150.278430 -24.457991 -19.645745 29.721570 25.819624 -19.645745 -151.222797 -2.520904 -23.115397 18.758043 0.958957 19.122720 -152.451920 -1.910062 23.115397 2.484143 0.211011 2.128896
1392.624664 638.981302 65.305404 0.000000 0.000000 0.000000 0.000000 0.000000 0.000000 -122.704248 6.267745 -19.960535 57.295752 -1.195811 -19.960535 -134.513385 1.605455 -20.536413 30.292627 -3.700040 21.869059 -146.694539 1.255576 20.536413 2.430965 -0.100518 1.840623
1401.291389 646.422758 72.224418 0.000000 0.000000 0.000000 0.000000 0.000000 0.000000 83.316637 1.853513 -19.021130 -96.683363 -9.199252 -19.021130 29.335627 10.425190 -17.633558 -136.281416 -1.824697 24.270510 19.119183 -1.299812 17.633558 -15.871560 0.088982 1.545085
1381.838951 663.410475 86.806027 0.000000 0.000000 0.000000 0.000000 0.000000 0.000000 79.215331 4.798488 -16.886559 -100.784669 -4.946104 -16.886559 30.640455 -6.343027 -14.452610 -139.113455 -2.507008 26.289200 14.302413 -0.162162 14.452610 -16.408036 0.160827 1.243449
1390.185928 664.248354 80.623355 0.000000 0.000000 0.000000 0.000000 0.000000 0.000000 75.546066 -0.302865 -13.690942 -104.453934 -1.683970 -13.690942 38.995097 1.319015 -11.043737 -142.871297 1.543805 27.893295 14.209110 -0.677501 11.043737 -16.737090 -0.030866 0.936907
1393.889923 677.551103 108.466323 0.000000 0.000000 0.000000 0.000000 0.000000 0.000000 84.293627 2.055497 -9.635073 -95.706373 -5.994980 -9.635073 -152.700272 -2.885256 -7.460697 -143.357755 -0.165633 29.057495 -148.868889 -4.136770 7.460697 3.626268 0.455433 0.626666
905.601082 693.654528 110.575422 0.000000 0.000000 0.000000 0.000000 0.000000 0.000000 -84.410869 3.483857 -4.973798 95.589131 5.752914 -4.973798 -139.498802 -4.501328 -3.759997 -178.556713 10.363695 29.763441 -142.061844 -4.491896 3.759997 3.411456 0.466746 0.313953
1337.643929 680.318756 102.422588 0.000000 0.000000 0.000000 0.000000 0.000000 0.000000 78.192517 2.479810 0.000000 -101.807483 5.206518 0.000000 48.289813 -5.748462 -0.000000 -140.291980 0.222102 30.000000 13.663140 -1.136867 0.000000 -17.395561 0.056488 0.000000
1322.670708 685.543334 83.790428 0.000000 0.000000 0.000000 0.000000 0.000000 0.000000 71.501063 2.549037 4.973798 -108.498937 9.409779 4.973798 23.648228 -3.239471 3.759997 -144.586500 4.020672 29.763441 14.578018 -0.385078 -3.759997 -16.885607 -0.087660 0.313953
1305.530548 682.910864 108.334910 0.000000 0.000000 0.000000 0.000000 0.000000 0.000000 72.979287 -35.550431 9.635073 -107.020713 43.944168 9.635073 -148.728581 -4.152707 7.460697 -74.802907 15.711589 29.057495 -151.178244 -4.368566 -7.460697 2.601049 0.371650 0.626666
1359.363556 692.650115 90.491127 0.000000 0.000000 0.000000 0.000000 0.000000 0.000000 73.244804 3.704697 13.690942 -106.755196 -1.874369 13.690942 13.983499 5.992051 11.043737 -67.611809 -3.331502 27.893295 13.130547 4.226299 -11.043737 -11.004089 0.078257 0.936907
1299.495964 679.994059 127.569328 0.000000 0.000000 0.000000 0.000000 0.000000 0.000000 116.206779 8.946270 16.886559 -63.793221 -2.675520 16.886559 -150.858719 -4.797377 14.452610 -34.548592 -1.979529 26.289200 60.366751 -8.683538 -14.452610 -4.627493 0.680805 1.243449
1306.260338 711.527116 103.037239 0.000000 0.000000 0.000000 0.000000 0.000000 0.000000 -85.758672 -1.868678 19.021130 94.241328 30.598684 19.021130 -31.461750 -2.055212 17.633558 -4.237664 6.940817 24.270510 -15.215787 -3.587144 -17.633558 7.867754 2.843174 1.545085
1272.614822 704.778571 123.394006 0.000000 0.000000 0.000000 0.000000 0.000000 0.000000 -78.634637 -25.592705 19.960535 101.365363 14.391936 19.960535 -34.118569 -2.402350 20.536413 22.539652 3.406621 21.869059 -31.373170 0.496740 -20.536413 11.310693 -0.918279 1.840623
1310.345650 676.427021 138.379249 0.000000 0.000000 0.000000 0.000000 0.000000 0.000000 97.572435 -2.940707 19.645745 -82.427565 -7.445850 19.645745 50.400703 5.656715 23.115397 -39.584286 -0.131406 19.122720 44.966766 2.737075 -23.115397 -8.852712 -0.898993 2.128896
1315.732956 671.025095 125.512034 0.000000 0.000000 0.000000 0.000000 0.000000 0.000000 97.797337 1.531058 18.096541 -82.202663 0.924844 18.096541 49.825934 0.948267 25.329838 -39.162923 -2.020448 16.074804 36.475631 6.533869 -25.329838 -8.191519 -1.924674 2.408768
1329.935532 653.525419 152.320392 0.000000 0.000000 0.000000 0.000000 0.000000 0.000000 96.469555 -5.696139 15.410265 -83.530445 5.443095 15.410265 63.882053 -1.400168 27.144812 -51.972064 2.716522 12.773379 58.624362 -0.779710 -27.144812 -8.239564 0.238961 2.679134
1316.170578 674.246514 144.924272 0.000000 0.000000 0.000000 0.000000 0.000000 0.000000 -87.946330 10.747561 11.755705 92.053670 -6.455374 11.755705 -29.715798 -3.594138 28.531695 54.212796 -2.854964 9.270510 -40.560774 1.765747 -28.531695 11.008015 -0.692466 2.938926
1317.367287 678.027205 143.577529 0.000000 0.000000 0.000000 0.000000 0.000000 0.000000 95.152942 1.304753 7.362491 -84.847058 -7.644816 7.362491 98.792835 3.091188 29.468618 -150.515547 -5.970125 5.621439 32.983753 5.455365 -29.468618 -14.701625 -0.545537 3.187120
1318.168488 670.157025 148.381115 0.000000 0.000000 0.000000 0.000000 0.000000 0.000000 -151.252255 25.455189 2.506665 28.747745 -15.906461 2.506665 138.896993 1.279261 29.940802 -151.946620 -6.558980 1.883716 38.784684 6.599054 -29.940802 -14.121532 -0.659905 3.422736
1323.412628 644.667885 135.652997 0.000000 0.000000 0.000000 0.000000 0.000000 0.000000 -97.904066 25.215356 -2.506665 82.095934 -19.383174 -2.506665 155.695030 -3.966355 29.940802 -152.500978 -7.025465 -1.883716 44.721081 6.652556 -29.940802 -13.527892 -0.665256 3.644843
1312.776718 630.059459 144.349454 0.000000 0.000000 0.000000 0.000000 0.000000 0.000000 -116.637972 28.766620 -7.362491 63.362028 -25.544287 -7.362491 171.094570 6.284831 29.468618 -152.894064 -7.091802 -5.621439 43.947863 7.060092 -29.468618 -13.605214 -0.706009 3.852566
1316.420746 625.237019 123.936996 0.000000 0.000000 0.000000 0.000000 0.000000 0.000000 -136.254273 -6.068373 -11.755705 43.745727 4.813534 -11.755705 -177.663204 -0.296887 28.531695 -153.006287 -6.176419 -9.270510 42.784597 8.732633 -28.531695 -13.721540 -0.873263 4.045085
1314.719925 628.818026 143.825942 0.000000 0.000000 0.000000 0.000000 0.000000 0.000000 -114.737929 -0.640814 -15.410265 65.262071 -10.474003 -15.410265 -169.764314 1.912949 27.144812 -153.369487 -6.544346 -12.773379 41.498347 8.709685 -27.144812 -13.850165 -0.870968 4.221640
1334.396782 646.165652 156.182618 0.000000 0.000000 0.000000 0.000000 0.000000 0.000000 -116.903454 -11.723709 -18.096541 63.096546 4.413232 -18.096541 -154.594534 -3.790148 25.329838 -153.225015 -6.281671 -16.074804 37.136182 8.876595 -25.329838 -14.286382 -0.887659 4.381533
1340.823784 648.244128 149.976205 0.000000 0.000000 0.000000 0.000000 0.000000 0.000000 -116.932323 8.991768 -19.645745 63.067677 -11.448294 -19.645745 -138.898656 3.045863 23.115397 35.335752 -6.187884 -19.122720 -153.336856 0.898255 -23.115397 2.206211 0.010695 4.524135
1330.023880 654.599032 146.799700 0.000000 0.000000 0.000000 0.000000 0.000000 0.000000 -112.150704 -6.948745 -19.960535 67.849296 -5.055545 -19.960535 -118.798313 5.518313 20.536413 -153.636372 -6.077173 -21.869059 16.691869 8.285507 -20.536413 -16.330813 -0.828551 4.648882
1337.431641 662.410698 147.472103 0.000000 0.000000 0.000000 0.000000 0.000000 0.000000 -109.111809 3.702547 -19.021130 70.888191 -1.035318 -19.021130 -91.144379 3.229880 17.633558 -154.448144 -6.735468 -24.270510 10.298202 6.492997 -17.633558 6.642051 -0.207381 4.755283
1324.339714 676.416593 129.986531 0.000000 0.000000 0.000000 0.000000 0.000000 0.000000 -104.120178 8.269784 -16.886559 75.879822 -11.415090 -16.886559 -57.095620 0.034591 14.452610 38.799650 -2.307277 -26.289200 -71.942639 -3.631941 -14.452610 8.831938 0.126331 4.842916
962.890318 439.311049 142.180845 0.000000 0.000000 0.000000 0.000000 0.000000 0.000000 19.986963 -1.683060 -13.690942 180.000000 -8.219828 -13.690942 24.297229 -2.445121 11.043737 155.702771 3.463328 -27.893295 14.983342 3.634882 -11.043737 18.000000 -0.549622 4.911436
962.789911 439.279946 143.204513 0.000000 0.000000 0.000000 0.000000 0.000000 0.000000 20.089586 -12.747732 -9.635073 180.000000 5.491642 -9.635073 24.330184 2.159150 7.460697 155.669816 6.725171 -29.057495 14.926290 -4.039982 -7.460697 18.000000 0.247710 4.960574
641.318550 641.336324 125.037951 0.000000 0.000000 0.000000 0.000000 0.000000 0.000000 163.642929 -8.996799 -4.973798 -16.357071 8.739842 -4.973798 -155.926011 -3.503487 3.759997 -130.644608 -8.542662 -29.763441 68.679337 10.727709 -3.759997 -11.132066 -1.072771 4.990134
1305.385551 662.289033 133.342329 0.000000 0.000000 0.000000 0.000000 0.000000 0.000000 -81.949824 9.008110 -0.000000 98.050176 -6.441962 -0.000000 9.536664 -1.135086 0.000000 -153.586691 -5.731590 -30.000000 24.402531 5.375166 -0.000000 -15.559747 -0.537517 5.000000
962.486899 439.186814 116.810138 0.000000 0.000000 0.000000 0.000000 0.000000 0.000000 20.465882 -7.273360 4.973798 180.000000 -1.518572 4.973798 24.357206 2.114617 -3.759997 155.642794 8.041286 -29.763441 14.800425 0.729097 3.759997 18.000000 -0.601583 4.990134
1216.314240 612.580640 120.047032 0.000000 0.000000 0.000000 0.000000 0.000000 0.000000 78.221991 2.677707 9.635073 -101.778009 -9.146986 9.635073 46.689014 0.726288 -7.460697 -61.937558 -4.721093 -29.057495 44.546377 -0.072806 7.460697 -10.771750 0.198002 4.960574
1273.897820 573.707514 127.111836 0.000000 0.000000 0.000000 0.000000 0.000000 0.000000 77.469628 -3.628578 13.690942 -102.530372 -7.483498 13.690942 -155.691164 -4.440244 -11.043737 -120.750172 3.735829 -27.893295 -156.229293 -6.268529 11.043737 2.162203 0.488404 4.911436
1337.358742 570.303276 137.860388 0.000000 0.000000 0.000000 0.000000 0.000000 0.000000 73.705918 -1.030148 16.886559 -106.294082 -3.669428 16.886559 -155.918376 -4.936816 -14.452610 -149.887909 -4.973754 -26.289200 0.000000 0.000000 0.000000 0.000000 0.000000 0.000000
1342.446442 569.623497 116.228052 0.000000 0.000000 0.000000 0.000000 0.000000 0.000000 68.898287 1.209228 19.021130 -111.101713 2.274454 19.021130 39.314088 0.886249 -17.633558 -140.912764 -0.458334 -24.270510 -153.216026 -5.618994 17.633558 2.759242 0.669663 4.755283
1335.759430 584.665475 101.510070 0.000000 0.000000 0.000000 0.000000 0.000000 0.000000 66.989329 -0.304938 19.960535 -113.010671 5.585597 19.960535 -154.807077 -5.003511 -20.536413 -142.328055 2.534635 -21.869059 -153.049156 -5.874203 20.536413 2.866457 0.713963 4.648882
1337.950974 598.074245 106.566658 0.000000 0.000000 0.000000 0.000000 0.000000 0.000000 62.697633 2.592371 19.645745 -117.302367 -9.577153 19.645745 19.366736 5.907824 -23.115397 -144.826223 -0.383984 -19.122720 9.911455 0.640005 23.115397 -17.004209 -0.000340 4.524135
1352.846489 601.043322 90.983780 0.000000 0.000000 0.000000 0.000000 0.000000 0.000000 59.083577 -6.865023 18.096541 -120.916423 1.152024 18.096541 20.876734 -4.607929 -25.329838 -142.301690 0.019495 -16.074804 13.356960 -1.281310 25.329838 -16.821524 0.075043 4.381533
1347.310982 587.475100 85.432142 0.000000 0.000000 0.000000 0.000000 0.000000 0.000000 56.169135 -8.269050 15.410265 -123.830865 -2.183991 15.410265 21.172503 0.882499 -27.144812 -139.640745 0.151111 -12.773379 14.641496 1.577823 27.144812 -16.282575 -0.242574 4.221640
1326.982155 606.886139 71.857572 0.000000 0.000000 0.000000 0.000000 0.000000 0.000000 70.119981 5.327211 11.755705 -109.880019 -5.567569 11.755705 26.511889 -0.451719 -28.531695 -111.264667 -5.097524 -9.270510 31.153840 1.835366 28.531695 -13.943905 0.079209 4.045085
1354.391098 626.185555 90.788304 0.000000 0.000000 0.000000 0.000000 0.000000 0.000000 88.154395 11.724275 7.362491 -91.845605 -2.225391 7.362491 30.442275 -3.540798 -29.468618 -76.284233 1.468381 -5.621439 43.854867 -2.447510 29.468618 -10.818190 -0.021437 3.852566
1370.667114 610.219567 89.587140 0.000000 0.000000 0.000000 0.000000 0.000000 0.000000 89.945118 -0.119623 2.506665 -90.054882 -0.548420 2.506665 44.053326 9.153364 -29.940802 -56.238091 4.168630 -1.883716 55.411270 -3.353318 29.940802 -7.805659 0.346599 3.644843
1372.834854 597.828534 67.793931 0.000000 0.000000 0.000000 0.000000 0.000000 0.000000 93.407992 -0.376465 -2.506665 -86.592008 -1.338084 -2.506665 54.165845 -3.377077 -29.940802 -47.239220 -3.418238 1.883716 56.575186 4.830152 29.940802 -6.344474 -0.865213 3.422736
1336.554337 597.454848 73.868409 0.000000 0.000000 0.000000 0.000000 0.000000 0.000000 95.622643 -1.742379 -7.362491 -84.377357 -1.280337 -7.362491 56.597780 5.078763 -29.468618 -45.108662 2.247829 5.621439 55.386034 4.624572 29.468618 -7.206870 -0.295471 3.187120
1310.567093 590.844769 69.423308 0.000000 0.000000 0.000000 0.000000 0.000000 0.000000 100.193768 -2.083086 -11.755705 -79.806232 -1.715076 -11.755705 61.986347 -1.652724 -28.531695 -37.593815 -1.233806 9.270510 62.907615 -4.352212 28.531695 -6.637230 0.796154 2.938926
1328.574371 576.493385 54.869164 0.000000 0.000000 0.000000 0.000000 0.000000 0.000000 101.943783 -15.861956 -15.410265 -78.056217 10.574349 -15.410265 61.902838 -2.633412 -27.144812 -33.889586 1.404275 12.773379 55.760387 1.732383 27.144812 -7.097415 0.552999 2.679134
1316.178360 595.500870 59.782067 0.000000 0.000000 0.000000 0.000000 0.000000 0.000000 103.792097 0.537768 -18.096541 -76.207903 6.717220 -18.096541 65.535198 -8.353497 -25.329838 -28.739437 -2.439766 16.074804 68.415337 -3.401330 25.329838 -6.481753 0.728624 2.408768
1302.343140 568.138025 69.953521 0.000000 0.000000 0.000000 0.000000 0.000000 0.000000 101.222717 3.163408 -19.645745 -78.777283 -0.461426 -19.645745 90.757296 0.338801 -23.115397 -18.578033 1.376834 19.122720 97.909038 -1.113761 23.115397 -5.050134 0.058742 2.128896
1274.166183 540.660596 58.483003 0.000000 0.000000 0.000000 0.000000 0.000000 0.000000 -126.898591 7.274136 -19.960535 53.101409 11.226339 -19.960535 127.276662 0.593404 -20.536413 8.808645 4.317355 21.869059 119.711272 2.641982 20.536413 -4.115393 -0.284126 1.840623
1268.557091 468.331075 54.943095 0.000000 0.000000 0.000000 0.000000 0.000000 0.000000 -124.112133 9.230176 -19.021130 55.887867 1.309936 -19.021130 163.344780 -2.579025 -17.633558 38.476068 -2.684017 24.270510 145.889074 4.217224 17.633558 -1.929933 -0.278788 1.545085
1278.673096 454.375906 45.470250 0.000000 0.000000 0.000000 0.000000 0.000000 0.000000 -126.805061 -5.323889 -16.886559 53.194939 8.550441 -16.886559 -174.009950 -0.843508 -14.452610 27.419224 0.503306 26.289200 168.192977 2.100427 14.452610 -0.976267 -0.184210 1.243449
1285.008774 434.700390 36.457557 0.000000 0.000000 0.000000 0.000000 0.000000 0.000000 -132.005120 2.464565 -13.690942 47.994880 0.297174 -13.690942 -171.247775 -1.946184 -11.043737 26.625253 -0.721273 27.893295 178.805957 -0.267983 11.043737 0.023422 0.115155 0.936907
1288.157730 426.987666 45.301130 0.000000 0.000000 0.000000 0.000000 0.000000 0.000000 -123.987926 5.154908 -9.635073 56.012074 -8.658225 -9.635073 -166.356219 2.956165 -7.460697 35.716336 0.254970 29.057495 -172.960762 -0.084712 7.460697 0.819533 0.113701 0.626666
1291.221657 420.425448 41.473698 0.000000 0.000000 0.000000 0.000000 0.000000 0.000000 -122.265643 -5.141887 -4.973798 57.734357 8.185300 -4.973798 -156.870161 -2.823746 -3.759997 38.220704 -2.441482 29.763441 -165.716368 1.856443 3.759997 1.405814 -0.069273 0.313953
