HIERARCHY
ROOT Hips
{
    OFFSET 0.0 0.0 0.0
    CHANNELS 6 Xposition Yposition Zposition Zrotation Xrotation Yrotation
    JOINT Spine
    {
        OFFSET 0.0 5.0 0.0
        CHANNELS 3 Zrotation Xrotation Yrotation
        JOINT Chest
        {
            OFFSET 0.0 5.0 0.0
            CHANNELS 3 Zrotation Xrotation Yrotation
            JOINT Neck
            {
                OFFSET 0.0 8.0 0.0
                CHANNELS 3 Zrotation Xrotation Yrotation
                JOINT Head
                {
                    OFFSET 0.0 5.0 0.0
                    CHANNELS 3 Zrotation Xrotation Yrotation
                    End Site
                    {
                        OFFSET 0.0 3.0 0.0
                    }
                }
            }
            JOINT LeftShoulder
            {
                OFFSET -5.0 0.0 0.0
                CHANNELS 3 Zrotation Xrotation Yrotation
                JOINT LeftArm
                {
                    OFFSET 0.0 -10.0 0.0
                    CHANNELS 3 Zrotation Xrotation Yrotation
                    JOINT LeftForeArm
                    {
                        OFFSET 0.0 -10.0 0.0
                        CHANNELS 3 Zrotation Xrotation Yrotation
                        End Site
                        {
                            OFFSET 0.0 -3.0 0.0
                        }
                    }
                }
            }
        }
    }
}

MOTION
Frames: 300
Frame Time: 0.033333

960.000000 445.000000 98.768626 0.000000 0.000000 0.000000 0.000000 0.000000 0.000000 23.025492 24.216956 0.000000 180.000000 -7.345331 0.000000 21.801409 -1.416573 -0.000000 158.198591 -5.649109 30.000000 15.945396 -5.235705 0.000000 18.000000 0.792324 0.000000
1691.525230 140.756605 96.299939 0.000000 0.000000 0.000000 0.000000 0.000000 0.000000 -163.376529 -0.758985 4.973798 16.623471 7.042192 4.973798 -171.853121 -3.705785 3.759997 99.744051 1.572687 29.763441 -171.126653 -3.512739 -3.759997 0.673538 0.402311 0.313953
1636.048050 128.802021 130.800518 0.000000 0.000000 0.000000 0.000000 0.000000 0.000000 157.904128 -37.591019 9.635073 -22.095872 31.593511 9.635073 -171.936471 -3.960036 7.460697 -143.675701 0.173949 29.057495 -173.500805 -3.591070 -7.460697 0.570999 0.525095 0.626666
1578.156967 80.474526 107.158852 0.000000 0.000000 0.000000 0.000000 0.000000 0.000000 -139.519796 10.504950 13.690942 40.480204 8.416817 13.690942 -174.507724 -4.558913 11.043737 119.111399 -5.253371 27.893295 -173.607258 -4.107403 -11.043737 0.461920 0.436009 0.936907
960.418757 444.998421 108.686356 0.000000 0.000000 0.000000 0.000000 0.000000 0.000000 25.077893 -16.734454 16.886559 180.000000 -0.249076 16.886559 23.861935 -2.810948 14.452610 156.138065 8.932806 26.289200 17.903699 -8.086441 -14.452610 18.000000 -0.228288 1.243449
960.523360 444.997533 111.297451 0.000000 0.000000 0.000000 0.000000 0.000000 0.000000 25.638906 -13.355321 19.021130 180.000000 15.188240 19.021130 24.425035 1.069860 17.633558 155.574965 4.683473 24.270510 18.452907 -8.570293 -17.633558 18.000000 1.305965 1.545085
960.627905 444.996447 145.556307 0.000000 0.000000 0.000000 0.000000 0.000000 0.000000 26.219073 -29.771298 19.960535 180.000000 10.296488 19.960535 25.006291 -8.225456 20.536413 154.993709 0.584188 21.869059 19.024920 2.403771 -20.536413 18.000000 -0.265117 1.840623
1126.242828 420.359820 130.043643 0.000000 0.000000 0.000000 0.000000 0.000000 0.000000 31.410514 8.093987 19.645745 -148.589486 -1.461764 19.645745 32.280463 -2.480722 23.115397 -131.603972 -2.988096 19.122720 45.585331 1.876608 -23.115397 -13.449727 -0.086476 2.128896
1257.895088 650.549197 129.729796 0.000000 0.000000 0.000000 0.000000 0.000000 0.000000 25.073180 7.685732 18.096541 -154.926820 13.817638 18.096541 46.260945 -5.149910 25.329838 -154.651428 -5.552778 16.074804 27.339487 5.269429 -25.329838 -13.619892 -0.110419 2.408768
960.941083 444.992008 128.607058 0.000000 0.000000 0.000000 0.000000 0.000000 0.000000 28.072001 -25.346740 15.410265 180.000000 11.975412 15.410265 26.849221 -3.328825 27.144812 153.150779 17.252119 12.773379 20.864045 -11.666482 -27.144812 18.000000 1.470627 2.679134
1163.815842 547.748709 147.964023 0.000000 0.000000 0.000000 0.000000 0.000000 0.000000 117.162728 -1.880817 11.755705 -62.837272 1.272878 11.755705 102.363764 7.091108 28.531695 -47.376450 2.382615 9.270510 104.768601 0.911165 -28.531695 -6.003489 0.198035 2.938926
961.149372 444.988063 120.986043 0.000000 0.000000 0.000000 0.000000 0.000000 0.000000 29.395983 7.308375 7.362491 180.000000 -18.887468 7.362491 28.146217 18.970009 29.468618 151.853783 -6.413724 5.621439 22.170006 0.221438 -29.468618 18.000000 -0.495286 3.187120
1136.717377 590.104480 164.418845 0.000000 0.000000 0.000000 0.000000 0.000000 0.000000 115.752126 0.030168 2.506665 -64.247874 -7.268601 2.506665 73.638146 5.117722 29.940802 -21.842452 0.685207 1.883716 75.369282 -0.374112 -29.940802 -6.767207 -1.087006 3.422736
1163.079758 634.077559 132.945025 0.000000 0.000000 0.000000 0.000000 0.000000 0.000000 132.174340 -4.276290 -2.506665 -47.825660 4.117386 -2.506665 94.255711 3.072634 29.940802 -149.364979 -6.278013 -1.883716 30.021641 5.661209 -29.940802 -5.096180 -0.216177 3.644843
961.460830 444.980668 147.942758 0.000000 0.000000 0.000000 0.000000 0.000000 0.000000 31.497152 -17.538698 -7.362491 180.000000 -0.643235 -7.362491 30.152455 13.896558 29.468618 149.847545 2.748278 -5.621439 24.175589 1.730768 -29.468618 18.000000 1.404321 3.852566
1097.449951 565.089898 133.407132 0.000000 0.000000 0.000000 0.000000 0.000000 0.000000 -119.219568 4.398664 -11.755705 60.780432 -4.863486 -11.755705 -150.180642 -6.294444 28.531695 48.804955 1.131178 -9.270510 -149.874178 -6.508665 -28.531695 2.713854 0.611086 4.045085
1114.140244 528.302071 157.163613 0.000000 0.000000 0.000000 0.000000 0.000000 0.000000 -142.671523 6.133370 -15.410265 37.328477 4.410612 -15.410265 -177.395681 -5.920173 27.144812 34.687329 0.246142 -12.773379 161.894167 2.857488 -27.144812 -0.910956 -0.245673 4.221640
1116.433640 479.728639 143.457582 0.000000 0.000000 0.000000 0.000000 0.000000 0.000000 -102.267481 -7.144138 -18.096541 77.732519 18.242677 -18.096541 -163.695626 -10.518073 25.329838 38.575767 0.881245 -16.074804 -176.001122 2.244138 -25.329838 0.706594 -0.236687 4.381533
1135.931282 466.493965 161.879467 0.000000 0.000000 0.000000 0.000000 0.000000 0.000000 -112.868406 12.848478 -19.645745 67.131594 -8.919951 -19.645745 -159.517862 -2.930601 23.115397 36.204678 -5.643055 -19.122720 -154.426613 -5.657942 -23.115397 2.428729 0.505769 4.524135
1141.618767 467.420679 128.005579 0.000000 0.000000 0.000000 0.000000 0.000000 0.000000 -123.086385 -3.644073 -19.960535 56.913615 6.703874 -19.960535 -154.885724 2.732038 20.536413 36.481623 0.070659 -21.869059 -153.965441 -5.703471 -20.536413 2.446728 0.524617 4.648882
1150.647926 469.370956 135.086764 0.000000 0.000000 0.000000 0.000000 0.000000 0.000000 -43.953779 -40.274698 -19.021130 136.046221 -13.520557 -19.021130 -154.327268 -6.367779 17.633558 60.745168 7.496995 -24.270510 -153.350642 -6.772079 -17.633558 2.386216 0.626775 4.755283
1151.529922 496.420240 147.982940 0.000000 0.000000 0.000000 0.000000 0.000000 0.000000 -116.362129 -3.286431 -16.886559 63.637871 5.227655 -16.886559 -149.081043 2.666941 14.452610 35.941860 2.586165 -26.289200 -156.847177 0.522149 -14.452610 2.056513 -0.070813 4.842916
1148.402367 515.713574 138.478615 0.000000 0.000000 0.000000 0.000000 0.000000 0.000000 -118.252650 1.126104 -13.690942 61.747350 -6.585347 -13.690942 -138.082896 0.857092 11.043737 -156.312677 -7.494353 -27.893295 21.649626 11.565552 -11.043737 2.962417 -0.198365 4.911436
1175.363617 533.368646 135.063847 0.000000 0.000000 0.000000 0.000000 0.000000 0.000000 -95.476638 9.538506 -9.635073 84.523362 1.736095 -9.635073 -113.907461 -1.290679 7.460697 -155.995907 -6.678213 -29.057495 12.512064 7.559374 -7.460697 -16.748794 -0.755937 4.960574
1199.533310 485.991104 129.519140 0.000000 0.000000 0.000000 0.000000 0.000000 0.000000 -100.003195 -4.795346 -4.973798 79.996805 12.375950 -4.973798 -86.083188 -3.415688 3.759997 38.843754 6.613358 -29.763441 -106.539452 -0.758647 -3.759997 6.197806 -0.355781 4.990134
962.588190 444.938442 124.674842 0.000000 0.000000 0.000000 0.000000 0.000000 0.000000 39.579754 -32.133391 -0.000000 180.000000 7.100500 -0.000000 36.680773 -8.833834 0.000000 143.319227 -13.060183 -30.000000 29.388385 13.037567 -0.000000 18.000000 0.626390 5.000000
1142.094727 445.716287 123.940366 0.000000 0.000000 0.000000 0.000000 0.000000 0.000000 -140.228454 18.228860 4.973798 39.771546 -10.155200 4.973798 -156.118008 -6.254948 -3.759997 3.479189 -7.243743 -29.763441 -158.005660 -5.564861 3.759997 2.150019 0.519620 4.990134
1164.005928 424.847746 128.826274 0.000000 0.000000 0.000000 0.000000 0.000000 0.000000 -84.241076 53.610303 9.635073 95.758924 -26.275836 9.635073 -156.181584 -5.682701 -7.460697 166.928360 -17.520203 -29.057495 -154.947270 -5.376562 7.460697 2.644196 0.579149 4.960574
1124.208755 418.286655 120.332693 0.000000 0.000000 0.000000 0.000000 0.000000 0.000000 -117.427077 -24.531402 13.690942 62.572923 29.567789 13.690942 -155.943063 -6.006091 -11.043737 14.023837 12.188274 -27.893295 -157.382674 -5.541624 11.043737 2.188130 0.555195 4.911436
962.990408 444.917226 109.913697 0.000000 0.000000 0.000000 0.000000 0.000000 0.000000 42.110883 -8.228918 16.886559 180.000000 7.380639 16.886559 37.946959 -1.981118 -14.452610 142.053041 4.581564 -26.289200 29.293612 11.764038 14.452610 18.000000 -0.890150 4.842916
963.090170 444.911436 102.309222 0.000000 0.000000 0.000000 0.000000 0.000000 0.000000 42.659200 4.870307 19.021130 180.000000 -13.218690 19.021130 38.119107 -6.935867 -17.633558 141.880893 -7.582245 -24.270510 29.068887 0.387164 17.633558 18.000000 1.015909 4.755283
1186.646461 396.272757 111.451176 0.000000 0.000000 0.000000 0.000000 0.000000 0.000000 -72.847419 12.388873 19.960535 107.152581 -19.657560 19.960535 -156.703603 -4.408941 -20.536413 178.447294 -4.181847 -21.869059 -157.212393 -5.214138 20.536413 1.964058 0.401249 4.648882
1313.051605 426.636125 98.974781 0.000000 0.000000 0.000000 0.000000 0.000000 0.000000 90.994869 15.630497 19.645745 -89.005131 17.301699 19.645745 -160.515303 -5.166534 -23.115397 -153.248861 -1.062411 -19.122720 -159.640525 -5.052853 23.115397 0.000000 0.000000 0.000000
1347.999344 420.772226 100.117720 0.000000 0.000000 0.000000 0.000000 0.000000 0.000000 90.154351 8.595563 18.096541 -89.845649 -5.566394 18.096541 -162.053401 -4.175704 -25.329838 -136.198880 -4.389288 -16.074804 -160.991694 -4.510316 25.329838 0.000000 0.000000 0.000000
1344.315948 421.031681 78.364551 0.000000 0.000000 0.000000 0.000000 0.000000 0.000000 69.757587 -12.655528 15.410265 -110.242413 6.478362 15.410265 25.616746 -4.288241 -27.144812 -157.821005 -3.242163 -12.773379 17.214985 3.372722 27.144812 -16.704706 -0.117435 4.221640
1350.307617 440.309436 88.249366 0.000000 0.000000 0.000000 0.000000 0.000000 0.000000 71.124018 1.706967 11.755705 -108.875982 -4.487583 11.755705 42.739987 3.101264 -28.531695 -142.315466 2.392528 -9.270510 16.600926 -1.327284 28.531695 -16.660102 -0.169670 4.045085
1357.685051 430.688889 84.096042 0.000000 0.000000 0.000000 0.000000 0.000000 0.000000 77.656077 0.510263 7.362491 -102.343923 -1.007006 7.362491 39.407151 -0.596315 -29.468618 -136.343173 2.157580 -5.621439 22.144452 1.660988 29.468618 -16.305135 -0.126275 3.852566
1369.482193 445.909406 78.309125 0.000000 0.000000 0.000000 0.000000 0.000000 0.000000 88.051188 -14.503654 2.506665 -91.948812 5.547193 2.506665 -161.283973 -3.425320 -29.940802 -119.799169 -0.243597 -1.883716 -164.575400 -3.412411 29.940802 1.401013 0.372990 3.644843
963.875156 444.858159 82.796126 0.000000 0.000000 0.000000 0.000000 0.000000 0.000000 45.304844 35.616866 -2.506665 180.000000 -5.253748 -2.506665 37.252439 -5.532181 -29.940802 142.747561 -13.918002 1.883716 25.146244 11.496117 29.940802 18.000000 -1.036970 3.422736
963.971479 444.850633 57.294202 0.000000 0.000000 0.000000 0.000000 0.000000 0.000000 45.383640 15.004840 -7.362491 180.000000 -19.619703 -7.362491 36.882310 11.616943 -29.468618 143.117690 -16.801238 5.621439 24.499789 4.843158 29.468618 18.000000 -0.341844 3.187120
1336.629524 469.010178 62.980057 0.000000 0.000000 0.000000 0.000000 0.000000 0.000000 -72.390177 15.262153 -11.755705 107.609823 -13.606595 -11.755705 -158.649984 -2.795922 -28.531695 2.583425 -13.303776 9.270510 -39.658551 7.382739 28.531695 10.837181 -0.991379 2.938926
1311.966934 518.219100 65.436762 0.000000 0.000000 0.000000 0.000000 0.000000 0.000000 -63.565072 40.253304 -15.410265 116.434928 49.508166 -15.410265 -14.840750 -17.079038 -27.144812 -158.549348 -2.621552 12.773379 17.488774 2.910088 27.144812 7.174982 -4.550636 2.679134
964.257793 444.826908 49.168075 0.000000 0.000000 0.000000 0.000000 0.000000 0.000000 45.262206 -26.094019 -18.096541 180.000000 29.613398 -18.096541 35.497192 -17.548613 -25.329838 144.502808 4.427730 16.074804 22.522929 17.211907 25.329838 18.000000 -0.183731 2.408768
1275.921364 516.836239 67.566125 0.000000 0.000000 0.000000 0.000000 0.000000 0.000000 85.186295 -0.856831 -19.645745 -94.813705 4.759725 -19.645745 52.470689 0.098934 -23.115397 -44.513683 -0.767322 19.122720 50.867598 -0.789515 23.115397 -8.717188 0.466174 2.128896
1263.254128 546.875424 58.232706 0.000000 0.000000 0.000000 0.000000 0.000000 0.000000 34.848242 59.902399 -19.960535 -145.151758 4.116230 -19.960535 42.487561 8.104547 -20.536413 -157.415675 -3.037183 21.869059 22.420880 2.288067 20.536413 -15.757912 -0.228807 1.840623
1258.788185 528.263061 48.099942 0.000000 0.000000 0.000000 0.000000 0.000000 0.000000 118.326865 21.487182 -19.021130 -61.673135 -27.859058 -19.021130 143.214759 -4.857806 -17.633558 -156.228306 -3.231253 24.270510 28.173554 2.006675 17.633558 -15.182645 -0.200668 1.545085
1231.492081 471.383836 49.762167 0.000000 0.000000 0.000000 0.000000 0.000000 0.000000 -115.049381 7.134848 -16.886559 64.950619 -51.850137 -16.886559 172.843704 14.125178 -14.452610 -157.842300 -2.770793 26.289200 32.851042 2.457257 14.452610 -14.714896 -0.245726 1.243449
1223.928795 435.993515 43.479342 0.000000 0.000000 0.000000 0.000000 0.000000 0.000000 -115.322532 -0.288122 -13.690942 64.677468 11.655265 -13.690942 -168.597862 -4.080215 -11.043737 -158.853816 -2.319356 27.893295 31.099266 3.070254 11.043737 -14.890073 -0.307025 0.936907
1223.669701 418.195664 62.253120 0.000000 0.000000 0.000000 0.000000 0.000000 0.000000 -102.084053 -15.944294 -9.635073 77.915947 29.039863 -9.635073 -171.103858 3.160876 -7.460697 162.056334 9.701995 29.057495 -153.594437 -2.600498 7.460697 2.968481 0.256829 0.626666
1216.486244 414.503002 53.810810 0.000000 0.000000 0.000000 0.000000 0.000000 0.000000 69.261091 18.392134 -4.973798 -110.738909 2.886200 -4.973798 -158.083722 -2.798333 -3.759997 -173.244581 -2.539115 29.763441 -154.635509 -2.721256 3.759997 2.928763 0.289356 0.313953
1212.090225 434.550980 41.354614 0.000000 0.000000 0.000000 0.000000 0.000000 0.000000 -112.403932 17.572637 0.000000 67.596068 -33.670872 0.000000 -157.060799 -1.807991 -0.000000 173.400765 -3.122937 30.000000 -154.473580 -2.798048 0.000000 2.734633 0.222952 0.000000
1214.024734 450.340490 59.428807 0.000000 0.000000 0.000000 0.000000 0.000000 0.000000 -110.634751 -5.506836 4.973798 69.365249 3.283509 4.973798 -137.583343 0.324366 3.759997 -158.589698 -2.660279 29.763441 20.879446 4.349728 -3.759997 -15.912055 -0.434973 0.313953
1204.271393 440.192921 69.239779 0.000000 0.000000 0.000000 0.000000 0.000000 0.000000 -99.498286 26.903142 9.635073 80.501714 -15.508713 9.635073 -156.696469 -2.784782 7.460697 -178.487725 -21.915517 29.057495 -157.318323 -2.345925 -7.460697 2.108583 0.156352 0.626666
965.269558 444.725315 57.490520 0.000000 0.000000 0.000000 0.000000 0.000000 0.000000 40.845461 20.970730 13.690942 180.000000 8.302084 13.690942 28.615377 -3.966137 11.043737 151.384623 2.162254 27.893295 16.305092 -11.271669 -11.043737 18.000000 1.187279 0.936907
1182.456551 475.103824 71.184808 0.000000 0.000000 0.000000 0.000000 0.000000 0.000000 -168.146016 17.497685 16.886559 11.853984 73.911157 16.886559 -63.802645 0.419305 14.452610 -61.114510 -2.089608 26.289200 -47.869281 -1.492441 -14.452610 -13.834956 7.867626 1.243449
965.446390 444.704404 69.496350 0.000000 0.000000 0.000000 0.000000 0.000000 0.000000 39.578146 -25.425028 19.021130 180.000000 5.110366 19.021130 27.338029 1.506521 17.633558 152.661971 -8.906133 24.270510 15.463180 10.372612 -17.633558 18.000000 -0.538491 1.545085
965.533915 444.693669 63.833970 0.000000 0.000000 0.000000 0.000000 0.000000 0.000000 38.916706 17.413672 19.960535 180.000000 -21.516661 19.960535 26.716768 -2.056852 20.536413 153.283232 -10.235743 21.869059 15.076605 -1.622930 -20.536413 18.000000 0.189872 1.840623
965.620834 444.682749 79.654863 0.000000 0.000000 0.000000 0.000000 0.000000 0.000000 38.241653 -33.087792 19.645745 180.000000 0.586100 19.645745 26.109467 13.916724 23.115397 153.890533 8.987484 19.122720 14.712258 4.664789 -23.115397 18.000000 -0.676582 2.128896
965.707136 444.671645 70.771377 0.000000 0.000000 0.000000 0.000000 0.000000 0.000000 37.556504 14.743497 18.096541 180.000000 2.040130 18.096541 25.517536 -2.211445 25.329838 154.482464 2.731925 16.074804 14.369537 -9.162683 -25.329838 18.000000 1.393901 2.408768
965.792812 444.660356 91.610425 0.000000 0.000000 0.000000 0.000000 0.000000 0.000000 36.864608 8.318457 15.410265 180.000000 5.927112 15.410265 24.942131 -3.457318 27.144812 155.057869 6.461444 12.773379 14.047797 -1.356179 -27.144812 18.000000 -0.641742 2.679134
965.877853 444.648882 82.108744 0.000000 0.000000 0.000000 0.000000 0.000000 0.000000 36.169118 38.585113 11.755705 180.000000 8.564910 11.755705 24.384173 -14.932793 28.531695 155.615827 -11.052356 9.270510 13.746367 4.233213 -28.531695 18.000000 -0.307195 2.938926
965.962249 444.637226 106.644067 0.000000 0.000000 0.000000 0.000000 0.000000 0.000000 35.472980 -16.814759 7.362491 180.000000 6.242437 7.362491 23.844373 -1.750104 29.468618 156.155627 5.827915 5.621439 13.464570 2.531590 -29.468618 18.000000 -0.789645 3.187120
966.045991 444.625386 95.748936 0.000000 0.000000 0.000000 0.000000 0.000000 0.000000 34.778913 20.097790 2.506665 180.000000 -15.781364 2.506665 23.323250 3.095968 29.940802 156.676750 -7.507886 1.883716 13.201728 -1.982983 -29.940802 18.000000 0.817730 3.422736
966.129071 444.613364 106.923487 0.000000 0.000000 0.000000 0.000000 0.000000 0.000000 34.089406 2.546743 -2.506665 180.000000 -8.733754 -2.506665 22.821158 -1.633439 29.940802 157.178842 -5.566520 -1.883716 12.957175 0.266804 -29.940802 18.000000 0.623152 3.644843
966.211478 444.601159 98.321040 0.000000 0.000000 0.000000 0.000000 0.000000 0.000000 33.406712 9.714112 -7.362491 180.000000 11.640185 -7.362491 22.338307 -6.646983 29.468618 157.661693 8.061701 -5.621439 12.730264 -9.249506 -29.468618 18.000000 0.534118 3.852566
1171.486244 534.946783 110.521481 0.000000 0.000000 0.000000 0.000000 0.000000 0.000000 70.594720 0.426598 -11.755705 -109.405280 -4.590539 -11.755705 49.953444 5.517754 28.531695 -151.467583 -5.149562 -9.270510 0.000000 0.000000 0.000000 0.000000 0.000000 0.000000
966.374240 444.576206 124.298936 0.000000 0.000000 0.000000 0.000000 0.000000 0.000000 32.069603 22.883979 -15.410265 180.000000 -19.636954 -15.410265 21.430544 8.459612 27.144812 158.569456 1.391264 -12.773379 12.326901 -1.702252 -27.144812 18.000000 -0.305646 4.221640
1172.156410 555.047708 123.467029 0.000000 0.000000 0.000000 0.000000 0.000000 0.000000 -121.065102 -18.339473 -18.096541 58.934898 29.471872 -18.096541 -151.641456 -5.906984 25.329838 -177.360623 9.986388 -16.074804 -149.076048 -7.149369 -25.329838 0.000000 0.000000 0.000000
1161.826630 552.360713 122.203058 0.000000 0.000000 0.000000 0.000000 0.000000 0.000000 69.958407 33.163110 -19.645745 -110.041593 -31.147118 -19.645745 -152.437496 -5.974763 23.115397 -158.790607 -1.469669 -19.122720 -150.591725 -7.312544 -23.115397 3.219062 0.802836 4.524135
1165.827255 569.832902 106.695669 0.000000 0.000000 0.000000 0.000000 0.000000 0.000000 25.594208 21.268010 -19.960535 -154.405792 -4.223190 -19.960535 11.723883 0.535052 20.536413 -161.543160 -0.871842 -21.869059 7.769582 -0.267647 -20.536413 -17.248199 -0.052436 4.648882
1165.555573 565.067046 142.856785 0.000000 0.000000 0.000000 0.000000 0.000000 0.000000 43.355707 1.792100 -19.021130 -136.644293 2.211879 -19.021130 15.984329 -1.406760 17.633558 -140.773833 0.233739 -24.270510 13.679449 -1.711949 -17.633558 -16.392157 -0.062134 4.755283
1290.255775 608.533316 139.977633 0.000000 0.000000 0.000000 0.000000 0.000000 0.000000 -153.952071 13.213325 -16.886559 26.047929 -16.267299 -16.886559 -152.683807 -5.471745 14.452610 4.794196 -4.106611 -26.289200 -154.287190 -5.593828 -14.452610 2.418080 0.542225 4.842916
1180.398903 551.817470 124.418243 0.000000 0.000000 0.000000 0.000000 0.000000 0.000000 51.640104 -1.933508 -13.690942 -128.359896 -15.028938 -13.690942 14.419400 0.396552 11.043737 -33.521359 -26.641139 -27.893295 -34.277510 1.157752 -11.043737 5.235387 1.065652 4.911436
1162.708626 619.419501 141.460132 0.000000 0.000000 0.000000 0.000000 0.000000 0.000000 -88.968325 -12.871793 -9.635073 91.031675 4.885679 -9.635073 -52.690088 -1.502501 7.460697 25.015222 1.281078 -29.057495 -72.561734 -1.955523 -7.460697 8.557489 0.046836 4.960574
1110.899391 602.919216 145.893325 0.000000 0.000000 0.000000 0.000000 0.000000 0.000000 -86.972237 11.115583 -4.973798 93.027763 2.931014 -4.973798 -39.551144 0.982403 3.759997 34.838085 -0.097984 -29.763441 -44.185810 -5.449976 -3.759997 10.000609 1.157494 4.990134
1150.187302 553.686991 140.335324 0.000000 0.000000 0.000000 0.000000 0.000000 0.000000 -116.065142 -25.457463 -0.000000 63.934858 0.888394 -0.000000 -151.059314 -6.016526 0.000000 -0.492058 5.898964 -30.000000 -14.044098 2.453094 -0.000000 1.929760 -0.167492 5.000000
967.144727 444.440682 154.847597 0.000000 0.000000 0.000000 0.000000 0.000000 0.000000 26.270296 22.401279 4.973798 180.000000 9.482459 4.973798 17.996647 -5.951768 -3.759997 162.003353 -6.242884 -29.763441 11.189167 0.721624 3.759997 18.000000 0.491942 4.990134
1213.452644 620.002785 149.749541 0.000000 0.000000 0.000000 0.000000 0.000000 0.000000 140.390379 8.407982 9.635073 -39.609621 -9.976478 9.635073 77.724607 -18.640957 -7.460697 -153.982965 -6.973481 -29.057495 24.142749 6.165441 7.460697 -0.833727 0.555217 4.960574
1124.373779 618.464527 146.572466 0.000000 0.000000 0.000000 0.000000 0.000000 0.000000 99.329635 -27.302333 13.690942 -80.670365 21.042813 13.690942 85.960927 -2.097777 -11.043737 -150.875293 -7.216781 -27.893295 31.644098 6.791870 11.043737 -14.835590 -0.679187 4.911436
967.360971 444.396582 167.661479 0.000000 0.000000 0.000000 0.000000 0.000000 0.000000 24.874716 -5.951462 16.886559 180.000000 9.244191 16.886559 17.291102 -1.809395 -14.452610 162.708898 3.187375 -26.289200 11.098846 0.764519 14.452610 18.000000 -0.048712 4.842916
1107.875175 542.453964 163.391824 0.000000 0.000000 0.000000 0.000000 0.000000 0.000000 -128.741314 4.152882 19.021130 51.258686 0.309652 19.021130 -177.225595 -6.202404 -17.633558 19.954750 -2.168420 -24.270510 162.677362 -0.693663 17.633558 -1.443098 0.178215 4.755283
1119.652290 522.766346 152.477476 0.000000 0.000000 0.000000 0.000000 0.000000 0.000000 -99.017754 3.741403 19.960535 80.982246 -25.176107 19.960535 -150.289603 -6.253910 -20.536413 -152.613833 -7.828874 -21.869059 0.000000 0.000000 0.000000 0.000000 0.000000 0.000000
1132.908783 538.229613 144.136763 0.000000 0.000000 0.000000 0.000000 0.000000 0.000000 -127.874185 -6.970602 19.645745 52.125815 2.679935 19.645745 -165.450188 1.632518 -23.115397 -152.521515 -6.648545 -19.122720 40.606225 8.517173 23.115397 -13.939378 -0.851717 4.524135
1146.969337 541.828065 132.548173 0.000000 0.000000 0.000000 0.000000 0.000000 0.000000 -113.631604 -2.746101 18.096541 66.368396 0.742383 18.096541 -159.067475 1.194243 -25.329838 113.981862 2.113599 -16.074804 -145.449815 -7.283029 25.329838 0.000000 0.000000 0.000000
1165.252304 561.329677 131.821440 0.000000 0.000000 0.000000 0.000000 0.000000 0.000000 -112.861399 -2.256553 15.410265 67.138601 -0.035483 15.410265 -159.396543 -1.413931 -27.144812 -151.967552 -6.822401 -12.773379 38.422588 8.259739 27.144812 -14.157741 -0.825974 4.221640
1174.726181 592.839689 131.967445 0.000000 0.000000 0.000000 0.000000 0.000000 0.000000 -110.369899 -9.959280 11.755705 69.630101 -8.639377 11.755705 -148.108768 -0.308052 -28.531695 -151.515612 -6.903869 -9.270510 34.277732 8.290150 28.531695 -14.572227 -0.829015 4.045085
1167.352524 605.194867 130.578836 0.000000 0.000000 0.000000 0.000000 0.000000 0.000000 -113.828445 4.732351 7.362491 66.171555 8.386295 7.362491 -131.688453 -6.634800 -29.468618 -151.045756 -6.736010 -5.621439 27.200835 8.170653 29.468618 -15.279916 -0.817065 3.852566
1139.678879 602.981014 124.293302 0.000000 0.000000 0.000000 0.000000 0.000000 0.000000 -97.599684 -28.944845 2.506665 82.400316 -4.106298 2.506665 -113.965806 3.650562 -29.940802 -121.058781 -5.019940 -1.883716 -118.492407 3.096316 29.940802 10.137620 7.789412 3.644843
1165.830002 580.020189 127.522755 0.000000 0.000000 0.000000 0.000000 0.000000 0.000000 -28.085052 -13.548035 -2.506665 151.914948 20.450252 -2.506665 -150.589103 -6.099564 -29.940802 -172.678414 3.882955 1.883716 -149.717924 -6.407875 29.940802 0.000000 0.000000 0.000000
1184.501953 619.872494 113.757467 0.000000 0.000000 0.000000 0.000000 0.000000 0.000000 -113.790307 19.067613 -7.362491 66.209693 -19.102693 -7.362491 -59.272274 1.567658 -29.468618 29.476823 -1.909449 5.621439 -88.148483 -0.135572 29.468618 7.414604 0.053151 3.187120
968.090170 444.221640 117.203748 0.000000 0.000000 0.000000 0.000000 0.000000 0.000000 21.092887 -8.518647 -11.755705 180.000000 -9.583827 -11.755705 15.757771 8.197821 -28.531695 164.242229 0.237286 9.270510 11.678908 -1.104928 28.531695 18.000000 -0.362906 2.938926
968.151278 444.204723 100.809258 0.000000 0.000000 0.000000 0.000000 0.000000 0.000000 20.844337 -2.410999 -15.410265 180.000000 8.992444 -15.410265 15.691895 -6.270246 -27.144812 164.308105 1.668339 12.773379 11.804629 -6.685275 27.144812 18.000000 1.102886 2.679134
968.211492 444.187640 119.701350 0.000000 0.000000 0.000000 0.000000 0.000000 0.000000 20.610265 17.382287 -18.096541 180.000000 -8.394407 -18.096541 15.637361 3.646142 -25.329838 164.362639 -10.011680 16.074804 11.943263 5.601914 25.329838 18.000000 0.524899 2.408768
968.270806 444.170392 91.772325 0.000000 0.000000 0.000000 0.000000 0.000000 0.000000 20.390366 -3.841137 -19.645745 180.000000 -4.765848 -19.645745 15.594026 1.254052 -23.115397 164.405974 -5.037306 19.122720 12.095062 4.939396 23.115397 18.000000 -0.435301 2.128896
968.329212 444.152979 110.233017 0.000000 0.000000 0.000000 0.000000 0.000000 0.000000 20.184343 2.123873 -19.960535 180.000000 -3.818846 -19.960535 15.561766 5.315029 -20.536413 164.438234 1.248758 21.869059 12.260289 0.778312 20.536413 18.000000 -0.390176 1.840623
968.386706 444.135403 89.651906 0.000000 0.000000 0.000000 0.000000 0.000000 0.000000 19.991916 2.383909 -19.021130 180.000000 3.027212 -19.021130 15.540476 7.887819 -17.633558 164.459524 8.648144 24.270510 12.439222 -6.376793 17.633558 18.000000 0.188759 1.545085
968.443279 444.117663 81.438374 0.000000 0.000000 0.000000 0.000000 0.000000 0.000000 19.812814 -2.612112 -16.886559 180.000000 -5.584686 -16.886559 15.530069 0.965404 -14.452610 164.469931 7.195271 26.289200 12.632146 -3.943557 14.452610 18.000000 -0.102692 1.243449
968.498927 444.099761 80.882625 0.000000 0.000000 0.000000 0.000000 0.000000 0.000000 19.646785 -2.503021 -13.690942 180.000000 -2.472402 -13.690942 15.530474 -6.646829 -11.043737 164.469526 -8.513122 27.893295 12.839349 2.538206 11.043737 18.000000 -0.081579 0.936907
968.553643 444.081696 84.359190 0.000000 0.000000 0.000000 0.000000 0.000000 0.000000 19.493591 21.628425 -9.635073 180.000000 -3.905968 -9.635073 15.541640 -3.453816 -7.460697 164.458360 -6.069855 29.057495 13.061119 -4.158157 7.460697 18.000000 -0.033494 0.626666
1051.772690 653.004448 67.596328 0.000000 0.000000 0.000000 0.000000 0.000000 0.000000 -79.007834 -10.337976 -4.973798 100.992166 -8.145502 -4.973798 -126.715299 12.681178 -3.759997 -149.991181 -3.168249 29.763441 31.772279 4.482592 3.759997 -14.822772 -0.448259 0.313953
1061.669197 624.716241 77.614818 0.000000 0.000000 0.000000 0.000000 0.000000 0.000000 -94.718359 2.018842 0.000000 85.281641 -5.411020 0.000000 -144.150484 5.161497 -0.000000 60.155085 -3.168056 30.000000 -152.711462 -0.094499 0.000000 1.815393 0.147908 0.000000
1072.053337 571.032879 67.843620 0.000000 0.000000 0.000000 0.000000 0.000000 0.000000 71.424080 19.427260 4.973798 -108.575920 -2.965744 4.973798 -149.042361 -4.255895 3.759997 -149.913636 -1.138377 29.763441 -145.792107 -5.000248 -3.759997 3.947623 0.445537 0.313953
1070.057373 572.884376 63.359694 0.000000 0.000000 0.000000 0.000000 0.000000 0.000000 -80.850201 -23.735214 9.635073 99.149799 27.117702 9.635073 -147.567525 -3.103072 7.460697 -164.443014 0.699449 29.057495 -145.447997 -3.227286 -7.460697 4.032371 0.449982 0.626666
968.813035 443.988972 68.743708 0.000000 0.000000 0.000000 0.000000 0.000000 0.000000 18.912944 -1.522147 13.690942 180.000000 -3.642806 13.690942 15.758200 4.810879 11.043737 164.241800 -4.234812 27.893295 14.397395 -1.972671 -11.043737 18.000000 0.242516 0.936907
968.862036 443.969952 61.119047 0.000000 0.000000 0.000000 0.000000 0.000000 0.000000 18.832684 -2.464926 16.886559 180.000000 -3.971332 16.886559 15.833735 4.955258 14.452610 164.166265 2.175010 26.289200 14.711463 -2.054085 -14.452610 18.000000 -0.106434 1.243449
968.910065 443.950775 68.651790 0.000000 0.000000 0.000000 0.000000 0.000000 0.000000 18.764066 -1.263895 19.021130 180.000000 0.609590 19.021130 15.920102 0.019678 17.633558 164.079898 -5.705076 24.270510 15.041323 5.917938 -17.633558 18.000000 -0.538919 1.545085
968.957118 443.931442 47.380124 0.000000 0.000000 0.000000 0.000000 0.000000 0.000000 18.706990 -13.729793 19.960535 180.000000 0.472868 19.960535 16.017366 5.284103 20.536413 163.982634 0.129549 21.869059 15.386894 0.068750 -20.536413 18.000000 0.604471 1.840623
969.003188 443.911954 42.166803 0.000000 0.000000 0.000000 0.000000 0.000000 0.000000 18.661377 -7.522435 19.645745 180.000000 -2.533087 19.645745 16.125602 3.973238 23.115397 163.874398 -1.548128 19.122720 15.747980 4.953952 -23.115397 18.000000 -0.045917 2.128896
969.048271 443.892312 40.119393 0.000000 0.000000 0.000000 0.000000 0.000000 0.000000 18.627165 3.653060 18.096541 180.000000 -3.136241 18.096541 16.244896 -1.826359 25.329838 163.755104 -5.023946 16.074804 16.124252 8.417091 -25.329838 18.000000 -0.269604 2.408768
969.092361 443.872515 53.693159 0.000000 0.000000 0.000000 0.000000 0.000000 0.000000 18.604312 6.881317 15.410265 180.000000 -8.383273 15.410265 16.375340 -1.071420 27.144812 163.624660 -4.418073 12.773379 16.515224 -4.226283 -27.144812 18.000000 0.441390 2.679134
1055.186234 577.357593 60.894631 0.000000 0.000000 0.000000 0.000000 0.000000 0.000000 85.510211 0.125002 11.755705 -94.489789 -2.580311 11.755705 37.103410 4.881385 28.531695 -148.111343 -2.249432 9.270510 24.294182 2.114401 -28.531695 -8.601915 1.317792 2.938926
1122.856522 566.714029 32.140759 0.000000 0.000000 0.000000 0.000000 0.000000 0.000000 96.216240 -6.725651 7.362491 -83.783760 -4.930911 7.362491 46.189625 -0.840731 29.468618 -149.396962 -2.687518 5.621439 24.670091 2.228190 -29.468618 -7.107716 1.139668 3.187120
969.218632 443.812213 53.399147 0.000000 0.000000 0.000000 0.000000 0.000000 0.000000 18.603763 6.905542 2.506665 180.000000 2.695571 2.506665 16.834613 -8.572716 29.940802 163.165387 -0.057313 1.883716 17.768624 -4.141269 -29.940802 18.000000 0.824658 3.422736
1112.757797 605.798106 45.345400 0.000000 0.000000 0.000000 0.000000 0.000000 0.000000 110.914625 -12.565729 -2.506665 -69.085375 -7.883393 -2.506665 67.769469 18.074240 29.940802 -149.822316 -1.684491 -1.883716 29.049901 1.922832 -29.940802 -3.625079 0.055312 3.644843
1086.733246 592.557156 56.222349 0.000000 0.000000 0.000000 0.000000 0.000000 0.000000 -80.132323 44.183829 -7.362491 99.867677 -56.482721 -7.362491 36.201564 9.841320 29.468618 -13.679556 -4.149151 -5.621439 78.049842 -1.010920 -29.468618 -5.127460 0.393035 3.852566
1081.109390 570.394492 63.575777 0.000000 0.000000 0.000000 0.000000 0.000000 0.000000 -175.864613 4.776834 -11.755705 4.135387 -21.903830 -11.755705 134.713876 5.765275 28.531695 -10.005873 -0.851067 -9.270510 135.737755 -2.648503 -28.531695 -3.389365 0.117663 4.045085
1089.776802 536.594539 71.148681 0.000000 0.000000 0.000000 0.000000 0.000000 0.000000 -139.033903 -12.455174 -15.410265 40.966097 -0.991103 -15.410265 161.695972 0.602427 27.144812 3.114398 0.907138 -12.773379 148.805610 -0.582904 -27.144812 -2.611636 -0.100017 4.221640
1114.282036 523.965647 45.620800 0.000000 0.000000 0.000000 0.000000 0.000000 0.000000 -156.073983 -2.157042 -18.096541 23.926017 5.014731 -18.096541 174.825807 2.358215 25.329838 5.093343 1.040596 -16.074804 161.266817 0.005150 -25.329838 -1.814366 0.157782 4.381533
1122.145157 503.425248 46.402712 0.000000 0.000000 0.000000 0.000000 0.000000 0.000000 -144.538174 23.835053 -19.645745 35.461826 -37.798935 -19.645745 174.215003 5.853586 23.115397 -151.750905 -4.503213 -19.122720 43.887064 3.523546 -23.115397 -13.611294 -0.352355 4.524135
1134.158249 484.688419 86.394022 0.000000 0.000000 0.000000 0.000000 0.000000 0.000000 -142.311443 9.985264 -19.960535 37.688557 -10.956613 -19.960535 -174.407776 2.250121 20.536413 14.121014 -3.514850 -21.869059 176.737053 -2.060488 -20.536413 -0.386439 0.241966 4.648882
1156.756668 500.025387 75.714002 0.000000 0.000000 0.000000 0.000000 0.000000 0.000000 -140.140767 11.170429 -19.021130 39.859233 -21.700148 -19.021130 -176.866589 6.243766 17.633558 -153.177991 -3.988451 -24.270510 40.555680 5.429545 -17.633558 -13.944432 -0.542954 4.755283
1163.818588 490.292573 84.055190 0.000000 0.000000 0.000000 0.000000 0.000000 0.000000 -126.918075 -20.624625 -16.886559 53.081925 13.235943 -16.886559 -163.374411 -5.614767 14.452610 -153.952175 -3.170936 -26.289200 36.914642 4.585143 -14.452610 0.798233 0.222891 4.842916
1176.523705 490.346003 83.506366 0.000000 0.000000 0.000000 0.000000 0.000000 0.000000 -130.072590 -2.651694 -13.690942 49.927410 12.735894 -13.690942 -150.224616 -2.402249 11.043737 24.749952 4.854420 -27.893295 -162.219632 1.579411 -11.043737 1.550269 -0.120878 4.911436
1165.045052 489.521159 104.579622 0.000000 0.000000 0.000000 0.000000 0.000000 0.000000 -134.421293 6.960359 -9.635073 45.578707 -1.182741 -9.635073 -138.114962 -5.257254 7.460697 20.347125 -2.633533 -29.057495 -149.675125 -0.155376 -7.460697 1.919618 0.096899 4.960574
1186.003189 485.341580 87.884093 0.000000 0.000000 0.000000 0.000000 0.000000 0.000000 151.263424 -78.450110 -4.973798 -28.736576 -38.331413 -4.973798 -155.571724 -4.005860 3.759997 -114.944239 8.117721 -29.763441 -157.446860 -4.692784 -3.759997 2.096391 0.432284 4.990134
1190.285912 497.609435 97.180766 0.000000 0.000000 0.000000 0.000000 0.000000 0.000000 -104.331435 2.889085 -0.000000 75.668565 -11.367818 -0.000000 -153.934692 -4.000720 0.000000 -67.465008 7.085211 -30.000000 -71.629168 -2.430044 -0.000000 -13.965204 -8.517271 5.000000
846.875610 502.341399 88.302064 0.000000 0.000000 0.000000 0.000000 0.000000 0.000000 -153.358185 7.247727 4.973798 26.641815 18.067364 4.973798 -147.628169 -6.114108 -3.759997 -147.401289 -5.620173 -29.763441 0.000000 0.000000 0.000000 0.000000 0.000000 0.000000
969.711343 443.490827 119.505261 0.000000 0.000000 0.000000 0.000000 0.000000 0.000000 20.204512 -18.935080 9.635073 180.000000 3.456221 9.635073 20.733157 11.858818 -7.460697 159.266843 13.217472 -29.057495 24.065833 -6.247384 7.460697 18.000000 -0.085224 4.960574
969.735789 443.468267 116.659670 0.000000 0.000000 0.000000 0.000000 0.000000 0.000000 20.415894 -13.582084 13.690942 180.000000 -5.362623 13.690942 21.087741 4.293975 -11.043737 158.912259 9.574256 -27.893295 24.320336 -13.819330 11.043737 18.000000 -0.095171 4.911436
969.759168 443.445569 127.333479 0.000000 0.000000 0.000000 0.000000 0.000000 0.000000 20.642061 23.349786 16.886559 180.000000 -4.695744 16.886559 21.453029 -7.364754 -14.452610 158.546971 1.914447 -26.289200 24.533304 -12.233909 14.452610 18.000000 0.174196 4.842916
585.252171 514.469179 123.987544 0.000000 0.000000 0.000000 0.000000 0.000000 0.000000 74.723181 40.851627 19.021130 -105.276819 -5.800512 19.021130 119.807175 -3.560595 -17.633558 165.825978 -9.877016 -24.270510 138.012220 -9.312722 17.633558 -12.357653 2.733274 4.755283
624.843979 517.601860 115.932155 0.000000 0.000000 0.000000 0.000000 0.000000 0.000000 103.202449 -9.719102 19.960535 -76.797551 -20.930787 19.960535 114.381580 6.966847 -20.536413 -53.015473 -58.391023 -21.869059 145.467160 3.700287 20.536413 -4.173333 -0.056174 4.648882
969.822873 443.376664 122.698039 0.000000 0.000000 0.000000 0.000000 0.000000 0.000000 21.413420 23.851298 19.645745 180.000000 -18.063402 19.645745 22.607712 2.832106 -23.115397 157.392288 -10.563167 -19.122720 24.899813 0.247359 23.115397 18.000000 -1.723140 4.524135
969.841956 443.353428 113.563537 0.000000 0.000000 0.000000 0.000000 0.000000 0.000000 21.702987 -34.925041 18.096541 180.000000 5.761653 18.096541 23.009909 -1.728278 -25.329838 156.990091 6.266103 -16.074804 24.926562 11.292991 25.329838 18.000000 -0.898046 4.381533
969.859960 443.330059 126.005144 0.000000 0.000000 0.000000 0.000000 0.000000 0.000000 22.009579 16.106252 15.410265 180.000000 -15.217466 15.410265 23.419334 24.309128 -27.144812 156.580666 -16.031552 -12.773379 24.904993 8.511354 27.144812 18.000000 0.126517 4.221640
594.905148 538.048757 138.091471 0.000000 0.000000 0.000000 0.000000 0.000000 0.000000 -57.080480 36.212159 11.755705 122.919520 -15.893954 11.755705 -12.750556 -2.287736 -28.531695 149.841027 -16.151230 -9.270510 -8.274090 4.684762 28.531695 17.596979 -0.238124 4.045085
969.892723 443.282929 141.632444 0.000000 0.000000 0.000000 0.000000 0.000000 0.000000 22.675903 4.524955 7.362491 180.000000 -6.460610 7.362491 24.255612 -0.133460 -29.468618 155.744388 0.573732 -5.621439 24.720303 5.988492 29.468618 18.000000 -0.197860 3.852566
1257.001877 499.708382 146.951695 0.000000 0.000000 0.000000 0.000000 0.000000 0.000000 52.818511 -7.567471 2.506665 -127.181489 2.803547 2.506665 25.369497 2.644035 -29.940802 -143.914951 3.115606 -1.883716 14.556766 -1.269896 29.940802 -16.686776 -0.025999 3.644843
1279.050064 493.773898 147.325757 0.000000 0.000000 0.000000 0.000000 0.000000 0.000000 56.685213 1.929460 -2.506665 -123.314787 -1.753804 -2.506665 24.065452 -0.264980 -29.940802 -146.540317 -3.845612 1.883716 13.097461 1.663912 29.940802 -16.716891 0.028501 3.422736
1295.108986 477.099677 146.050508 0.000000 0.000000 0.000000 0.000000 0.000000 0.000000 65.723361 7.506463 -7.362491 -114.276639 -10.085394 -7.362491 23.725299 5.208784 -29.468618 -147.984281 -0.116977 5.621439 13.187557 -1.481197 29.468618 -16.751134 0.021110 3.187120
1289.065018 496.763316 149.981668 0.000000 0.000000 0.000000 0.000000 0.000000 0.000000 61.662232 -0.856189 -11.755705 -118.337768 5.447278 -11.755705 31.397757 -3.404359 -28.531695 -148.047797 3.347004 9.270510 12.491083 -0.988787 28.531695 -16.898368 -0.126911 2.938926
1285.337105 480.691112 147.328773 0.000000 0.000000 0.000000 0.000000 0.000000 0.000000 58.021980 0.871271 -15.410265 -121.978020 4.391398 -15.410265 31.705930 0.461463 -27.144812 -157.028684 2.935021 12.773379 11.107306 -2.818743 27.144812 -17.140016 0.145950 2.679134
1276.453171 465.093691 155.142379 0.000000 0.000000 0.000000 0.000000 0.000000 0.000000 70.157145 10.026628 -18.096541 -109.842855 -5.946176 -18.096541 40.303764 -9.300273 -25.329838 -145.293609 -8.916597 16.074804 10.431204 4.418426 25.329838 -17.100572 0.114801 2.408768
1253.658714 472.768564 154.774555 0.000000 0.000000 0.000000 0.000000 0.000000 0.000000 65.087926 -7.081889 -19.645745 -114.912074 -44.917821 -19.645745 -157.680356 -5.275875 -23.115397 -137.727082 -1.614379 19.122720 -153.053596 -0.370720 23.115397 -16.054219 -0.819574 2.128896
1366.101608 507.691247 141.699854 0.000000 0.000000 0.000000 0.000000 0.000000 0.000000 108.715100 -7.029730 -19.960535 -71.284900 20.280670 -19.960535 156.661132 -23.454197 -20.536413 -158.224303 -6.167341 21.869059 0.000000 0.000000 0.000000 0.000000 0.000000 0.000000
969.986295 443.064535 141.712386 0.000000 0.000000 0.000000 0.000000 0.000000 0.000000 26.662144 -1.604510 -19.021130 180.000000 2.366422 -19.021130 28.015351 0.074558 -17.633558 151.984649 0.387580 24.270510 22.068935 -3.144016 17.633558 18.000000 -0.129173 1.545085
1282.107124 481.511257 153.839486 0.000000 0.000000 0.000000 0.000000 0.000000 0.000000 80.650781 -18.256878 -16.886559 -99.349219 -29.406209 -16.886559 1.511604 11.745366 -14.452610 -32.896908 2.405042 26.289200 -7.727072 0.957580 14.452610 13.531851 -2.707547 1.243449
1282.921486 484.777769 143.533571 0.000000 0.000000 0.000000 0.000000 0.000000 0.000000 -81.737646 -28.383572 -13.690942 98.262354 26.216517 -13.690942 -23.867101 -3.320163 -11.043737 12.655668 -3.391148 27.893295 -29.454911 2.132969 11.043737 9.861248 1.633571 0.936907
1290.933037 513.180238 126.636876 0.000000 0.000000 0.000000 0.000000 0.000000 0.000000 -91.387864 -0.158920 -9.635073 88.612136 8.704690 -9.635073 -41.685392 5.907843 -7.460697 -161.156957 -5.763563 29.057495 15.157863 4.959621 7.460697 10.543436 0.987634 0.626666
969.999452 442.964284 136.556680 0.000000 0.000000 0.000000 0.000000 0.000000 0.000000 29.025427 12.801402 -4.973798 180.000000 -0.383424 -4.973798 29.437993 -17.825347 -3.759997 150.562007 -7.737892 29.763441 20.404746 -1.223587 3.759997 18.000000 -0.478179 0.313953
970.000000 442.938926 124.036337 0.000000 0.000000 0.000000 0.000000 0.000000 0.000000 29.678605 -13.876024 0.000000 180.000000 25.177369 0.000000 29.744881 -5.538871 -0.000000 150.255119 16.513681 30.000000 19.983107 4.492140 0.000000 18.000000 -0.696665 0.000000
1354.522934 467.411410 145.372606 0.000000 0.000000 0.000000 0.000000 0.000000 0.000000 150.622570 14.973163 4.973798 -29.377430 -10.794262 4.973798 140.176400 4.541042 3.759997 -12.221629 -6.652982 29.763441 132.794256 3.045529 -3.759997 -2.626015 0.015367 0.313953
969.997807 442.887864 130.956046 0.000000 0.000000 0.000000 0.000000 0.000000 0.000000 31.061399 16.285261 9.635073 180.000000 -0.314783 9.635073 30.285790 -17.767476 7.460697 149.714210 -20.165769 29.057495 19.151579 10.725271 -7.460697 18.000000 -0.502495 0.626666
1246.736984 514.278152 110.371797 0.000000 0.000000 0.000000 0.000000 0.000000 0.000000 143.557092 7.620761 13.690942 -36.442908 -7.063860 13.690942 133.761037 -0.287155 11.043737 -156.950665 -5.931659 27.893295 0.000000 0.000000 0.000000 1.928484 0.403558 0.936907
1245.221100 458.637464 109.111134 0.000000 0.000000 0.000000 0.000000 0.000000 0.000000 160.701064 0.615517 16.886559 -19.298936 -5.872364 16.886559 140.193827 2.822997 14.452610 -157.554825 -5.579353 26.289200 29.500467 4.538461 -14.452610 -15.049953 -0.453846 1.243449
1257.365570 418.514181 118.652921 0.000000 0.000000 0.000000 0.000000 0.000000 0.000000 -143.710676 3.365925 19.021130 36.289324 2.685613 19.021130 163.220413 5.439446 17.633558 11.688054 -3.640101 24.270510 152.038385 2.871920 -17.633558 -2.339948 0.047887 1.545085
1275.099564 408.163741 115.345335 0.000000 0.000000 0.000000 0.000000 0.000000 0.000000 -132.929531 -3.123378 19.960535 47.070469 1.389814 19.960535 173.491912 3.073116 20.536413 -160.709681 -4.044534 21.869059 33.138793 7.126425 -20.536413 -14.686121 -0.712643 1.840623
1290.611115 384.880857 96.742680 0.000000 0.000000 0.000000 0.000000 0.000000 0.000000 -132.705235 -9.215815 19.645745 47.294765 13.347729 19.645745 -173.778854 -5.105082 23.115397 20.496835 -1.685247 19.122720 -161.220290 -3.339603 -23.115397 1.723235 0.407968 2.128896
1302.817154 380.305352 97.382412 0.000000 0.000000 0.000000 0.000000 0.000000 0.000000 -131.493915 -3.406497 18.096541 48.506085 -3.068239 18.096541 -165.393697 1.516735 25.329838 23.154815 -0.740572 16.074804 -178.200316 1.014938 -25.329838 0.138141 0.003522 2.408768
1304.997711 379.563582 85.525175 0.000000 0.000000 0.000000 0.000000 0.000000 0.000000 -126.727972 0.473206 15.410265 53.272028 3.503899 15.410265 -160.219593 -1.502518 27.144812 28.448880 2.279090 12.773379 -174.368770 -0.266526 -27.144812 0.079526 0.118507 2.679134
1311.668472 386.890390 79.255360 0.000000 0.000000 0.000000 0.000000 0.000000 0.000000 -122.308728 -5.215509 11.755705 57.691272 4.176610 11.755705 -158.801130 -3.215081 28.531695 150.942637 -5.019690 9.270510 -154.878332 -3.532946 -28.531695 2.695409 0.535901 2.938926
1305.131836 395.180186 66.851444 0.000000 0.000000 0.000000 0.000000 0.000000 0.000000 -125.112810 -17.116834 7.362491 54.887190 -3.149413 7.362491 -146.487292 2.099693 29.468618 -175.167369 4.252779 5.621439 -159.224034 -4.406592 -29.468618 1.782042 0.567559 3.187120
1296.320457 392.734526 58.317280 0.000000 0.000000 0.000000 0.000000 0.000000 0.000000 -131.035750 0.535379 2.506665 48.964250 -0.299847 2.506665 -128.969563 1.637771 29.940802 38.856147 -4.669784 1.883716 -134.776850 0.951968 -29.940802 3.458429 0.084921 3.422736
1306.963577 386.612041 88.891204 0.000000 0.000000 0.000000 0.000000 0.000000 0.000000 -124.469622 -3.691849 -2.506665 55.530378 2.851412 -2.506665 -109.994856 -5.429220 29.940802 37.691309 2.065105 -1.883716 -118.274788 -0.769986 -29.940802 5.098336 0.020547 3.644843
969.892723 442.572198 71.336674 0.000000 0.000000 0.000000 0.000000 0.000000 0.000000 41.287575 54.419999 -7.362491 180.000000 -31.171087 -7.362491 30.974696 20.882090 29.468618 149.025304 -16.849712 -5.621439 15.072869 -0.473644 -29.468618 18.000000 -0.267533 3.852566
969.876883 442.545207 59.171865 0.000000 0.000000 0.000000 0.000000 0.000000 0.000000 42.241956 -27.333565 -11.755705 180.000000 2.812874 -11.755705 30.826133 0.827000 28.531695 149.173867 -0.907740 -9.270510 14.823070 3.881400 -28.531695 18.000000 0.130383 4.045085
969.859960 442.518116 51.730330 0.000000 0.000000 0.000000 0.000000 0.000000 0.000000 43.199779 38.546007 -15.410265 180.000000 -29.632590 -15.410265 30.649504 1.995253 27.144812 149.350496 -9.833645 -12.773379 14.587557 -0.396130 -27.144812 18.000000 -0.085347 4.221640
969.841956 442.490926 71.433305 0.000000 0.000000 0.000000 0.000000 0.000000 0.000000 44.157210 -19.876726 -18.096541 180.000000 3.773610 -18.096541 30.446417 -0.334686 25.329838 149.553583 12.997506 -16.074804 14.366154 -8.727354 -25.329838 18.000000 0.078914 4.381533
969.822873 442.463637 56.683306 0.000000 0.000000 0.000000 0.000000 0.000000 0.000000 45.110117 -18.115946 -19.645745 180.000000 -2.800109 -19.645745 30.218633 12.139038 23.115397 149.781367 8.943023 -19.122720 14.158653 -2.840203 -23.115397 18.000000 0.162608 4.524135
969.802712 442.436251 17.178603 0.000000 0.000000 0.000000 0.000000 0.000000 0.000000 46.054109 -26.054974 -19.960535 180.000000 6.822282 -19.960535 29.968037 7.654051 20.536413 150.031963 1.179599 -21.869059 13.964823 -5.141567 -20.536413 18.000000 0.445909 4.648882
1187.040939 541.658249 45.625666 0.000000 0.000000 0.000000 0.000000 0.000000 0.000000 82.806623 5.139438 -19.021130 -97.193377 -14.423547 -19.021130 45.395981 5.165162 17.633558 -156.144455 -2.774065 -24.270510 0.000000 0.000000 0.000000 0.000000 0.000000 0.000000
1182.242889 522.024286 67.177742 0.000000 0.000000 0.000000 0.000000 0.000000 0.000000 -105.721938 -13.142004 -16.886559 74.278062 5.725780 -16.886559 -155.708006 -2.333770 14.452610 -157.302521 -2.178932 -26.289200 0.000000 0.000000 0.000000 2.684983 0.271430 4.842916
1180.914459 527.065626 43.578072 0.000000 0.000000 0.000000 0.000000 0.000000 0.000000 88.055617 -7.604985 -13.690942 -91.944383 4.017054 -13.690942 -158.862018 -2.680129 11.043737 -151.747289 -1.977352 -27.893295 0.000000 0.000000 0.000000 0.000000 0.000000 0.000000
1236.800194 541.387432 57.924162 0.000000 0.000000 0.000000 0.000000 0.000000 0.000000 -85.588400 3.375685 -9.635073 94.411600 4.841015 -9.635073 -159.297106 1.632465 7.460697 -157.915391 -2.267582 -29.057495 26.607362 1.423579 -7.460697 14.926890 0.761534 4.960574
1161.066513 575.006626 53.787808 0.000000 0.000000 0.000000 0.000000 0.000000 0.000000 -81.021168 -2.237989 -4.973798 98.978832 -16.323828 -4.973798 -102.851701 10.695133 3.759997 -157.041007 -2.743598 -29.763441 21.429890 1.491939 -3.759997 10.859432 0.790294 4.990134
1255.636253 512.645942 42.958686 0.000000 0.000000 0.000000 0.000000 0.000000 0.000000 77.832564 6.308454 -0.000000 -102.167436 -2.042173 -0.000000 -158.264834 -2.640473 0.000000 -130.745502 -7.189418 -30.000000 -157.699225 -1.564988 -0.000000 0.000000 0.000000 0.000000
1265.118484 521.473864 37.273934 0.000000 0.000000 0.000000 0.000000 0.000000 0.000000 64.078276 -1.760134 4.973798 -115.921724 2.102636 4.973798 41.397952 -0.062006 -3.759997 -139.329851 -0.145525 -29.763441 20.223252 2.092333 3.759997 -16.047574 -0.170295 4.990134
1228.099480 522.138258 40.311422 0.000000 0.000000 0.000000 0.000000 0.000000 0.000000 71.050901 2.606220 9.635073 -108.949099 -2.090012 9.635073 150.099970 2.549016 -7.460697 -139.894702 -1.613363 -29.057495 -156.275691 -2.686717 7.460697 0.000000 0.000000 0.000000
1240.357246 528.695873 59.020079 0.000000 0.000000 0.000000 0.000000 0.000000 0.000000 65.413351 0.471544 13.690942 -114.586649 4.394936 13.690942 147.242328 9.161862 -11.043737 -154.470720 -1.983876 -27.893295 25.557225 2.202777 11.043737 -15.444278 -0.220278 4.911436
1231.815262 551.380248 52.169099 0.000000 0.000000 0.000000 0.000000 0.000000 0.000000 56.412506 -1.360875 16.886559 -123.587494 1.279201 16.886559 -153.392336 -6.316590 -14.452610 -154.784582 -2.683927 -26.289200 24.191555 3.864699 14.452610 -15.580844 -0.386470 4.842916
1221.475182 508.360147 64.994298 0.000000 0.000000 0.000000 0.000000 0.000000 0.000000 77.450622 -11.113634 19.021130 -102.549378 3.800782 19.021130 -156.789784 -3.198274 -17.633558 -125.590168 -0.880541 -24.270510 -160.017240 -3.154150 17.633558 1.833434 0.310719 4.755283
969.477684 442.100429 67.318126 0.000000 0.000000 0.000000 0.000000 0.000000 0.000000 54.932575 -28.745157 19.960535 180.000000 -29.482545 19.960535 25.919122 16.560400 -20.536413 154.080878 -0.056774 -21.869059 12.612867 1.650811 20.536413 18.000000 -0.235930 4.648882
1480.140495 518.878891 43.792747 0.000000 0.000000 0.000000 0.000000 0.000000 0.000000 -110.621767 86.535014 19.645745 69.378233 86.155830 19.645745 -158.235933 -2.856690 -23.115397 166.031448 -3.517000 -19.122720 -155.186432 -2.323654 23.115397 2.641553 0.334348 4.524135
1271.640472 556.840560 68.342916 0.000000 0.000000 0.000000 0.000000 0.000000 0.000000 -94.404719 -15.812410 18.096541 85.595281 16.499307 18.096541 -62.417786 2.302431 -25.329838 23.992813 6.128252 -16.074804 -76.856107 -1.255550 25.329838 7.708835 0.249725 4.381533
1258.556786 530.268441 71.694970 0.000000 0.000000 0.000000 0.000000 0.000000 0.000000 78.355945 -2.298263 15.410265 -101.644055 0.904520 15.410265 35.068294 -2.558404 -27.144812 -54.090640 -1.267221 -12.773379 35.848220 -0.284645 27.144812 -8.104639 -0.135280 4.221640
1250.800209 527.150567 71.330621 0.000000 0.000000 0.000000 0.000000 0.000000 0.000000 72.417769 5.095335 11.755705 -107.582231 -10.248356 11.755705 24.571109 -3.101717 -28.531695 -39.196117 -1.447069 -9.270510 10.411117 -5.783568 28.531695 -9.048616 2.091544 4.045085
1243.466148 571.776259 91.274191 0.000000 0.000000 0.000000 0.000000 0.000000 0.000000 86.301473 -12.689103 7.362491 -93.698527 2.325585 7.362491 24.553534 0.579980 -29.468618 -153.460385 -3.514359 -5.621439 19.510484 3.331939 29.468618 -10.109500 -3.163819 3.852566
1261.883812 566.052918 110.737839 0.000000 0.000000 0.000000 0.000000 0.000000 0.000000 94.015209 4.036190 2.506665 -85.984791 9.630182 2.506665 38.959993 -4.517402 -29.940802 -154.008305 -3.849800 -1.883716 20.870951 3.459043 29.940802 -10.872440 -0.288852 3.644843
1284.436798 527.190542 91.032022 0.000000 0.000000 0.000000 0.000000 0.000000 0.000000 111.186365 -11.318304 -2.506665 -68.813635 20.503516 -2.506665 58.506163 -5.771362 -29.940802 -19.138727 9.161037 1.883716 51.457372 -15.094846 29.940802 -5.203198 1.152631 3.422736
1272.860069 533.494012 113.778179 0.000000 0.000000 0.000000 0.000000 0.000000 0.000000 72.301471 -17.047599 -7.362491 -107.698529 23.620614 -7.362491 78.802573 -1.630824 -29.468618 -154.772375 -3.900219 5.621439 26.927455 3.513306 29.468618 -15.307255 -0.351331 3.187120
1255.264664 498.243735 113.044024 0.000000 0.000000 0.000000 0.000000 0.000000 0.000000 164.596971 30.498697 -11.755705 -15.403029 -67.437289 -11.755705 125.849126 11.725902 -28.531695 -156.067666 -5.655344 9.270510 33.087561 4.680087 28.531695 -14.691244 -0.468009 2.938926
1259.202232 470.407684 125.793915 0.000000 0.000000 0.000000 0.000000 0.000000 0.000000 -139.980397 24.271325 -15.410265 40.019603 -15.977680 -15.410265 165.887722 3.780677 -27.144812 -157.901492 -5.803507 12.773379 35.196094 5.476979 27.144812 -14.480391 -0.547698 2.679134
1236.502075 429.951335 116.232738 0.000000 0.000000 0.000000 0.000000 0.000000 0.000000 -113.295066 -5.610822 -18.096541 66.704934 2.100353 -18.096541 -174.664169 -5.319867 -25.329838 -159.007335 -5.759816 16.074804 32.868990 6.577897 25.329838 -14.713101 -0.657790 2.408768
1253.359451 413.942538 123.239208 0.000000 0.000000 0.000000 0.000000 0.000000 0.000000 -123.348580 -3.528223 -19.645745 56.651420 -0.170599 -19.645745 -167.815074 3.432260 -23.115397 -159.603180 -5.248116 19.122720 32.791747 6.680377 23.115397 -14.720825 -0.668038 2.128896
1281.206589 405.664523 123.005391 0.000000 0.000000 0.000000 0.000000 0.000000 0.000000 -124.414271 4.364591 -19.960535 55.585729 -4.106373 -19.960535 -161.281803 0.338140 -20.536413 28.568449 0.488043 21.869059 -159.052798 -5.121869 20.536413 1.849141 0.425304 1.840623
1300.238571 418.760215 118.905311 0.000000 0.000000 0.000000 0.000000 0.000000 0.000000 -126.263092 -9.075269 -19.021130 53.736908 4.720040 -19.021130 -159.739358 1.931058 -17.633558 31.487961 4.345157 24.270510 -170.323915 -0.178963 17.633558 0.671815 -0.165067 1.545085
1321.889191 413.634385 144.316565 0.000000 0.000000 0.000000 0.000000 0.000000 0.000000 -133.874471 9.370820 -16.886559 46.125529 4.882180 -16.886559 -159.376251 -4.720784 -14.452610 30.696824 -0.713561 26.289200 -164.929556 -0.696803 14.452610 1.089735 0.009854 1.243449
1336.221428 432.881820 157.811293 0.000000 0.000000 0.000000 0.000000 0.000000 0.000000 -115.020798 -9.551904 -13.690942 64.979202 -1.046483 -13.690942 -135.609544 4.622618 -11.043737 -161.321630 -5.757676 27.893295 17.353502 7.581302 11.043737 -16.264650 -0.758130 0.936907
1329.124603 416.860342 144.407175 0.000000 0.000000 0.000000 0.000000 0.000000 0.000000 -134.023347 2.061382 -9.635073 45.976653 -2.277965 -9.635073 -128.030830 0.235123 -7.460697 28.249885 0.107660 29.057495 -136.447985 0.732288 7.460697 4.038834 -0.122713 0.626666
1343.366776 427.060794 131.917264 0.000000 0.000000 0.000000 0.000000 0.000000 0.000000 -130.153347 -9.265738 -4.973798 49.846653 5.871499 -4.973798 -103.564435 2.087370 -3.759997 27.398095 0.761427 29.763441 -115.461530 4.117538 3.759997 5.470063 -0.353612 0.313953
1376.991005 465.829636 131.447297 0.000000 0.000000 0.000000 0.000000 0.000000 0.000000 -120.272352 -1.294543 0.000000 59.727648 0.298557 0.000000 -62.204131 -6.018520 -0.000000 27.740602 -1.676168 30.000000 -80.461527 0.570888 0.000000 7.450891 0.374029 0.000000
1384.978867 468.790376 148.829086 0.000000 0.000000 0.000000 0.000000 0.000000 0.000000 -93.720384 26.235313 4.973798 86.279616 -51.043393 4.973798 3.847814 3.847547 3.759997 -160.438787 -6.635163 29.763441 15.990976 4.874623 -3.759997 7.894783 0.098958 0.313953
1345.894547 516.257268 149.548289 0.000000 0.000000 0.000000 0.000000 0.000000 0.000000 127.577640 2.096518 9.635073 -52.422360 -14.377192 9.635073 53.096359 -3.236714 7.460697 -159.021748 -6.558553 29.057495 18.308456 4.709083 -7.460697 -4.062191 4.810819 0.626666
968.498927 441.455181 135.520778 0.000000 0.000000 0.000000 0.000000 0.000000 0.000000 47.920147 -31.390596 13.690942 180.000000 -10.685050 13.690942 19.641385 1.405099 11.043737 160.358615 -8.905806 27.893295 13.993219 6.982824 -11.043737 18.000000 -0.651247 0.936907
1336.846733 493.527671 156.656658 0.000000 0.000000 0.000000 0.000000 0.000000 0.000000 102.681311 38.421363 16.886559 -77.318689 -9.564153 16.886559 35.985219 -4.825066 14.452610 -159.617763 -7.232648 26.289200 19.375410 5.308721 -14.452610 -16.062459 -0.530872 1.243449
968.386706 441.394956 136.197295 0.000000 0.000000 0.000000 0.000000 0.000000 0.000000 46.120581 -12.937689 19.021130 180.000000 -4.572106 19.021130 19.316787 5.663323 17.633558 160.683213 1.678559 24.270510 14.327067 -1.661489 -17.633558 18.000000 -0.359249 1.545085
1263.984947 433.341283 151.027750 0.000000 0.000000 0.000000 0.000000 0.000000 0.000000 -115.578373 -19.920189 19.960535 64.421627 3.864818 19.960535 -82.396446 12.511832 20.536413 25.733383 5.106386 21.869059 -77.477544 6.360632 -20.536413 5.836928 -1.028433 1.840623
1352.596436 477.564354 147.156448 0.000000 0.000000 0.000000 0.000000 0.000000 0.000000 -99.196741 -9.592010 19.645745 80.803259 -2.403858 19.645745 -125.272585 4.141832 23.115397 -162.405270 -5.827256 19.122720 17.377627 6.324570 -23.115397 -16.262237 -0.632457 2.128896
1384.326782 408.174427 140.174767 0.000000 0.000000 0.000000 0.000000 0.000000 0.000000 96.868601 21.722622 18.096541 -83.131399 -7.248436 18.096541 -160.848957 -6.425337 25.329838 -137.255583 -3.145601 16.074804 -162.076720 -7.010106 -25.329838 0.000000 0.000000 0.000000
1387.580223 387.128634 142.154535 0.000000 0.000000 0.000000 0.000000 0.000000 0.000000 78.087764 29.062293 15.410265 -101.912236 -26.452229 15.410265 -161.807915 -5.487980 27.144812 -147.504361 -5.604737 12.773379 -162.566306 -6.403267 -27.144812 1.735427 0.768318 2.679134
1345.818558 392.423122 135.847547 0.000000 0.000000 0.000000 0.000000 0.000000 0.000000 71.782984 2.973189 11.755705 -108.217016 -2.918237 11.755705 -169.469261 4.327179 28.531695 -153.903088 -0.529665 9.270510 -154.670689 3.976360 -28.531695 15.277725 1.615017 2.938926
1331.471329 361.814139 128.224502 0.000000 0.000000 0.000000 0.000000 0.000000 0.000000 53.586100 -22.821052 7.362491 -126.413900 18.703467 7.362491 -162.290330 -6.650467 29.468618 -154.912165 1.141451 5.621439 -162.550394 -7.370937 -29.468618 1.742175 0.897215 3.187120
1354.413986 427.213873 122.891538 0.000000 0.000000 0.000000 0.000000 0.000000 0.000000 -131.358118 5.351067 2.506665 48.641882 -16.559824 2.506665 -142.488821 -0.483481 29.940802 -161.977882 -6.299590 1.883716 12.673705 8.705936 -29.940802 1.397524 -0.002914 3.422736
1330.326691 347.207226 151.625553 0.000000 0.000000 0.000000 0.000000 0.000000 0.000000 52.464175 -4.545583 -2.506665 -127.535825 14.020952 -2.506665 14.270918 -8.128997 29.940802 -122.057234 5.674677 -1.883716 22.820874 -4.295381 -29.940802 -15.244909 0.090519 3.644843
1317.103271 414.475805 127.685868 0.000000 0.000000 0.000000 0.000000 0.000000 0.000000 76.170457 17.942539 -7.362491 -103.829543 10.583396 -7.362491 -50.250674 -5.371999 29.468618 -52.503744 1.024171 -5.621439 -92.793049 -2.477745 -29.468618 3.303440 -0.700049 3.852566
1331.844635 430.291482 114.876057 0.000000 0.000000 0.000000 0.000000 0.000000 0.000000 79.985160 -0.221110 -11.755705 -100.014840 -0.365781 -11.755705 25.995082 0.690046 28.531695 -75.062603 -1.712425 -9.270510 38.761234 -3.353245 -28.531695 -11.442229 0.518766 4.045085
1359.462433 496.472383 117.584243 0.000000 0.000000 0.000000 0.000000 0.000000 0.000000 84.268829 -4.463370 -15.410265 -95.731171 9.082313 -15.410265 30.279153 -2.966560 27.144812 -63.318008 6.298479 -12.773379 39.457716 -1.487767 -27.144812 -9.485742 0.124664 4.221640
1323.514366 546.771398 127.716086 0.000000 0.000000 0.000000 0.000000 0.000000 0.000000 84.407325 0.336285 -18.096541 -95.592675 -2.883501 -18.096541 27.768249 -5.142964 25.329838 -47.660055 -3.773283 -16.074804 28.281511 -3.028120 -25.329838 -7.827901 0.656821 4.381533
1268.535347 591.567099 104.939821 0.000000 0.000000 0.000000 0.000000 0.000000 0.000000 90.890792 1.374882 -19.645745 -89.109208 2.591581 -19.645745 44.654760 3.541161 23.115397 -48.200667 5.992732 -19.122720 43.369388 -5.338376 -23.115397 -8.974980 0.519299 4.524135
1303.157158 602.888768 123.830651 0.000000 0.000000 0.000000 0.000000 0.000000 0.000000 90.349289 -1.580911 -19.960535 -89.650711 4.591657 -19.960535 47.707312 -2.386539 20.536413 -53.918782 0.159138 -21.869059 40.070965 3.002979 -20.536413 -9.318632 -1.194644 4.648882
1314.841690 613.141973 94.275037 0.000000 0.000000 0.000000 0.000000 0.000000 0.000000 94.480501 7.415411 -19.021130 -85.519499 -6.884063 -19.021130 58.462862 3.457042 17.633558 -52.020507 -0.997234 -24.270510 55.276552 -1.773356 -17.633558 -7.777523 -0.302708 4.755283
1327.521400 639.394319 100.636822 0.000000 0.000000 0.000000 0.000000 0.000000 0.000000 99.879576 -3.980189 -16.886559 -80.120424 2.162276 -16.886559 69.161359 0.632218 14.452610 -46.413613 0.453786 -26.289200 76.680143 1.437134 -14.452610 -6.257768 -0.034067 4.842916
1277.812729 671.228578 96.120244 0.000000 0.000000 0.000000 0.000000 0.000000 0.000000 99.708534 3.978558 -13.690942 -80.291466 -6.835692 -13.690942 92.239140 -1.548067 11.043737 -26.764021 -3.551034 -27.893295 98.168457 -0.544658 -11.043737 -4.372074 -0.097638 4.911436
1309.642181 690.479329 83.536619 0.000000 0.000000 0.000000 0.000000 0.000000 0.000000 117.292414 1.074420 -9.635073 -62.707586 -0.519717 -9.635073 137.002702 1.148084 7.460697 -32.045917 2.974271 -29.057495 135.211322 -2.182877 -7.460697 -3.212944 0.164226 4.960574
1299.770966 664.126496 66.949916 0.000000 0.000000 0.000000 0.000000 0.000000 0.000000 158.531160 10.097485 -4.973798 -21.468840 -26.342132 -4.973798 161.478323 3.820505 3.759997 -12.838206 -3.220952 -29.763441 151.269584 0.057745 -3.759997 -2.521934 0.070770 4.990134
1313.353729 643.668108 79.857572 0.000000 0.000000 0.000000 0.000000 0.000000 0.000000 -154.315892 12.167926 -0.000000 25.684108 -6.398149 -0.000000 173.459940 1.164645 0.000000 1.519689 -4.072531 -30.000000 164.244875 0.230604 -0.000000 -1.552244 0.033502 5.000000
1342.841377 638.982847 60.784072 0.000000 0.000000 0.000000 0.000000 0.000000 0.000000 -138.993869 -20.514051 4.973798 41.006131 2.356884 4.973798 175.724056 -0.348092 -3.759997 -151.723069 -3.123133 -29.763441 43.242568 3.611866 3.759997 -13.675743 -0.361187 4.990134
1350.000229 614.724133 75.046863 0.000000 0.000000 0.000000 0.000000 0.000000 0.000000 -144.248147 11.889404 9.635073 35.751853 -9.925832 9.635073 177.069273 -2.531378 -7.460697 -152.227621 -3.334781 -29.057495 43.136563 4.437414 7.460697 -13.686344 -0.443741 4.960574
1328.535919 624.780936 53.402479 0.000000 0.000000 0.000000 0.000000 0.000000 0.000000 -165.447222 4.250461 13.690942 14.552778 20.874056 13.690942 169.657511 -1.154531 -11.043737 -152.168050 -2.485884 -27.893295 41.929642 3.279755 11.043737 -13.807036 -0.327976 4.911436
1318.810501 615.688248 69.524990 0.000000 0.000000 0.000000 0.000000 0.000000 0.000000 -120.063657 4.381409 16.886559 59.936343 -5.932348 16.886559 -165.389465 0.532718 -14.452610 -152.866764 -2.406974 -26.289200 39.162270 3.739408 14.452610 -14.083773 -0.373941 4.842916
1321.656418 659.275410 58.794801 0.000000 0.000000 0.000000 0.000000 0.000000 0.000000 -121.435085 15.399649 19.021130 58.564915 -4.746202 19.021130 -149.190712 -0.636414 -17.633558 -151.926374 -2.579934 -24.270510 33.097066 2.671733 17.633558 -14.690293 -0.267173 4.755283
1328.445511 687.490232 60.264390 0.000000 0.000000 0.000000 0.000000 0.000000 0.000000 -104.253419 -1.122939 19.960535 75.746581 3.539854 19.960535 -110.140878 0.749603 -20.536413 -152.911692 -2.131877 -21.869059 23.882145 3.013738 20.536413 3.694979 -0.244681 4.648882
966.534206 440.564282 53.520265 0.000000 0.000000 0.000000 0.000000 0.000000 0.000000 25.865486 11.158428 19.645745 180.000000 2.502213 19.645745 18.728337 -4.592638 -23.115397 161.271663 -1.282160 -19.122720 19.024234 -1.238532 23.115397 18.000000 -0.289225 4.524135
966.454577 440.533056 49.254614 0.000000 0.000000 0.000000 0.000000 0.000000 0.000000 25.417507 -13.925433 18.096541 180.000000 8.535433 18.096541 18.825450 0.733057 -25.329838 161.174550 4.407550 -16.074804 19.071566 5.625256 25.329838 18.000000 -1.511378 4.381533
966.374240 440.501809 46.188192 0.000000 0.000000 0.000000 0.000000 0.000000 0.000000 24.990320 24.775343 15.410265 180.000000 -19.000885 15.410265 18.929718 -2.878002 -27.144812 161.070282 -13.130508 -12.773379 19.102411 -1.635585 27.144812 18.000000 0.859247 4.221640
966.293204 440.470542 55.033073 0.000000 0.000000 0.000000 0.000000 0.000000 0.000000 24.583377 -31.238330 11.755705 180.000000 10.961653 11.755705 19.040946 -5.418374 -28.531695 160.959054 8.327042 -9.270510 19.116765 0.504317 28.531695 18.000000 -0.792574 4.045085
966.211478 440.439256 45.608260 0.000000 0.000000 0.000000 0.000000 0.000000 0.000000 24.196129 19.860923 7.362491 180.000000 -2.221222 7.362491 19.158923 -8.303062 -29.468618 160.841077 -10.735492 -5.621439 19.114778 8.500282 29.468618 18.000000 -0.086467 3.852566
644.985180 745.864069 42.802730 0.000000 0.000000 0.000000 0.000000 0.000000 0.000000 96.086415 0.611849 2.506665 -83.913585 18.353421 2.506665 -159.662371 -1.200316 -29.940802 -116.741565 0.600502 -1.883716 -176.001217 6.252241 29.940802 -1.006627 -1.668580 3.644843
1269.020119 699.025490 52.376434 0.000000 0.000000 0.000000 0.000000 0.000000 0.000000 83.810916 4.844366 -2.506665 -96.189084 -3.833917 -2.506665 51.932890 2.696245 -29.940802 -149.314466 -2.418628 1.883716 27.598511 1.971946 29.940802 -15.240149 -0.197195 3.422736
573.721218 678.450201 48.362479 0.000000 0.000000 0.000000 0.000000 0.000000 0.000000 18.756393 -47.371353 -7.362491 -161.243607 -42.719778 -7.362491 -174.158094 8.597467 -29.468618 178.010322 8.118840 5.621439 -154.394154 -4.644752 29.468618 11.886524 -0.650844 3.187120
1261.580200 714.897366 48.967334 0.000000 0.000000 0.000000 0.000000 0.000000 0.000000 87.191276 2.409936 -11.755705 -92.808724 -2.126692 -11.755705 23.129119 -4.748783 -28.531695 -149.376238 -2.327381 9.270510 24.545507 2.498829 28.531695 13.583501 0.802882 2.938926
1314.655838 684.171546 48.895996 0.000000 0.000000 0.000000 0.000000 0.000000 0.000000 61.219932 -0.359092 -15.410265 -118.780068 1.153006 -15.410265 25.476616 1.137057 -27.144812 -150.404247 -2.232832 12.773379 24.621454 2.318803 27.144812 -15.537855 -0.231880 2.679134
1319.638939 674.820013 81.877765 0.000000 0.000000 0.000000 0.000000 0.000000 0.000000 82.055377 -6.013630 -18.096541 -97.944623 -5.243618 -18.096541 17.325085 -1.513009 -25.329838 -60.067277 1.242523 16.074804 23.747728 -3.070703 25.329838 -13.005173 0.916485 2.408768
1367.852325 659.536314 50.590248 0.000000 0.000000 0.000000 0.000000 0.000000 0.000000 -150.278430 -30.700914 -19.645745 29.721570 -4.173559 -19.645745 -151.222797 -2.444424 -23.115397 18.758043 4.838427 19.122720 -152.451920 -2.852002 23.115397 2.484143 0.226667 2.128896
1392.624664 638.981302 66.930979 0.000000 0.000000 0.000000 0.000000 0.000000 0.000000 -122.704248 -0.176416 -19.960535 57.295752 -0.170480 -19.960535 -134.513385 4.117534 -20.536413 30.292627 -2.334497 21.869059 -146.694539 -0.205175 20.536413 2.430965 0.123770 1.840623
1401.291389 646.422758 68.771865 0.000000 0.000000 0.000000 0.000000 0.000000 0.000000 83.316637 0.691001 -19.021130 -96.683363 -4.959614 -19.021130 29.335627 7.556347 -17.633558 -136.281416 -1.773541 24.270510 19.119183 3.616472 17.633558 -15.871560 -0.186915 1.545085
1381.838951 663.410475 70.997037 0.000000 0.000000 0.000000 0.000000 0.000000 0.000000 79.215331 0.973685 -16.886559 -100.784669 -5.221647 -16.886559 30.640455 2.447604 -14.452610 -139.113455 -0.755559 26.289200 14.302413 1.454830 14.452610 -16.408036 0.016941 1.243449
1390.185928 664.248354 55.627961 0.000000 0.000000 0.000000 0.000000 0.000000 0.000000 75.546066 10.496637 -13.690942 -104.453934 -10.412892 -13.690942 38.995097 -3.314751 -11.043737 -142.871297 -6.095126 27.893295 14.209110 1.265793 11.043737 -16.737090 0.179908 0.936907
1393.889923 677.551103 75.917392 0.000000 0.000000 0.000000 0.000000 0.000000 0.000000 84.293627 5.791477 -9.635073 -95.706373 -5.660807 -9.635073 -152.700272 -3.290769 -7.460697 -143.357755 -0.862006 29.057495 -148.868889 -4.393151 7.460697 3.626268 0.440562 0.626666
905.601082 693.654528 105.287853 0.000000 0.000000 0.000000 0.000000 0.000000 0.000000 -84.410869 16.101500 -4.973798 95.589131 -7.952417 -4.973798 -139.498802 -4.158350 -3.759997 -178.556713 -42.890917 29.763441 -142.061844 -4.105054 3.759997 3.411456 0.425254 0.313953
1337.643929 680.318756 89.688495 0.000000 0.000000 0.000000 0.000000 0.000000 0.000000 78.192517 -3.810690 0.000000 -101.807483 -2.123418 0.000000 48.289813 2.328242 -0.000000 -140.291980 5.466993 30.000000 13.663140 -2.657964 0.000000 -17.395561 -0.231013 0.000000
1322.670708 685.543334 122.806959 0.000000 0.000000 0.000000 0.000000 0.000000 0.000000 71.501063 -0.572571 4.973798 -108.498937 4.884743 4.973798 23.648228 -5.952335 3.759997 -144.586500 3.907189 29.763441 14.578018 -2.008030 -3.759997 -16.885607 0.042459 0.313953
1305.530548 682.910864 104.579948 0.000000 0.000000 0.000000 0.000000 0.000000 0.000000 72.979287 -24.479466 9.635073 -107.020713 26.240984 9.635073 -148.728581 -4.363272 7.460697 -74.802907 -2.618551 29.057495 -151.178244 -3.915510 -7.460697 2.601049 0.399278 0.626666
1359.363556 692.650115 90.857424 0.000000 0.000000 0.000000 0.000000 0.000000 0.000000 73.244804 9.869717 13.690942 -106.755196 3.280121 13.690942 13.983499 1.456623 11.043737 -67.611809 -1.485082 27.893295 13.130547 2.935741 -11.043737 -11.004089 -0.150187 0.936907
1299.495964 679.994059 131.372053 0.000000 0.000000 0.000000 0.000000 0.000000 0.000000 116.206779 -3.594358 16.886559 -63.793221 14.060397 16.886559 -150.858719 -4.947482 14.452610 -34.548592 2.601188 26.289200 60.366751 2.948539 -14.452610 -4.627493 -0.093990 1.243449
1306.260338 711.527116 116.322467 0.000000 0.000000 0.000000 0.000000 0.000000 0.000000 -85.758672 5.831483 19.021130 94.241328 -6.483542 19.021130 -31.461750 2.589272 17.633558 -4.237664 -6.194691 24.270510 -15.215787 2.646294 -17.633558 7.867754 2.685150 1.545085
1272.614822 704.778571 120.571653 0.000000 0.000000 0.000000 0.000000 0.000000 0.000000 -78.634637 -7.386837 19.960535 101.365363 22.525571 19.960535 -34.118569 -2.937139 20.536413 22.539652 4.205770 21.869059 -31.373170 0.498661 -20.536413 11.310693 -0.606671 1.840623
1310.345650 676.427021 121.236201 0.000000 0.000000 0.000000 0.000000 0.000000 0.000000 97.572435 11.676490 19.645745 -82.427565 -3.360459 19.645745 50.400703 -2.879889 23.115397 -39.584286 -5.000924 19.122720 44.966766 3.315840 -23.115397 -8.852712 -1.593772 2.128896
1315.732956 671.025095 145.394400 0.000000 0.000000 0.000000 0.000000 0.000000 0.000000 97.797337 -7.867116 18.096541 -82.202663 3.108846 18.096541 49.825934 -0.400717 25.329838 -39.162923 0.079825 16.074804 36.475631 -2.163895 -25.329838 -8.191519 2.798428 2.408768
1329.935532 653.525419 123.518148 0.000000 0.000000 0.000000 0.000000 0.000000 0.000000 96.469555 -1.661869 15.410265 -83.530445 1.610636 15.410265 63.882053 0.514040 27.144812 -51.972064 2.509383 12.773379 58.624362 -3.565498 -27.144812 -8.239564 0.213209 2.679134
1316.170578 674.246514 132.014527 0.000000 0.000000 0.000000 0.000000 0.000000 0.000000 -87.946330 -9.793425 11.755705 92.053670 5.364507 11.755705 -29.715798 -1.385164 28.531695 54.212796 1.290637 9.270510 -40.560774 -1.887533 -28.531695 11.008015 0.871355 2.938926
1317.367287 678.027205 125.664897 0.000000 0.000000 0.000000 0.000000 0.000000 0.000000 95.152942 4.633563 7.362491 -84.847058 -2.753913 7.362491 98.792835 2.672422 29.468618 -150.515547 -5.934549 5.621439 32.983753 5.699354 -29.468618 -14.701625 -0.569935 3.187120
1318.168488 670.157025 139.358660 0.000000 0.000000 0.000000 0.000000 0.000000 0.000000 -151.252255 -20.168270 2.506665 28.747745 45.581377 2.506665 138.896993 0.050792 29.940802 -151.946620 -5.993823 1.883716 38.784684 5.834887 -29.940802 -14.121532 -0.583489 3.422736
1323.412628 644.667885 154.218875 0.000000 0.000000 0.000000 0.000000 0.000000 0.000000 -97.904066 5.031916 -2.506665 82.095934 18.154218 -2.506665 155.695030 -4.441518 29.940802 -152.500978 -6.369307 -1.883716 44.721081 6.816391 -29.940802 -13.527892 -0.681639 3.644843
1312.776718 630.059459 143.911399 0.000000 0.000000 0.000000 0.000000 0.000000 0.000000 -116.637972 -7.643741 -7.362491 63.362028 16.853983 -7.362491 171.094570 -2.819446 29.468618 -152.894064 -6.534158 -5.621439 43.947863 7.237986 -29.468618 -13.605214 -0.723799 3.852566
1316.420746 625.237019 135.454428 0.000000 0.000000 0.000000 0.000000 0.000000 0.000000 -136.254273 -6.011500 -11.755705 43.745727 3.167000 -11.755705 -177.663204 -1.651733 28.531695 -153.006287 -6.363646 -9.270510 42.784597 7.420522 -28.531695 -13.721540 -0.742052 4.045085
1314.719925 628.818026 139.825172 0.000000 0.000000 0.000000 0.000000 0.000000 0.000000 -114.737929 -10.903292 -15.410265 65.262071 17.237286 -15.410265 -169.764314 -0.568920 27.144812 -153.369487 -5.716170 -12.773379 41.498347 8.463941 -27.144812 -13.850165 -0.846394 4.221640
1334.396782 646.165652 132.617457 0.000000 0.000000 0.000000 0.000000 0.000000 0.000000 -116.903454 5.857757 -18.096541 63.096546 -5.310984 -18.096541 -154.594534 0.675158 25.329838 -153.225015 -6.625167 -16.074804 37.136182 8.258438 -25.329838 -14.286382 -0.825844 4.381533
1340.823784 648.244128 149.425557 0.000000 0.000000 0.000000 0.000000 0.000000 0.000000 -116.932323 -13.699220 -19.645745 63.067677 10.936296 -19.645745 -138.898656 -1.499989 23.115397 35.335752 2.527143 -19.122720 -153.336856 0.125778 -23.115397 2.206211 0.107165 4.524135
1330.023880 654.599032 143.639970 0.000000 0.000000 0.000000 0.000000 0.000000 0.000000 -112.150704 -9.374822 -19.960535 67.849296 6.510072 -19.960535 -118.798313 4.081613 20.536413 -153.636372 -5.570322 -21.869059 16.691869 8.083488 -20.536413 -16.330813 -0.808349 4.648882
1337.431641 662.410698 133.126449 0.000000 0.000000 0.000000 0.000000 0.000000 0.000000 -109.111809 7.644863 -19.021130 70.888191 -0.916420 -19.021130 -91.144379 0.533741 17.633558 -154.448144 -6.504355 -24.270510 10.298202 6.119271 -17.633558 6.642051 0.138558 4.755283
1324.339714 676.416593 143.138999 0.000000 0.000000 0.000000 0.000000 0.000000 0.000000 -104.120178 -5.037202 -16.886559 75.879822 6.620792 -16.886559 -57.095620 -2.568359 14.452610 38.799650 -2.995121 -26.289200 -71.942639 2.138479 -14.452610 8.831938 0.113147 4.842916
962.890318 439.311049 142.143008 0.000000 0.000000 0.000000 0.000000 0.000000 0.000000 19.986963 14.770172 -13.690942 180.000000 1.662647 -13.690942 24.297229 -3.902398 11.043737 155.702771 -2.574868 -27.893295 14.983342 4.227431 -11.043737 18.000000 -0.284186 4.911436
962.789911 439.279946 137.514520 0.000000 0.000000 0.000000 0.000000 0.000000 0.000000 20.089586 8.415690 -9.635073 180.000000 1.849541 -9.635073 24.330184 7.978711 7.460697 155.669816 2.221585 -29.057495 14.926290 -6.830853 -7.460697 18.000000 0.245539 4.960574
641.318550 641.336324 148.934166 0.000000 0.000000 0.000000 0.000000 0.000000 0.000000 163.642929 -25.939942 -4.973798 -16.357071 22.877503 -4.973798 -155.926011 -0.903974 3.759997 -130.644608 -8.079084 -29.763441 68.679337 11.024287 -3.759997 -11.132066 -1.102429 4.990134
1305.385551 662.289033 127.839760 0.000000 0.000000 0.000000 0.000000 0.000000 0.000000 -81.949824 -29.533430 -0.000000 98.050176 2.137923 -0.000000 9.536664 5.864577 0.000000 -153.586691 -5.157004 -30.000000 24.402531 4.592919 -0.000000 -15.559747 -0.459292 5.000000
962.486899 439.186814 133.307466 0.000000 0.000000 0.000000 0.000000 0.000000 0.000000 20.465882 8.101131 4.973798 180.000000 -7.200143 4.973798 24.357206 2.583479 -3.759997 155.642794 -9.371963 -29.763441 14.800425 5.912514 3.759997 18.000000 -0.371693 4.990134
1216.314240 612.580640 119.868571 0.000000 0.000000 0.000000 0.000000 0.000000 0.000000 78.221991 -0.326371 9.635073 -101.778009 2.816608 9.635073 46.689014 -2.827115 -7.460697 -61.937558 6.096175 -29.057495 44.546377 -1.436466 7.460697 -10.771750 0.466891 4.960574
1273.897820 573.707514 104.815277 0.000000 0.000000 0.000000 0.000000 0.000000 0.000000 77.469628 -5.431723 13.690942 -102.530372 -2.914280 13.690942 -155.691164 -5.338446 -11.043737 -120.750172 -3.881775 -27.893295 -156.229293 -5.392155 11.043737 2.162203 0.611120 4.911436
1337.358742 570.303276 108.730381 0.000000 0.000000 0.000000 0.000000 0.000000 0.000000 73.705918 1.152389 16.886559 -106.294082 -3.420500 16.886559 -155.918376 -4.962130 -14.452610 -149.887909 -4.962464 -26.289200 0.000000 0.000000 0.000000 0.000000 0.000000 0.000000
1342.446442 569.623497 101.568971 0.000000 0.000000 0.000000 0.000000 0.000000 0.000000 68.898287 9.719816 19.021130 -111.101713 -10.296067 19.021130 39.314088 2.243894 -17.633558 -140.912764 -5.451162 -24.270510 -153.216026 -5.561535 17.633558 2.759242 0.563352 4.755283
1335.759430 584.665475 104.206635 0.000000 0.000000 0.000000 0.000000 0.000000 0.000000 66.989329 2.913328 19.960535 -113.010671 -3.379300 19.960535 -154.807077 -4.610578 -20.536413 -142.328055 -1.555888 -21.869059 -153.049156 -5.472427 20.536413 2.866457 0.633940 4.648882
1337.950974 598.074245 88.176702 0.000000 0.000000 0.000000 0.000000 0.000000 0.000000 62.697633 11.072220 19.645745 -117.302367 -5.056365 19.645745 19.366736 1.074952 -23.115397 -144.826223 1.959247 -19.122720 9.911455 -3.043010 23.115397 -17.004209 -0.004819 4.524135
1352.846489 601.043322 110.761428 0.000000 0.000000 0.000000 0.000000 0.000000 0.000000 59.083577 -12.152298 18.096541 -120.916423 2.719220 18.096541 20.876734 -2.828768 -25.329838 -142.301690 -0.726633 -16.074804 13.356960 1.001185 25.329838 -16.821524 -0.057433 4.381533
1347.310982 587.475100 95.730744 0.000000 0.000000 0.000000 0.000000 0.000000 0.000000 56.169135 -4.668795 15.410265 -123.830865 -4.776479 15.410265 21.172503 -3.162404 -27.144812 -139.640745 0.847557 -12.773379 14.641496 -1.008950 27.144812 -16.282575 0.047438 4.221640
1326.982155 606.886139 93.221012 0.000000 0.000000 0.000000 0.000000 0.000000 0.000000 70.119981 -1.944302 11.755705 -109.880019 6.141026 11.755705 26.511889 -2.811987 -28.531695 -111.264667 -0.619031 -9.270510 31.153840 0.247093 28.531695 -13.943905 0.070330 4.045085
1354.391098 626.185555 97.966499 0.000000 0.000000 0.000000 0.000000 0.000000 0.000000 88.154395 2.394220 7.362491 -91.845605 -8.541247 7.362491 30.442275 -0.962901 -29.468618 -76.284233 -2.602242 -5.621439 43.854867 -0.392290 29.468618 -10.818190 -0.085741 3.852566
1370.667114 610.219567 74.388691 0.000000 0.000000 0.000000 0.000000 0.000000 0.000000 89.945118 -1.533345 2.506665 -90.054882 -0.216472 2.506665 44.053326 -1.726662 -29.940802 -56.238091 2.959029 -1.883716 55.411270 -1.526439 29.940802 -7.805659 0.047741 3.644843
1372.834854 597.828534 87.382389 0.000000 0.000000 0.000000 0.000000 0.000000 0.000000 93.407992 8.081590 -2.506665 -86.592008 -5.120477 -2.506665 54.165845 1.462099 -29.940802 -47.239220 -3.530682 1.883716 56.575186 -2.395036 29.940802 -6.344474 0.542965 3.422736
1336.554337 597.454848 74.967496 0.000000 0.000000 0.000000 0.000000 0.000000 0.000000 95.622643 -1.594844 -7.362491 -84.377357 7.795313 -7.362491 56.597780 -4.611289 -29.468618 -45.108662 2.708022 5.621439 55.386034 -1.973658 29.468618 -7.206870 -0.296652 3.187120
1310.567093 590.844769 75.745192 0.000000 0.000000 0.000000 0.000000 0.000000 0.000000 100.193768 -6.867321 -11.755705 -79.806232 10.432197 -11.755705 61.986347 -3.065162 -28.531695 -37.593815 12.341906 9.270510 62.907615 -2.875001 28.531695 -6.637230 -0.537120 2.938926
1328.574371 576.493385 58.926492 0.000000 0.000000 0.000000 0.000000 0.000000 0.000000 101.943783 1.916315 -15.410265 -78.056217 1.899551 -15.410265 61.902838 1.518079 -27.144812 -33.889586 -0.218410 12.773379 55.760387 -4.616948 27.144812 -7.097415 0.304101 2.679134
1316.178360 595.500870 50.783014 0.000000 0.000000 0.000000 0.000000 0.000000 0.000000 103.792097 -6.940585 -18.096541 -76.207903 10.265273 -18.096541 65.535198 3.610879 -25.329838 -28.739437 7.719930 16.074804 68.415337 2.277468 25.329838 -6.481753 -0.645349 2.408768
1302.343140 568.138025 43.475192 0.000000 0.000000 0.000000 0.000000 0.000000 0.000000 101.222717 13.969978 -19.645745 -78.777283 -14.823898 -19.645745 90.757296 4.296665 -23.115397 -18.578033 1.679403 19.122720 97.909038 -3.983677 23.115397 -5.050134 0.015382 2.128896
1274.166183 540.660596 56.827004 0.000000 0.000000 0.000000 0.000000 0.000000 0.000000 -126.898591 -3.557303 -19.960535 53.101409 17.480917 -19.960535 127.276662 4.099329 -20.536413 8.808645 5.334717 21.869059 119.711272 0.050600 20.536413 -4.115393 -0.117734 1.840623
1268.557091 468.331075 61.433179 0.000000 0.000000 0.000000 0.000000 0.000000 0.000000 -124.112133 4.854948 -19.021130 55.887867 -11.146028 -19.021130 163.344780 8.934416 -17.633558 38.476068 -2.500534 24.270510 145.889074 1.299625 17.633558 -1.929933 -0.285532 1.545085
1278.673096 454.375906 58.194653 0.000000 0.000000 0.000000 0.000000 0.000000 0.000000 -126.805061 -2.501405 -16.886559 53.194939 5.776776 -16.886559 -174.009950 -2.846137 -14.452610 27.419224 -4.018136 26.289200 168.192977 2.708708 14.452610 -0.976267 0.078757 1.243449
1285.008774 434.700390 63.578390 0.000000 0.000000 0.000000 0.000000 0.000000 0.000000 -132.005120 5.494344 -13.690942 47.994880 3.817521 -13.690942 -171.247775 -4.068466 -11.043737 26.625253 -4.553885 27.893295 178.805957 0.072880 11.043737 0.023422 0.108467 0.936907
1288.157730 426.987666 42.227687 0.000000 0.000000 0.000000 0.000000 0.000000 0.000000 -123.987926 1.429772 -9.635073 56.012074 0.522330 -9.635073 -166.356219 -3.098895 -7.460697 35.716336 -5.884961 29.057495 -172.960762 0.871312 7.460697 0.819533 -0.063893 0.626666
1291.221657 420.425448 58.223622 0.000000 0.000000 0.000000 0.000000 0.000000 0.000000 -122.265643 -0.942303 -4.973798 57.734357 8.936758 -4.973798 -156.870161 1.933005 -3.759997 38.220704 1.466664 29.763441 -165.716368 1.133094 3.759997 1.405814 0.122971 0.313953
