HIERARCHY
ROOT Hips
{
    OFFSET 0.0 0.0 0.0
    CHANNELS 6 Xposition Yposition Zposition Zrotation Xrotation Yrotation
    JOINT Spine
    {
        OFFSET 0.0 5.0 0.0
        CHANNELS 3 Zrotation Xrotation Yrotation
        JOINT Chest
        {
            OFFSET 0.0 5.0 0.0
            CHANNELS 3 Zrotation Xrotation Yrotation
            JOINT Neck
            {
                OFFSET 0.0 8.0 0.0
                CHANNELS 3 Zrotation Xrotation Yrotation
                JOINT Head
                {
                    OFFSET 0.0 5.0 0.0
                    CHANNELS 3 Zrotation Xrotation Yrotation
                    End Site
                    {
                        OFFSET 0.0 3.0 0.0
                    }
                }
            }
            JOINT LeftShoulder
            {
                OFFSET -5.0 0.0 0.0
                CHANNELS 3 Zrotation Xrotation Yrotation
                JOINT LeftArm
                {
                    OFFSET 0.0 -10.0 0.0
                    CHANNELS 3 Zrotation Xrotation Yrotation
                    JOINT LeftForeArm
                    {
                        OFFSET 0.0 -10.0 0.0
                        CHANNELS 3 Zrotation Xrotation Yrotation
                        End Site
                        {
                            OFFSET 0.0 -3.0 0.0
                        }
                    }
                }
            }
        }
    }
}

MOTION
Frames: 300
Frame Time: 0.033333

960.000000 445.000000 106.366979 0.000000 0.000000 0.000000 0.000000 0.000000 0.000000 23.025492 18.990728 0.000000 180.000000 6.484810 0.000000 21.801409 -4.215176 -0.000000 158.198591 1.003013 30.000000 15.945396 -0.260106 0.000000 18.000000 -0.191128 0.000000
1691.525230 140.756605 113.712195 0.000000 0.000000 0.000000 0.000000 0.000000 0.000000 -163.376529 -8.113066 4.973798 16.623471 1.549120 4.973798 -171.853121 -3.176226 3.759997 99.744051 29.302733 29.763441 -171.126653 -4.013227 -3.759997 0.673538 0.418741 0.313953
1636.048050 128.802021 90.803240 0.000000 0.000000 0.000000 0.000000 0.000000 0.000000 157.904128 23.627188 9.635073 -22.095872 -16.442251 9.635073 -171.936471 -4.138364 7.460697 -143.675701 -7.028758 29.057495 -173.500805 -4.290070 -7.460697 0.570999 0.383314 0.626666
1578.156967 80.474526 118.668238 0.000000 0.000000 0.000000 0.000000 0.000000 0.000000 -139.519796 -1.136020 13.690942 40.480204 3.397709 13.690942 -174.507724 -3.953348 11.043737 119.111399 8.387766 27.893295 -173.607258 -4.472947 -11.043737 0.461920 0.438109 0.936907
960.418757 444.998421 113.807276 0.000000 0.000000 0.000000 0.000000 0.000000 0.000000 25.077893 7.792052 16.886559 180.000000 -7.739735 16.886559 23.861935 7.707573 14.452610 156.138065 1.418294 26.289200 17.903699 0.412787 -14.452610 18.000000 0.050385 1.243449
960.523360 444.997533 138.561924 0.000000 0.000000 0.000000 0.000000 0.000000 0.000000 25.638906 -38.896576 19.021130 180.000000 2.245114 19.021130 24.425035 5.394298 17.633558 155.574965 18.349797 24.270510 18.452907 -13.431119 -17.633558 18.000000 0.688417 1.545085
960.627905 444.996447 127.003937 0.000000 0.000000 0.000000 0.000000 0.000000 0.000000 26.219073 23.671677 19.960535 180.000000 6.177960 19.960535 25.006291 -7.416321 20.536413 154.993709 -10.388018 21.869059 19.024920 14.644289 -20.536413 18.000000 -1.418912 1.840623
1126.242828 420.359820 123.155432 0.000000 0.000000 0.000000 0.000000 0.000000 0.000000 31.410514 2.371759 19.645745 -148.589486 -6.907219 19.645745 32.280463 0.116805 23.115397 -131.603972 -3.600893 19.122720 45.585331 2.747637 -23.115397 -13.449727 0.051464 2.128896
1257.895088 650.549197 130.165646 0.000000 0.000000 0.000000 0.000000 0.000000 0.000000 25.073180 2.502178 18.096541 -154.926820 2.920116 18.096541 46.260945 -17.701478 25.329838 -154.651428 -5.970374 16.074804 27.339487 5.370026 -25.329838 -13.619892 0.082607 2.408768
960.941083 444.992008 142.024820 0.000000 0.000000 0.000000 0.000000 0.000000 0.000000 28.072001 -6.177174 15.410265 180.000000 7.390653 15.410265 26.849221 -9.932703 27.144812 153.150779 -0.065200 12.773379 20.864045 1.766731 -27.144812 18.000000 0.926256 2.679134
1163.815842 547.748709 143.242543 0.000000 0.000000 0.000000 0.000000 0.000000 0.000000 117.162728 12.507332 11.755705 -62.837272 -8.888199 11.755705 102.363764 6.197368 28.531695 -47.376450 -4.332486 9.270510 104.768601 1.780088 -28.531695 -6.003489 0.075042 2.938926
961.149372 444.988063 152.958195 0.000000 0.000000 0.000000 0.000000 0.000000 0.000000 29.395983 36.775483 7.362491 180.000000 -23.986695 7.362491 28.146217 -13.282628 29.468618 151.853783 -6.203198 5.621439 22.170006 -9.451162 -29.468618 18.000000 -0.868686 3.187120
1136.717377 590.104480 153.373661 0.000000 0.000000 0.000000 0.000000 0.000000 0.000000 115.752126 -3.344490 2.506665 -64.247874 8.321886 2.506665 73.638146 -7.245351 29.940802 -21.842452 2.764171 1.883716 75.369282 -0.685083 -29.940802 -6.767207 -0.074106 3.422736
1163.079758 634.077559 147.897733 0.000000 0.000000 0.000000 0.000000 0.000000 0.000000 132.174340 -11.392261 -2.506665 -47.825660 4.669092 -2.506665 94.255711 1.263944 29.940802 -149.364979 -6.372308 -1.883716 30.021641 5.780065 -29.940802 -5.096180 -0.410246 3.644843
961.460830 444.980668 140.631822 0.000000 0.000000 0.000000 0.000000 0.000000 0.000000 31.497152 -32.890647 -7.362491 180.000000 29.990200 -7.362491 30.152455 -13.105745 29.468618 149.847545 2.676459 -5.621439 24.175589 5.442636 -29.468618 18.000000 -0.187455 3.852566
1097.449951 565.089898 147.000632 0.000000 0.000000 0.000000 0.000000 0.000000 0.000000 -119.219568 -4.031414 -11.755705 60.780432 3.148162 -11.755705 -150.180642 -7.013885 28.531695 48.804955 3.691183 -9.270510 -149.874178 -6.765576 -28.531695 2.713854 0.501691 4.045085
1114.140244 528.302071 151.018404 0.000000 0.000000 0.000000 0.000000 0.000000 0.000000 -142.671523 8.872247 -15.410265 37.328477 -1.851645 -15.410265 -177.395681 1.653940 27.144812 34.687329 1.024690 -12.773379 161.894167 -0.663336 -27.144812 -0.910956 0.035283 4.221640
1116.433640 479.728639 166.452121 0.000000 0.000000 0.000000 0.000000 0.000000 0.000000 -102.267481 3.211565 -18.096541 77.732519 -2.520165 -18.096541 -163.695626 -1.840218 25.329838 38.575767 -1.918128 -16.074804 -176.001122 -2.306526 -25.329838 0.706594 0.248255 4.381533
1135.931282 466.493965 147.577296 0.000000 0.000000 0.000000 0.000000 0.000000 0.000000 -112.868406 -8.431597 -19.645745 67.131594 15.089854 -19.645745 -159.517862 1.410344 23.115397 36.204678 -0.606896 -19.122720 -154.426613 -5.429182 -23.115397 2.428729 0.567609 4.524135
1141.618767 467.420679 137.867368 0.000000 0.000000 0.000000 0.000000 0.000000 0.000000 -123.086385 -0.287210 -19.960535 56.913615 1.071014 -19.960535 -154.885724 -1.174000 20.536413 36.481623 -0.976487 -21.869059 -153.965441 -5.815402 -20.536413 2.446728 0.536765 4.648882
1150.647926 469.370956 146.725428 0.000000 0.000000 0.000000 0.000000 0.000000 0.000000 -43.953779 -19.514718 -19.021130 136.046221 15.942287 -19.021130 -154.327268 -7.534730 17.633558 60.745168 -1.300895 -24.270510 -153.350642 -6.626969 -17.633558 2.386216 0.601544 4.755283
1151.529922 496.420240 152.518847 0.000000 0.000000 0.000000 0.000000 0.000000 0.000000 -116.362129 -8.742672 -16.886559 63.637871 3.574313 -16.886559 -149.081043 0.641111 14.452610 35.941860 4.134500 -26.289200 -156.847177 -0.853375 -14.452610 2.056513 0.052617 4.842916
1148.402367 515.713574 136.740413 0.000000 0.000000 0.000000 0.000000 0.000000 0.000000 -118.252650 16.860075 -13.690942 61.747350 -3.957596 -13.690942 -138.082896 0.826254 11.043737 -156.312677 -6.955610 -27.893295 21.649626 9.431736 -11.043737 2.962417 0.118384 4.911436
1175.363617 533.368646 117.287936 0.000000 0.000000 0.000000 0.000000 0.000000 0.000000 -95.476638 0.991684 -9.635073 84.523362 -3.514186 -9.635073 -113.907461 1.978317 7.460697 -155.995907 -6.550956 -29.057495 12.512064 9.105991 -7.460697 -16.748794 -0.910599 4.960574
1199.533310 485.991104 147.907483 0.000000 0.000000 0.000000 0.000000 0.000000 0.000000 -100.003195 9.278760 -4.973798 79.996805 -6.494437 -4.973798 -86.083188 1.482836 3.759997 38.843754 -2.270934 -29.763441 -106.539452 -0.132185 -3.759997 6.197806 0.018524 4.990134
962.588190 444.938442 125.689152 0.000000 0.000000 0.000000 0.000000 0.000000 0.000000 39.579754 -0.413426 -0.000000 180.000000 -0.508450 -0.000000 36.680773 -0.622502 0.000000 143.319227 14.077004 -30.000000 29.388385 -9.661311 -0.000000 18.000000 0.749272 5.000000
1142.094727 445.716287 113.178753 0.000000 0.000000 0.000000 0.000000 0.000000 0.000000 -140.228454 -0.083135 4.973798 39.771546 52.101518 4.973798 -156.118008 -7.161143 -3.759997 3.479189 6.736407 -29.763441 -158.005660 -5.799641 3.759997 2.150019 0.558262 4.990134
1164.005928 424.847746 123.378680 0.000000 0.000000 0.000000 0.000000 0.000000 0.000000 -84.241076 44.758803 9.635073 95.758924 -24.303867 9.635073 -156.181584 -5.117290 -7.460697 166.928360 -4.794791 -29.057495 -154.947270 -5.629187 7.460697 2.644196 0.651469 4.960574
1124.208755 418.286655 103.533982 0.000000 0.000000 0.000000 0.000000 0.000000 0.000000 -117.427077 4.408272 13.690942 62.572923 -6.839298 13.690942 -155.943063 -6.110764 -11.043737 14.023837 -0.749532 -27.893295 -157.382674 -6.117116 11.043737 2.188130 0.514679 4.911436
962.990408 444.917226 95.884015 0.000000 0.000000 0.000000 0.000000 0.000000 0.000000 42.110883 -2.356664 16.886559 180.000000 28.500097 16.886559 37.946959 -21.453344 -14.452610 142.053041 1.235110 -26.289200 29.293612 -14.328373 14.452610 18.000000 2.249817 4.842916
963.090170 444.911436 109.452037 0.000000 0.000000 0.000000 0.000000 0.000000 0.000000 42.659200 -15.138219 19.021130 180.000000 20.435748 19.021130 38.119107 -10.289902 -17.633558 141.880893 -11.303231 -24.270510 29.068887 12.284640 17.633558 18.000000 -0.085960 4.755283
1186.646461 396.272757 99.013791 0.000000 0.000000 0.000000 0.000000 0.000000 0.000000 -72.847419 14.503199 19.960535 107.152581 -21.765186 19.960535 -156.703603 -4.445823 -20.536413 178.447294 -6.813262 -21.869059 -157.212393 -5.157896 20.536413 1.964058 0.493636 4.648882
1313.051605 426.636125 112.043768 0.000000 0.000000 0.000000 0.000000 0.000000 0.000000 90.994869 -1.104492 19.645745 -89.005131 10.815802 19.645745 -160.515303 -4.604945 -23.115397 -153.248861 -1.655519 -19.122720 -159.640525 -4.576157 23.115397 0.000000 0.000000 0.000000
1347.999344 420.772226 108.139076 0.000000 0.000000 0.000000 0.000000 0.000000 0.000000 90.154351 -0.952852 18.096541 -89.845649 5.349401 18.096541 -162.053401 -4.555259 -25.329838 -136.198880 -2.086623 -16.074804 -160.991694 -4.221219 25.329838 0.000000 0.000000 0.000000
1344.315948 421.031681 92.926269 0.000000 0.000000 0.000000 0.000000 0.000000 0.000000 69.757587 -4.156775 15.410265 -110.242413 7.520847 15.410265 25.616746 -5.187875 -27.144812 -157.821005 -3.169897 -12.773379 17.214985 2.898170 27.144812 -16.704706 0.153721 4.221640
1350.307617 440.309436 101.075493 0.000000 0.000000 0.000000 0.000000 0.000000 0.000000 71.124018 5.754923 11.755705 -108.875982 -6.258444 11.755705 42.739987 -1.070367 -28.531695 -142.315466 0.058601 -9.270510 16.600926 0.797880 28.531695 -16.660102 -0.273556 4.045085
1357.685051 430.688889 58.490703 0.000000 0.000000 0.000000 0.000000 0.000000 0.000000 77.656077 -2.738993 7.362491 -102.343923 6.269151 7.362491 39.407151 0.694424 -29.468618 -136.343173 -1.030775 -5.621439 22.144452 0.540222 29.468618 -16.305135 0.096013 3.852566
1369.482193 445.909406 67.998611 0.000000 0.000000 0.000000 0.000000 0.000000 0.000000 88.051188 1.189313 2.506665 -91.948812 0.172042 2.506665 -161.283973 -3.471584 -29.940802 -119.799169 -2.010877 -1.883716 -164.575400 -3.483484 29.940802 1.401013 0.517254 3.644843
963.875156 444.858159 76.721926 0.000000 0.000000 0.000000 0.000000 0.000000 0.000000 45.304844 38.887801 -2.506665 180.000000 -4.694697 -2.506665 37.252439 6.830897 -29.940802 142.747561 3.933381 1.883716 25.146244 -10.339804 29.940802 18.000000 -0.088926 3.422736
963.971479 444.850633 81.216566 0.000000 0.000000 0.000000 0.000000 0.000000 0.000000 45.383640 27.749916 -7.362491 180.000000 -25.259611 -7.362491 36.882310 18.523748 -29.468618 143.117690 -28.621678 5.621439 24.499789 11.863563 29.468618 18.000000 0.155636 3.187120
1336.629524 469.010178 71.294926 0.000000 0.000000 0.000000 0.000000 0.000000 0.000000 -72.390177 -29.687430 -11.755705 107.609823 -6.026502 -11.755705 -158.649984 -1.848089 -28.531695 2.583425 11.697371 9.270510 -39.658551 -6.918290 28.531695 10.837181 0.441305 2.938926
1311.966934 518.219100 58.262831 0.000000 0.000000 0.000000 0.000000 0.000000 0.000000 -63.565072 -31.811566 -15.410265 116.434928 18.016872 -15.410265 -14.840750 -2.589749 -27.144812 -158.549348 -2.451612 12.773379 17.488774 2.937010 27.144812 7.174982 -4.054454 2.679134
964.257793 444.826908 61.812694 0.000000 0.000000 0.000000 0.000000 0.000000 0.000000 45.262206 47.366408 -18.096541 180.000000 -23.023209 -18.096541 35.497192 -8.013246 -25.329838 144.502808 -18.250846 16.074804 22.522929 6.774396 25.329838 18.000000 -0.141170 2.408768
1275.921364 516.836239 50.298671 0.000000 0.000000 0.000000 0.000000 0.000000 0.000000 85.186295 -1.206529 -19.645745 -94.813705 -1.579106 -19.645745 52.470689 -2.179371 -23.115397 -44.513683 -3.006740 19.122720 50.867598 4.983511 23.115397 -8.717188 -0.195076 2.128896
1263.254128 546.875424 46.649671 0.000000 0.000000 0.000000 0.000000 0.000000 0.000000 34.848242 16.095285 -19.960535 -145.151758 10.801917 -19.960535 42.487561 17.204054 -20.536413 -157.415675 -2.538879 21.869059 22.420880 1.994927 20.536413 -15.757912 -0.199493 1.840623
1258.788185 528.263061 43.309512 0.000000 0.000000 0.000000 0.000000 0.000000 0.000000 118.326865 -2.197606 -19.021130 -61.673135 21.807373 -19.021130 143.214759 -9.873729 -17.633558 -156.228306 -2.110122 24.270510 28.173554 2.289925 17.633558 -15.182645 -0.228993 1.545085
1231.492081 471.383836 60.418646 0.000000 0.000000 0.000000 0.000000 0.000000 0.000000 -115.049381 14.761895 -16.886559 64.950619 -17.589425 -16.886559 172.843704 -0.326847 -14.452610 -157.842300 -2.764152 26.289200 32.851042 2.762633 14.452610 -14.714896 -0.276263 1.243449
1223.928795 435.993515 33.612089 0.000000 0.000000 0.000000 0.000000 0.000000 0.000000 -115.322532 11.897584 -13.690942 64.677468 5.055113 -13.690942 -168.597862 -7.003307 -11.043737 -158.853816 -2.881255 27.893295 31.099266 2.251791 11.043737 -14.890073 -0.225179 0.936907
1223.669701 418.195664 42.487622 0.000000 0.000000 0.000000 0.000000 0.000000 0.000000 -102.084053 -9.669652 -9.635073 77.915947 20.175508 -9.635073 -171.103858 -10.045366 -7.460697 162.056334 0.447840 29.057495 -153.594437 -2.765278 7.460697 2.968481 0.440680 0.626666
1216.486244 414.503002 62.091661 0.000000 0.000000 0.000000 0.000000 0.000000 0.000000 69.261091 1.404744 -4.973798 -110.738909 -46.382090 -4.973798 -158.083722 -2.080893 -3.759997 -173.244581 -10.286471 29.763441 -154.635509 -1.867408 3.759997 2.928763 0.367067 0.313953
1212.090225 434.550980 54.988445 0.000000 0.000000 0.000000 0.000000 0.000000 0.000000 -112.403932 -9.615437 0.000000 67.596068 29.642192 0.000000 -157.060799 -3.063970 -0.000000 173.400765 -1.366701 30.000000 -154.473580 -2.310525 0.000000 2.734633 0.285827 0.000000
1214.024734 450.340490 51.748920 0.000000 0.000000 0.000000 0.000000 0.000000 0.000000 -110.634751 8.108204 4.973798 69.365249 0.869288 4.973798 -137.583343 -2.335815 3.759997 -158.589698 -3.314290 29.763441 20.879446 2.739435 -3.759997 -15.912055 -0.273943 0.313953
1204.271393 440.192921 46.423083 0.000000 0.000000 0.000000 0.000000 0.000000 0.000000 -99.498286 8.891947 9.635073 80.501714 -27.954932 9.635073 -156.696469 -2.094434 7.460697 -178.487725 -5.131716 29.057495 -157.318323 -3.057674 -7.460697 2.108583 0.292734 0.626666
965.269558 444.725315 40.734375 0.000000 0.000000 0.000000 0.000000 0.000000 0.000000 40.845461 -4.099130 13.690942 180.000000 -12.684908 13.690942 28.615377 12.974789 11.043737 151.384623 -5.977840 27.893295 16.305092 3.164108 -11.043737 18.000000 0.408820 0.936907
1182.456551 475.103824 55.470936 0.000000 0.000000 0.000000 0.000000 0.000000 0.000000 -168.146016 46.152055 16.886559 11.853984 51.602506 16.886559 -63.802645 -1.534709 14.452610 -61.114510 2.713157 26.289200 -47.869281 -1.635539 -14.452610 -13.834956 7.598401 1.243449
965.446390 444.704404 49.319406 0.000000 0.000000 0.000000 0.000000 0.000000 0.000000 39.578146 27.554046 19.021130 180.000000 -11.732167 19.021130 27.338029 -8.763760 17.633558 152.661971 -9.323923 24.270510 15.463180 -2.761472 -17.633558 18.000000 0.531521 1.545085
965.533915 444.693669 44.633982 0.000000 0.000000 0.000000 0.000000 0.000000 0.000000 38.916706 33.549935 19.960535 180.000000 -17.627591 19.960535 26.716768 -7.851795 20.536413 153.283232 -10.493570 21.869059 15.076605 -4.339253 -20.536413 18.000000 0.409153 1.840623
965.620834 444.682749 73.697969 0.000000 0.000000 0.000000 0.000000 0.000000 0.000000 38.241653 19.564662 19.645745 180.000000 1.971976 19.645745 26.109467 -8.144896 23.115397 153.890533 -1.799035 19.122720 14.712258 6.786345 -23.115397 18.000000 -0.884117 2.128896
965.707136 444.671645 72.833361 0.000000 0.000000 0.000000 0.000000 0.000000 0.000000 37.556504 8.248961 18.096541 180.000000 -7.772083 18.096541 25.517536 -4.563826 25.329838 154.482464 5.681046 16.074804 14.369537 -8.316468 -25.329838 18.000000 0.225371 2.408768
965.792812 444.660356 107.211897 0.000000 0.000000 0.000000 0.000000 0.000000 0.000000 36.864608 15.503538 15.410265 180.000000 -3.617395 15.410265 24.942131 2.268860 27.144812 155.057869 3.608462 12.773379 14.047797 5.374482 -27.144812 18.000000 -0.888513 2.679134
965.877853 444.648882 87.951414 0.000000 0.000000 0.000000 0.000000 0.000000 0.000000 36.169118 -4.048062 11.755705 180.000000 -0.697805 11.755705 24.384173 -2.682109 28.531695 155.615827 5.564287 9.270510 13.746367 -1.942290 -28.531695 18.000000 -0.611192 2.938926
965.962249 444.637226 90.082290 0.000000 0.000000 0.000000 0.000000 0.000000 0.000000 35.472980 -22.473967 7.362491 180.000000 2.239234 7.362491 23.844373 -2.498033 29.468618 156.155627 3.273538 5.621439 13.464570 7.104880 -29.468618 18.000000 -0.242381 3.187120
966.045991 444.625386 102.175692 0.000000 0.000000 0.000000 0.000000 0.000000 0.000000 34.778913 -18.906223 2.506665 180.000000 26.038863 2.506665 23.323250 -11.988466 29.940802 156.676750 -0.346439 1.883716 13.201728 2.396942 -29.940802 18.000000 -0.206339 3.422736
966.129071 444.613364 104.529088 0.000000 0.000000 0.000000 0.000000 0.000000 0.000000 34.089406 -0.179000 -2.506665 180.000000 16.334923 -2.506665 22.821158 4.990572 29.940802 157.178842 6.009804 -1.883716 12.957175 3.429971 -29.940802 18.000000 -0.280146 3.644843
966.211478 444.601159 102.819036 0.000000 0.000000 0.000000 0.000000 0.000000 0.000000 33.406712 -3.455407 -7.362491 180.000000 -6.604711 -7.362491 22.338307 -2.210123 29.468618 157.661693 1.388975 -5.621439 12.730264 -8.980826 -29.468618 18.000000 0.809289 3.852566
1171.486244 534.946783 95.155948 0.000000 0.000000 0.000000 0.000000 0.000000 0.000000 70.594720 -10.829544 -11.755705 -109.405280 -14.863429 -11.755705 49.953444 8.258063 28.531695 -151.467583 -5.033446 -9.270510 0.000000 0.000000 0.000000 0.000000 0.000000 0.000000
966.374240 444.576206 109.848952 0.000000 0.000000 0.000000 0.000000 0.000000 0.000000 32.069603 6.431920 -15.410265 180.000000 -8.254263 -15.410265 21.430544 8.581117 27.144812 158.569456 -13.507443 -12.773379 12.326901 7.644429 -27.144812 18.000000 0.029010 4.221640
1172.156410 555.047708 120.173430 0.000000 0.000000 0.000000 0.000000 0.000000 0.000000 -121.065102 -28.854495 -18.096541 58.934898 29.443221 -18.096541 -151.641456 -5.921618 25.329838 -177.360623 5.791178 -16.074804 -149.076048 -6.556889 -25.329838 0.000000 0.000000 0.000000
1161.826630 552.360713 112.041239 0.000000 0.000000 0.000000 0.000000 0.000000 0.000000 69.958407 -24.255007 -19.645745 -110.041593 22.109740 -19.645745 -152.437496 -5.945892 23.115397 -158.790607 -0.449486 -19.122720 -150.591725 -6.409611 -23.115397 3.219062 0.831441 4.524135
1165.827255 569.832902 118.366914 0.000000 0.000000 0.000000 0.000000 0.000000 0.000000 25.594208 -29.120302 -19.960535 -154.405792 16.014106 -19.960535 11.723883 -0.420770 20.536413 -161.543160 1.885119 -21.869059 7.769582 1.739871 -20.536413 -17.248199 -0.194391 4.648882
1165.555573 565.067046 126.255927 0.000000 0.000000 0.000000 0.000000 0.000000 0.000000 43.355707 3.708651 -19.021130 -136.644293 -6.875738 -19.021130 15.984329 0.722261 17.633558 -140.773833 4.346470 -24.270510 13.679449 -0.442372 -17.633558 -16.392157 -0.019089 4.755283
1290.255775 608.533316 131.762195 0.000000 0.000000 0.000000 0.000000 0.000000 0.000000 -153.952071 1.160458 -16.886559 26.047929 5.142937 -16.886559 -152.683807 -5.559756 14.452610 4.794196 -1.671444 -26.289200 -154.287190 -5.064294 -14.452610 2.418080 0.438672 4.842916
1180.398903 551.817470 109.645538 0.000000 0.000000 0.000000 0.000000 0.000000 0.000000 51.640104 -4.760870 -13.690942 -128.359896 -17.458563 -13.690942 14.419400 -2.257010 11.043737 -33.521359 -26.716980 -27.893295 -34.277510 14.931593 -11.043737 5.235387 -0.430508 4.911436
1162.708626 619.419501 143.209827 0.000000 0.000000 0.000000 0.000000 0.000000 0.000000 -88.968325 -16.873708 -9.635073 91.031675 1.022969 -9.635073 -52.690088 0.383895 7.460697 25.015222 5.281284 -29.057495 -72.561734 -3.155634 -7.460697 8.557489 0.004159 4.960574
1110.899391 602.919216 154.757955 0.000000 0.000000 0.000000 0.000000 0.000000 0.000000 -86.972237 -5.493965 -4.973798 93.027763 15.928724 -4.973798 -39.551144 1.900913 3.759997 34.838085 5.801237 -29.763441 -44.185810 5.369885 -3.759997 10.000609 -0.901807 4.990134
1150.187302 553.686991 143.686613 0.000000 0.000000 0.000000 0.000000 0.000000 0.000000 -116.065142 -6.440599 -0.000000 63.934858 24.001263 -0.000000 -151.059314 -7.425290 0.000000 -0.492058 -1.251633 -30.000000 -14.044098 -8.348165 -0.000000 1.929760 1.545875 5.000000
967.144727 444.440682 145.467576 0.000000 0.000000 0.000000 0.000000 0.000000 0.000000 26.270296 -26.825970 4.973798 180.000000 10.214459 4.973798 17.996647 1.446520 -3.759997 162.003353 7.996989 -29.763441 11.189167 4.173269 3.759997 18.000000 -0.444114 4.990134
1213.452644 620.002785 135.370709 0.000000 0.000000 0.000000 0.000000 0.000000 0.000000 140.390379 33.581524 9.635073 -39.609621 -21.065047 9.635073 77.724607 13.821494 -7.460697 -153.982965 -6.851635 -29.057495 24.142749 6.083510 7.460697 -0.833727 0.520340 4.960574
1124.373779 618.464527 154.755745 0.000000 0.000000 0.000000 0.000000 0.000000 0.000000 99.329635 8.905413 13.690942 -80.670365 44.321731 13.690942 85.960927 -7.354577 -11.043737 -150.875293 -6.995440 -27.893295 31.644098 7.002118 11.043737 -14.835590 -0.700212 4.911436
967.360971 444.396582 144.046002 0.000000 0.000000 0.000000 0.000000 0.000000 0.000000 24.874716 -1.234348 16.886559 180.000000 4.240584 16.886559 17.291102 0.442172 -14.452610 162.708898 -4.114879 -26.289200 11.098846 3.941457 14.452610 18.000000 -0.217806 4.842916
1107.875175 542.453964 146.411350 0.000000 0.000000 0.000000 0.000000 0.000000 0.000000 -128.741314 -14.952406 19.021130 51.258686 10.167907 19.021130 -177.225595 -0.633147 -17.633558 19.954750 -0.348462 -24.270510 162.677362 4.031581 17.633558 -1.443098 -0.088059 4.755283
1119.652290 522.766346 132.986803 0.000000 0.000000 0.000000 0.000000 0.000000 0.000000 -99.017754 -26.961942 19.960535 80.982246 18.657307 19.960535 -150.289603 -7.241098 -20.536413 -152.613833 -6.477245 -21.869059 0.000000 0.000000 0.000000 0.000000 0.000000 0.000000
1132.908783 538.229613 131.010344 0.000000 0.000000 0.000000 0.000000 0.000000 0.000000 -127.874185 -0.213254 19.645745 52.125815 3.356678 19.645745 -165.450188 2.577051 -23.115397 -152.521515 -7.138213 -19.122720 40.606225 8.649020 23.115397 -13.939378 -0.864902 4.524135
1146.969337 541.828065 140.076503 0.000000 0.000000 0.000000 0.000000 0.000000 0.000000 -113.631604 -2.075978 18.096541 66.368396 -4.313561 18.096541 -159.067475 -1.683407 -25.329838 113.981862 1.700849 -16.074804 -145.449815 -7.608970 25.329838 0.000000 0.000000 0.000000
1165.252304 561.329677 137.970876 0.000000 0.000000 0.000000 0.000000 0.000000 0.000000 -112.861399 19.535681 15.410265 67.138601 -19.352844 15.410265 -159.396543 -0.822309 -27.144812 -151.967552 -7.810628 -12.773379 38.422588 9.199779 27.144812 -14.157741 -0.919978 4.221640
1174.726181 592.839689 151.750476 0.000000 0.000000 0.000000 0.000000 0.000000 0.000000 -110.369899 4.097008 11.755705 69.630101 -5.034149 11.755705 -148.108768 1.137469 -28.531695 -151.515612 -6.795622 -9.270510 34.277732 7.846605 28.531695 -14.572227 -0.784660 4.045085
1167.352524 605.194867 138.444108 0.000000 0.000000 0.000000 0.000000 0.000000 0.000000 -113.828445 -3.553821 7.362491 66.171555 -12.609050 7.362491 -131.688453 0.773742 -29.468618 -151.045756 -7.173759 -5.621439 27.200835 9.080523 29.468618 -15.279916 -0.908052 3.852566
1139.678879 602.981014 150.030036 0.000000 0.000000 0.000000 0.000000 0.000000 0.000000 -97.599684 15.203421 2.506665 82.400316 5.725549 2.506665 -113.965806 -3.164482 -29.940802 -121.058781 2.494534 -1.883716 -118.492407 -3.910462 29.940802 10.137620 2.021437 3.644843
1165.830002 580.020189 122.365838 0.000000 0.000000 0.000000 0.000000 0.000000 0.000000 -28.085052 -4.378546 -2.506665 151.914948 -22.072166 -2.506665 -150.589103 -5.375858 -29.940802 -172.678414 -0.076386 1.883716 -149.717924 -6.286562 29.940802 0.000000 0.000000 0.000000
1184.501953 619.872494 128.458529 0.000000 0.000000 0.000000 0.000000 0.000000 0.000000 -113.790307 44.166533 -7.362491 66.209693 -14.436987 -7.362491 -59.272274 -2.897065 -29.468618 29.476823 -4.821078 5.621439 -88.148483 0.366444 29.468618 7.414604 0.055135 3.187120
968.090170 444.221640 137.349960 0.000000 0.000000 0.000000 0.000000 0.000000 0.000000 21.092887 -6.221281 -11.755705 180.000000 4.520606 -11.755705 15.757771 -0.103599 -28.531695 164.242229 5.534086 9.270510 11.678908 0.244441 28.531695 18.000000 -0.496377 2.938926
968.151278 444.204723 126.027399 0.000000 0.000000 0.000000 0.000000 0.000000 0.000000 20.844337 10.538564 -15.410265 180.000000 9.149458 -15.410265 15.691895 -4.793850 -27.144812 164.308105 -1.450007 12.773379 11.804629 0.367271 27.144812 18.000000 0.761465 2.679134
968.211492 444.187640 115.647777 0.000000 0.000000 0.000000 0.000000 0.000000 0.000000 20.610265 -6.204993 -18.096541 180.000000 -5.941062 -18.096541 15.637361 10.852881 -25.329838 164.362639 5.817849 16.074804 11.943263 -2.583055 25.329838 18.000000 -0.073653 2.408768
968.270806 444.170392 96.784984 0.000000 0.000000 0.000000 0.000000 0.000000 0.000000 20.390366 -16.491546 -19.645745 180.000000 17.889915 -19.645745 15.594026 1.758694 -23.115397 164.405974 4.482395 19.122720 12.095062 3.252670 23.115397 18.000000 0.380297 2.128896
968.329212 444.152979 122.944247 0.000000 0.000000 0.000000 0.000000 0.000000 0.000000 20.184343 19.599658 -19.960535 180.000000 -0.920458 -19.960535 15.561766 -0.847391 -20.536413 164.438234 -2.880317 21.869059 12.260289 -0.052676 20.536413 18.000000 -0.450563 1.840623
968.386706 444.135403 101.667571 0.000000 0.000000 0.000000 0.000000 0.000000 0.000000 19.991916 -7.189974 -19.021130 180.000000 4.725303 -19.021130 15.540476 -0.545536 -17.633558 164.459524 2.717362 24.270510 12.439222 -4.574875 17.633558 18.000000 0.410479 1.545085
968.443279 444.117663 95.647657 0.000000 0.000000 0.000000 0.000000 0.000000 0.000000 19.812814 -17.558129 -16.886559 180.000000 2.962676 -16.886559 15.530069 -3.412605 -14.452610 164.469931 6.711188 26.289200 12.632146 -0.370785 14.452610 18.000000 0.135955 1.243449
968.498927 444.099761 102.306252 0.000000 0.000000 0.000000 0.000000 0.000000 0.000000 19.646785 6.881296 -13.690942 180.000000 -9.950914 -13.690942 15.530474 4.656795 -11.043737 164.469526 -8.330095 27.893295 12.839349 8.701749 11.043737 18.000000 -0.566743 0.936907
968.553643 444.081696 92.057231 0.000000 0.000000 0.000000 0.000000 0.000000 0.000000 19.493591 2.590796 -9.635073 180.000000 -2.706344 -9.635073 15.541640 -1.295194 -7.460697 164.458360 -2.155417 29.057495 13.061119 -0.789997 7.460697 18.000000 0.465360 0.626666
1051.772690 653.004448 73.244119 0.000000 0.000000 0.000000 0.000000 0.000000 0.000000 -79.007834 -15.268023 -4.973798 100.992166 7.557636 -4.973798 -126.715299 9.151954 -3.759997 -149.991181 -3.204333 29.763441 31.772279 5.322888 3.759997 -14.822772 -0.532289 0.313953
1061.669197 624.716241 76.802893 0.000000 0.000000 0.000000 0.000000 0.000000 0.000000 -94.718359 2.853771 0.000000 85.281641 8.015404 0.000000 -144.150484 -6.202301 -0.000000 60.155085 0.123925 30.000000 -152.711462 0.247948 0.000000 1.815393 -0.181928 0.000000
1072.053337 571.032879 63.196649 0.000000 0.000000 0.000000 0.000000 0.000000 0.000000 71.424080 16.613923 4.973798 -108.575920 -11.945933 4.973798 -149.042361 -2.843896 3.759997 -149.913636 -2.192052 29.763441 -145.792107 -3.810374 -3.759997 3.947623 0.609698 0.313953
1070.057373 572.884376 62.983879 0.000000 0.000000 0.000000 0.000000 0.000000 0.000000 -80.850201 -4.573822 9.635073 99.149799 3.637660 9.635073 -147.567525 -3.391468 7.460697 -164.443014 -3.431737 29.057495 -145.447997 -3.305883 -7.460697 4.032371 0.346208 0.626666
968.813035 443.988972 55.244624 0.000000 0.000000 0.000000 0.000000 0.000000 0.000000 18.912944 -34.023400 13.690942 180.000000 12.645092 13.690942 15.758200 1.118737 11.043737 164.241800 8.591419 27.893295 14.397395 2.536228 -11.043737 18.000000 0.036619 0.936907
968.862036 443.969952 51.614525 0.000000 0.000000 0.000000 0.000000 0.000000 0.000000 18.832684 -5.142040 16.886559 180.000000 -7.844377 16.886559 15.833735 5.320703 14.452610 164.166265 8.796975 26.289200 14.711463 -3.162105 -14.452610 18.000000 -0.437657 1.243449
968.910065 443.950775 57.539362 0.000000 0.000000 0.000000 0.000000 0.000000 0.000000 18.764066 8.727344 19.021130 180.000000 11.512516 19.021130 15.920102 1.958121 17.633558 164.079898 1.884949 24.270510 15.041323 3.418993 -17.633558 18.000000 -0.345748 1.545085
968.957118 443.931442 47.367954 0.000000 0.000000 0.000000 0.000000 0.000000 0.000000 18.706990 14.298906 19.960535 180.000000 -2.729278 19.960535 16.017366 2.666570 20.536413 163.982634 -3.329724 21.869059 15.386894 1.380499 -20.536413 18.000000 0.367880 1.840623
969.003188 443.911954 70.781653 0.000000 0.000000 0.000000 0.000000 0.000000 0.000000 18.661377 11.593598 19.645745 180.000000 -6.252975 19.645745 16.125602 0.358794 23.115397 163.874398 -8.072962 19.122720 15.747980 0.281663 -23.115397 18.000000 0.012585 2.128896
969.048271 443.892312 33.618610 0.000000 0.000000 0.000000 0.000000 0.000000 0.000000 18.627165 13.863643 18.096541 180.000000 -1.275179 18.096541 16.244896 6.140006 25.329838 163.755104 -5.472907 16.074804 16.124252 -2.572235 -25.329838 18.000000 0.307852 2.408768
969.092361 443.872515 45.833617 0.000000 0.000000 0.000000 0.000000 0.000000 0.000000 18.604312 -11.462990 15.410265 180.000000 -0.287453 15.410265 16.375340 0.149851 27.144812 163.624660 3.927878 12.773379 16.515224 2.145504 -27.144812 18.000000 -0.495158 2.679134
1055.186234 577.357593 56.347049 0.000000 0.000000 0.000000 0.000000 0.000000 0.000000 85.510211 -6.641808 11.755705 -94.489789 5.848822 11.755705 37.103410 -4.086071 28.531695 -148.111343 -1.945245 9.270510 24.294182 2.531784 -28.531695 -8.601915 -1.273895 2.938926
1122.856522 566.714029 57.795163 0.000000 0.000000 0.000000 0.000000 0.000000 0.000000 96.216240 -5.696555 7.362491 -83.783760 5.135861 7.362491 46.189625 -4.394152 29.468618 -149.396962 -2.398536 5.621439 24.670091 1.718837 -29.468618 -7.107716 1.107659 3.187120
969.218632 443.812213 40.085952 0.000000 0.000000 0.000000 0.000000 0.000000 0.000000 18.603763 24.656863 2.506665 180.000000 -2.488635 2.506665 16.834613 1.472635 29.940802 163.165387 1.606158 1.883716 17.768624 -1.826491 -29.940802 18.000000 -1.056521 3.422736
1112.757797 605.798106 53.858557 0.000000 0.000000 0.000000 0.000000 0.000000 0.000000 110.914625 2.440181 -2.506665 -69.085375 8.089397 -2.506665 67.769469 -8.189026 29.940802 -149.822316 -2.418685 -1.883716 29.049901 1.861906 -29.940802 -3.625079 0.742333 3.644843
1086.733246 592.557156 52.288612 0.000000 0.000000 0.000000 0.000000 0.000000 0.000000 -80.132323 -58.289237 -7.362491 99.867677 64.002882 -7.362491 36.201564 -7.501143 29.468618 -13.679556 4.642225 -5.621439 78.049842 -3.021087 -29.468618 -5.127460 0.468279 3.852566
1081.109390 570.394492 67.168347 0.000000 0.000000 0.000000 0.000000 0.000000 0.000000 -175.864613 3.057410 -11.755705 4.135387 -20.527218 -11.755705 134.713876 2.838897 28.531695 -10.005873 -1.259352 -9.270510 135.737755 -1.636413 -28.531695 -3.389365 0.283863 4.045085
1089.776802 536.594539 45.492854 0.000000 0.000000 0.000000 0.000000 0.000000 0.000000 -139.033903 22.876281 -15.410265 40.966097 1.059372 -15.410265 161.695972 -2.973517 27.144812 3.114398 1.544336 -12.773379 148.805610 -1.614428 -27.144812 -2.611636 -0.012612 4.221640
1114.282036 523.965647 69.123713 0.000000 0.000000 0.000000 0.000000 0.000000 0.000000 -156.073983 -6.046440 -18.096541 23.926017 11.294726 -18.096541 174.825807 -6.146644 25.329838 5.093343 -3.022916 -16.074804 161.266817 0.374631 -25.329838 -1.814366 0.300747 4.381533
1122.145157 503.425248 70.225537 0.000000 0.000000 0.000000 0.000000 0.000000 0.000000 -144.538174 6.486653 -19.645745 35.461826 -5.571820 -19.645745 174.215003 2.246891 23.115397 -151.750905 -3.358081 -19.122720 43.887064 5.289650 -23.115397 -13.611294 -0.528965 4.524135
1134.158249 484.688419 63.300628 0.000000 0.000000 0.000000 0.000000 0.000000 0.000000 -142.311443 3.439661 -19.960535 37.688557 -0.793240 -19.960535 -174.407776 -1.473181 20.536413 14.121014 0.658784 -21.869059 176.737053 -1.255577 -20.536413 -0.386439 -0.102861 4.648882
1156.756668 500.025387 93.007496 0.000000 0.000000 0.000000 0.000000 0.000000 0.000000 -140.140767 -6.661662 -19.021130 39.859233 9.841111 -19.021130 -176.866589 -1.924809 17.633558 -153.177991 -3.208590 -24.270510 40.555680 5.327808 -17.633558 -13.944432 -0.532781 4.755283
1163.818588 490.292573 85.185302 0.000000 0.000000 0.000000 0.000000 0.000000 0.000000 -126.918075 -17.354602 -16.886559 53.081925 15.737581 -16.886559 -163.374411 -6.713909 14.452610 -153.952175 -3.367940 -26.289200 36.914642 4.792975 -14.452610 0.798233 -0.215099 4.842916
1176.523705 490.346003 70.004695 0.000000 0.000000 0.000000 0.000000 0.000000 0.000000 -130.072590 2.076524 -13.690942 49.927410 5.061186 -13.690942 -150.224616 2.769396 11.043737 24.749952 -1.685101 -27.893295 -162.219632 -0.641228 -11.043737 1.550269 0.147539 4.911436
1165.045052 489.521159 63.972934 0.000000 0.000000 0.000000 0.000000 0.000000 0.000000 -134.421293 -13.388772 -9.635073 45.578707 2.839911 -9.635073 -138.114962 -1.079286 7.460697 20.347125 3.777037 -29.057495 -149.675125 -0.406032 -7.460697 1.919618 -0.017716 4.960574
1186.003189 485.341580 79.001959 0.000000 0.000000 0.000000 0.000000 0.000000 0.000000 151.263424 84.185548 -4.973798 -28.736576 -83.521906 -4.973798 -155.571724 -3.598444 3.759997 -114.944239 -3.381638 -29.763441 -157.446860 -4.622599 -3.759997 2.096391 0.532261 4.990134
1190.285912 497.609435 101.339575 0.000000 0.000000 0.000000 0.000000 0.000000 0.000000 -104.331435 -18.238559 -0.000000 75.668565 38.262973 -0.000000 -153.934692 -5.215873 0.000000 -67.465008 14.334325 -30.000000 -71.629168 -10.134398 -0.000000 -13.965204 8.699740 5.000000
846.875610 502.341399 108.720917 0.000000 0.000000 0.000000 0.000000 0.000000 0.000000 -153.358185 11.435575 4.973798 26.641815 -7.133356 4.973798 -147.628169 -5.518192 -3.759997 -147.401289 -6.015896 -29.763441 0.000000 0.000000 0.000000 0.000000 0.000000 0.000000
969.711343 443.490827 112.030778 0.000000 0.000000 0.000000 0.000000 0.000000 0.000000 20.204512 6.573012 9.635073 180.000000 3.579915 9.635073 20.733157 0.047805 -7.460697 159.266843 -6.158012 -29.057495 24.065833 -1.722813 7.460697 18.000000 0.884948 4.960574
969.735789 443.468267 102.860915 0.000000 0.000000 0.000000 0.000000 0.000000 0.000000 20.415894 -10.273611 13.690942 180.000000 9.945031 13.690942 21.087741 4.334347 -11.043737 158.912259 12.560041 -27.893295 24.320336 -9.364058 11.043737 18.000000 1.276177 4.911436
969.759168 443.445569 119.936173 0.000000 0.000000 0.000000 0.000000 0.000000 0.000000 20.642061 16.723305 16.886559 180.000000 -3.418264 16.886559 21.453029 8.183283 -14.452610 158.546971 -3.863561 -26.289200 24.533304 9.190025 14.452610 18.000000 -0.779754 4.842916
585.252171 514.469179 135.164944 0.000000 0.000000 0.000000 0.000000 0.000000 0.000000 74.723181 70.609061 19.021130 -105.276819 -29.543123 19.021130 119.807175 -18.129570 -17.633558 165.825978 -9.468261 -24.270510 138.012220 1.898811 17.633558 -12.357653 -1.320638 4.755283
624.843979 517.601860 120.355838 0.000000 0.000000 0.000000 0.000000 0.000000 0.000000 103.202449 10.507151 19.960535 -76.797551 -4.877080 19.960535 114.381580 -2.935823 -20.536413 -53.015473 -65.536578 -21.869059 145.467160 -1.206779 20.536413 -4.173333 0.604871 4.648882
969.822873 443.376664 140.348655 0.000000 0.000000 0.000000 0.000000 0.000000 0.000000 21.413420 -1.497183 19.645745 180.000000 -7.219252 19.645745 22.607712 -3.464888 -23.115397 157.392288 -11.975730 -19.122720 24.899813 3.046614 23.115397 18.000000 -0.551666 4.524135
969.841956 443.353428 146.373145 0.000000 0.000000 0.000000 0.000000 0.000000 0.000000 21.702987 -6.196449 18.096541 180.000000 3.904814 18.096541 23.009909 -4.245007 -25.329838 156.990091 8.847746 -16.074804 24.926562 -3.232109 25.329838 18.000000 0.031422 4.381533
969.859960 443.330059 151.559812 0.000000 0.000000 0.000000 0.000000 0.000000 0.000000 22.009579 9.673777 15.410265 180.000000 15.891593 15.410265 23.419334 -20.597526 -27.144812 156.580666 -10.056423 -12.773379 24.904993 6.948985 27.144812 18.000000 -0.242117 4.221640
594.905148 538.048757 150.385992 0.000000 0.000000 0.000000 0.000000 0.000000 0.000000 -57.080480 -3.693979 11.755705 122.919520 0.793920 11.755705 -12.750556 7.868471 -28.531695 149.841027 -23.546495 -9.270510 -8.274090 5.177370 28.531695 17.596979 0.185805 4.045085
969.892723 443.282929 138.383943 0.000000 0.000000 0.000000 0.000000 0.000000 0.000000 22.675903 11.662185 7.362491 180.000000 -7.304460 7.362491 24.255612 10.860695 -29.468618 155.744388 6.235647 -5.621439 24.720303 -9.404230 29.468618 18.000000 -1.095917 3.852566
1257.001877 499.708382 137.004155 0.000000 0.000000 0.000000 0.000000 0.000000 0.000000 52.818511 -8.410225 2.506665 -127.181489 2.565319 2.506665 25.369497 1.157235 -29.940802 -143.914951 2.765991 -1.883716 14.556766 -0.795861 29.940802 -16.686776 -0.065441 3.644843
1279.050064 493.773898 125.671909 0.000000 0.000000 0.000000 0.000000 0.000000 0.000000 56.685213 1.977257 -2.506665 -123.314787 -3.282586 -2.506665 24.065452 -0.985360 -29.940802 -146.540317 0.174740 1.883716 13.097461 0.116152 29.940802 -16.716891 -0.154893 3.422736
1295.108986 477.099677 146.329029 0.000000 0.000000 0.000000 0.000000 0.000000 0.000000 65.723361 2.232200 -7.362491 -114.276639 -3.277638 -7.362491 23.725299 -6.933152 -29.468618 -147.984281 -1.756473 5.621439 13.187557 -0.383278 29.468618 -16.751134 0.008170 3.187120
1289.065018 496.763316 157.425082 0.000000 0.000000 0.000000 0.000000 0.000000 0.000000 61.662232 1.276488 -11.755705 -118.337768 -0.088473 -11.755705 31.397757 -0.570864 -28.531695 -148.047797 -0.255473 9.270510 12.491083 -0.491284 28.531695 -16.898368 -0.051296 2.938926
1285.337105 480.691112 152.558474 0.000000 0.000000 0.000000 0.000000 0.000000 0.000000 58.021980 5.661389 -15.410265 -121.978020 0.374460 -15.410265 31.705930 -3.032890 -27.144812 -157.028684 2.532436 12.773379 11.107306 -3.235235 27.144812 -17.140016 0.155927 2.679134
1276.453171 465.093691 151.052790 0.000000 0.000000 0.000000 0.000000 0.000000 0.000000 70.157145 10.499302 -18.096541 -109.842855 -16.412691 -18.096541 40.303764 -4.537917 -25.329838 -145.293609 -4.252697 16.074804 10.431204 1.140413 25.329838 -17.100572 -0.082466 2.408768
1253.658714 472.768564 140.789123 0.000000 0.000000 0.000000 0.000000 0.000000 0.000000 65.087926 -6.394366 -19.645745 -114.912074 5.546768 -19.645745 -157.680356 -7.045663 -23.115397 -137.727082 -3.743615 19.122720 -153.053596 4.691670 23.115397 -16.054219 -0.821700 2.128896
1366.101608 507.691247 136.326596 0.000000 0.000000 0.000000 0.000000 0.000000 0.000000 108.715100 -1.438769 -19.960535 -71.284900 11.654120 -19.960535 156.661132 -3.475548 -20.536413 -158.224303 -6.168839 21.869059 0.000000 0.000000 0.000000 0.000000 0.000000 0.000000
969.986295 443.064535 131.715316 0.000000 0.000000 0.000000 0.000000 0.000000 0.000000 26.662144 28.156593 -19.021130 180.000000 -12.257947 -19.021130 28.015351 -0.474291 -17.633558 151.984649 -5.723600 24.270510 22.068935 -4.556434 17.633558 18.000000 -0.477438 1.545085
1282.107124 481.511257 139.910703 0.000000 0.000000 0.000000 0.000000 0.000000 0.000000 80.650781 -23.260706 -16.886559 -99.349219 13.069907 -16.886559 1.511604 5.418230 -14.452610 -32.896908 -0.799617 26.289200 -7.727072 3.853672 14.452610 13.531851 2.722077 1.243449
1282.921486 484.777769 142.467328 0.000000 0.000000 0.000000 0.000000 0.000000 0.000000 -81.737646 -23.605105 -13.690942 98.262354 33.414251 -13.690942 -23.867101 3.710466 -11.043737 12.655668 7.451900 27.893295 -29.454911 -1.272982 11.043737 9.861248 -0.119730 0.936907
1290.933037 513.180238 142.179535 0.000000 0.000000 0.000000 0.000000 0.000000 0.000000 -91.387864 -7.726332 -9.635073 88.612136 15.560440 -9.635073 -41.685392 -2.668902 -7.460697 -161.156957 -5.483566 29.057495 15.157863 5.630509 7.460697 10.543436 -0.055647 0.626666
969.999452 442.964284 129.265194 0.000000 0.000000 0.000000 0.000000 0.000000 0.000000 29.025427 22.763410 -4.973798 180.000000 4.773993 -4.973798 29.437993 -4.143218 -3.759997 150.562007 -0.247820 29.763441 20.404746 2.067064 3.759997 18.000000 0.297784 0.313953
970.000000 442.938926 127.664760 0.000000 0.000000 0.000000 0.000000 0.000000 0.000000 29.678605 8.479368 0.000000 180.000000 -3.564018 0.000000 29.744881 13.629514 -0.000000 150.255119 5.115694 30.000000 19.983107 -0.451368 0.000000 18.000000 -0.100111 0.000000
1354.522934 467.411410 121.575628 0.000000 0.000000 0.000000 0.000000 0.000000 0.000000 150.622570 5.482464 4.973798 -29.377430 -8.067250 4.973798 140.176400 7.324757 3.759997 -12.221629 1.098600 29.763441 132.794256 -8.286199 -3.759997 -2.626015 0.312569 0.313953
969.997807 442.887864 125.435359 0.000000 0.000000 0.000000 0.000000 0.000000 0.000000 31.061399 -30.811856 9.635073 180.000000 10.188670 9.635073 30.285790 2.582074 7.460697 149.714210 22.032809 29.057495 19.151579 -4.407124 -7.460697 18.000000 -0.321256 0.626666
1246.736984 514.278152 101.744631 0.000000 0.000000 0.000000 0.000000 0.000000 0.000000 143.557092 -3.596135 13.690942 -36.442908 6.437789 13.690942 133.761037 -4.972165 11.043737 -156.950665 -5.207991 27.893295 0.000000 0.000000 0.000000 1.928484 0.485462 0.936907
1245.221100 458.637464 106.504929 0.000000 0.000000 0.000000 0.000000 0.000000 0.000000 160.701064 17.391950 16.886559 -19.298936 -13.293297 16.886559 140.193827 1.637718 14.452610 -157.554825 -5.858277 26.289200 29.500467 4.715325 -14.452610 -15.049953 -0.471532 1.243449
1257.365570 418.514181 114.082477 0.000000 0.000000 0.000000 0.000000 0.000000 0.000000 -143.710676 -0.932635 19.021130 36.289324 12.668181 19.021130 163.220413 2.258503 17.633558 11.688054 -3.909519 24.270510 152.038385 1.972722 -17.633558 -2.339948 0.069048 1.545085
1275.099564 408.163741 120.002739 0.000000 0.000000 0.000000 0.000000 0.000000 0.000000 -132.929531 14.941080 19.960535 47.070469 -19.135728 19.960535 173.491912 1.417514 20.536413 -160.709681 -5.790068 21.869059 33.138793 5.546374 -20.536413 -14.686121 -0.554637 1.840623
1290.611115 384.880857 111.709351 0.000000 0.000000 0.000000 0.000000 0.000000 0.000000 -132.705235 -3.497165 19.645745 47.294765 3.414995 19.645745 -173.778854 1.564420 23.115397 20.496835 5.074106 19.122720 -161.220290 -4.490305 -23.115397 1.723235 0.345306 2.128896
1302.817154 380.305352 98.066896 0.000000 0.000000 0.000000 0.000000 0.000000 0.000000 -131.493915 -3.856914 18.096541 48.506085 4.165548 18.096541 -165.393697 -0.501431 25.329838 23.154815 0.473776 16.074804 -178.200316 1.339219 -25.329838 0.138141 0.059034 2.408768
1304.997711 379.563582 98.573351 0.000000 0.000000 0.000000 0.000000 0.000000 0.000000 -126.727972 -1.189950 15.410265 53.272028 1.761416 15.410265 -160.219593 -1.784005 27.144812 28.448880 0.233952 12.773379 -174.368770 -1.609741 -27.144812 0.079526 0.270070 2.679134
1311.668472 386.890390 88.824377 0.000000 0.000000 0.000000 0.000000 0.000000 0.000000 -122.308728 7.575082 11.755705 57.691272 -1.959992 11.755705 -158.801130 -0.684129 28.531695 150.942637 -5.648114 9.270510 -154.878332 -4.132650 -28.531695 2.695409 0.593265 2.938926
1305.131836 395.180186 100.731555 0.000000 0.000000 0.000000 0.000000 0.000000 0.000000 -125.112810 5.289459 7.362491 54.887190 10.473076 7.362491 -146.487292 -0.067338 29.468618 -175.167369 -0.264343 5.621439 -159.224034 -3.978943 -29.468618 1.782042 0.479955 3.187120
1296.320457 392.734526 57.368357 0.000000 0.000000 0.000000 0.000000 0.000000 0.000000 -131.035750 -11.143621 2.506665 48.964250 -0.143359 2.506665 -128.969563 4.238330 29.940802 38.856147 6.457553 1.883716 -134.776850 -2.389903 -29.940802 3.458429 0.078408 3.422736
1306.963577 386.612041 66.060216 0.000000 0.000000 0.000000 0.000000 0.000000 0.000000 -124.469622 11.505477 -2.506665 55.530378 -19.517864 -2.506665 -109.994856 3.774381 29.940802 37.691309 -6.850614 -1.883716 -118.274788 -0.795645 -29.940802 5.098336 0.285076 3.644843
969.892723 442.572198 87.507068 0.000000 0.000000 0.000000 0.000000 0.000000 0.000000 41.287575 -33.016626 -7.362491 180.000000 5.015797 -7.362491 30.974696 11.782002 29.468618 149.025304 14.356434 -5.621439 15.072869 -5.979574 -29.468618 18.000000 0.012050 3.852566
969.876883 442.545207 59.640423 0.000000 0.000000 0.000000 0.000000 0.000000 0.000000 42.241956 -16.350596 -11.755705 180.000000 9.721611 -11.755705 30.826133 -5.662932 28.531695 149.173867 10.578014 -9.270510 14.823070 -8.178643 -28.531695 18.000000 0.325252 4.045085
969.859960 442.518116 58.057737 0.000000 0.000000 0.000000 0.000000 0.000000 0.000000 43.199779 27.822840 -15.410265 180.000000 -4.194977 -15.410265 30.649504 12.977539 27.144812 149.350496 -9.527842 -12.773379 14.587557 1.334714 -27.144812 18.000000 0.357181 4.221640
969.841956 442.490926 48.726251 0.000000 0.000000 0.000000 0.000000 0.000000 0.000000 44.157210 -7.317284 -18.096541 180.000000 4.341159 -18.096541 30.446417 -11.782915 25.329838 149.553583 1.346943 -16.074804 14.366154 0.687273 -25.329838 18.000000 0.084230 4.381533
969.822873 442.463637 41.213222 0.000000 0.000000 0.000000 0.000000 0.000000 0.000000 45.110117 35.793157 -19.645745 180.000000 -7.352455 -19.645745 30.218633 -11.476318 23.115397 149.781367 -2.064772 -19.122720 14.158653 2.619172 -23.115397 18.000000 -0.536061 4.524135
969.802712 442.436251 53.054704 0.000000 0.000000 0.000000 0.000000 0.000000 0.000000 46.054109 18.544306 -19.960535 180.000000 -4.909457 -19.960535 29.968037 -1.134557 20.536413 150.031963 -2.864196 -21.869059 13.964823 -1.564146 -20.536413 18.000000 0.009716 4.648882
1187.040939 541.658249 74.999262 0.000000 0.000000 0.000000 0.000000 0.000000 0.000000 82.806623 21.523296 -19.021130 -97.193377 10.572260 -19.021130 45.395981 -4.996421 17.633558 -156.144455 -2.735666 -24.270510 0.000000 0.000000 0.000000 0.000000 0.000000 0.000000
1182.242889 522.024286 56.021269 0.000000 0.000000 0.000000 0.000000 0.000000 0.000000 -105.721938 24.092419 -16.886559 74.278062 -21.544095 -16.886559 -155.708006 -1.879310 14.452610 -157.302521 -2.742910 -26.289200 0.000000 0.000000 0.000000 2.684983 0.298278 4.842916
1180.914459 527.065626 49.123444 0.000000 0.000000 0.000000 0.000000 0.000000 0.000000 88.055617 -3.167921 -13.690942 -91.944383 1.019435 -13.690942 -158.862018 -2.002096 11.043737 -151.747289 -1.743962 -27.893295 0.000000 0.000000 0.000000 0.000000 0.000000 0.000000
1236.800194 541.387432 58.270115 0.000000 0.000000 0.000000 0.000000 0.000000 0.000000 -85.588400 0.432556 -9.635073 94.411600 -6.399048 -9.635073 -159.297106 -2.895020 7.460697 -157.915391 -2.458546 -29.057495 26.607362 2.772813 -7.460697 14.926890 -2.564394 4.960574
1161.066513 575.006626 47.188392 0.000000 0.000000 0.000000 0.000000 0.000000 0.000000 -81.021168 -11.695732 -4.973798 98.978832 -0.451163 -4.973798 -102.851701 3.472418 3.759997 -157.041007 -2.259699 -29.763441 21.429890 2.250475 -3.759997 10.859432 0.010804 4.990134
1255.636253 512.645942 51.789627 0.000000 0.000000 0.000000 0.000000 0.000000 0.000000 77.832564 -5.348280 -0.000000 -102.167436 5.373202 -0.000000 -158.264834 -2.333757 0.000000 -130.745502 0.533856 -30.000000 -157.699225 -1.988730 -0.000000 0.000000 0.000000 0.000000
1265.118484 521.473864 48.651579 0.000000 0.000000 0.000000 0.000000 0.000000 0.000000 64.078276 -3.574879 4.973798 -115.921724 3.533076 4.973798 41.397952 -1.732179 -3.759997 -139.329851 3.483641 -29.763441 20.223252 -1.462775 3.759997 -16.047574 -0.151402 4.990134
1228.099480 522.138258 35.609098 0.000000 0.000000 0.000000 0.000000 0.000000 0.000000 71.050901 0.334284 9.635073 -108.949099 -4.657036 9.635073 150.099970 4.475620 -7.460697 -139.894702 -0.392674 -29.057495 -156.275691 -3.088601 7.460697 0.000000 0.000000 0.000000
1240.357246 528.695873 63.495969 0.000000 0.000000 0.000000 0.000000 0.000000 0.000000 65.413351 1.556779 13.690942 -114.586649 7.607590 13.690942 147.242328 -6.658981 -11.043737 -154.470720 -2.497822 -27.893295 25.557225 2.461064 11.043737 -15.444278 -0.246106 4.911436
1231.815262 551.380248 72.535835 0.000000 0.000000 0.000000 0.000000 0.000000 0.000000 56.412506 -5.963589 16.886559 -123.587494 19.067768 16.886559 -153.392336 -8.474373 -14.452610 -154.784582 -2.813412 -26.289200 24.191555 3.164079 14.452610 -15.580844 -0.316408 4.842916
1221.475182 508.360147 77.488055 0.000000 0.000000 0.000000 0.000000 0.000000 0.000000 77.450622 12.806111 19.021130 -102.549378 -5.876261 19.021130 -156.789784 -2.976954 -17.633558 -125.590168 0.993003 -24.270510 -160.017240 -4.197909 17.633558 1.833434 0.313066 4.755283
969.477684 442.100429 60.884831 0.000000 0.000000 0.000000 0.000000 0.000000 0.000000 54.932575 3.670307 19.960535 180.000000 14.347926 19.960535 25.919122 -9.536393 -20.536413 154.080878 0.266657 -21.869059 12.612867 6.678952 20.536413 18.000000 -0.276809 4.648882
1480.140495 518.878891 72.218907 0.000000 0.000000 0.000000 0.000000 0.000000 0.000000 -110.621767 -83.691753 19.645745 69.378233 83.986004 19.645745 -158.235933 -2.783651 -23.115397 166.031448 -1.310991 -19.122720 -155.186432 -2.599722 23.115397 2.641553 0.348714 4.524135
1271.640472 556.840560 75.997696 0.000000 0.000000 0.000000 0.000000 0.000000 0.000000 -94.404719 -0.083121 18.096541 85.595281 -2.255907 18.096541 -62.417786 -2.250860 -25.329838 23.992813 1.194406 -16.074804 -76.856107 -3.641537 25.329838 7.708835 0.095127 4.381533
1258.556786 530.268441 70.360693 0.000000 0.000000 0.000000 0.000000 0.000000 0.000000 78.355945 -0.538848 15.410265 -101.644055 12.885522 15.410265 35.068294 -5.013206 -27.144812 -54.090640 4.445874 -12.773379 35.848220 -3.002003 27.144812 -8.104639 -0.338657 4.221640
1250.800209 527.150567 82.472644 0.000000 0.000000 0.000000 0.000000 0.000000 0.000000 72.417769 -1.404519 11.755705 -107.582231 -9.073397 11.755705 24.571109 7.687215 -28.531695 -39.196117 -4.970253 -9.270510 10.411117 3.700513 28.531695 -9.048616 1.080386 4.045085
1243.466148 571.776259 89.840918 0.000000 0.000000 0.000000 0.000000 0.000000 0.000000 86.301473 7.266471 7.362491 -93.698527 -10.808263 7.362491 24.553534 -4.780014 -29.468618 -153.460385 -4.575144 -5.621439 19.510484 3.018868 29.468618 -10.109500 3.463676 3.852566
1261.883812 566.052918 80.869762 0.000000 0.000000 0.000000 0.000000 0.000000 0.000000 94.015209 15.712140 2.506665 -85.984791 -12.843960 2.506665 38.959993 5.116687 -29.940802 -154.008305 -3.825350 -1.883716 20.870951 3.706009 29.940802 -10.872440 -3.843965 3.644843
1284.436798 527.190542 74.893102 0.000000 0.000000 0.000000 0.000000 0.000000 0.000000 111.186365 5.244680 -2.506665 -68.813635 -2.743808 -2.506665 58.506163 -1.911106 -29.940802 -19.138727 -0.361784 1.883716 51.457372 4.443908 29.940802 -5.203198 0.077627 3.422736
1272.860069 533.494012 105.354727 0.000000 0.000000 0.000000 0.000000 0.000000 0.000000 72.301471 -14.207934 -7.362491 -107.698529 1.648507 -7.362491 78.802573 -5.556220 -29.468618 -154.772375 -4.448599 5.621439 26.927455 3.779967 29.468618 -15.307255 -0.377997 3.187120
1255.264664 498.243735 126.724181 0.000000 0.000000 0.000000 0.000000 0.000000 0.000000 164.596971 61.104990 -11.755705 -15.403029 18.712844 -11.755705 125.849126 0.883694 -28.531695 -156.067666 -5.326268 9.270510 33.087561 4.911973 28.531695 -14.691244 -0.491197 2.938926
1259.202232 470.407684 117.045688 0.000000 0.000000 0.000000 0.000000 0.000000 0.000000 -139.980397 12.464228 -15.410265 40.019603 -13.252090 -15.410265 165.887722 5.654390 -27.144812 -157.901492 -5.418841 12.773379 35.196094 4.443989 27.144812 -14.480391 -0.444399 2.679134
1236.502075 429.951335 123.659082 0.000000 0.000000 0.000000 0.000000 0.000000 0.000000 -113.295066 -8.626434 -18.096541 66.704934 6.738871 -18.096541 -174.664169 3.994412 -25.329838 -159.007335 -5.033392 16.074804 32.868990 7.155567 25.329838 -14.713101 -0.715557 2.408768
1253.359451 413.942538 131.490314 0.000000 0.000000 0.000000 0.000000 0.000000 0.000000 -123.348580 -8.193154 -19.645745 56.651420 2.257920 -19.645745 -167.815074 5.106880 -23.115397 -159.603180 -5.484685 19.122720 32.791747 6.653284 23.115397 -14.720825 -0.665328 2.128896
1281.206589 405.664523 125.537698 0.000000 0.000000 0.000000 0.000000 0.000000 0.000000 -124.414271 -2.175186 -19.960535 55.585729 1.934835 -19.960535 -161.281803 -2.083409 -20.536413 28.568449 -7.847632 21.869059 -159.052798 -3.551251 20.536413 1.849141 0.431127 1.840623
1300.238571 418.760215 141.957342 0.000000 0.000000 0.000000 0.000000 0.000000 0.000000 -126.263092 -0.949183 -19.021130 53.736908 -3.609455 -19.021130 -159.739358 0.736458 -17.633558 31.487961 -1.954392 24.270510 -170.323915 -0.372790 17.633558 0.671815 0.232412 1.545085
1321.889191 413.634385 144.008962 0.000000 0.000000 0.000000 0.000000 0.000000 0.000000 -133.874471 0.117136 -16.886559 46.125529 7.404536 -16.886559 -159.376251 -2.949558 -14.452610 30.696824 -1.837418 26.289200 -164.929556 1.721438 14.452610 1.089735 -0.149359 1.243449
1336.221428 432.881820 122.090347 0.000000 0.000000 0.000000 0.000000 0.000000 0.000000 -115.020798 -5.640470 -13.690942 64.979202 4.189662 -13.690942 -135.609544 0.122902 -11.043737 -161.321630 -6.438194 27.893295 17.353502 7.644707 11.043737 -16.264650 -0.764471 0.936907
1329.124603 416.860342 134.990210 0.000000 0.000000 0.000000 0.000000 0.000000 0.000000 -134.023347 -2.138984 -9.635073 45.976653 -2.469846 -9.635073 -128.030830 1.572725 -7.460697 28.249885 -2.657232 29.057495 -136.447985 -2.141554 7.460697 4.038834 0.314468 0.626666
1343.366776 427.060794 155.603271 0.000000 0.000000 0.000000 0.000000 0.000000 0.000000 -130.153347 1.588562 -4.973798 49.846653 0.630627 -4.973798 -103.564435 0.258926 -3.759997 27.398095 2.058002 29.763441 -115.461530 -1.820279 3.759997 5.470063 -0.139093 0.313953
1376.991005 465.829636 168.992766 0.000000 0.000000 0.000000 0.000000 0.000000 0.000000 -120.272352 0.474445 0.000000 59.727648 7.760807 0.000000 -62.204131 -1.425886 -0.000000 27.740602 3.620376 30.000000 -80.461527 -1.520421 0.000000 7.450891 0.042928 0.000000
1384.978867 468.790376 137.377024 0.000000 0.000000 0.000000 0.000000 0.000000 0.000000 -93.720384 41.044661 4.973798 86.279616 25.504602 4.973798 3.847814 -7.150558 3.759997 -160.438787 -5.842333 29.763441 15.990976 5.118707 -3.759997 7.894783 -1.115921 0.313953
1345.894547 516.257268 136.519098 0.000000 0.000000 0.000000 0.000000 0.000000 0.000000 127.577640 -6.271298 9.635073 -52.422360 -0.770065 9.635073 53.096359 0.772842 7.460697 -159.021748 -6.151978 29.057495 18.308456 4.693405 -7.460697 -4.062191 2.196212 0.626666
968.498927 441.455181 142.218986 0.000000 0.000000 0.000000 0.000000 0.000000 0.000000 47.920147 -22.237904 13.690942 180.000000 -2.504074 13.690942 19.641385 -3.878027 11.043737 160.358615 3.196365 27.893295 13.993219 -1.141617 -11.043737 18.000000 0.594996 0.936907
1336.846733 493.527671 151.708258 0.000000 0.000000 0.000000 0.000000 0.000000 0.000000 102.681311 18.703385 16.886559 -77.318689 -22.024455 16.886559 35.985219 -3.019099 14.452610 -159.617763 -7.166834 26.289200 19.375410 5.763837 -14.452610 -16.062459 -0.576384 1.243449
968.386706 441.394956 134.372076 0.000000 0.000000 0.000000 0.000000 0.000000 0.000000 46.120581 0.049788 19.021130 180.000000 11.140045 19.021130 19.316787 -13.400017 17.633558 160.683213 0.291050 24.270510 14.327067 -4.373660 -17.633558 18.000000 0.457876 1.545085
1263.984947 433.341283 151.694999 0.000000 0.000000 0.000000 0.000000 0.000000 0.000000 -115.578373 -12.001066 19.960535 64.421627 -7.325979 19.960535 -82.396446 1.444270 20.536413 25.733383 -5.417157 21.869059 -77.477544 2.110058 -20.536413 5.836928 -0.129343 1.840623
1352.596436 477.564354 158.844542 0.000000 0.000000 0.000000 0.000000 0.000000 0.000000 -99.196741 5.385731 19.645745 80.803259 -13.946371 19.645745 -125.272585 6.376637 23.115397 -162.405270 -6.967107 19.122720 17.377627 7.005572 -23.115397 -16.262237 -0.700557 2.128896
1384.326782 408.174427 148.006028 0.000000 0.000000 0.000000 0.000000 0.000000 0.000000 96.868601 18.263453 18.096541 -83.131399 -17.763628 18.096541 -160.848957 -6.302698 25.329838 -137.255583 -0.012593 16.074804 -162.076720 -7.687685 -25.329838 0.000000 0.000000 0.000000
1387.580223 387.128634 136.663577 0.000000 0.000000 0.000000 0.000000 0.000000 0.000000 78.087764 4.592670 15.410265 -101.912236 -5.706086 15.410265 -161.807915 -5.839767 27.144812 -147.504361 0.348169 12.773379 -162.566306 -7.055498 -27.144812 1.735427 0.762105 2.679134
1345.818558 392.423122 154.040347 0.000000 0.000000 0.000000 0.000000 0.000000 0.000000 71.782984 -16.588798 11.755705 -108.217016 12.171721 11.755705 -169.469261 3.102240 28.531695 -153.903088 0.717376 9.270510 -154.670689 2.576687 -28.531695 15.277725 3.975555 2.938926
1331.471329 361.814139 118.203765 0.000000 0.000000 0.000000 0.000000 0.000000 0.000000 53.586100 -19.518796 7.362491 -126.413900 8.557903 7.362491 -162.290330 -5.769376 29.468618 -154.912165 2.951214 5.621439 -162.550394 -7.191193 -29.468618 1.742175 0.910610 3.187120
1354.413986 427.213873 118.037527 0.000000 0.000000 0.000000 0.000000 0.000000 0.000000 -131.358118 9.791467 2.506665 48.641882 -26.546887 2.506665 -142.488821 1.915081 29.940802 -161.977882 -6.623385 1.883716 12.673705 8.240408 -29.940802 1.397524 -0.058334 3.422736
1330.326691 347.207226 139.601680 0.000000 0.000000 0.000000 0.000000 0.000000 0.000000 52.464175 15.342551 -2.506665 -127.535825 -0.707125 -2.506665 14.270918 -3.870595 29.940802 -122.057234 -1.278225 -1.883716 22.820874 0.007954 -29.940802 -15.244909 0.030844 3.644843
1317.103271 414.475805 142.972653 0.000000 0.000000 0.000000 0.000000 0.000000 0.000000 76.170457 12.180295 -7.362491 -103.829543 -16.754603 -7.362491 -50.250674 0.711901 29.468618 -52.503744 -10.734819 -5.621439 -92.793049 5.893253 -29.468618 3.303440 0.100832 3.852566
1331.844635 430.291482 128.659549 0.000000 0.000000 0.000000 0.000000 0.000000 0.000000 79.985160 7.728262 -11.755705 -100.014840 5.805013 -11.755705 25.995082 4.606049 28.531695 -75.062603 0.106753 -9.270510 38.761234 0.882879 -28.531695 -11.442229 -0.084086 4.045085
1359.462433 496.472383 103.258711 0.000000 0.000000 0.000000 0.000000 0.000000 0.000000 84.268829 6.930031 -15.410265 -95.731171 -0.118499 -15.410265 30.279153 -0.959513 27.144812 -63.318008 -1.923808 -12.773379 39.457716 -4.884831 -27.144812 -9.485742 0.062489 4.221640
1323.514366 546.771398 132.345057 0.000000 0.000000 0.000000 0.000000 0.000000 0.000000 84.407325 -14.256746 -18.096541 -95.592675 13.528391 -18.096541 27.768249 3.739368 25.329838 -47.660055 2.755727 -16.074804 28.281511 2.270381 -25.329838 -7.827901 0.145379 4.381533
1268.535347 591.567099 109.186916 0.000000 0.000000 0.000000 0.000000 0.000000 0.000000 90.890792 9.386137 -19.645745 -89.109208 -3.784968 -19.645745 44.654760 -5.893692 23.115397 -48.200667 -1.254635 -19.122720 43.369388 -1.463672 -23.115397 -8.974980 -0.947611 4.524135
1303.157158 602.888768 108.532158 0.000000 0.000000 0.000000 0.000000 0.000000 0.000000 90.349289 -1.860747 -19.960535 -89.650711 -10.411315 -19.960535 47.707312 7.048191 20.536413 -53.918782 -1.039036 -21.869059 40.070965 1.951992 -20.536413 -9.318632 0.087175 4.648882
1314.841690 613.141973 88.821612 0.000000 0.000000 0.000000 0.000000 0.000000 0.000000 94.480501 7.472806 -19.021130 -85.519499 -10.384218 -19.021130 58.462862 3.531820 17.633558 -52.020507 -2.323293 -24.270510 55.276552 -3.154332 -17.633558 -7.777523 0.787241 4.755283
1327.521400 639.394319 97.154634 0.000000 0.000000 0.000000 0.000000 0.000000 0.000000 99.879576 4.571645 -16.886559 -80.120424 -1.843354 -16.886559 69.161359 -2.967234 14.452610 -46.413613 -2.590759 -26.289200 76.680143 -4.660121 -14.452610 -6.257768 0.352289 4.842916
1277.812729 671.228578 94.877492 0.000000 0.000000 0.000000 0.000000 0.000000 0.000000 99.708534 1.472961 -13.690942 -80.291466 15.718411 -13.690942 92.239140 -7.478100 11.043737 -26.764021 2.210353 -27.893295 98.168457 -1.594816 -11.043737 -4.372074 -0.060856 4.911436
1309.642181 690.479329 87.045898 0.000000 0.000000 0.000000 0.000000 0.000000 0.000000 117.292414 -4.552894 -9.635073 -62.707586 11.194844 -9.635073 137.002702 -0.427625 7.460697 -32.045917 0.693759 -29.057495 135.211322 1.599405 -7.460697 -3.212944 0.015699 4.960574
1299.770966 664.126496 66.954737 0.000000 0.000000 0.000000 0.000000 0.000000 0.000000 158.531160 9.103057 -4.973798 -21.468840 1.496678 -4.973798 161.478323 -1.802941 3.759997 -12.838206 1.462058 -29.763441 151.269584 -0.653189 -3.759997 -2.521934 -0.007683 4.990134
1313.353729 643.668108 83.527206 0.000000 0.000000 0.000000 0.000000 0.000000 0.000000 -154.315892 -9.276452 -0.000000 25.684108 -0.519720 -0.000000 173.459940 5.242499 0.000000 1.519689 1.013783 -30.000000 164.244875 1.317422 -0.000000 -1.552244 -0.035245 5.000000
1342.841377 638.982847 77.172558 0.000000 0.000000 0.000000 0.000000 0.000000 0.000000 -138.993869 7.650674 4.973798 41.006131 8.982529 4.973798 175.724056 -5.043105 -3.759997 -151.723069 -3.606033 -29.763441 43.242568 4.841431 3.759997 -13.675743 -0.484143 4.990134
1350.000229 614.724133 71.446646 0.000000 0.000000 0.000000 0.000000 0.000000 0.000000 -144.248147 0.146985 9.635073 35.751853 23.323128 9.635073 177.069273 -2.344618 -7.460697 -152.227621 -2.437465 -29.057495 43.136563 2.859136 7.460697 -13.686344 -0.285914 4.960574
1328.535919 624.780936 67.754110 0.000000 0.000000 0.000000 0.000000 0.000000 0.000000 -165.447222 -15.696793 13.690942 14.552778 26.731524 13.690942 169.657511 -3.059821 -11.043737 -152.168050 -2.378928 -27.893295 41.929642 2.791532 11.043737 -13.807036 -0.279153 4.911436
1318.810501 615.688248 77.735707 0.000000 0.000000 0.000000 0.000000 0.000000 0.000000 -120.063657 2.271539 16.886559 59.936343 -0.836992 16.886559 -165.389465 -0.984313 -14.452610 -152.866764 -2.919603 -26.289200 39.162270 2.710986 14.452610 -14.083773 -0.271099 4.842916
1321.656418 659.275410 52.920411 0.000000 0.000000 0.000000 0.000000 0.000000 0.000000 -121.435085 -4.263562 19.021130 58.564915 11.757641 19.021130 -149.190712 -1.149385 -17.633558 -151.926374 -2.076000 -24.270510 33.097066 1.693128 17.633558 -14.690293 -0.169313 4.755283
1328.445511 687.490232 55.724603 0.000000 0.000000 0.000000 0.000000 0.000000 0.000000 -104.253419 1.863709 19.960535 75.746581 -8.266503 19.960535 -110.140878 4.373611 -20.536413 -152.911692 -2.523403 -21.869059 23.882145 2.057552 20.536413 3.694979 0.204564 4.648882
966.534206 440.564282 49.305266 0.000000 0.000000 0.000000 0.000000 0.000000 0.000000 25.865486 15.471350 19.645745 180.000000 -16.674426 19.645745 18.728337 4.684902 -23.115397 161.271663 -8.705127 -19.122720 19.024234 -2.166601 23.115397 18.000000 -0.177369 4.524135
966.454577 440.533056 51.087895 0.000000 0.000000 0.000000 0.000000 0.000000 0.000000 25.417507 8.499873 18.096541 180.000000 1.691233 18.096541 18.825450 -1.984416 -25.329838 161.174550 -8.789518 -16.074804 19.071566 6.639134 25.329838 18.000000 -1.245283 4.381533
966.374240 440.501809 51.411644 0.000000 0.000000 0.000000 0.000000 0.000000 0.000000 24.990320 -2.231646 15.410265 180.000000 8.882255 15.410265 18.929718 -1.793051 -27.144812 161.070282 -2.182116 -12.773379 19.102411 8.749908 27.144812 18.000000 0.342298 4.221640
966.293204 440.470542 51.407777 0.000000 0.000000 0.000000 0.000000 0.000000 0.000000 24.583377 -6.531637 11.755705 180.000000 -2.807298 11.755705 19.040946 3.390403 -28.531695 160.959054 -5.678905 -9.270510 19.116765 -3.153600 28.531695 18.000000 0.881277 4.045085
966.211478 440.439256 56.189878 0.000000 0.000000 0.000000 0.000000 0.000000 0.000000 24.196129 11.545973 7.362491 180.000000 -2.943707 7.362491 19.158923 1.651977 -29.468618 160.841077 -11.965872 -5.621439 19.114778 4.811269 29.468618 18.000000 0.254375 3.852566
644.985180 745.864069 46.243347 0.000000 0.000000 0.000000 0.000000 0.000000 0.000000 96.086415 -8.413641 2.506665 -83.913585 13.588606 2.506665 -159.662371 0.823794 -29.940802 -116.741565 0.909168 -1.883716 -176.001217 1.644786 29.940802 -1.006627 1.225165 3.644843
1269.020119 699.025490 35.925194 0.000000 0.000000 0.000000 0.000000 0.000000 0.000000 83.810916 1.228400 -2.506665 -96.189084 -0.725701 -2.506665 51.932890 1.737768 -29.940802 -149.314466 -2.202531 1.883716 27.598511 2.257595 29.940802 -15.240149 -0.225760 3.422736
573.721218 678.450201 40.259509 0.000000 0.000000 0.000000 0.000000 0.000000 0.000000 18.756393 43.138573 -7.362491 -161.243607 -52.380616 -7.362491 -174.158094 8.952987 -29.468618 178.010322 -4.047030 5.621439 -154.394154 -3.242018 29.468618 11.886524 -0.508812 3.187120
1261.580200 714.897366 57.748679 0.000000 0.000000 0.000000 0.000000 0.000000 0.000000 87.191276 4.147516 -11.755705 -92.808724 -4.368499 -11.755705 23.129119 7.811651 -28.531695 -149.376238 -2.415536 9.270510 24.545507 1.901830 28.531695 13.583501 1.784633 2.938926
1314.655838 684.171546 49.687979 0.000000 0.000000 0.000000 0.000000 0.000000 0.000000 61.219932 -4.948187 -15.410265 -118.780068 0.955369 -15.410265 25.476616 -6.407989 -27.144812 -150.404247 -2.565674 12.773379 24.621454 2.425113 27.144812 -15.537855 -0.242511 2.679134
1319.638939 674.820013 48.105021 0.000000 0.000000 0.000000 0.000000 0.000000 0.000000 82.055377 4.523649 -18.096541 -97.944623 -10.765863 -18.096541 17.325085 -2.248666 -25.329838 -60.067277 -11.559786 16.074804 23.747728 6.844735 25.329838 -13.005173 0.043733 2.408768
1367.852325 659.536314 58.959983 0.000000 0.000000 0.000000 0.000000 0.000000 0.000000 -150.278430 10.911007 -19.645745 29.721570 -32.326823 -19.645745 -151.222797 -2.163586 -23.115397 18.758043 -3.396157 19.122720 -152.451920 -2.138848 23.115397 2.484143 0.129245 2.128896
1392.624664 638.981302 55.373128 0.000000 0.000000 0.000000 0.000000 0.000000 0.000000 -122.704248 19.643179 -19.960535 57.295752 -14.812810 -19.960535 -134.513385 2.138381 -20.536413 30.292627 -12.739038 21.869059 -146.694539 2.922367 20.536413 2.430965 -0.057529 1.840623
1401.291389 646.422758 86.129249 0.000000 0.000000 0.000000 0.000000 0.000000 0.000000 83.316637 6.631398 -19.021130 -96.683363 -10.552750 -19.021130 29.335627 14.492773 -17.633558 -136.281416 -1.185928 24.270510 19.119183 -0.381104 17.633558 -15.871560 0.127568 1.545085
1381.838951 663.410475 83.761899 0.000000 0.000000 0.000000 0.000000 0.000000 0.000000 79.215331 2.397486 -16.886559 -100.784669 -2.136530 -16.886559 30.640455 -1.582574 -14.452610 -139.113455 0.086440 26.289200 14.302413 0.431652 14.452610 -16.408036 -0.132806 1.243449
1390.185928 664.248354 69.794259 0.000000 0.000000 0.000000 0.000000 0.000000 0.000000 75.546066 -5.798534 -13.690942 -104.453934 -2.312858 -13.690942 38.995097 -2.214283 -11.043737 -142.871297 2.046905 27.893295 14.209110 -0.852976 11.043737 -16.737090 -0.040310 0.936907
1393.889923 677.551103 79.147998 0.000000 0.000000 0.000000 0.000000 0.000000 0.000000 84.293627 -2.268504 -9.635073 -95.706373 10.190257 -9.635073 -152.700272 -4.387401 -7.460697 -143.357755 -0.519027 29.057495 -148.868889 -3.718566 7.460697 3.626268 0.426198 0.626666
905.601082 693.654528 85.694607 0.000000 0.000000 0.000000 0.000000 0.000000 0.000000 -84.410869 13.021866 -4.973798 95.589131 -7.576092 -4.973798 -139.498802 -4.041934 -3.759997 -178.556713 -11.575930 29.763441 -142.061844 -4.562842 3.759997 3.411456 0.474318 0.313953
1337.643929 680.318756 102.462290 0.000000 0.000000 0.000000 0.000000 0.000000 0.000000 78.192517 1.764200 0.000000 -101.807483 0.739022 0.000000 48.289813 1.576986 -0.000000 -140.291980 2.749752 30.000000 13.663140 -2.481413 0.000000 -17.395561 0.040849 0.000000
1322.670708 685.543334 102.422376 0.000000 0.000000 0.000000 0.000000 0.000000 0.000000 71.501063 -23.058402 4.973798 -108.498937 20.066751 4.973798 23.648228 0.385441 3.759997 -144.586500 1.761587 29.763441 14.578018 0.320294 -3.759997 -16.885607 -0.083473 0.313953
1305.530548 682.910864 114.316379 0.000000 0.000000 0.000000 0.000000 0.000000 0.000000 72.979287 5.788633 9.635073 -107.020713 39.330308 9.635073 -148.728581 -4.785434 7.460697 -74.802907 -16.340244 29.057495 -151.178244 -3.377381 -7.460697 2.601049 0.445465 0.626666
1359.363556 692.650115 114.710310 0.000000 0.000000 0.000000 0.000000 0.000000 0.000000 73.244804 -2.407329 13.690942 -106.755196 -2.518623 13.690942 13.983499 4.271282 11.043737 -67.611809 2.570500 27.893295 13.130547 -1.943756 -11.043737 -11.004089 0.112613 0.936907
1299.495964 679.994059 112.586040 0.000000 0.000000 0.000000 0.000000 0.000000 0.000000 116.206779 -11.559940 16.886559 -63.793221 5.472981 16.886559 -150.858719 -4.642019 14.452610 -34.548592 -0.598146 26.289200 60.366751 -2.845910 -14.452610 -4.627493 0.832728 1.243449
1306.260338 711.527116 125.367693 0.000000 0.000000 0.000000 0.000000 0.000000 0.000000 -85.758672 0.004051 19.021130 94.241328 33.299483 19.021130 -31.461750 -1.575933 17.633558 -4.237664 5.543865 24.270510 -15.215787 -5.886699 -17.633558 7.867754 4.316653 1.545085
1272.614822 704.778571 107.192357 0.000000 0.000000 0.000000 0.000000 0.000000 0.000000 -78.634637 -8.932219 19.960535 101.365363 0.331387 19.960535 -34.118569 0.434969 20.536413 22.539652 -1.471159 21.869059 -31.373170 -0.243127 -20.536413 11.310693 -0.146281 1.840623
1310.345650 676.427021 128.842018 0.000000 0.000000 0.000000 0.000000 0.000000 0.000000 97.572435 -2.804402 19.645745 -82.427565 6.020552 19.645745 50.400703 -0.859128 23.115397 -39.584286 2.437077 19.122720 44.966766 2.444327 -23.115397 -8.852712 -0.379657 2.128896
1315.732956 671.025095 129.184786 0.000000 0.000000 0.000000 0.000000 0.000000 0.000000 97.797337 -2.938642 18.096541 -82.202663 5.963388 18.096541 49.825934 -4.201726 25.329838 -39.162923 2.795965 16.074804 36.475631 -1.380702 -25.329838 -8.191519 -2.443009 2.408768
1329.935532 653.525419 135.886920 0.000000 0.000000 0.000000 0.000000 0.000000 0.000000 96.469555 2.524789 15.410265 -83.530445 -4.872272 15.410265 63.882053 2.431690 27.144812 -51.972064 -1.072636 12.773379 58.624362 1.266331 -27.144812 -8.239564 -0.092381 2.679134
1316.170578 674.246514 141.983612 0.000000 0.000000 0.000000 0.000000 0.000000 0.000000 -87.946330 -0.580039 11.755705 92.053670 1.726567 11.755705 -29.715798 1.208617 28.531695 54.212796 -0.248937 9.270510 -40.560774 1.255379 -28.531695 11.008015 -0.119833 2.938926
1317.367287 678.027205 133.102944 0.000000 0.000000 0.000000 0.000000 0.000000 0.000000 95.152942 0.800875 7.362491 -84.847058 -1.176407 7.362491 98.792835 -1.438822 29.468618 -150.515547 -6.206780 5.621439 32.983753 5.220932 -29.468618 -14.701625 -0.522093 3.187120
1318.168488 670.157025 165.393610 0.000000 0.000000 0.000000 0.000000 0.000000 0.000000 -151.252255 -51.849541 2.506665 28.747745 33.671560 2.506665 138.896993 2.394867 29.940802 -151.946620 -5.882700 1.883716 38.784684 5.647438 -29.940802 -14.121532 -0.564744 3.422736
1323.412628 644.667885 162.313805 0.000000 0.000000 0.000000 0.000000 0.000000 0.000000 -97.904066 8.395501 -2.506665 82.095934 17.140482 -2.506665 155.695030 -0.043316 29.940802 -152.500978 -6.091617 -1.883716 44.721081 6.778439 -29.940802 -13.527892 -0.677844 3.644843
1312.776718 630.059459 138.822764 0.000000 0.000000 0.000000 0.000000 0.000000 0.000000 -116.637972 12.642766 -7.362491 63.362028 -20.119312 -7.362491 171.094570 -1.918218 29.468618 -152.894064 -7.270195 -5.621439 43.947863 7.529209 -29.468618 -13.605214 -0.752921 3.852566
1316.420746 625.237019 151.040567 0.000000 0.000000 0.000000 0.000000 0.000000 0.000000 -136.254273 4.987401 -11.755705 43.745727 14.005091 -11.755705 -177.663204 0.163922 28.531695 -153.006287 -6.199636 -9.270510 42.784597 9.043154 -28.531695 -13.721540 -0.904315 4.045085
1314.719925 628.818026 162.347212 0.000000 0.000000 0.000000 0.000000 0.000000 0.000000 -114.737929 -7.200652 -15.410265 65.262071 5.590426 -15.410265 -169.764314 3.646768 27.144812 -153.369487 -6.143211 -12.773379 41.498347 9.088497 -27.144812 -13.850165 -0.908850 4.221640
1334.396782 646.165652 160.235242 0.000000 0.000000 0.000000 0.000000 0.000000 0.000000 -116.903454 -9.536915 -18.096541 63.096546 12.827157 -18.096541 -154.594534 -0.657034 25.329838 -153.225015 -5.666865 -16.074804 37.136182 8.462256 -25.329838 -14.286382 -0.846226 4.381533
1340.823784 648.244128 148.152283 0.000000 0.000000 0.000000 0.000000 0.000000 0.000000 -116.932323 -0.132158 -19.645745 63.067677 2.164157 -19.645745 -138.898656 1.091951 23.115397 35.335752 1.013477 -19.122720 -153.336856 -0.299226 -23.115397 2.206211 0.072891 4.524135
1330.023880 654.599032 157.485155 0.000000 0.000000 0.000000 0.000000 0.000000 0.000000 -112.150704 7.434484 -19.960535 67.849296 5.109903 -19.960535 -118.798313 -5.079261 20.536413 -153.636372 -6.520084 -21.869059 16.691869 7.916285 -20.536413 -16.330813 -0.791629 4.648882
1337.431641 662.410698 151.543963 0.000000 0.000000 0.000000 0.000000 0.000000 0.000000 -109.111809 -0.527833 -19.021130 70.888191 1.689977 -19.021130 -91.144379 -2.831715 17.633558 -154.448144 -6.259119 -24.270510 10.298202 6.562439 -17.633558 6.642051 -0.101724 4.755283
1324.339714 676.416593 145.240074 0.000000 0.000000 0.000000 0.000000 0.000000 0.000000 -104.120178 -1.351760 -16.886559 75.879822 3.768431 -16.886559 -57.095620 -3.641227 14.452610 38.799650 -3.213556 -26.289200 -71.942639 -0.863149 -14.452610 8.831938 0.389059 4.842916
962.890318 439.311049 147.641955 0.000000 0.000000 0.000000 0.000000 0.000000 0.000000 19.986963 33.195827 -13.690942 180.000000 -12.222676 -13.690942 24.297229 15.751643 11.043737 155.702771 -10.164113 -27.893295 14.983342 -2.643258 -11.043737 18.000000 0.281981 4.911436
962.789911 439.279946 138.077972 0.000000 0.000000 0.000000 0.000000 0.000000 0.000000 20.089586 -17.327814 -9.635073 180.000000 -2.833801 -9.635073 24.330184 -2.703662 7.460697 155.669816 -10.871312 -29.057495 14.926290 3.525323 -7.460697 18.000000 0.401506 4.960574
641.318550 641.336324 144.499959 0.000000 0.000000 0.000000 0.000000 0.000000 0.000000 163.642929 -7.944427 -4.973798 -16.357071 16.487541 -4.973798 -155.926011 2.899295 3.759997 -130.644608 -7.511375 -29.763441 68.679337 11.108292 -3.759997 -11.132066 -1.110829 4.990134
1305.385551 662.289033 131.650770 0.000000 0.000000 0.000000 0.000000 0.000000 0.000000 -81.949824 11.535460 -0.000000 98.050176 -23.168512 -0.000000 9.536664 6.605549 0.000000 -153.586691 -6.470954 -30.000000 24.402531 4.745963 -0.000000 -15.559747 -0.474596 5.000000
962.486899 439.186814 128.520198 0.000000 0.000000 0.000000 0.000000 0.000000 0.000000 20.465882 17.601583 4.973798 180.000000 -7.809522 4.973798 24.357206 2.988111 -3.759997 155.642794 -1.549293 -29.763441 14.800425 -13.501700 3.759997 18.000000 0.856962 4.990134
1216.314240 612.580640 122.197751 0.000000 0.000000 0.000000 0.000000 0.000000 0.000000 78.221991 -0.104395 9.635073 -101.778009 -2.324017 9.635073 46.689014 2.548715 -7.460697 -61.937558 -2.845620 -29.057495 44.546377 -2.881888 7.460697 -10.771750 1.303091 4.960574
1273.897820 573.707514 114.770328 0.000000 0.000000 0.000000 0.000000 0.000000 0.000000 77.469628 -3.876077 13.690942 -102.530372 10.445315 13.690942 -155.691164 -5.563057 -11.043737 -120.750172 3.535676 -27.893295 -156.229293 -5.405691 11.043737 2.162203 0.596501 4.911436
1337.358742 570.303276 104.302469 0.000000 0.000000 0.000000 0.000000 0.000000 0.000000 73.705918 -5.416481 16.886559 -106.294082 1.469036 16.886559 -155.918376 -4.925716 -14.452610 -149.887909 -4.258949 -26.289200 0.000000 0.000000 0.000000 0.000000 0.000000 0.000000
1342.446442 569.623497 98.708884 0.000000 0.000000 0.000000 0.000000 0.000000 0.000000 68.898287 1.330828 19.021130 -111.101713 2.169658 19.021130 39.314088 -2.798419 -17.633558 -140.912764 -1.737437 -24.270510 -153.216026 -5.451812 17.633558 2.759242 0.715928 4.755283
1335.759430 584.665475 102.553901 0.000000 0.000000 0.000000 0.000000 0.000000 0.000000 66.989329 -6.425050 19.960535 -113.010671 6.562614 19.960535 -154.807077 -5.255144 -20.536413 -142.328055 2.785968 -21.869059 -153.049156 -6.106090 20.536413 2.866457 0.624104 4.648882
1337.950974 598.074245 100.704011 0.000000 0.000000 0.000000 0.000000 0.000000 0.000000 62.697633 7.222446 19.645745 -117.302367 0.073817 19.645745 19.366736 -3.913286 -23.115397 -144.826223 0.182277 -19.122720 9.911455 -1.645071 23.115397 -17.004209 0.115728 4.524135
1352.846489 601.043322 91.395731 0.000000 0.000000 0.000000 0.000000 0.000000 0.000000 59.083577 4.862827 18.096541 -120.916423 1.856838 18.096541 20.876734 -7.765980 -25.329838 -142.301690 0.270598 -16.074804 13.356960 -1.438857 25.329838 -16.821524 -0.010000 4.381533
1347.310982 587.475100 106.706822 0.000000 0.000000 0.000000 0.000000 0.000000 0.000000 56.169135 4.320091 15.410265 -123.830865 7.871468 15.410265 21.172503 -4.292716 -27.144812 -139.640745 -2.016546 -12.773379 14.641496 -1.450352 27.144812 -16.282575 0.140714 4.221640
1326.982155 606.886139 84.038187 0.000000 0.000000 0.000000 0.000000 0.000000 0.000000 70.119981 8.585523 11.755705 -109.880019 -11.000200 11.755705 26.511889 5.441193 -28.531695 -111.264667 -1.285427 -9.270510 31.153840 -2.962051 28.531695 -13.943905 0.264613 4.045085
1354.391098 626.185555 78.216118 0.000000 0.000000 0.000000 0.000000 0.000000 0.000000 88.154395 -5.109702 7.362491 -91.845605 12.328056 7.362491 30.442275 -0.478786 -29.468618 -76.284233 5.171217 -5.621439 43.854867 -0.141853 29.468618 -10.818190 0.149251 3.852566
1370.667114 610.219567 99.186665 0.000000 0.000000 0.000000 0.000000 0.000000 0.000000 89.945118 -2.278320 2.506665 -90.054882 0.639291 2.506665 44.053326 -2.852546 -29.940802 -56.238091 1.049214 -1.883716 55.411270 -1.018024 29.940802 -7.805659 0.393432 3.644843
1372.834854 597.828534 79.034012 0.000000 0.000000 0.000000 0.000000 0.000000 0.000000 93.407992 0.683524 -2.506665 -86.592008 -0.370276 -2.506665 54.165845 0.755349 -29.940802 -47.239220 1.871955 1.883716 56.575186 -2.016781 29.940802 -6.344474 -0.211839 3.422736
1336.554337 597.454848 68.101218 0.000000 0.000000 0.000000 0.000000 0.000000 0.000000 95.622643 -0.708660 -7.362491 -84.377357 1.851645 -7.362491 56.597780 -0.479707 -29.468618 -45.108662 -1.435572 5.621439 55.386034 1.416320 29.468618 -7.206870 0.817589 3.187120
1310.567093 590.844769 72.145099 0.000000 0.000000 0.000000 0.000000 0.000000 0.000000 100.193768 12.486522 -11.755705 -79.806232 -4.300695 -11.755705 61.986347 -4.897584 -28.531695 -37.593815 -9.001425 9.270510 62.907615 8.398987 28.531695 -6.637230 -0.219792 2.938926
1328.574371 576.493385 54.083856 0.000000 0.000000 0.000000 0.000000 0.000000 0.000000 101.943783 -0.438710 -15.410265 -78.056217 1.648379 -15.410265 61.902838 -2.574859 -27.144812 -33.889586 -3.157674 12.773379 55.760387 2.701466 27.144812 -7.097415 0.618777 2.679134
1316.178360 595.500870 56.696011 0.000000 0.000000 0.000000 0.000000 0.000000 0.000000 103.792097 5.112230 -18.096541 -76.207903 -4.070258 -18.096541 65.535198 -2.001954 -25.329838 -28.739437 0.057799 16.074804 68.415337 -3.470072 25.329838 -6.481753 0.361432 2.408768
1302.343140 568.138025 57.732567 0.000000 0.000000 0.000000 0.000000 0.000000 0.000000 101.222717 33.627870 -19.645745 -78.777283 -15.651243 -19.645745 90.757296 1.910663 -23.115397 -18.578033 -6.878551 19.122720 97.909038 5.349219 23.115397 -5.050134 0.001084 2.128896
1274.166183 540.660596 42.096224 0.000000 0.000000 0.000000 0.000000 0.000000 0.000000 -126.898591 -6.272713 -19.960535 53.101409 4.910906 -19.960535 127.276662 -2.274819 -20.536413 8.808645 0.957502 21.869059 119.711272 1.091318 20.536413 -4.115393 -0.115117 1.840623
1268.557091 468.331075 60.684280 0.000000 0.000000 0.000000 0.000000 0.000000 0.000000 -124.112133 -14.622298 -19.021130 55.887867 19.323847 -19.021130 163.344780 -9.993283 -17.633558 38.476068 4.881541 24.270510 145.889074 -1.968394 17.633558 -1.929933 -0.099215 1.545085
1278.673096 454.375906 56.488804 0.000000 0.000000 0.000000 0.000000 0.000000 0.000000 -126.805061 -9.373896 -16.886559 53.194939 14.020341 -16.886559 -174.009950 -2.954437 -14.452610 27.419224 3.041375 26.289200 168.192977 0.144324 14.452610 -0.976267 -0.015804 1.243449
1285.008774 434.700390 57.669307 0.000000 0.000000 0.000000 0.000000 0.000000 0.000000 -132.005120 -0.272846 -13.690942 47.994880 -6.356569 -13.690942 -171.247775 0.537338 -11.043737 26.625253 -1.278304 27.893295 178.805957 0.451112 11.043737 0.023422 -0.053953 0.936907
1288.157730 426.987666 48.324620 0.000000 0.000000 0.000000 0.000000 0.000000 0.000000 -123.987926 7.609191 -9.635073 56.012074 -1.565840 -9.635073 -166.356219 -2.324172 -7.460697 35.716336 -2.422256 29.057495 -172.960762 -0.607266 7.460697 0.819533 0.074515 0.626666
1291.221657 420.425448 41.929672 0.000000 0.000000 0.000000 0.000000 0.000000 0.000000 -122.265643 -3.374358 -4.973798 57.734357 7.350856 -4.973798 -156.870161 -1.846585 -3.759997 38.220704 -2.070180 29.763441 -165.716368 1.625652 3.759997 1.405814 -0.175407 0.313953
