HIERARCHY
ROOT Hips
{
    OFFSET 0.0 0.0 0.0
    CHANNELS 6 Xposition Yposition Zposition Zrotation Xrotation Yrotation
    JOINT Spine
    {
        OFFSET 0.0 5.0 0.0
        CHANNELS 3 Zrotation Xrotation Yrotation
        JOINT Chest
        {
            OFFSET 0.0 5.0 0.0
            CHANNELS 3 Zrotation Xrotation Yrotation
            JOINT Neck
            {
                OFFSET 0.0 8.0 0.0
                CHANNELS 3 Zrotation Xrotation Yrotation
                JOINT Head
                {
                    OFFSET 0.0 5.0 0.0
                    CHANNELS 3 Zrotation Xrotation Yrotation
                    End Site
                    {
                        OFFSET 0.0 3.0 0.0
                    }
                }
            }
            JOINT LeftShoulder
            {
                OFFSET -5.0 0.0 0.0
                CHANNELS 3 Zrotation Xrotation Yrotation
                JOINT LeftArm
                {
                    OFFSET 0.0 -10.0 0.0
                    CHANNELS 3 Zrotation Xrotation Yrotation
                    JOINT LeftForeArm
                    {
                        OFFSET 0.0 -10.0 0.0
                        CHANNELS 3 Zrotation Xrotation Yrotation
                        End Site
                        {
                            OFFSET 0.0 -3.0 0.0
                        }
                    }
                }
            }
        }
    }
}

MOTION
Frames: 300
Frame Time: 0.033333

960.000000 445.000000 104.244430 0.000000 0.000000 0.000000 0.000000 0.000000 0.000000 23.025492 -25.703867 0.000000 180.000000 12.453632 0.000000 21.801409 0.711122 -0.000000 158.198591 14.480164 30.000000 15.945396 -4.599553 0.000000 18.000000 -0.103196 0.000000
1691.525230 140.756605 83.416302 0.000000 0.000000 0.000000 0.000000 0.000000 0.000000 -163.376529 -13.203487 4.973798 16.623471 1.355292 4.973798 -171.853121 -3.381796 3.759997 99.744051 3.557770 29.763441 -171.126653 -3.599209 -3.759997 0.673538 0.452107 0.313953
1636.048050 128.802021 116.250205 0.000000 0.000000 0.000000 0.000000 0.000000 0.000000 157.904128 26.407495 9.635073 -22.095872 -7.369787 9.635073 -171.936471 -3.820480 7.460697 -143.675701 -0.250704 29.057495 -173.500805 -4.288273 -7.460697 0.570999 0.414007 0.626666
1578.156967 80.474526 114.779342 0.000000 0.000000 0.000000 0.000000 0.000000 0.000000 -139.519796 -6.524374 13.690942 40.480204 -2.464811 13.690942 -174.507724 -3.930347 11.043737 119.111399 0.261168 27.893295 -173.607258 -4.351210 -11.043737 0.461920 0.423214 0.936907
960.418757 444.998421 117.863683 0.000000 0.000000 0.000000 0.000000 0.000000 0.000000 25.077893 4.681681 16.886559 180.000000 11.459693 16.886559 23.861935 1.872311 14.452610 156.138065 -3.479703 26.289200 17.903699 1.090481 -14.452610 18.000000 0.038839 1.243449
960.523360 444.997533 119.213104 0.000000 0.000000 0.000000 0.000000 0.000000 0.000000 25.638906 13.610167 19.021130 180.000000 -10.719387 19.021130 24.425035 -1.823909 17.633558 155.574965 -2.289372 24.270510 18.452907 4.585106 -17.633558 18.000000 0.306204 1.545085
960.627905 444.996447 129.834976 0.000000 0.000000 0.000000 0.000000 0.000000 0.000000 26.219073 4.793977 19.960535 180.000000 -12.087469 19.960535 25.006291 16.099562 20.536413 154.993709 9.588359 21.869059 19.024920 -7.123495 -20.536413 18.000000 0.164931 1.840623
1126.242828 420.359820 124.192817 0.000000 0.000000 0.000000 0.000000 0.000000 0.000000 31.410514 1.069006 19.645745 -148.589486 -3.446961 19.645745 32.280463 -0.429724 23.115397 -131.603972 1.509648 19.122720 45.585331 -1.943835 -23.115397 -13.449727 -0.128828 2.128896
1257.895088 650.549197 134.801993 0.000000 0.000000 0.000000 0.000000 0.000000 0.000000 25.073180 0.937683 18.096541 -154.926820 -0.742240 18.096541 46.260945 13.092375 25.329838 -154.651428 -5.482485 16.074804 27.339487 5.281632 -25.329838 -13.619892 0.287275 2.408768
960.941083 444.992008 120.376562 0.000000 0.000000 0.000000 0.000000 0.000000 0.000000 28.072001 2.250252 15.410265 180.000000 3.359506 15.410265 26.849221 -1.680917 27.144812 153.150779 6.787459 12.773379 20.864045 -0.969337 -27.144812 18.000000 -0.762673 2.679134
1163.815842 547.748709 131.290025 0.000000 0.000000 0.000000 0.000000 0.000000 0.000000 117.162728 -1.407888 11.755705 -62.837272 -6.819890 11.755705 102.363764 3.216845 28.531695 -47.376450 3.581901 9.270510 104.768601 -3.681049 -28.531695 -6.003489 -0.210813 2.938926
961.149372 444.988063 145.838224 0.000000 0.000000 0.000000 0.000000 0.000000 0.000000 29.395983 14.880937 7.362491 180.000000 -6.933510 7.362491 28.146217 2.802677 29.468618 151.853783 2.358757 5.621439 22.170006 -1.702220 -29.468618 18.000000 -0.158206 3.187120
1136.717377 590.104480 138.355800 0.000000 0.000000 0.000000 0.000000 0.000000 0.000000 115.752126 -5.419605 2.506665 -64.247874 8.724497 2.506665 73.638146 -1.625052 29.940802 -21.842452 2.914864 1.883716 75.369282 0.063438 -29.940802 -6.767207 0.890053 3.422736
1163.079758 634.077559 144.586654 0.000000 0.000000 0.000000 0.000000 0.000000 0.000000 132.174340 5.787929 -2.506665 -47.825660 -3.899984 -2.506665 94.255711 3.260038 29.940802 -149.364979 -7.394997 -1.883716 30.021641 5.294385 -29.940802 -5.096180 0.734464 3.644843
961.460830 444.980668 144.151388 0.000000 0.000000 0.000000 0.000000 0.000000 0.000000 31.497152 -1.413903 -7.362491 180.000000 -21.252473 -7.362491 30.152455 17.608829 29.468618 149.847545 -5.778166 -5.621439 24.175589 14.179238 -29.468618 18.000000 -1.224541 3.852566
1097.449951 565.089898 158.067380 0.000000 0.000000 0.000000 0.000000 0.000000 0.000000 -119.219568 -3.727400 -11.755705 60.780432 0.602021 -11.755705 -150.180642 -6.484254 28.531695 48.804955 4.915426 -9.270510 -149.874178 -6.801712 -28.531695 2.713854 0.572318 4.045085
1114.140244 528.302071 166.901512 0.000000 0.000000 0.000000 0.000000 0.000000 0.000000 -142.671523 -4.708403 -15.410265 37.328477 -0.385865 -15.410265 -177.395681 0.360804 27.144812 34.687329 3.105443 -12.773379 161.894167 -6.991054 -27.144812 -0.910956 0.342190 4.221640
1116.433640 479.728639 168.648327 0.000000 0.000000 0.000000 0.000000 0.000000 0.000000 -102.267481 15.615663 -18.096541 77.732519 -14.013613 -18.096541 -163.695626 3.621826 25.329838 38.575767 -0.044534 -16.074804 -176.001122 -2.620039 -25.329838 0.706594 -0.213814 4.381533
1135.931282 466.493965 131.447767 0.000000 0.000000 0.000000 0.000000 0.000000 0.000000 -112.868406 9.497775 -19.645745 67.131594 -11.315702 -19.645745 -159.517862 2.360761 23.115397 36.204678 -4.993498 -19.122720 -154.426613 -5.403571 -23.115397 2.428729 0.559262 4.524135
1141.618767 467.420679 141.487861 0.000000 0.000000 0.000000 0.000000 0.000000 0.000000 -123.086385 -0.479339 -19.960535 56.913615 -15.076336 -19.960535 -154.885724 4.285277 20.536413 36.481623 -4.675827 -21.869059 -153.965441 -5.387358 -20.536413 2.446728 0.521694 4.648882
1150.647926 469.370956 145.074032 0.000000 0.000000 0.000000 0.000000 0.000000 0.000000 -43.953779 6.505410 -19.021130 136.046221 -1.353054 -19.021130 -154.327268 -6.927514 17.633558 60.745168 2.986108 -24.270510 -153.350642 -6.726400 -17.633558 2.386216 0.616918 4.755283
1151.529922 496.420240 148.362342 0.000000 0.000000 0.000000 0.000000 0.000000 0.000000 -116.362129 7.697063 -16.886559 63.637871 -9.137306 -16.886559 -149.081043 5.881609 14.452610 35.941860 -3.332261 -26.289200 -156.847177 -0.363755 -14.452610 2.056513 0.170625 4.842916
1148.402367 515.713574 141.597205 0.000000 0.000000 0.000000 0.000000 0.000000 0.000000 -118.252650 5.843563 -13.690942 61.747350 -0.729475 -13.690942 -138.082896 -3.972379 11.043737 -156.312677 -7.366377 -27.893295 21.649626 9.961836 -11.043737 2.962417 -0.118526 4.911436
1175.363617 533.368646 131.419357 0.000000 0.000000 0.000000 0.000000 0.000000 0.000000 -95.476638 -1.032042 -9.635073 84.523362 15.236480 -9.635073 -113.907461 -3.603649 7.460697 -155.995907 -5.890343 -29.057495 12.512064 9.327583 -7.460697 -16.748794 -0.932758 4.960574
1199.533310 485.991104 134.780748 0.000000 0.000000 0.000000 0.000000 0.000000 0.000000 -100.003195 -0.918938 -4.973798 79.996805 -9.465013 -4.973798 -86.083188 5.108095 3.759997 38.843754 -2.949148 -29.763441 -106.539452 2.109943 -3.759997 6.197806 -0.067891 4.990134
962.588190 444.938442 127.280498 0.000000 0.000000 0.000000 0.000000 0.000000 0.000000 39.579754 37.418769 -0.000000 180.000000 -26.630928 -0.000000 36.680773 3.221360 0.000000 143.319227 -9.579670 -30.000000 29.388385 -5.771834 -0.000000 18.000000 0.411221 5.000000
1142.094727 445.716287 142.849676 0.000000 0.000000 0.000000 0.000000 0.000000 0.000000 -140.228454 57.135058 4.973798 39.771546 -35.703672 4.973798 -156.118008 -5.682919 -3.759997 3.479189 -8.237182 -29.763441 -158.005660 -5.576840 3.759997 2.150019 0.529621 4.990134
1164.005928 424.847746 109.606655 0.000000 0.000000 0.000000 0.000000 0.000000 0.000000 -84.241076 -15.580192 9.635073 95.758924 -9.583915 9.635073 -156.181584 -5.254859 -7.460697 166.928360 -3.430736 -29.057495 -154.947270 -5.537458 7.460697 2.644196 0.683552 4.960574
1124.208755 418.286655 112.735313 0.000000 0.000000 0.000000 0.000000 0.000000 0.000000 -117.427077 -16.061083 13.690942 62.572923 14.756780 13.690942 -155.943063 -6.033991 -11.043737 14.023837 -0.831495 -27.893295 -157.382674 -5.441045 11.043737 2.188130 0.524449 4.911436
962.990408 444.917226 108.942787 0.000000 0.000000 0.000000 0.000000 0.000000 0.000000 42.110883 15.040940 16.886559 180.000000 -33.268136 16.886559 37.946959 15.175833 -14.452610 142.053041 -6.449035 -26.289200 29.293612 -6.688094 14.452610 18.000000 0.101534 4.842916
963.090170 444.911436 107.030969 0.000000 0.000000 0.000000 0.000000 0.000000 0.000000 42.659200 -24.033174 19.021130 180.000000 -20.156703 19.021130 38.119107 25.750149 -17.633558 141.880893 13.926575 -24.270510 29.068887 -0.667988 17.633558 18.000000 0.764673 4.755283
1186.646461 396.272757 98.567155 0.000000 0.000000 0.000000 0.000000 0.000000 0.000000 -72.847419 8.204557 19.960535 107.152581 20.699694 19.960535 -156.703603 -5.022825 -20.536413 178.447294 10.061804 -21.869059 -157.212393 -5.250697 20.536413 1.964058 0.442360 4.648882
1313.051605 426.636125 86.397734 0.000000 0.000000 0.000000 0.000000 0.000000 0.000000 90.994869 3.478224 19.645745 -89.005131 10.616048 19.645745 -160.515303 -4.538725 -23.115397 -153.248861 -1.933140 -19.122720 -159.640525 -4.471434 23.115397 0.000000 0.000000 0.000000
1347.999344 420.772226 93.494005 0.000000 0.000000 0.000000 0.000000 0.000000 0.000000 90.154351 1.967506 18.096541 -89.845649 8.816901 18.096541 -162.053401 -4.408003 -25.329838 -136.198880 4.500037 -16.074804 -160.991694 -4.923361 25.329838 0.000000 0.000000 0.000000
1344.315948 421.031681 82.834546 0.000000 0.000000 0.000000 0.000000 0.000000 0.000000 69.757587 4.107180 15.410265 -110.242413 -8.686036 15.410265 25.616746 -3.840050 -27.144812 -157.821005 -4.018347 -12.773379 17.214985 2.811977 27.144812 -16.704706 0.130973 4.221640
1350.307617 440.309436 100.095750 0.000000 0.000000 0.000000 0.000000 0.000000 0.000000 71.124018 8.051994 11.755705 -108.875982 4.082893 11.755705 42.739987 -8.369212 -28.531695 -142.315466 1.629373 -9.270510 16.600926 -0.791990 28.531695 -16.660102 -0.241796 4.045085
1357.685051 430.688889 87.932692 0.000000 0.000000 0.000000 0.000000 0.000000 0.000000 77.656077 4.643093 7.362491 -102.343923 3.687881 7.362491 39.407151 -3.783772 -29.468618 -136.343173 3.020680 -5.621439 22.144452 -2.419768 29.468618 -16.305135 -0.008594 3.852566
1369.482193 445.909406 75.660549 0.000000 0.000000 0.000000 0.000000 0.000000 0.000000 88.051188 -5.325564 2.506665 -91.948812 8.851982 2.506665 -161.283973 -3.345685 -29.940802 -119.799169 2.393353 -1.883716 -164.575400 -3.574169 29.940802 1.401013 0.312241 3.644843
963.875156 444.858159 85.298546 0.000000 0.000000 0.000000 0.000000 0.000000 0.000000 45.304844 -22.980810 -2.506665 180.000000 -7.687558 -2.506665 37.252439 12.036716 -29.940802 142.747561 13.020087 1.883716 25.146244 -0.730663 29.940802 18.000000 0.611983 3.422736
963.971479 444.850633 54.049639 0.000000 0.000000 0.000000 0.000000 0.000000 0.000000 45.383640 -40.918905 -7.362491 180.000000 28.472304 -7.362491 36.882310 -14.531797 -29.468618 143.117690 17.582161 5.621439 24.499789 0.988640 29.468618 18.000000 -0.927185 3.187120
1336.629524 469.010178 68.165382 0.000000 0.000000 0.000000 0.000000 0.000000 0.000000 -72.390177 4.937258 -11.755705 107.609823 -16.851030 -11.755705 -158.649984 -2.069899 -28.531695 2.583425 -8.064056 9.270510 -39.658551 9.224302 28.531695 10.837181 0.218994 2.938926
1311.966934 518.219100 53.664697 0.000000 0.000000 0.000000 0.000000 0.000000 0.000000 -63.565072 44.644055 -15.410265 116.434928 -42.416745 -15.410265 -14.840750 7.228313 -27.144812 -158.549348 -2.766679 12.773379 17.488774 2.334972 27.144812 7.174982 -2.709563 2.679134
964.257793 444.826908 59.168785 0.000000 0.000000 0.000000 0.000000 0.000000 0.000000 45.262206 10.847697 -18.096541 180.000000 -15.626397 -18.096541 35.497192 14.164793 -25.329838 144.502808 2.148991 16.074804 22.522929 8.926726 25.329838 18.000000 -1.019714 2.408768
1275.921364 516.836239 45.903649 0.000000 0.000000 0.000000 0.000000 0.000000 0.000000 85.186295 12.030665 -19.645745 -94.813705 -1.248375 -19.645745 52.470689 -1.313087 -23.115397 -44.513683 -1.761401 19.122720 50.867598 -2.570607 23.115397 -8.717188 0.468316 2.128896
1263.254128 546.875424 39.511947 0.000000 0.000000 0.000000 0.000000 0.000000 0.000000 34.848242 1.608872 -19.960535 -145.151758 -5.942058 -19.960535 42.487561 26.414228 -20.536413 -157.415675 -2.375141 21.869059 22.420880 2.823276 20.536413 -15.757912 -0.282328 1.840623
1258.788185 528.263061 46.654821 0.000000 0.000000 0.000000 0.000000 0.000000 0.000000 118.326865 -6.365484 -19.021130 -61.673135 -21.672232 -19.021130 143.214759 -2.066537 -17.633558 -156.228306 -2.392577 24.270510 28.173554 2.704981 17.633558 -15.182645 -0.270498 1.545085
1231.492081 471.383836 62.761857 0.000000 0.000000 0.000000 0.000000 0.000000 0.000000 -115.049381 -36.748363 -16.886559 64.950619 -19.948479 -16.886559 172.843704 9.045368 -14.452610 -157.842300 -2.012385 26.289200 32.851042 2.484783 14.452610 -14.714896 -0.248478 1.243449
1223.928795 435.993515 70.926047 0.000000 0.000000 0.000000 0.000000 0.000000 0.000000 -115.322532 -5.891335 -13.690942 64.677468 7.007282 -13.690942 -168.597862 1.693144 -11.043737 -158.853816 -1.900804 27.893295 31.099266 3.491394 11.043737 -14.890073 -0.349139 0.936907
1223.669701 418.195664 56.503890 0.000000 0.000000 0.000000 0.000000 0.000000 0.000000 -102.084053 -25.953336 -9.635073 77.915947 25.317771 -9.635073 -171.103858 -1.105182 -7.460697 162.056334 4.612989 29.057495 -153.594437 -2.609562 7.460697 2.968481 0.284585 0.626666
1216.486244 414.503002 48.640400 0.000000 0.000000 0.000000 0.000000 0.000000 0.000000 69.261091 21.519384 -4.973798 -110.738909 -3.010252 -4.973798 -158.083722 -2.381232 -3.759997 -173.244581 3.376304 29.763441 -154.635509 -3.376205 3.759997 2.928763 0.301869 0.313953
1212.090225 434.550980 54.889205 0.000000 0.000000 0.000000 0.000000 0.000000 0.000000 -112.403932 25.282786 0.000000 67.596068 2.335411 0.000000 -157.060799 -2.649824 -0.000000 173.400765 5.962144 30.000000 -154.473580 -3.749462 0.000000 2.734633 0.300995 0.000000
1214.024734 450.340490 59.646931 0.000000 0.000000 0.000000 0.000000 0.000000 0.000000 -110.634751 0.121514 4.973798 69.365249 8.755068 4.973798 -137.583343 0.205068 3.759997 -158.589698 -2.423398 29.763441 20.879446 3.502218 -3.759997 -15.912055 -0.350222 0.313953
1204.271393 440.192921 56.836833 0.000000 0.000000 0.000000 0.000000 0.000000 0.000000 -99.498286 3.567898 9.635073 80.501714 17.332259 9.635073 -156.696469 -2.879988 7.460697 -178.487725 -5.309698 29.057495 -157.318323 -2.157930 -7.460697 2.108583 0.267898 0.626666
965.269558 444.725315 68.159585 0.000000 0.000000 0.000000 0.000000 0.000000 0.000000 40.845461 27.585281 13.690942 180.000000 -10.589285 13.690942 28.615377 -0.300159 11.043737 151.384623 -7.946247 27.893295 16.305092 6.731055 -11.043737 18.000000 -0.476519 0.936907
1182.456551 475.103824 52.918624 0.000000 0.000000 0.000000 0.000000 0.000000 0.000000 -168.146016 -69.898545 16.886559 11.853984 83.443018 16.886559 -63.802645 -11.997977 14.452610 -61.114510 4.814711 26.289200 -47.869281 0.893076 -14.452610 -13.834956 -8.405324 1.243449
965.446390 444.704404 45.198153 0.000000 0.000000 0.000000 0.000000 0.000000 0.000000 39.578146 -36.561342 19.021130 180.000000 8.498931 19.021130 27.338029 -3.952595 17.633558 152.661971 8.681773 24.270510 15.463180 -4.628360 -17.633558 18.000000 0.187394 1.545085
965.533915 444.693669 63.724488 0.000000 0.000000 0.000000 0.000000 0.000000 0.000000 38.916706 34.071172 19.960535 180.000000 -11.639603 19.960535 26.716768 -1.668387 20.536413 153.283232 -11.931880 21.869059 15.076605 5.347617 -20.536413 18.000000 -0.733147 1.840623
965.620834 444.682749 87.180818 0.000000 0.000000 0.000000 0.000000 0.000000 0.000000 38.241653 6.945231 19.645745 180.000000 -7.430574 19.645745 26.109467 -0.412152 23.115397 153.890533 -6.045050 19.122720 14.712258 4.795049 -23.115397 18.000000 -0.762088 2.128896
965.707136 444.671645 73.389023 0.000000 0.000000 0.000000 0.000000 0.000000 0.000000 37.556504 -0.113095 18.096541 180.000000 -12.112883 18.096541 25.517536 11.684603 25.329838 154.482464 3.801269 16.074804 14.369537 0.351027 -25.329838 18.000000 -0.648951 2.408768
965.792812 444.660356 73.874696 0.000000 0.000000 0.000000 0.000000 0.000000 0.000000 36.864608 20.543088 15.410265 180.000000 0.516195 15.410265 24.942131 9.024930 27.144812 155.057869 0.187118 12.773379 14.047797 -6.472592 -27.144812 18.000000 0.563125 2.679134
965.877853 444.648882 79.669818 0.000000 0.000000 0.000000 0.000000 0.000000 0.000000 36.169118 9.110252 11.755705 180.000000 -9.700433 11.755705 24.384173 1.558273 28.531695 155.615827 4.685869 9.270510 13.746367 6.923445 -28.531695 18.000000 -0.283204 2.938926
965.962249 444.637226 99.768522 0.000000 0.000000 0.000000 0.000000 0.000000 0.000000 35.472980 -24.442710 7.362491 180.000000 5.823364 7.362491 23.844373 2.488525 29.468618 156.155627 4.939262 5.621439 13.464570 2.660463 -29.468618 18.000000 -0.092070 3.187120
966.045991 444.625386 92.179948 0.000000 0.000000 0.000000 0.000000 0.000000 0.000000 34.778913 27.906023 2.506665 180.000000 2.004415 2.506665 23.323250 -2.333154 29.940802 156.676750 -2.713176 1.883716 13.201728 -4.881133 -29.940802 18.000000 0.238057 3.422736
966.129071 444.613364 97.391940 0.000000 0.000000 0.000000 0.000000 0.000000 0.000000 34.089406 38.252749 -2.506665 180.000000 6.209912 -2.506665 22.821158 -4.633189 29.940802 157.178842 -5.392574 -1.883716 12.957175 -1.562666 -29.940802 18.000000 0.346449 3.644843
966.211478 444.601159 111.765582 0.000000 0.000000 0.000000 0.000000 0.000000 0.000000 33.406712 19.810902 -7.362491 180.000000 -0.063589 -7.362491 22.338307 -14.430678 29.468618 157.661693 -10.370187 -5.621439 12.730264 0.535052 -29.468618 18.000000 0.522902 3.852566
1171.486244 534.946783 95.597788 0.000000 0.000000 0.000000 0.000000 0.000000 0.000000 70.594720 9.079112 -11.755705 -109.405280 -7.702059 -11.755705 49.953444 13.420894 28.531695 -151.467583 -5.219739 -9.270510 0.000000 0.000000 0.000000 0.000000 0.000000 0.000000
966.374240 444.576206 123.671353 0.000000 0.000000 0.000000 0.000000 0.000000 0.000000 32.069603 32.485251 -15.410265 180.000000 -16.296268 -15.410265 21.430544 10.096413 27.144812 158.569456 -4.128275 -12.773379 12.326901 -2.957263 -27.144812 18.000000 0.296480 4.221640
1172.156410 555.047708 124.961152 0.000000 0.000000 0.000000 0.000000 0.000000 0.000000 -121.065102 25.961612 -18.096541 58.934898 -9.803428 -18.096541 -151.641456 -5.990872 25.329838 -177.360623 -3.848640 -16.074804 -149.076048 -6.738038 -25.329838 0.000000 0.000000 0.000000
1161.826630 552.360713 119.093233 0.000000 0.000000 0.000000 0.000000 0.000000 0.000000 69.958407 5.814645 -19.645745 -110.041593 -17.171169 -19.645745 -152.437496 -5.898657 23.115397 -158.790607 -3.754276 -19.122720 -150.591725 -6.513662 -23.115397 3.219062 0.765910 4.524135
1165.827255 569.832902 122.577839 0.000000 0.000000 0.000000 0.000000 0.000000 0.000000 25.594208 -29.103334 -19.960535 -154.405792 26.265444 -19.960535 11.723883 0.760225 20.536413 -161.543160 5.644294 -21.869059 7.769582 -0.876430 -20.536413 -17.248199 0.143717 4.648882
1165.555573 565.067046 126.975324 0.000000 0.000000 0.000000 0.000000 0.000000 0.000000 43.355707 18.603219 -19.021130 -136.644293 -16.267332 -19.021130 15.984329 3.358472 17.633558 -140.773833 -0.752044 -24.270510 13.679449 -1.286582 -17.633558 -16.392157 -0.095145 4.755283
1290.255775 608.533316 131.920175 0.000000 0.000000 0.000000 0.000000 0.000000 0.000000 -153.952071 -4.403615 -16.886559 26.047929 -8.811687 -16.886559 -152.683807 -5.086602 14.452610 4.794196 4.383322 -26.289200 -154.287190 -5.569971 -14.452610 2.418080 0.453320 4.842916
1180.398903 551.817470 164.563310 0.000000 0.000000 0.000000 0.000000 0.000000 0.000000 51.640104 0.134414 -13.690942 -128.359896 -10.552573 -13.690942 14.419400 -4.789813 11.043737 -33.521359 -6.720871 -27.893295 -34.277510 4.275950 -11.043737 5.235387 -0.841259 4.911436
1162.708626 619.419501 149.211770 0.000000 0.000000 0.000000 0.000000 0.000000 0.000000 -88.968325 -5.404333 -9.635073 91.031675 24.509482 -9.635073 -52.690088 -2.937783 7.460697 25.015222 -4.820251 -29.057495 -72.561734 6.173167 -7.460697 8.557489 -0.226208 4.960574
1110.899391 602.919216 146.680288 0.000000 0.000000 0.000000 0.000000 0.000000 0.000000 -86.972237 11.125519 -4.973798 93.027763 -7.139929 -4.973798 -39.551144 0.017164 3.759997 34.838085 -3.562953 -29.763441 -44.185810 -1.961523 -3.759997 10.000609 0.792594 4.990134
1150.187302 553.686991 158.264170 0.000000 0.000000 0.000000 0.000000 0.000000 0.000000 -116.065142 -10.156615 -0.000000 63.934858 -7.534560 -0.000000 -151.059314 -6.171334 0.000000 -0.492058 0.001887 -30.000000 -14.044098 -7.534788 -0.000000 1.929760 0.651292 5.000000
967.144727 444.440682 155.439794 0.000000 0.000000 0.000000 0.000000 0.000000 0.000000 26.270296 31.419989 4.973798 180.000000 -5.915790 4.973798 17.996647 -0.366489 -3.759997 162.003353 -2.971360 -29.763441 11.189167 -2.045778 3.759997 18.000000 0.405211 4.990134
1213.452644 620.002785 147.627768 0.000000 0.000000 0.000000 0.000000 0.000000 0.000000 140.390379 6.686538 9.635073 -39.609621 39.679872 9.635073 77.724607 -11.099859 -7.460697 -153.982965 -6.504737 -29.057495 24.142749 5.519268 7.460697 -0.833727 -0.921804 4.960574
1124.373779 618.464527 151.219306 0.000000 0.000000 0.000000 0.000000 0.000000 0.000000 99.329635 33.767598 13.690942 -80.670365 20.071078 13.690942 85.960927 -11.038292 -11.043737 -150.875293 -7.682679 -27.893295 31.644098 5.566937 11.043737 -14.835590 -0.556694 4.911436
967.360971 444.396582 148.961439 0.000000 0.000000 0.000000 0.000000 0.000000 0.000000 24.874716 -35.216092 16.886559 180.000000 -9.388132 16.886559 17.291102 6.104731 -14.452610 162.708898 -2.919011 -26.289200 11.098846 9.772080 14.452610 18.000000 -0.730377 4.842916
1107.875175 542.453964 145.327399 0.000000 0.000000 0.000000 0.000000 0.000000 0.000000 -128.741314 -5.946201 19.021130 51.258686 5.237534 19.021130 -177.225595 -4.547436 -17.633558 19.954750 -3.602971 -24.270510 162.677362 0.954808 17.633558 -1.443098 0.006920 4.755283
1119.652290 522.766346 146.432043 0.000000 0.000000 0.000000 0.000000 0.000000 0.000000 -99.017754 26.994954 19.960535 80.982246 -0.479780 19.960535 -150.289603 -7.700240 -20.536413 -152.613833 -7.965736 -21.869059 0.000000 0.000000 0.000000 0.000000 0.000000 0.000000
1132.908783 538.229613 141.621086 0.000000 0.000000 0.000000 0.000000 0.000000 0.000000 -127.874185 -7.204069 19.645745 52.125815 0.147107 19.645745 -165.450188 -0.967355 -23.115397 -152.521515 -7.184474 -19.122720 40.606225 10.103903 23.115397 -13.939378 -1.010390 4.524135
1146.969337 541.828065 148.333435 0.000000 0.000000 0.000000 0.000000 0.000000 0.000000 -113.631604 0.956847 18.096541 66.368396 -0.590269 18.096541 -159.067475 5.592833 -25.329838 113.981862 0.454478 -16.074804 -145.449815 -7.099142 25.329838 0.000000 0.000000 0.000000
1165.252304 561.329677 130.411061 0.000000 0.000000 0.000000 0.000000 0.000000 0.000000 -112.861399 -19.896929 15.410265 67.138601 7.280570 15.410265 -159.396543 5.447709 -27.144812 -151.967552 -5.982292 -12.773379 38.422588 8.931436 27.144812 -14.157741 -0.893144 4.221640
1174.726181 592.839689 125.316194 0.000000 0.000000 0.000000 0.000000 0.000000 0.000000 -110.369899 -5.802768 11.755705 69.630101 10.227863 11.755705 -148.108768 -1.402502 -28.531695 -151.515612 -6.166285 -9.270510 34.277732 8.162324 28.531695 -14.572227 -0.816232 4.045085
1167.352524 605.194867 145.925131 0.000000 0.000000 0.000000 0.000000 0.000000 0.000000 -113.828445 -10.661928 7.362491 66.171555 -13.196942 7.362491 -131.688453 6.312257 -29.468618 -151.045756 -6.774883 -5.621439 27.200835 8.092274 29.468618 -15.279916 -0.809227 3.852566
1139.678879 602.981014 130.648283 0.000000 0.000000 0.000000 0.000000 0.000000 0.000000 -97.599684 -9.002020 2.506665 82.400316 6.404621 2.506665 -113.965806 -1.512081 -29.940802 -121.058781 1.298993 -1.883716 -118.492407 0.908875 29.940802 10.137620 -5.791792 3.644843
1165.830002 580.020189 128.572651 0.000000 0.000000 0.000000 0.000000 0.000000 0.000000 -28.085052 3.783425 -2.506665 151.914948 -1.460205 -2.506665 -150.589103 -5.918591 -29.940802 -172.678414 -3.773567 1.883716 -149.717924 -6.035531 29.940802 0.000000 0.000000 0.000000
1184.501953 619.872494 139.616217 0.000000 0.000000 0.000000 0.000000 0.000000 0.000000 -113.790307 40.360341 -7.362491 66.209693 -42.948148 -7.362491 -59.272274 7.038186 -29.468618 29.476823 -0.295206 5.621439 -88.148483 -1.460615 29.468618 7.414604 -0.119086 3.187120
968.090170 444.221640 128.928115 0.000000 0.000000 0.000000 0.000000 0.000000 0.000000 21.092887 -3.003940 -11.755705 180.000000 13.337849 -11.755705 15.757771 -7.932988 -28.531695 164.242229 -5.093911 9.270510 11.678908 3.908247 28.531695 18.000000 -0.229699 2.938926
968.151278 444.204723 110.645468 0.000000 0.000000 0.000000 0.000000 0.000000 0.000000 20.844337 6.232811 -15.410265 180.000000 2.409933 -15.410265 15.691895 -0.525516 -27.144812 164.308105 5.093887 12.773379 11.804629 -8.702920 27.144812 18.000000 0.295418 2.679134
968.211492 444.187640 116.774513 0.000000 0.000000 0.000000 0.000000 0.000000 0.000000 20.610265 14.511581 -18.096541 180.000000 -3.135989 -18.096541 15.637361 1.308529 -25.329838 164.362639 -3.991484 16.074804 11.943263 4.087702 25.329838 18.000000 -0.280099 2.408768
968.270806 444.170392 98.607118 0.000000 0.000000 0.000000 0.000000 0.000000 0.000000 20.390366 -1.217643 -19.645745 180.000000 -10.669580 -19.645745 15.594026 5.849714 -23.115397 164.405974 5.194562 19.122720 12.095062 -10.507979 23.115397 18.000000 0.247939 2.128896
968.329212 444.152979 107.982490 0.000000 0.000000 0.000000 0.000000 0.000000 0.000000 20.184343 1.885635 -19.960535 180.000000 -10.442343 -19.960535 15.561766 4.453252 -20.536413 164.438234 -5.571522 21.869059 12.260289 4.099041 20.536413 18.000000 -0.174559 1.840623
968.386706 444.135403 104.214562 0.000000 0.000000 0.000000 0.000000 0.000000 0.000000 19.991916 -5.697236 -19.021130 180.000000 3.061706 -19.021130 15.540476 2.584414 -17.633558 164.459524 0.090638 24.270510 12.439222 7.982962 17.633558 18.000000 -0.764800 1.545085
968.443279 444.117663 75.779282 0.000000 0.000000 0.000000 0.000000 0.000000 0.000000 19.812814 -2.144425 -16.886559 180.000000 -7.215510 -16.886559 15.530069 -2.067453 -14.452610 164.469931 1.515518 26.289200 12.632146 4.390797 14.452610 18.000000 -0.339026 1.243449
968.498927 444.099761 91.008362 0.000000 0.000000 0.000000 0.000000 0.000000 0.000000 19.646785 20.706053 -13.690942 180.000000 1.377212 -13.690942 15.530474 6.092389 -11.043737 164.469526 -1.174253 27.893295 12.839349 -0.989595 11.043737 18.000000 -0.416733 0.936907
968.553643 444.081696 86.833111 0.000000 0.000000 0.000000 0.000000 0.000000 0.000000 19.493591 -11.151040 -9.635073 180.000000 8.232657 -9.635073 15.541640 -7.322274 -7.460697 164.458360 -3.779916 29.057495 13.061119 0.636344 7.460697 18.000000 -0.343893 0.626666
1051.772690 653.004448 82.265674 0.000000 0.000000 0.000000 0.000000 0.000000 0.000000 -79.007834 -9.875322 -4.973798 100.992166 -3.254649 -4.973798 -126.715299 2.473026 -3.759997 -149.991181 -4.080041 29.763441 31.772279 4.192342 3.759997 -14.822772 -0.419234 0.313953
1061.669197 624.716241 62.090208 0.000000 0.000000 0.000000 0.000000 0.000000 0.000000 -94.718359 -15.252690 0.000000 85.281641 19.074978 0.000000 -144.150484 -7.156874 -0.000000 60.155085 16.229081 30.000000 -152.711462 0.136342 0.000000 1.815393 -0.305188 0.000000
1072.053337 571.032879 50.750298 0.000000 0.000000 0.000000 0.000000 0.000000 0.000000 71.424080 4.685572 4.973798 -108.575920 -3.309949 4.973798 -149.042361 -3.592229 3.759997 -149.913636 -0.406052 29.763441 -145.792107 -4.424325 -3.759997 3.947623 0.420274 0.313953
1070.057373 572.884376 75.833561 0.000000 0.000000 0.000000 0.000000 0.000000 0.000000 -80.850201 38.503233 9.635073 99.149799 35.584154 9.635073 -147.567525 -3.647192 7.460697 -164.443014 -3.578314 29.057495 -145.447997 -2.812540 -7.460697 4.032371 0.468317 0.626666
968.813035 443.988972 64.634560 0.000000 0.000000 0.000000 0.000000 0.000000 0.000000 18.912944 -3.471019 13.690942 180.000000 -7.941612 13.690942 15.758200 0.420751 11.043737 164.241800 -5.055248 27.893295 14.397395 0.850862 -11.043737 18.000000 0.147421 0.936907
968.862036 443.969952 50.633921 0.000000 0.000000 0.000000 0.000000 0.000000 0.000000 18.832684 -12.684773 16.886559 180.000000 11.306938 16.886559 15.833735 -0.032654 14.452610 164.166265 -1.322583 26.289200 14.711463 9.853216 -14.452610 18.000000 -0.317584 1.243449
968.910065 443.950775 57.805531 0.000000 0.000000 0.000000 0.000000 0.000000 0.000000 18.764066 -9.727552 19.021130 180.000000 0.255592 19.021130 15.920102 4.614639 17.633558 164.079898 8.326021 24.270510 15.041323 3.060016 -17.633558 18.000000 -0.152823 1.545085
968.957118 443.931442 50.304556 0.000000 0.000000 0.000000 0.000000 0.000000 0.000000 18.706990 13.762258 19.960535 180.000000 -9.114944 19.960535 16.017366 -6.490362 20.536413 163.982634 -2.143059 21.869059 15.386894 -2.197472 -20.536413 18.000000 -0.482868 1.840623
969.003188 443.911954 37.659448 0.000000 0.000000 0.000000 0.000000 0.000000 0.000000 18.661377 -13.699821 19.645745 180.000000 9.315885 19.645745 16.125602 -10.153028 23.115397 163.874398 -2.287074 19.122720 15.747980 3.344985 -23.115397 18.000000 0.413674 2.128896
969.048271 443.892312 69.149483 0.000000 0.000000 0.000000 0.000000 0.000000 0.000000 18.627165 17.620687 18.096541 180.000000 -12.590420 18.096541 16.244896 8.260598 25.329838 163.755104 -10.494707 16.074804 16.124252 -5.786914 -25.329838 18.000000 0.386082 2.408768
969.092361 443.872515 50.999999 0.000000 0.000000 0.000000 0.000000 0.000000 0.000000 18.604312 -16.765197 15.410265 180.000000 3.436839 15.410265 16.375340 -0.957267 27.144812 163.624660 2.710463 12.773379 16.515224 3.510255 -27.144812 18.000000 -1.535830 2.679134
1055.186234 577.357593 41.656098 0.000000 0.000000 0.000000 0.000000 0.000000 0.000000 85.510211 4.385804 11.755705 -94.489789 3.597035 11.755705 37.103410 0.846148 28.531695 -148.111343 -2.839222 9.270510 24.294182 2.198503 -28.531695 -8.601915 -0.764382 2.938926
1122.856522 566.714029 57.603451 0.000000 0.000000 0.000000 0.000000 0.000000 0.000000 96.216240 -1.775864 7.362491 -83.783760 -1.921085 7.362491 46.189625 3.621657 29.468618 -149.396962 -2.352070 5.621439 24.670091 1.586274 -29.468618 -7.107716 0.424989 3.187120
969.218632 443.812213 58.330027 0.000000 0.000000 0.000000 0.000000 0.000000 0.000000 18.603763 26.268397 2.506665 180.000000 -7.366710 2.506665 16.834613 0.150253 29.940802 163.165387 -5.555350 1.883716 17.768624 0.245806 -29.940802 18.000000 0.031476 3.422736
1112.757797 605.798106 53.156882 0.000000 0.000000 0.000000 0.000000 0.000000 0.000000 110.914625 -19.048558 -2.506665 -69.085375 2.382732 -2.506665 67.769469 -4.431922 29.940802 -149.822316 -2.038502 -1.883716 29.049901 2.219677 -29.940802 -3.625079 -0.099500 3.644843
1086.733246 592.557156 58.930295 0.000000 0.000000 0.000000 0.000000 0.000000 0.000000 -80.132323 71.915787 -7.362491 99.867677 -31.926526 -7.362491 36.201564 -5.229921 29.468618 -13.679556 -1.846804 -5.621439 78.049842 -3.035351 -29.468618 -5.127460 0.008873 3.852566
1081.109390 570.394492 54.826958 0.000000 0.000000 0.000000 0.000000 0.000000 0.000000 -175.864613 8.981802 -11.755705 4.135387 -20.289551 -11.755705 134.713876 0.905602 28.531695 -10.005873 -4.180140 -9.270510 135.737755 0.224148 -28.531695 -3.389365 0.075900 4.045085
1089.776802 536.594539 55.482298 0.000000 0.000000 0.000000 0.000000 0.000000 0.000000 -139.033903 20.540414 -15.410265 40.966097 -28.178611 -15.410265 161.695972 4.485615 27.144812 3.114398 -2.722116 -12.773379 148.805610 0.069586 -27.144812 -2.611636 -0.173457 4.221640
1114.282036 523.965647 59.096737 0.000000 0.000000 0.000000 0.000000 0.000000 0.000000 -156.073983 7.575674 -18.096541 23.926017 -7.591446 -18.096541 174.825807 2.348849 25.329838 5.093343 -3.424426 -16.074804 161.266817 1.599784 -25.329838 -1.814366 -0.013040 4.381533
1122.145157 503.425248 67.873138 0.000000 0.000000 0.000000 0.000000 0.000000 0.000000 -144.538174 -4.841360 -19.645745 35.461826 1.338544 -19.645745 174.215003 1.143301 23.115397 -151.750905 -2.934962 -19.122720 43.887064 3.392007 -23.115397 -13.611294 -0.339201 4.524135
1134.158249 484.688419 89.355287 0.000000 0.000000 0.000000 0.000000 0.000000 0.000000 -142.311443 7.952437 -19.960535 37.688557 -7.220165 -19.960535 -174.407776 -1.603324 20.536413 14.121014 -2.612902 -21.869059 176.737053 1.298516 -20.536413 -0.386439 0.028994 4.648882
1156.756668 500.025387 81.228635 0.000000 0.000000 0.000000 0.000000 0.000000 0.000000 -140.140767 17.494665 -19.021130 39.859233 -13.584275 -19.021130 -176.866589 3.808489 17.633558 -153.177991 -3.621681 -24.270510 40.555680 4.518438 -17.633558 -13.944432 -0.451844 4.755283
1163.818588 490.292573 65.537036 0.000000 0.000000 0.000000 0.000000 0.000000 0.000000 -126.918075 5.410231 -16.886559 53.081925 9.823468 -16.886559 -163.374411 -1.818142 14.452610 -153.952175 -3.522627 -26.289200 36.914642 5.465844 -14.452610 0.798233 -0.056817 4.842916
1176.523705 490.346003 98.098496 0.000000 0.000000 0.000000 0.000000 0.000000 0.000000 -130.072590 5.499015 -13.690942 49.927410 -7.238900 -13.690942 -150.224616 3.868089 11.043737 24.749952 -3.223011 -27.893295 -162.219632 0.107942 -11.043737 1.550269 0.157626 4.911436
1165.045052 489.521159 85.109196 0.000000 0.000000 0.000000 0.000000 0.000000 0.000000 -134.421293 1.875733 -9.635073 45.578707 -3.049559 -9.635073 -138.114962 3.672263 7.460697 20.347125 -0.331386 -29.057495 -149.675125 -0.652637 -7.460697 1.919618 0.108571 4.960574
1186.003189 485.341580 98.194361 0.000000 0.000000 0.000000 0.000000 0.000000 0.000000 151.263424 -83.451710 -4.973798 -28.736576 82.206145 -4.973798 -155.571724 -4.013899 3.759997 -114.944239 23.311112 -29.763441 -157.446860 -4.598819 -3.759997 2.096391 0.387562 4.990134
1190.285912 497.609435 84.341319 0.000000 0.000000 0.000000 0.000000 0.000000 0.000000 -104.331435 20.143682 -0.000000 75.668565 -8.464443 -0.000000 -153.934692 -4.195974 0.000000 -67.465008 -1.412684 -30.000000 -71.629168 4.191844 -0.000000 -13.965204 -7.634411 5.000000
846.875610 502.341399 103.484228 0.000000 0.000000 0.000000 0.000000 0.000000 0.000000 -153.358185 2.411744 4.973798 26.641815 -1.435434 4.973798 -147.628169 -5.560935 -3.759997 -147.401289 -5.835244 -29.763441 0.000000 0.000000 0.000000 0.000000 0.000000 0.000000
969.711343 443.490827 102.196031 0.000000 0.000000 0.000000 0.000000 0.000000 0.000000 20.204512 -2.743238 9.635073 180.000000 -0.952719 9.635073 20.733157 -11.473665 -7.460697 159.266843 -0.456129 -29.057495 24.065833 -2.040339 7.460697 18.000000 0.129345 4.960574
969.735789 443.468267 100.139654 0.000000 0.000000 0.000000 0.000000 0.000000 0.000000 20.415894 -16.507884 13.690942 180.000000 7.289748 13.690942 21.087741 3.754731 -11.043737 158.912259 11.346453 -27.893295 24.320336 -17.861367 11.043737 18.000000 0.783156 4.911436
969.759168 443.445569 124.127399 0.000000 0.000000 0.000000 0.000000 0.000000 0.000000 20.642061 -3.105495 16.886559 180.000000 0.923999 16.886559 21.453029 -5.789486 -14.452610 158.546971 3.640950 -26.289200 24.533304 -10.088678 14.452610 18.000000 1.082680 4.842916
585.252171 514.469179 120.237706 0.000000 0.000000 0.000000 0.000000 0.000000 0.000000 74.723181 45.324634 19.021130 -105.276819 -48.781666 19.021130 119.807175 4.986006 -17.633558 165.825978 -17.521883 -24.270510 138.012220 19.477018 17.633558 -12.357653 -2.736375 4.755283
624.843979 517.601860 130.353500 0.000000 0.000000 0.000000 0.000000 0.000000 0.000000 103.202449 5.068525 19.960535 -76.797551 13.190244 19.960535 114.381580 -0.983532 -20.536413 -53.015473 60.592816 -21.869059 145.467160 -2.762047 20.536413 -4.173333 -1.522475 4.648882
969.822873 443.376664 136.963095 0.000000 0.000000 0.000000 0.000000 0.000000 0.000000 21.413420 -9.312228 19.645745 180.000000 -4.794376 19.645745 22.607712 9.509886 -23.115397 157.392288 -14.586622 -19.122720 24.899813 14.932174 23.115397 18.000000 -0.369848 4.524135
969.841956 443.353428 121.372493 0.000000 0.000000 0.000000 0.000000 0.000000 0.000000 21.702987 -14.728172 18.096541 180.000000 10.883796 18.096541 23.009909 -5.749576 -25.329838 156.990091 10.852631 -16.074804 24.926562 -14.832891 25.329838 18.000000 1.144882 4.381533
969.859960 443.330059 137.478664 0.000000 0.000000 0.000000 0.000000 0.000000 0.000000 22.009579 12.556758 15.410265 180.000000 -3.395167 15.410265 23.419334 7.073873 -27.144812 156.580666 2.591741 -12.773379 24.904993 2.581860 27.144812 18.000000 -0.453318 4.221640
594.905148 538.048757 142.473904 0.000000 0.000000 0.000000 0.000000 0.000000 0.000000 -57.080480 -47.150842 11.755705 122.919520 44.222324 11.755705 -12.750556 -2.382574 -28.531695 149.841027 15.284937 -9.270510 -8.274090 5.668977 28.531695 17.596979 -0.339963 4.045085
969.892723 443.282929 147.777542 0.000000 0.000000 0.000000 0.000000 0.000000 0.000000 22.675903 -0.408547 7.362491 180.000000 1.096874 7.362491 24.255612 -3.198407 -29.468618 155.744388 16.204334 -5.621439 24.720303 -9.348246 29.468618 18.000000 -0.309247 3.852566
1257.001877 499.708382 149.926116 0.000000 0.000000 0.000000 0.000000 0.000000 0.000000 52.818511 -5.726700 2.506665 -127.181489 0.465551 2.506665 25.369497 5.663162 -29.940802 -143.914951 0.219596 -1.883716 14.556766 -0.389084 29.940802 -16.686776 0.138578 3.644843
1279.050064 493.773898 143.455108 0.000000 0.000000 0.000000 0.000000 0.000000 0.000000 56.685213 -4.630462 -2.506665 -123.314787 1.689125 -2.506665 24.065452 -1.460745 -29.940802 -146.540317 0.746008 1.883716 13.097461 0.942316 29.940802 -16.716891 0.015632 3.422736
1295.108986 477.099677 127.671550 0.000000 0.000000 0.000000 0.000000 0.000000 0.000000 65.723361 9.699780 -7.362491 -114.276639 -6.715766 -7.362491 23.725299 -2.230089 -29.468618 -147.984281 -2.043127 5.621439 13.187557 -0.022602 29.468618 -16.751134 0.061860 3.187120
1289.065018 496.763316 143.273756 0.000000 0.000000 0.000000 0.000000 0.000000 0.000000 61.662232 2.936223 -11.755705 -118.337768 -2.808825 -11.755705 31.397757 4.459896 -28.531695 -148.047797 -0.185763 9.270510 12.491083 0.766196 28.531695 -16.898368 0.113958 2.938926
1285.337105 480.691112 143.769114 0.000000 0.000000 0.000000 0.000000 0.000000 0.000000 58.021980 -4.232361 -15.410265 -121.978020 -0.418320 -15.410265 31.705930 -0.434719 -27.144812 -157.028684 -3.753692 12.773379 11.107306 0.801787 27.144812 -17.140016 0.090352 2.679134
1276.453171 465.093691 148.156849 0.000000 0.000000 0.000000 0.000000 0.000000 0.000000 70.157145 7.102631 -18.096541 -109.842855 1.797432 -18.096541 40.303764 -4.328038 -25.329838 -145.293609 0.528809 16.074804 10.431204 -0.528076 25.329838 -17.100572 0.023817 2.408768
1253.658714 472.768564 141.867980 0.000000 0.000000 0.000000 0.000000 0.000000 0.000000 65.087926 21.172811 -19.645745 -114.912074 -33.398739 -19.645745 -157.680356 -6.771826 -23.115397 -137.727082 -3.234738 19.122720 -153.053596 -14.458068 23.115397 -16.054219 -0.784020 2.128896
1366.101608 507.691247 142.830891 0.000000 0.000000 0.000000 0.000000 0.000000 0.000000 108.715100 10.562444 -19.960535 -71.284900 6.078750 -19.960535 156.661132 19.662747 -20.536413 -158.224303 -5.402795 21.869059 0.000000 0.000000 0.000000 0.000000 0.000000 0.000000
969.986295 443.064535 148.946237 0.000000 0.000000 0.000000 0.000000 0.000000 0.000000 26.662144 25.701075 -19.021130 180.000000 -16.167647 -19.021130 28.015351 -0.537034 -17.633558 151.984649 -10.785310 24.270510 22.068935 7.859951 17.633558 18.000000 -0.251569 1.545085
1282.107124 481.511257 148.917890 0.000000 0.000000 0.000000 0.000000 0.000000 0.000000 80.650781 -25.595184 -16.886559 -99.349219 27.718340 -16.886559 1.511604 -11.394831 -14.452610 -32.896908 1.908280 26.289200 -7.727072 4.474288 14.452610 13.531851 0.969687 1.243449
1282.921486 484.777769 153.637358 0.000000 0.000000 0.000000 0.000000 0.000000 0.000000 -81.737646 11.662979 -13.690942 98.262354 -27.191991 -13.690942 -23.867101 2.063506 -11.043737 12.655668 -2.939886 27.893295 -29.454911 1.820338 11.043737 9.861248 -0.033528 0.936907
1290.933037 513.180238 141.358091 0.000000 0.000000 0.000000 0.000000 0.000000 0.000000 -91.387864 -12.562956 -9.635073 88.612136 6.437351 -9.635073 -41.685392 -1.828592 -7.460697 -161.156957 -5.542094 29.057495 15.157863 5.254346 7.460697 10.543436 1.192855 0.626666
969.999452 442.964284 110.970827 0.000000 0.000000 0.000000 0.000000 0.000000 0.000000 29.025427 -1.348890 -4.973798 180.000000 -9.099771 -4.973798 29.437993 4.730860 -3.759997 150.562007 -1.023017 29.763441 20.404746 1.513965 3.759997 18.000000 -0.377869 0.313953
970.000000 442.938926 123.802227 0.000000 0.000000 0.000000 0.000000 0.000000 0.000000 29.678605 4.436466 0.000000 180.000000 13.333717 0.000000 29.744881 -10.219054 -0.000000 150.255119 -1.358521 30.000000 19.983107 -0.158773 0.000000 18.000000 0.110811 0.000000
1354.522934 467.411410 116.571024 0.000000 0.000000 0.000000 0.000000 0.000000 0.000000 150.622570 8.588616 4.973798 -29.377430 -9.908489 4.973798 140.176400 0.118543 3.759997 -12.221629 3.035293 29.763441 132.794256 -6.200653 -3.759997 -2.626015 -0.084242 0.313953
969.997807 442.887864 124.046894 0.000000 0.000000 0.000000 0.000000 0.000000 0.000000 31.061399 -0.406058 9.635073 180.000000 -6.442416 9.635073 30.285790 -6.144029 7.460697 149.714210 -8.606097 29.057495 19.151579 -3.310091 -7.460697 18.000000 0.419491 0.626666
1246.736984 514.278152 116.643541 0.000000 0.000000 0.000000 0.000000 0.000000 0.000000 143.557092 -5.393060 13.690942 -36.442908 9.408742 13.690942 133.761037 -4.751051 11.043737 -156.950665 -5.621888 27.893295 0.000000 0.000000 0.000000 1.928484 0.433998 0.936907
1245.221100 458.637464 121.329880 0.000000 0.000000 0.000000 0.000000 0.000000 0.000000 160.701064 2.880957 16.886559 -19.298936 1.765534 16.886559 140.193827 1.056284 14.452610 -157.554825 -5.439621 26.289200 29.500467 5.593077 -14.452610 -15.049953 -0.559308 1.243449
1257.365570 418.514181 113.378077 0.000000 0.000000 0.000000 0.000000 0.000000 0.000000 -143.710676 0.089665 19.021130 36.289324 8.741149 19.021130 163.220413 -3.664550 17.633558 11.688054 3.573709 24.270510 152.038385 -0.347135 -17.633558 -2.339948 -0.210412 1.545085
1275.099564 408.163741 95.466575 0.000000 0.000000 0.000000 0.000000 0.000000 0.000000 -132.929531 -18.482968 19.960535 47.070469 8.637089 19.960535 173.491912 0.081941 20.536413 -160.709681 -4.140312 21.869059 33.138793 5.341677 -20.536413 -14.686121 -0.534168 1.840623
1290.611115 384.880857 92.627455 0.000000 0.000000 0.000000 0.000000 0.000000 0.000000 -132.705235 0.243932 19.645745 47.294765 -9.118222 19.645745 -173.778854 6.952286 23.115397 20.496835 2.499786 19.122720 -161.220290 -4.202000 -23.115397 1.723235 0.342632 2.128896
1302.817154 380.305352 102.279855 0.000000 0.000000 0.000000 0.000000 0.000000 0.000000 -131.493915 2.025558 18.096541 48.506085 -9.222842 18.096541 -165.393697 1.531867 25.329838 23.154815 -4.017995 16.074804 -178.200316 0.291247 -25.329838 0.138141 0.001845 2.408768
1304.997711 379.563582 70.722766 0.000000 0.000000 0.000000 0.000000 0.000000 0.000000 -126.727972 -1.990247 15.410265 53.272028 5.176237 15.410265 -160.219593 0.495990 27.144812 28.448880 0.816112 12.773379 -174.368770 1.167702 -27.144812 0.079526 -0.153502 2.679134
1311.668472 386.890390 85.905868 0.000000 0.000000 0.000000 0.000000 0.000000 0.000000 -122.308728 2.973314 11.755705 57.691272 11.045206 11.755705 -158.801130 -3.078641 28.531695 150.942637 -2.279989 9.270510 -154.878332 -3.866128 -28.531695 2.695409 0.512366 2.938926
1305.131836 395.180186 69.002072 0.000000 0.000000 0.000000 0.000000 0.000000 0.000000 -125.112810 -10.476377 7.362491 54.887190 8.337309 7.362491 -146.487292 -1.113457 29.468618 -175.167369 3.209292 5.621439 -159.224034 -4.559487 -29.468618 1.782042 0.451376 3.187120
1296.320457 392.734526 69.721569 0.000000 0.000000 0.000000 0.000000 0.000000 0.000000 -131.035750 2.546969 2.506665 48.964250 8.066807 2.506665 -128.969563 -2.198021 29.940802 38.856147 3.747149 1.883716 -134.776850 -1.343706 -29.940802 3.458429 0.118138 3.422736
1306.963577 386.612041 87.110026 0.000000 0.000000 0.000000 0.000000 0.000000 0.000000 -124.469622 3.757647 -2.506665 55.530378 -3.470249 -2.506665 -109.994856 5.119494 29.940802 37.691309 4.163076 -1.883716 -118.274788 -2.504312 -29.940802 5.098336 0.225421 3.644843
969.892723 442.572198 59.626331 0.000000 0.000000 0.000000 0.000000 0.000000 0.000000 41.287575 -21.352123 -7.362491 180.000000 -6.383651 -7.362491 30.974696 12.238498 29.468618 149.025304 17.226729 -5.621439 15.072869 -5.633121 -29.468618 18.000000 -0.086258 3.852566
969.876883 442.545207 69.068579 0.000000 0.000000 0.000000 0.000000 0.000000 0.000000 42.241956 -33.732629 -11.755705 180.000000 21.552321 -11.755705 30.826133 -18.158972 28.531695 149.173867 21.528495 -9.270510 14.823070 -8.700313 -28.531695 18.000000 -0.184364 4.045085
969.859960 442.518116 70.776589 0.000000 0.000000 0.000000 0.000000 0.000000 0.000000 43.199779 -14.361562 -15.410265 180.000000 5.370547 -15.410265 30.649504 -8.979001 27.144812 149.350496 5.411065 -12.773379 14.587557 -2.616128 -27.144812 18.000000 0.306148 4.221640
969.841956 442.490926 70.053273 0.000000 0.000000 0.000000 0.000000 0.000000 0.000000 44.157210 -21.611071 -18.096541 180.000000 9.254736 -18.096541 30.446417 5.262860 25.329838 149.553583 10.726514 -16.074804 14.366154 -6.443259 -25.329838 18.000000 0.850821 4.381533
969.822873 442.463637 57.958184 0.000000 0.000000 0.000000 0.000000 0.000000 0.000000 45.110117 50.202141 -19.645745 180.000000 -0.730414 -19.645745 30.218633 -13.427798 23.115397 149.781367 -6.050703 -19.122720 14.158653 0.097028 -23.115397 18.000000 -0.301894 4.524135
969.802712 442.436251 50.034369 0.000000 0.000000 0.000000 0.000000 0.000000 0.000000 46.054109 -4.148759 -19.960535 180.000000 13.325866 -19.960535 29.968037 -8.690855 20.536413 150.031963 6.612489 -21.869059 13.964823 3.010905 -20.536413 18.000000 -0.131135 4.648882
1187.040939 541.658249 61.267459 0.000000 0.000000 0.000000 0.000000 0.000000 0.000000 82.806623 28.376551 -19.021130 -97.193377 -32.303613 -19.021130 45.395981 9.910580 17.633558 -156.144455 -2.943779 -24.270510 0.000000 0.000000 0.000000 0.000000 0.000000 0.000000
1182.242889 522.024286 64.129486 0.000000 0.000000 0.000000 0.000000 0.000000 0.000000 -105.721938 13.171796 -16.886559 74.278062 -18.628188 -16.886559 -155.708006 -2.407707 14.452610 -157.302521 -3.162945 -26.289200 0.000000 0.000000 0.000000 2.684983 0.229161 4.842916
1180.914459 527.065626 52.548102 0.000000 0.000000 0.000000 0.000000 0.000000 0.000000 88.055617 -2.385175 -13.690942 -91.944383 2.322748 -13.690942 -158.862018 -2.919096 11.043737 -151.747289 -2.430558 -27.893295 0.000000 0.000000 0.000000 0.000000 0.000000 0.000000
1236.800194 541.387432 50.102855 0.000000 0.000000 0.000000 0.000000 0.000000 0.000000 -85.588400 10.507253 -9.635073 94.411600 -4.334647 -9.635073 -159.297106 -3.053139 7.460697 -157.915391 -2.775053 -29.057495 26.607362 1.390822 -7.460697 14.926890 1.041439 4.960574
1161.066513 575.006626 64.153437 0.000000 0.000000 0.000000 0.000000 0.000000 0.000000 -81.021168 3.336045 -4.973798 98.978832 7.430058 -4.973798 -102.851701 -5.984323 3.759997 -157.041007 -1.920296 -29.763441 21.429890 2.321625 -3.759997 10.859432 -0.729968 4.990134
1255.636253 512.645942 74.519149 0.000000 0.000000 0.000000 0.000000 0.000000 0.000000 77.832564 -0.772170 -0.000000 -102.167436 -9.513781 -0.000000 -158.264834 -1.239571 0.000000 -130.745502 0.999164 -30.000000 -157.699225 -3.017779 -0.000000 0.000000 0.000000 0.000000
1265.118484 521.473864 68.732787 0.000000 0.000000 0.000000 0.000000 0.000000 0.000000 64.078276 -3.217626 4.973798 -115.921724 -0.860011 4.973798 41.397952 -1.221597 -3.759997 -139.329851 0.156561 -29.763441 20.223252 1.360259 3.759997 -16.047574 -0.085046 4.990134
1228.099480 522.138258 33.439005 0.000000 0.000000 0.000000 0.000000 0.000000 0.000000 71.050901 6.196735 9.635073 -108.949099 -11.094399 9.635073 150.099970 16.144193 -7.460697 -139.894702 -4.890221 -29.057495 -156.275691 -2.842510 7.460697 0.000000 0.000000 0.000000
1240.357246 528.695873 56.095980 0.000000 0.000000 0.000000 0.000000 0.000000 0.000000 65.413351 -15.705849 13.690942 -114.586649 7.109149 13.690942 147.242328 -6.840320 -11.043737 -154.470720 -1.948185 -27.893295 25.557225 2.508293 11.043737 -15.444278 -0.250829 4.911436
1231.815262 551.380248 65.877013 0.000000 0.000000 0.000000 0.000000 0.000000 0.000000 56.412506 -0.133614 16.886559 -123.587494 11.380714 16.886559 -153.392336 -8.773358 -14.452610 -154.784582 -2.330244 -26.289200 24.191555 4.109988 14.452610 -15.580844 -0.410999 4.842916
1221.475182 508.360147 53.926538 0.000000 0.000000 0.000000 0.000000 0.000000 0.000000 77.450622 1.650124 19.021130 -102.549378 -4.101829 19.021130 -156.789784 -2.560194 -17.633558 -125.590168 1.174589 -24.270510 -160.017240 -3.605981 17.633558 1.833434 0.412309 4.755283
969.477684 442.100429 59.105242 0.000000 0.000000 0.000000 0.000000 0.000000 0.000000 54.932575 33.288138 19.960535 180.000000 -8.149805 19.960535 25.919122 -6.405644 -20.536413 154.080878 -2.676460 -21.869059 12.612867 -5.923528 20.536413 18.000000 0.304082 4.648882
1480.140495 518.878891 76.426153 0.000000 0.000000 0.000000 0.000000 0.000000 0.000000 -110.621767 86.510718 19.645745 69.378233 -13.904568 19.645745 -158.235933 -2.959112 -23.115397 166.031448 -6.197633 -19.122720 -155.186432 -2.613574 23.115397 2.641553 0.407818 4.524135
1271.640472 556.840560 75.242632 0.000000 0.000000 0.000000 0.000000 0.000000 0.000000 -94.404719 -8.223884 18.096541 85.595281 8.937490 18.096541 -62.417786 -0.678669 -25.329838 23.992813 6.404167 -16.074804 -76.856107 -4.973383 25.329838 7.708835 0.016660 4.381533
1258.556786 530.268441 90.957754 0.000000 0.000000 0.000000 0.000000 0.000000 0.000000 78.355945 -1.462148 15.410265 -101.644055 2.196331 15.410265 35.068294 1.475359 -27.144812 -54.090640 5.878721 -12.773379 35.848220 -9.452439 27.144812 -8.104639 -0.091023 4.221640
1250.800209 527.150567 95.839075 0.000000 0.000000 0.000000 0.000000 0.000000 0.000000 72.417769 1.672658 11.755705 -107.582231 -0.565676 11.755705 24.571109 -1.875824 -28.531695 -39.196117 3.740275 -9.270510 10.411117 -2.011626 28.531695 -9.048616 -4.068489 4.045085
1243.466148 571.776259 93.235786 0.000000 0.000000 0.000000 0.000000 0.000000 0.000000 86.301473 2.428712 7.362491 -93.698527 4.916151 7.362491 24.553534 -3.482872 -29.468618 -153.460385 -3.956833 -5.621439 19.510484 2.651280 29.468618 -10.109500 3.573552 3.852566
1261.883812 566.052918 105.079548 0.000000 0.000000 0.000000 0.000000 0.000000 0.000000 94.015209 7.430842 2.506665 -85.984791 -0.491571 2.506665 38.959993 -7.252060 -29.940802 -154.008305 -4.407963 -1.883716 20.870951 3.236509 29.940802 -10.872440 -2.060516 3.644843
1284.436798 527.190542 92.324982 0.000000 0.000000 0.000000 0.000000 0.000000 0.000000 111.186365 4.754016 -2.506665 -68.813635 -1.983321 -2.506665 58.506163 -6.904857 -29.940802 -19.138727 -5.857389 1.883716 51.457372 11.587756 29.940802 -5.203198 -0.041657 3.422736
1272.860069 533.494012 89.198266 0.000000 0.000000 0.000000 0.000000 0.000000 0.000000 72.301471 7.162253 -7.362491 -107.698529 9.164277 -7.362491 78.802573 -5.152880 -29.468618 -154.772375 -4.746105 5.621439 26.927455 4.484634 29.468618 -15.307255 -0.448463 3.187120
1255.264664 498.243735 107.637464 0.000000 0.000000 0.000000 0.000000 0.000000 0.000000 164.596971 -35.288647 -11.755705 -15.403029 50.405467 -11.755705 125.849126 -3.562643 -28.531695 -156.067666 -4.561385 9.270510 33.087561 4.797092 28.531695 -14.691244 -0.479709 2.938926
1259.202232 470.407684 121.457408 0.000000 0.000000 0.000000 0.000000 0.000000 0.000000 -139.980397 5.548418 -15.410265 40.019603 9.910521 -15.410265 165.887722 -4.152787 -27.144812 -157.901492 -5.484001 12.773379 35.196094 4.936626 27.144812 -14.480391 -0.493663 2.679134
1236.502075 429.951335 119.630023 0.000000 0.000000 0.000000 0.000000 0.000000 0.000000 -113.295066 6.733557 -18.096541 66.704934 -5.817168 -18.096541 -174.664169 2.592667 -25.329838 -159.007335 -5.823345 16.074804 32.868990 6.260544 25.329838 -14.713101 -0.626054 2.408768
1253.359451 413.942538 114.858831 0.000000 0.000000 0.000000 0.000000 0.000000 0.000000 -123.348580 3.567513 -19.645745 56.651420 -6.888697 -19.645745 -167.815074 2.272685 -23.115397 -159.603180 -6.146893 19.122720 32.791747 6.509241 23.115397 -14.720825 -0.650924 2.128896
1281.206589 405.664523 113.980571 0.000000 0.000000 0.000000 0.000000 0.000000 0.000000 -124.414271 -0.154559 -19.960535 55.585729 -5.982241 -19.960535 -161.281803 3.163311 -20.536413 28.568449 -0.871498 21.869059 -159.052798 -4.944557 20.536413 1.849141 0.442519 1.840623
1300.238571 418.760215 124.737100 0.000000 0.000000 0.000000 0.000000 0.000000 0.000000 -126.263092 -0.503064 -19.021130 53.736908 2.813741 -19.021130 -159.739358 -1.820915 -17.633558 31.487961 -0.444537 24.270510 -170.323915 -3.512236 17.633558 0.671815 0.186970 1.545085
1321.889191 413.634385 142.668359 0.000000 0.000000 0.000000 0.000000 0.000000 0.000000 -133.874471 1.579469 -16.886559 46.125529 6.126297 -16.886559 -159.376251 -0.175010 -14.452610 30.696824 2.661880 26.289200 -164.929556 1.375506 14.452610 1.089735 -0.228098 1.243449
1336.221428 432.881820 156.033654 0.000000 0.000000 0.000000 0.000000 0.000000 0.000000 -115.020798 -4.645490 -13.690942 64.979202 7.412927 -13.690942 -135.609544 0.679900 -11.043737 -161.321630 -5.343725 27.893295 17.353502 9.241797 11.043737 -16.264650 -0.924180 0.936907
1329.124603 416.860342 133.758785 0.000000 0.000000 0.000000 0.000000 0.000000 0.000000 -134.023347 4.269980 -9.635073 45.976653 -1.335844 -9.635073 -128.030830 2.386437 -7.460697 28.249885 -2.687829 29.057495 -136.447985 1.773328 7.460697 4.038834 0.010834 0.626666
1343.366776 427.060794 143.241855 0.000000 0.000000 0.000000 0.000000 0.000000 0.000000 -130.153347 5.405041 -4.973798 49.846653 -4.605762 -4.973798 -103.564435 0.006247 -3.759997 27.398095 -2.572909 29.763441 -115.461530 2.460834 3.759997 5.470063 -0.016879 0.313953
1376.991005 465.829636 140.614801 0.000000 0.000000 0.000000 0.000000 0.000000 0.000000 -120.272352 -5.095255 0.000000 59.727648 8.689865 0.000000 -62.204131 -0.307757 -0.000000 27.740602 2.432251 30.000000 -80.461527 -0.517233 0.000000 7.450891 -0.061873 0.000000
1384.978867 468.790376 146.266671 0.000000 0.000000 0.000000 0.000000 0.000000 0.000000 -93.720384 56.302200 4.973798 86.279616 -47.628479 4.973798 3.847814 3.202151 3.759997 -160.438787 -6.949570 29.763441 15.990976 5.472567 -3.759997 7.894783 -1.636288 0.313953
1345.894547 516.257268 157.926263 0.000000 0.000000 0.000000 0.000000 0.000000 0.000000 127.577640 -9.674092 9.635073 -52.422360 5.392065 9.635073 53.096359 10.519271 7.460697 -159.021748 -6.164724 29.057495 18.308456 5.459697 -7.460697 -4.062191 0.226326 0.626666
968.498927 441.455181 159.603414 0.000000 0.000000 0.000000 0.000000 0.000000 0.000000 47.920147 -17.850527 13.690942 180.000000 14.890174 13.690942 19.641385 -1.650856 11.043737 160.358615 3.729724 27.893295 13.993219 -4.291127 -11.043737 18.000000 0.250005 0.936907
1336.846733 493.527671 139.930490 0.000000 0.000000 0.000000 0.000000 0.000000 0.000000 102.681311 -31.380539 16.886559 -77.318689 38.632150 16.886559 35.985219 -7.283793 14.452610 -159.617763 -5.537362 26.289200 19.375410 5.218642 -14.452610 -16.062459 -0.521864 1.243449
968.386706 441.394956 148.243569 0.000000 0.000000 0.000000 0.000000 0.000000 0.000000 46.120581 22.326715 19.021130 180.000000 -2.036820 19.021130 19.316787 -2.207096 17.633558 160.683213 -11.031951 24.270510 14.327067 5.255390 -17.633558 18.000000 -0.203722 1.545085
1263.984947 433.341283 145.254486 0.000000 0.000000 0.000000 0.000000 0.000000 0.000000 -115.578373 -9.164140 19.960535 64.421627 4.942823 19.960535 -82.396446 1.748561 20.536413 25.733383 5.524894 21.869059 -77.477544 1.362170 -20.536413 5.836928 0.032759 1.840623
1352.596436 477.564354 147.176274 0.000000 0.000000 0.000000 0.000000 0.000000 0.000000 -99.196741 7.754755 19.645745 80.803259 2.487169 19.645745 -125.272585 0.060671 23.115397 -162.405270 -6.482324 19.122720 17.377627 6.160722 -23.115397 -16.262237 -0.616072 2.128896
1384.326782 408.174427 126.742932 0.000000 0.000000 0.000000 0.000000 0.000000 0.000000 96.868601 3.186439 18.096541 -83.131399 -2.074338 18.096541 -160.848957 -6.360862 25.329838 -137.255583 -2.570004 16.074804 -162.076720 -6.836357 -25.329838 0.000000 0.000000 0.000000
1387.580223 387.128634 142.731551 0.000000 0.000000 0.000000 0.000000 0.000000 0.000000 78.087764 -8.682045 15.410265 -101.912236 -21.864572 15.410265 -161.807915 -5.598115 27.144812 -147.504361 -1.366193 12.773379 -162.566306 -7.107785 -27.144812 1.735427 0.719398 2.679134
1345.818558 392.423122 130.857364 0.000000 0.000000 0.000000 0.000000 0.000000 0.000000 71.782984 -13.016015 11.755705 -108.217016 7.838022 11.755705 -169.469261 -3.596058 28.531695 -153.903088 3.060445 9.270510 -154.670689 -5.518862 -28.531695 15.277725 2.024546 2.938926
1331.471329 361.814139 124.679075 0.000000 0.000000 0.000000 0.000000 0.000000 0.000000 53.586100 -36.468944 7.362491 -126.413900 22.129978 7.362491 -162.290330 -5.922316 29.468618 -154.912165 6.164731 5.621439 -162.550394 -7.488829 -29.468618 1.742175 0.836906 3.187120
1354.413986 427.213873 146.252192 0.000000 0.000000 0.000000 0.000000 0.000000 0.000000 -131.358118 -27.627815 2.506665 48.641882 -7.260486 2.506665 -142.488821 1.271828 29.940802 -161.977882 -6.053141 1.883716 12.673705 8.508110 -29.940802 1.397524 -0.049103 3.422736
1330.326691 347.207226 144.711039 0.000000 0.000000 0.000000 0.000000 0.000000 0.000000 52.464175 -1.662029 -2.506665 -127.535825 9.973765 -2.506665 14.270918 1.265850 29.940802 -122.057234 3.550297 -1.883716 22.820874 -1.268386 -29.940802 -15.244909 -0.073823 3.644843
1317.103271 414.475805 128.257279 0.000000 0.000000 0.000000 0.000000 0.000000 0.000000 76.170457 -18.766925 -7.362491 -103.829543 -4.338282 -7.362491 -50.250674 9.775466 29.468618 -52.503744 3.542681 -5.621439 -92.793049 -3.725197 -29.468618 3.303440 -0.251666 3.852566
1331.844635 430.291482 128.144609 0.000000 0.000000 0.000000 0.000000 0.000000 0.000000 79.985160 -0.014698 -11.755705 -100.014840 -2.962880 -11.755705 25.995082 -2.667605 28.531695 -75.062603 -2.561429 -9.270510 38.761234 -4.978102 -28.531695 -11.442229 0.230722 4.045085
1359.462433 496.472383 127.553004 0.000000 0.000000 0.000000 0.000000 0.000000 0.000000 84.268829 0.987071 -15.410265 -95.731171 -11.529076 -15.410265 30.279153 3.308408 27.144812 -63.318008 -1.307511 -12.773379 39.457716 2.166531 -27.144812 -9.485742 -0.002250 4.221640
1323.514366 546.771398 109.536835 0.000000 0.000000 0.000000 0.000000 0.000000 0.000000 84.407325 -3.414086 -18.096541 -95.592675 0.722569 -18.096541 27.768249 -0.122052 25.329838 -47.660055 0.632401 -16.074804 28.281511 0.038939 -25.329838 -7.827901 0.558844 4.381533
1268.535347 591.567099 91.785680 0.000000 0.000000 0.000000 0.000000 0.000000 0.000000 90.890792 10.674057 -19.645745 -89.109208 -11.930695 -19.645745 44.654760 1.797615 23.115397 -48.200667 -6.207077 -19.122720 43.369388 -0.289615 -23.115397 -8.974980 0.310076 4.524135
1303.157158 602.888768 109.861757 0.000000 0.000000 0.000000 0.000000 0.000000 0.000000 90.349289 2.652599 -19.960535 -89.650711 -5.214661 -19.960535 47.707312 0.837541 20.536413 -53.918782 -2.973116 -21.869059 40.070965 4.921289 -20.536413 -9.318632 -1.354782 4.648882
1314.841690 613.141973 115.568886 0.000000 0.000000 0.000000 0.000000 0.000000 0.000000 94.480501 -2.223082 -19.021130 -85.519499 -8.375301 -19.021130 58.462862 3.833229 17.633558 -52.020507 -3.460478 -24.270510 55.276552 1.276907 -17.633558 -7.777523 0.067882 4.755283
1327.521400 639.394319 92.994685 0.000000 0.000000 0.000000 0.000000 0.000000 0.000000 99.879576 0.854594 -16.886559 -80.120424 0.262918 -16.886559 69.161359 -3.695378 14.452610 -46.413613 -1.027452 -26.289200 76.680143 -2.265191 -14.452610 -6.257768 -0.324988 4.842916
1277.812729 671.228578 87.730009 0.000000 0.000000 0.000000 0.000000 0.000000 0.000000 99.708534 -10.146592 -13.690942 -80.291466 -3.557262 -13.690942 92.239140 7.230833 11.043737 -26.764021 8.437202 -27.893295 98.168457 -2.806346 -11.043737 -4.372074 0.019675 4.911436
1309.642181 690.479329 92.164079 0.000000 0.000000 0.000000 0.000000 0.000000 0.000000 117.292414 2.839368 -9.635073 -62.707586 1.401724 -9.635073 137.002702 -0.819216 7.460697 -32.045917 -2.335149 -29.057495 135.211322 0.789911 -7.460697 -3.212944 0.056344 4.960574
1299.770966 664.126496 98.016504 0.000000 0.000000 0.000000 0.000000 0.000000 0.000000 158.531160 -22.373469 -4.973798 -21.468840 3.659243 -4.973798 161.478323 3.141330 3.759997 -12.838206 6.871626 -29.763441 151.269584 -2.492856 -3.759997 -2.521934 0.046640 4.990134
1313.353729 643.668108 70.472035 0.000000 0.000000 0.000000 0.000000 0.000000 0.000000 -154.315892 -6.862711 -0.000000 25.684108 -2.799039 -0.000000 173.459940 0.289517 0.000000 1.519689 -2.028145 -30.000000 164.244875 1.105169 -0.000000 -1.552244 -0.131382 5.000000
1342.841377 638.982847 72.137134 0.000000 0.000000 0.000000 0.000000 0.000000 0.000000 -138.993869 -18.026176 4.973798 41.006131 24.350856 4.973798 175.724056 -5.131120 -3.759997 -151.723069 -2.981094 -29.763441 43.242568 3.893313 3.759997 -13.675743 -0.389331 4.990134
1350.000229 614.724133 81.932309 0.000000 0.000000 0.000000 0.000000 0.000000 0.000000 -144.248147 5.838745 9.635073 35.751853 -8.195004 9.635073 177.069273 2.349078 -7.460697 -152.227621 -3.050596 -29.057495 43.136563 3.969900 7.460697 -13.686344 -0.396990 4.960574
1328.535919 624.780936 46.242536 0.000000 0.000000 0.000000 0.000000 0.000000 0.000000 -165.447222 -19.519087 13.690942 14.552778 17.792892 13.690942 169.657511 -3.463296 -11.043737 -152.168050 -2.037541 -27.893295 41.929642 3.953802 11.043737 -13.807036 -0.395380 4.911436
1318.810501 615.688248 66.722036 0.000000 0.000000 0.000000 0.000000 0.000000 0.000000 -120.063657 -17.631146 16.886559 59.936343 9.219579 16.886559 -165.389465 -1.887419 -14.452610 -152.866764 -1.858345 -26.289200 39.162270 3.316511 14.452610 -14.083773 -0.331651 4.842916
1321.656418 659.275410 54.065100 0.000000 0.000000 0.000000 0.000000 0.000000 0.000000 -121.435085 -19.344012 19.021130 58.564915 -5.473533 19.021130 -149.190712 3.935701 -17.633558 -151.926374 -2.183746 -24.270510 33.097066 3.788597 17.633558 -14.690293 -0.378860 4.755283
1328.445511 687.490232 57.914073 0.000000 0.000000 0.000000 0.000000 0.000000 0.000000 -104.253419 5.346868 19.960535 75.746581 -24.466833 19.960535 -110.140878 3.857699 -20.536413 -152.911692 -3.263146 -21.869059 23.882145 2.494264 20.536413 3.694979 0.066003 4.648882
966.534206 440.564282 35.167463 0.000000 0.000000 0.000000 0.000000 0.000000 0.000000 25.865486 -19.371628 19.645745 180.000000 13.544526 19.645745 18.728337 -6.435899 -23.115397 161.271663 10.541873 -19.122720 19.024234 -0.691534 23.115397 18.000000 -0.367292 4.524135
966.454577 440.533056 53.824695 0.000000 0.000000 0.000000 0.000000 0.000000 0.000000 25.417507 11.282399 18.096541 180.000000 -5.592629 18.096541 18.825450 -2.035882 -25.329838 161.174550 -0.937760 -16.074804 19.071566 -0.786550 25.329838 18.000000 -0.450001 4.381533
966.374240 440.501809 55.351778 0.000000 0.000000 0.000000 0.000000 0.000000 0.000000 24.990320 24.857235 15.410265 180.000000 -10.672270 15.410265 18.929718 11.093478 -27.144812 161.070282 1.100623 -12.773379 19.102411 -2.392965 27.144812 18.000000 0.149206 4.221640
966.293204 440.470542 45.436509 0.000000 0.000000 0.000000 0.000000 0.000000 0.000000 24.583377 -14.287143 11.755705 180.000000 0.388615 11.755705 19.040946 -0.208669 -28.531695 160.959054 1.105850 -9.270510 19.116765 -8.945511 28.531695 18.000000 1.234435 4.045085
966.211478 440.439256 60.428691 0.000000 0.000000 0.000000 0.000000 0.000000 0.000000 24.196129 -17.208564 7.362491 180.000000 16.110321 7.362491 19.158923 -9.869937 -29.468618 160.841077 6.089752 -5.621439 19.114778 0.612476 29.468618 18.000000 0.605696 3.852566
644.985180 745.864069 46.390938 0.000000 0.000000 0.000000 0.000000 0.000000 0.000000 96.086415 16.112736 2.506665 -83.913585 21.893601 2.506665 -159.662371 -9.251752 -29.940802 -116.741565 -6.744984 -1.883716 -176.001217 2.789887 29.940802 -1.006627 0.083305 3.644843
1269.020119 699.025490 52.802769 0.000000 0.000000 0.000000 0.000000 0.000000 0.000000 83.810916 -4.800169 -2.506665 -96.189084 5.046721 -2.506665 51.932890 -3.245041 -29.940802 -149.314466 -1.405538 1.883716 27.598511 1.872788 29.940802 -15.240149 -0.187279 3.422736
573.721218 678.450201 23.335761 0.000000 0.000000 0.000000 0.000000 0.000000 0.000000 18.756393 25.975094 -7.362491 -161.243607 -32.845416 -7.362491 -174.158094 10.987210 -29.468618 178.010322 -4.285234 5.621439 -154.394154 -2.544953 29.468618 11.886524 -0.389290 3.187120
1261.580200 714.897366 50.512345 0.000000 0.000000 0.000000 0.000000 0.000000 0.000000 87.191276 12.916022 -11.755705 -92.808724 -11.736899 -11.755705 23.129119 -5.419663 -28.531695 -149.376238 -2.564512 9.270510 24.545507 2.618046 28.531695 13.583501 -3.332281 2.938926
1314.655838 684.171546 43.461067 0.000000 0.000000 0.000000 0.000000 0.000000 0.000000 61.219932 2.079090 -15.410265 -118.780068 -2.296846 -15.410265 25.476616 6.110964 -27.144812 -150.404247 -2.189685 12.773379 24.621454 2.245234 27.144812 -15.537855 -0.224523 2.679134
1319.638939 674.820013 56.034224 0.000000 0.000000 0.000000 0.000000 0.000000 0.000000 82.055377 12.733273 -18.096541 -97.944623 -14.875878 -18.096541 17.325085 -7.485867 -25.329838 -60.067277 -6.890923 16.074804 23.747728 3.091597 25.329838 -13.005173 0.384314 2.408768
1367.852325 659.536314 65.363043 0.000000 0.000000 0.000000 0.000000 0.000000 0.000000 -150.278430 16.945155 -19.645745 29.721570 -38.515328 -19.645745 -151.222797 -1.997510 -23.115397 18.758043 -2.765560 19.122720 -152.451920 -2.224321 23.115397 2.484143 0.205205 2.128896
1392.624664 638.981302 67.774606 0.000000 0.000000 0.000000 0.000000 0.000000 0.000000 -122.704248 -5.547302 -19.960535 57.295752 7.747809 -19.960535 -134.513385 -2.297216 -20.536413 30.292627 5.749371 21.869059 -146.694539 -1.427247 20.536413 2.430965 0.031404 1.840623
1401.291389 646.422758 70.551126 0.000000 0.000000 0.000000 0.000000 0.000000 0.000000 83.316637 -7.958769 -19.021130 -96.683363 -0.536728 -19.021130 29.335627 3.102749 -17.633558 -136.281416 0.668111 24.270510 19.119183 -0.377527 17.633558 -15.871560 -0.026634 1.545085
1381.838951 663.410475 81.612075 0.000000 0.000000 0.000000 0.000000 0.000000 0.000000 79.215331 -8.586866 -16.886559 -100.784669 5.574237 -16.886559 30.640455 -2.676871 -14.452610 -139.113455 4.292948 26.289200 14.302413 -1.445695 14.452610 -16.408036 0.015323 1.243449
1390.185928 664.248354 72.231161 0.000000 0.000000 0.000000 0.000000 0.000000 0.000000 75.546066 -3.924514 -13.690942 -104.453934 0.761952 -13.690942 38.995097 7.565996 -11.043737 -142.871297 2.613651 27.893295 14.209110 0.981789 11.043737 -16.737090 -0.072478 0.936907
1393.889923 677.551103 76.627497 0.000000 0.000000 0.000000 0.000000 0.000000 0.000000 84.293627 2.142998 -9.635073 -95.706373 -11.144670 -9.635073 -152.700272 -2.923689 -7.460697 -143.357755 -3.727924 29.057495 -148.868889 -3.950027 7.460697 3.626268 0.493099 0.626666
905.601082 693.654528 111.650978 0.000000 0.000000 0.000000 0.000000 0.000000 0.000000 -84.410869 -10.625040 -4.973798 95.589131 5.002256 -4.973798 -139.498802 -4.492032 -3.759997 -178.556713 39.992651 29.763441 -142.061844 -5.078855 3.759997 3.411456 0.342569 0.313953
1337.643929 680.318756 98.117349 0.000000 0.000000 0.000000 0.000000 0.000000 0.000000 78.192517 -12.573217 0.000000 -101.807483 3.642473 0.000000 48.289813 -9.723016 -0.000000 -140.291980 5.903396 30.000000 13.663140 -1.135542 0.000000 -17.395561 0.049197 0.000000
1322.670708 685.543334 90.499976 0.000000 0.000000 0.000000 0.000000 0.000000 0.000000 71.501063 -1.330366 4.973798 -108.498937 6.298756 4.973798 23.648228 -12.768875 3.759997 -144.586500 -1.314101 29.763441 14.578018 -0.661695 -3.759997 -16.885607 -0.185833 0.313953
1305.530548 682.910864 114.737167 0.000000 0.000000 0.000000 0.000000 0.000000 0.000000 72.979287 21.148968 9.635073 -107.020713 -37.369351 9.635073 -148.728581 -3.900993 7.460697 -74.802907 -5.449452 29.057495 -151.178244 -4.147397 -7.460697 2.601049 0.381707 0.626666
1359.363556 692.650115 89.869588 0.000000 0.000000 0.000000 0.000000 0.000000 0.000000 73.244804 8.600351 13.690942 -106.755196 -4.750425 13.690942 13.983499 -0.689581 11.043737 -67.611809 -1.647642 27.893295 13.130547 -0.923509 -11.043737 -11.004089 -0.349370 0.936907
1299.495964 679.994059 115.112167 0.000000 0.000000 0.000000 0.000000 0.000000 0.000000 116.206779 -17.730081 16.886559 -63.793221 21.502929 16.886559 -150.858719 -5.521631 14.452610 -34.548592 -3.197387 26.289200 60.366751 7.637700 -14.452610 -4.627493 0.043936 1.243449
1306.260338 711.527116 121.914342 0.000000 0.000000 0.000000 0.000000 0.000000 0.000000 -85.758672 -10.313160 19.021130 94.241328 13.112498 19.021130 -31.461750 -2.522071 17.633558 -4.237664 -0.026064 24.270510 -15.215787 2.529958 -17.633558 7.867754 -3.155278 1.545085
1272.614822 704.778571 114.556399 0.000000 0.000000 0.000000 0.000000 0.000000 0.000000 -78.634637 -8.937001 19.960535 101.365363 17.110507 19.960535 -34.118569 -0.316287 20.536413 22.539652 7.218859 21.869059 -31.373170 1.983269 -20.536413 11.310693 -1.614663 1.840623
1310.345650 676.427021 125.245807 0.000000 0.000000 0.000000 0.000000 0.000000 0.000000 97.572435 -1.445380 19.645745 -82.427565 1.037172 19.645745 50.400703 -2.238942 23.115397 -39.584286 -4.097976 19.122720 44.966766 4.878254 -23.115397 -8.852712 0.177188 2.128896
1315.732956 671.025095 120.356460 0.000000 0.000000 0.000000 0.000000 0.000000 0.000000 97.797337 1.071222 18.096541 -82.202663 4.956959 18.096541 49.825934 -1.818811 25.329838 -39.162923 4.366016 16.074804 36.475631 0.529617 -25.329838 -8.191519 -0.348501 2.408768
1329.935532 653.525419 137.475032 0.000000 0.000000 0.000000 0.000000 0.000000 0.000000 96.469555 0.968695 15.410265 -83.530445 2.099304 15.410265 63.882053 0.504214 27.144812 -51.972064 -0.509359 12.773379 58.624362 5.164351 -27.144812 -8.239564 0.072430 2.679134
1316.170578 674.246514 140.074043 0.000000 0.000000 0.000000 0.000000 0.000000 0.000000 -87.946330 -6.519607 11.755705 92.053670 -2.936194 11.755705 -29.715798 4.315110 28.531695 54.212796 -0.490128 9.270510 -40.560774 2.480647 -28.531695 11.008015 -0.218993 2.938926
1317.367287 678.027205 143.047529 0.000000 0.000000 0.000000 0.000000 0.000000 0.000000 95.152942 -11.703549 7.362491 -84.847058 12.819704 7.362491 98.792835 -4.051102 29.468618 -150.515547 -5.377142 5.621439 32.983753 4.988934 -29.468618 -14.701625 -0.498893 3.187120
1318.168488 670.157025 134.362458 0.000000 0.000000 0.000000 0.000000 0.000000 0.000000 -151.252255 67.280978 2.506665 28.747745 -63.169817 2.506665 138.896993 0.639388 29.940802 -151.946620 -6.955028 1.883716 38.784684 6.254723 -29.940802 -14.121532 -0.625472 3.422736
1323.412628 644.667885 151.096882 0.000000 0.000000 0.000000 0.000000 0.000000 0.000000 -97.904066 -5.383270 -2.506665 82.095934 7.180075 -2.506665 155.695030 1.873947 29.940802 -152.500978 -5.898143 -1.883716 44.721081 6.624446 -29.940802 -13.527892 -0.662445 3.644843
1312.776718 630.059459 138.050258 0.000000 0.000000 0.000000 0.000000 0.000000 0.000000 -116.637972 5.919794 -7.362491 63.362028 0.310045 -7.362491 171.094570 -0.252670 29.468618 -152.894064 -5.966880 -5.621439 43.947863 6.930188 -29.468618 -13.605214 -0.693019 3.852566
1316.420746 625.237019 163.799757 0.000000 0.000000 0.000000 0.000000 0.000000 0.000000 -136.254273 9.448237 -11.755705 43.745727 -16.297749 -11.755705 -177.663204 3.403662 28.531695 -153.006287 -6.754939 -9.270510 42.784597 8.709323 -28.531695 -13.721540 -0.870932 4.045085
1314.719925 628.818026 156.554849 0.000000 0.000000 0.000000 0.000000 0.000000 0.000000 -114.737929 -2.407051 -15.410265 65.262071 1.644341 -15.410265 -169.764314 -5.828134 27.144812 -153.369487 -7.018748 -12.773379 41.498347 8.351496 -27.144812 -13.850165 -0.835150 4.221640
1334.396782 646.165652 146.177149 0.000000 0.000000 0.000000 0.000000 0.000000 0.000000 -116.903454 -2.216677 -18.096541 63.096546 9.175893 -18.096541 -154.594534 -3.665069 25.329838 -153.225015 -6.350839 -16.074804 37.136182 9.487708 -25.329838 -14.286382 -0.948771 4.381533
1340.823784 648.244128 142.764246 0.000000 0.000000 0.000000 0.000000 0.000000 0.000000 -116.932323 -2.463594 -19.645745 63.067677 -1.883409 -19.645745 -138.898656 -1.252630 23.115397 35.335752 2.312106 -19.122720 -153.336856 -1.241274 -23.115397 2.206211 0.030373 4.524135
1330.023880 654.599032 143.456216 0.000000 0.000000 0.000000 0.000000 0.000000 0.000000 -112.150704 -6.699675 -19.960535 67.849296 6.079652 -19.960535 -118.798313 -4.278917 20.536413 -153.636372 -5.897303 -21.869059 16.691869 8.550581 -20.536413 -16.330813 -0.855058 4.648882
1337.431641 662.410698 147.474226 0.000000 0.000000 0.000000 0.000000 0.000000 0.000000 -109.111809 2.939901 -19.021130 70.888191 0.518221 -19.021130 -91.144379 -0.331617 17.633558 -154.448144 -6.542381 -24.270510 10.298202 6.534349 -17.633558 6.642051 -0.041701 4.755283
1324.339714 676.416593 149.807509 0.000000 0.000000 0.000000 0.000000 0.000000 0.000000 -104.120178 -6.501817 -16.886559 75.879822 -8.249121 -16.886559 -57.095620 1.369845 14.452610 38.799650 -0.601264 -26.289200 -71.942639 -1.756325 -14.452610 8.831938 0.243236 4.842916
962.890318 439.311049 146.757376 0.000000 0.000000 0.000000 0.000000 0.000000 0.000000 19.986963 8.478560 -13.690942 180.000000 1.881724 -13.690942 24.297229 -13.385342 11.043737 155.702771 -1.125445 -27.893295 14.983342 -4.261427 -11.043737 18.000000 0.126975 4.911436
962.789911 439.279946 148.408811 0.000000 0.000000 0.000000 0.000000 0.000000 0.000000 20.089586 10.059026 -9.635073 180.000000 -14.292083 -9.635073 24.330184 14.710353 7.460697 155.669816 -7.922584 -29.057495 14.926290 3.758246 -7.460697 18.000000 -0.213946 4.960574
641.318550 641.336324 144.170671 0.000000 0.000000 0.000000 0.000000 0.000000 0.000000 163.642929 -6.394877 -4.973798 -16.357071 -5.884736 -4.973798 -155.926011 7.673546 3.759997 -130.644608 -7.935289 -29.763441 68.679337 9.965711 -3.759997 -11.132066 -0.996571 4.990134
1305.385551 662.289033 148.346051 0.000000 0.000000 0.000000 0.000000 0.000000 0.000000 -81.949824 3.546672 -0.000000 98.050176 -18.365929 -0.000000 9.536664 3.233479 0.000000 -153.586691 -6.083576 -30.000000 24.402531 5.038676 -0.000000 -15.559747 -0.503868 5.000000
962.486899 439.186814 137.559944 0.000000 0.000000 0.000000 0.000000 0.000000 0.000000 20.465882 -29.956090 4.973798 180.000000 6.973146 4.973798 24.357206 1.045472 -3.759997 155.642794 8.074532 -29.763441 14.800425 -8.108913 3.759997 18.000000 0.117758 4.990134
1216.314240 612.580640 130.802577 0.000000 0.000000 0.000000 0.000000 0.000000 0.000000 78.221991 -13.162549 9.635073 -101.778009 12.918249 9.635073 46.689014 -4.911717 -7.460697 -61.937558 9.761566 -29.057495 44.546377 -4.035399 7.460697 -10.771750 -0.052937 4.960574
1273.897820 573.707514 142.937443 0.000000 0.000000 0.000000 0.000000 0.000000 0.000000 77.469628 -9.463539 13.690942 -102.530372 9.073702 13.690942 -155.691164 -5.552089 -11.043737 -120.750172 5.571606 -27.893295 -156.229293 -5.907813 11.043737 2.162203 0.552123 4.911436
1337.358742 570.303276 115.587422 0.000000 0.000000 0.000000 0.000000 0.000000 0.000000 73.705918 8.240480 16.886559 -106.294082 -7.462840 16.886559 -155.918376 -4.859981 -14.452610 -149.887909 -5.428224 -26.289200 0.000000 0.000000 0.000000 0.000000 0.000000 0.000000
1342.446442 569.623497 114.247185 0.000000 0.000000 0.000000 0.000000 0.000000 0.000000 68.898287 -4.810797 19.021130 -111.101713 -2.494818 19.021130 39.314088 2.489827 -17.633558 -140.912764 0.267046 -24.270510 -153.216026 -5.910374 17.633558 2.759242 0.678917 4.755283
1335.759430 584.665475 109.825641 0.000000 0.000000 0.000000 0.000000 0.000000 0.000000 66.989329 -0.545109 19.960535 -113.010671 -0.481225 19.960535 -154.807077 -4.769423 -20.536413 -142.328055 1.068522 -21.869059 -153.049156 -6.023796 20.536413 2.866457 0.603506 4.648882
1337.950974 598.074245 109.283076 0.000000 0.000000 0.000000 0.000000 0.000000 0.000000 62.697633 1.033106 19.645745 -117.302367 -3.808828 19.645745 19.366736 -1.637053 -23.115397 -144.826223 0.022755 -19.122720 9.911455 -0.059254 23.115397 -17.004209 0.049490 4.524135
1352.846489 601.043322 104.479672 0.000000 0.000000 0.000000 0.000000 0.000000 0.000000 59.083577 2.774091 18.096541 -120.916423 4.272434 18.096541 20.876734 0.917202 -25.329838 -142.301690 3.998860 -16.074804 13.356960 -1.699512 25.329838 -16.821524 0.065508 4.381533
1347.310982 587.475100 105.469207 0.000000 0.000000 0.000000 0.000000 0.000000 0.000000 56.169135 -0.435925 15.410265 -123.830865 -8.140770 15.410265 21.172503 4.012569 -27.144812 -139.640745 0.014201 -12.773379 14.641496 0.068728 27.144812 -16.282575 -0.054542 4.221640
1326.982155 606.886139 92.366859 0.000000 0.000000 0.000000 0.000000 0.000000 0.000000 70.119981 12.257240 11.755705 -109.880019 -10.146316 11.755705 26.511889 3.477102 -28.531695 -111.264667 -1.696634 -9.270510 31.153840 0.202797 28.531695 -13.943905 0.121812 4.045085
1354.391098 626.185555 87.620571 0.000000 0.000000 0.000000 0.000000 0.000000 0.000000 88.154395 3.594640 7.362491 -91.845605 3.219052 7.362491 30.442275 -3.022502 -29.468618 -76.284233 0.998500 -5.621439 43.854867 -2.248526 29.468618 -10.818190 0.383571 3.852566
1370.667114 610.219567 75.485985 0.000000 0.000000 0.000000 0.000000 0.000000 0.000000 89.945118 0.519546 2.506665 -90.054882 6.981031 2.506665 44.053326 1.974615 -29.940802 -56.238091 -1.245324 -1.883716 55.411270 3.997734 29.940802 -7.805659 0.055271 3.644843
1372.834854 597.828534 75.392268 0.000000 0.000000 0.000000 0.000000 0.000000 0.000000 93.407992 -2.038240 -2.506665 -86.592008 2.439602 -2.506665 54.165845 2.472989 -29.940802 -47.239220 1.585536 1.883716 56.575186 2.448640 29.940802 -6.344474 -0.923815 3.422736
1336.554337 597.454848 71.680586 0.000000 0.000000 0.000000 0.000000 0.000000 0.000000 95.622643 6.536903 -7.362491 -84.377357 -4.831111 -7.362491 56.597780 -0.840059 -29.468618 -45.108662 -0.867196 5.621439 55.386034 -3.380017 29.468618 -7.206870 0.005118 3.187120
1310.567093 590.844769 48.371498 0.000000 0.000000 0.000000 0.000000 0.000000 0.000000 100.193768 1.628977 -11.755705 -79.806232 -4.280972 -11.755705 61.986347 -1.171284 -28.531695 -37.593815 -2.271267 9.270510 62.907615 1.872287 28.531695 -6.637230 -0.109400 2.938926
1328.574371 576.493385 66.930064 0.000000 0.000000 0.000000 0.000000 0.000000 0.000000 101.943783 8.278145 -15.410265 -78.056217 5.231255 -15.410265 61.902838 -8.946200 -27.144812 -33.889586 -1.341489 12.773379 55.760387 -0.528430 27.144812 -7.097415 0.063567 2.679134
1316.178360 595.500870 82.825769 0.000000 0.000000 0.000000 0.000000 0.000000 0.000000 103.792097 -1.618136 -18.096541 -76.207903 0.292820 -18.096541 65.535198 3.814072 -25.329838 -28.739437 -1.019091 16.074804 68.415337 -2.226561 25.329838 -6.481753 0.249719 2.408768
1302.343140 568.138025 71.759707 0.000000 0.000000 0.000000 0.000000 0.000000 0.000000 101.222717 -11.979729 -19.645745 -78.777283 -1.121221 -19.645745 90.757296 1.682279 -23.115397 -18.578033 -2.881128 19.122720 97.909038 -4.002822 23.115397 -5.050134 0.366224 2.128896
1274.166183 540.660596 49.247261 0.000000 0.000000 0.000000 0.000000 0.000000 0.000000 -126.898591 -4.023961 -19.960535 53.101409 1.210688 -19.960535 127.276662 -0.169778 -20.536413 8.808645 -3.168028 21.869059 119.711272 1.355173 20.536413 -4.115393 -0.016371 1.840623
1268.557091 468.331075 61.913213 0.000000 0.000000 0.000000 0.000000 0.000000 0.000000 -124.112133 16.706854 -19.021130 55.887867 -14.469039 -19.021130 163.344780 0.347692 -17.633558 38.476068 -5.359059 24.270510 145.889074 -0.654027 17.633558 -1.929933 0.084183 1.545085
1278.673096 454.375906 41.678467 0.000000 0.000000 0.000000 0.000000 0.000000 0.000000 -126.805061 5.288841 -16.886559 53.194939 -6.035472 -16.886559 -174.009950 3.035367 -14.452610 27.419224 -2.927414 26.289200 168.192977 0.219036 14.452610 -0.976267 -0.052298 1.243449
1285.008774 434.700390 40.425338 0.000000 0.000000 0.000000 0.000000 0.000000 0.000000 -132.005120 4.216596 -13.690942 47.994880 -12.531341 -13.690942 -171.247775 2.342279 -11.043737 26.625253 -4.593593 27.893295 178.805957 1.417651 11.043737 0.023422 -0.037597 0.936907
1288.157730 426.987666 62.248663 0.000000 0.000000 0.000000 0.000000 0.000000 0.000000 -123.987926 7.652155 -9.635073 56.012074 1.776903 -9.635073 -166.356219 -1.720356 -7.460697 35.716336 -2.161187 29.057495 -172.960762 -0.023929 7.460697 0.819533 0.044157 0.626666
1291.221657 420.425448 48.792644 0.000000 0.000000 0.000000 0.000000 0.000000 0.000000 -122.265643 1.914679 -4.973798 57.734357 -5.179749 -4.973798 -156.870161 2.930907 -3.759997 38.220704 0.258209 29.763441 -165.716368 1.773127 3.759997 1.405814 -0.077809 0.313953
