HIERARCHY
ROOT Hips
{
    OFFSET 0.0 0.0 0.0
    CHANNELS 6 Xposition Yposition Zposition Zrotation Xrotation Yrotation
    JOINT Spine
    {
        OFFSET 0.0 5.0 0.0
        CHANNELS 3 Zrotation Xrotation Yrotation
        JOINT Chest
        {
            OFFSET 0.0 5.0 0.0
            CHANNELS 3 Zrotation Xrotation Yrotation
            JOINT Neck
            {
                OFFSET 0.0 8.0 0.0
                CHANNELS 3 Zrotation Xrotation Yrotation
                JOINT Head
                {
                    OFFSET 0.0 5.0 0.0
                    CHANNELS 3 Zrotation Xrotation Yrotation
                    End Site
                    {
                        OFFSET 0.0 3.0 0.0
                    }
                }
            }
            JOINT LeftShoulder
            {
                OFFSET -5.0 0.0 0.0
                CHANNELS 3 Zrotation Xrotation Yrotation
                JOINT LeftArm
                {
                    OFFSET 0.0 -10.0 0.0
                    CHANNELS 3 Zrotation Xrotation Yrotation
                    JOINT LeftForeArm
                    {
                        OFFSET 0.0 -10.0 0.0
                        CHANNELS 3 Zrotation Xrotation Yrotation
                        End Site
                        {
                            OFFSET 0.0 -3.0 0.0
                        }
                    }
                }
            }
        }
    }
}

MOTION
Frames: 300
Frame Time: 0.033333

960.000000 445.000000 90.886674 0.000000 0.000000 0.000000 0.000000 0.000000 0.000000 23.025492 -6.425467 0.000000 180.000000 -8.040852 0.000000 21.801409 9.191935 -0.000000 158.198591 -7.238885 30.000000 15.945396 -0.538423 0.000000 18.000000 0.136996 0.000000
1691.525230 140.756605 101.348863 0.000000 0.000000 0.000000 0.000000 0.000000 0.000000 -163.376529 3.757882 4.973798 16.623471 -2.946464 4.973798 -171.853121 -3.366547 3.759997 99.744051 6.724916 29.763441 -171.126653 -3.946430 -3.759997 0.673538 0.409271 0.313953
1636.048050 128.802021 93.742365 0.000000 0.000000 0.000000 0.000000 0.000000 0.000000 157.904128 1.375609 9.635073 -22.095872 -30.646177 9.635073 -171.936471 -3.325307 7.460697 -143.675701 -0.964121 29.057495 -173.500805 -4.242685 -7.460697 0.570999 0.490832 0.626666
1578.156967 80.474526 109.798516 0.000000 0.000000 0.000000 0.000000 0.000000 0.000000 -139.519796 8.266817 13.690942 40.480204 -8.856783 13.690942 -174.507724 -3.492381 11.043737 119.111399 -10.111781 27.893295 -173.607258 -3.699425 -11.043737 0.461920 0.512831 0.936907
960.418757 444.998421 122.537507 0.000000 0.000000 0.000000 0.000000 0.000000 0.000000 25.077893 -6.239778 16.886559 180.000000 1.895196 16.886559 23.861935 8.116494 14.452610 156.138065 15.643123 26.289200 17.903699 -6.800586 -14.452610 18.000000 -0.202861 1.243449
960.523360 444.997533 133.334757 0.000000 0.000000 0.000000 0.000000 0.000000 0.000000 25.638906 7.889867 19.021130 180.000000 -6.491512 19.021130 24.425035 5.440553 17.633558 155.574965 -5.101654 24.270510 18.452907 0.984949 -17.633558 18.000000 -0.333617 1.545085
960.627905 444.996447 131.475160 0.000000 0.000000 0.000000 0.000000 0.000000 0.000000 26.219073 24.826503 19.960535 180.000000 5.252578 19.960535 25.006291 -11.918045 20.536413 154.993709 -3.926324 21.869059 19.024920 -9.086723 -20.536413 18.000000 1.216688 1.840623
1126.242828 420.359820 146.169244 0.000000 0.000000 0.000000 0.000000 0.000000 0.000000 31.410514 1.580727 19.645745 -148.589486 9.197247 19.645745 32.280463 -8.269258 23.115397 -131.603972 -1.076900 19.122720 45.585331 2.113957 -23.115397 -13.449727 -0.137925 2.128896
1257.895088 650.549197 114.374597 0.000000 0.000000 0.000000 0.000000 0.000000 0.000000 25.073180 -0.838576 18.096541 -154.926820 -9.192230 18.096541 46.260945 0.551545 25.329838 -154.651428 -5.324429 16.074804 27.339487 5.997819 -25.329838 -13.619892 -1.629980 2.408768
960.941083 444.992008 143.409219 0.000000 0.000000 0.000000 0.000000 0.000000 0.000000 28.072001 -6.974753 15.410265 180.000000 -0.934031 15.410265 26.849221 -6.192867 27.144812 153.150779 -4.223365 12.773379 20.864045 0.506626 -27.144812 18.000000 1.029127 2.679134
1163.815842 547.748709 156.924861 0.000000 0.000000 0.000000 0.000000 0.000000 0.000000 117.162728 -13.478143 11.755705 -62.837272 12.589895 11.755705 102.363764 -3.244703 28.531695 -47.376450 4.722388 9.270510 104.768601 -0.473696 -28.531695 -6.003489 0.379513 2.938926
961.149372 444.988063 148.814073 0.000000 0.000000 0.000000 0.000000 0.000000 0.000000 29.395983 9.859233 7.362491 180.000000 3.609535 7.362491 28.146217 4.787084 29.468618 151.853783 4.641728 5.621439 22.170006 -5.003023 -29.468618 18.000000 0.846839 3.187120
1136.717377 590.104480 157.748264 0.000000 0.000000 0.000000 0.000000 0.000000 0.000000 115.752126 -5.883569 2.506665 -64.247874 0.988336 2.506665 73.638146 1.991342 29.940802 -21.842452 7.748033 1.883716 75.369282 -6.063651 -29.940802 -6.767207 -0.574553 3.422736
1163.079758 634.077559 159.708104 0.000000 0.000000 0.000000 0.000000 0.000000 0.000000 132.174340 7.589717 -2.506665 -47.825660 1.173066 -2.506665 94.255711 -1.850616 29.940802 -149.364979 -7.082901 -1.883716 30.021641 5.884853 -29.940802 -5.096180 -0.810720 3.644843
961.460830 444.980668 167.458649 0.000000 0.000000 0.000000 0.000000 0.000000 0.000000 31.497152 8.973708 -7.362491 180.000000 -19.828948 -7.362491 30.152455 12.811888 29.468618 149.847545 -3.014180 -5.621439 24.175589 -4.144164 -29.468618 18.000000 1.217093 3.852566
1097.449951 565.089898 140.509287 0.000000 0.000000 0.000000 0.000000 0.000000 0.000000 -119.219568 -4.370067 -11.755705 60.780432 3.755241 -11.755705 -150.180642 -7.250222 28.531695 48.804955 -0.185966 -9.270510 -149.874178 -6.168257 -28.531695 2.713854 0.577089 4.045085
1114.140244 528.302071 151.858703 0.000000 0.000000 0.000000 0.000000 0.000000 0.000000 -142.671523 -5.361131 -15.410265 37.328477 9.391522 -15.410265 -177.395681 -2.769175 27.144812 34.687329 4.754582 -12.773379 161.894167 2.625891 -27.144812 -0.910956 0.068267 4.221640
1116.433640 479.728639 164.520901 0.000000 0.000000 0.000000 0.000000 0.000000 0.000000 -102.267481 -11.524218 -18.096541 77.732519 6.033800 -18.096541 -163.695626 2.325602 25.329838 38.575767 2.566816 -16.074804 -176.001122 -1.418295 -25.329838 0.706594 -0.118378 4.381533
1135.931282 466.493965 141.947434 0.000000 0.000000 0.000000 0.000000 0.000000 0.000000 -112.868406 -4.245329 -19.645745 67.131594 -11.943277 -19.645745 -159.517862 -2.378541 23.115397 36.204678 -3.963597 -19.122720 -154.426613 -5.529162 -23.115397 2.428729 0.448644 4.524135
1141.618767 467.420679 137.602043 0.000000 0.000000 0.000000 0.000000 0.000000 0.000000 -123.086385 -10.775216 -19.960535 56.913615 13.614461 -19.960535 -154.885724 -1.343262 20.536413 36.481623 2.254987 -21.869059 -153.965441 -5.601245 -20.536413 2.446728 0.485616 4.648882
1150.647926 469.370956 151.468817 0.000000 0.000000 0.000000 0.000000 0.000000 0.000000 -43.953779 -31.163126 -19.021130 136.046221 25.417320 -19.021130 -154.327268 -7.067536 17.633558 60.745168 25.599469 -24.270510 -153.350642 -7.820551 -17.633558 2.386216 0.617949 4.755283
1151.529922 496.420240 149.204918 0.000000 0.000000 0.000000 0.000000 0.000000 0.000000 -116.362129 -5.716634 -16.886559 63.637871 -4.453794 -16.886559 -149.081043 0.586978 14.452610 35.941860 -2.923967 -26.289200 -156.847177 1.563442 -14.452610 2.056513 -0.116856 4.842916
1148.402367 515.713574 161.150041 0.000000 0.000000 0.000000 0.000000 0.000000 0.000000 -118.252650 -15.707789 -13.690942 61.747350 8.579150 -13.690942 -138.082896 -3.297626 11.043737 -156.312677 -6.643765 -27.893295 21.649626 9.832569 -11.043737 2.962417 0.101165 4.911436
1175.363617 533.368646 125.579573 0.000000 0.000000 0.000000 0.000000 0.000000 0.000000 -95.476638 10.433442 -9.635073 84.523362 -9.961213 -9.635073 -113.907461 3.869818 7.460697 -155.995907 -6.734216 -29.057495 12.512064 8.273581 -7.460697 -16.748794 -0.827358 4.960574
1199.533310 485.991104 119.141048 0.000000 0.000000 0.000000 0.000000 0.000000 0.000000 -100.003195 -1.675073 -4.973798 79.996805 -0.028974 -4.973798 -86.083188 6.123314 3.759997 38.843754 3.385364 -29.763441 -106.539452 -1.804342 -3.759997 6.197806 -0.014071 4.990134
962.588190 444.938442 135.735382 0.000000 0.000000 0.000000 0.000000 0.000000 0.000000 39.579754 45.074287 -0.000000 180.000000 -22.282638 -0.000000 36.680773 -11.631888 0.000000 143.319227 -19.925562 -30.000000 29.388385 0.953356 -0.000000 18.000000 -1.115777 5.000000
1142.094727 445.716287 123.230472 0.000000 0.000000 0.000000 0.000000 0.000000 0.000000 -140.228454 -32.831906 4.973798 39.771546 -29.085500 4.973798 -156.118008 -5.377505 -3.759997 3.479189 -4.222209 -29.763441 -158.005660 -5.412735 3.759997 2.150019 0.515723 4.990134
1164.005928 424.847746 121.505867 0.000000 0.000000 0.000000 0.000000 0.000000 0.000000 -84.241076 4.660989 9.635073 95.758924 -9.180159 9.635073 -156.181584 -5.599264 -7.460697 166.928360 -7.255721 -29.057495 -154.947270 -5.632264 7.460697 2.644196 0.532488 4.960574
1124.208755 418.286655 127.667905 0.000000 0.000000 0.000000 0.000000 0.000000 0.000000 -117.427077 6.597517 13.690942 62.572923 -9.754647 13.690942 -155.943063 -5.488147 -11.043737 14.023837 -8.470112 -27.893295 -157.382674 -5.235798 11.043737 2.188130 0.493322 4.911436
962.990408 444.917226 116.744258 0.000000 0.000000 0.000000 0.000000 0.000000 0.000000 42.110883 -15.225300 16.886559 180.000000 -3.471951 16.886559 37.946959 6.094836 -14.452610 142.053041 6.444973 -26.289200 29.293612 1.256184 14.452610 18.000000 -0.789460 4.842916
963.090170 444.911436 90.411249 0.000000 0.000000 0.000000 0.000000 0.000000 0.000000 42.659200 -20.628726 19.021130 180.000000 18.027490 19.021130 38.119107 -13.519779 -17.633558 141.880893 2.431031 -24.270510 29.068887 1.853987 17.633558 18.000000 -0.652521 4.755283
1186.646461 396.272757 101.680608 0.000000 0.000000 0.000000 0.000000 0.000000 0.000000 -72.847419 -4.528415 19.960535 107.152581 19.977899 19.960535 -156.703603 -5.684885 -20.536413 178.447294 -9.452153 -21.869059 -157.212393 -4.583797 20.536413 1.964058 0.499698 4.648882
1313.051605 426.636125 85.507594 0.000000 0.000000 0.000000 0.000000 0.000000 0.000000 90.994869 5.338485 19.645745 -89.005131 -8.374165 19.645745 -160.515303 -4.269889 -23.115397 -153.248861 -1.523188 -19.122720 -159.640525 -4.874998 23.115397 0.000000 0.000000 0.000000
1347.999344 420.772226 88.477666 0.000000 0.000000 0.000000 0.000000 0.000000 0.000000 90.154351 1.595767 18.096541 -89.845649 -6.505877 18.096541 -162.053401 -3.748939 -25.329838 -136.198880 -7.158337 -16.074804 -160.991694 -3.598061 25.329838 0.000000 0.000000 0.000000
1344.315948 421.031681 83.989464 0.000000 0.000000 0.000000 0.000000 0.000000 0.000000 69.757587 -3.707616 15.410265 -110.242413 -4.895340 15.410265 25.616746 7.096675 -27.144812 -157.821005 -3.077377 -12.773379 17.214985 2.982035 27.144812 -16.704706 0.087643 4.221640
1350.307617 440.309436 79.901833 0.000000 0.000000 0.000000 0.000000 0.000000 0.000000 71.124018 0.910286 11.755705 -108.875982 5.074338 11.755705 42.739987 -10.970071 -28.531695 -142.315466 2.409776 -9.270510 16.600926 -2.340451 28.531695 -16.660102 0.300794 4.045085
1357.685051 430.688889 92.300648 0.000000 0.000000 0.000000 0.000000 0.000000 0.000000 77.656077 -3.644685 7.362491 -102.343923 5.721269 7.362491 39.407151 -6.816064 -29.468618 -136.343173 -4.122573 -5.621439 22.144452 -0.168186 29.468618 -16.305135 0.196414 3.852566
1369.482193 445.909406 70.637693 0.000000 0.000000 0.000000 0.000000 0.000000 0.000000 88.051188 4.376574 2.506665 -91.948812 -1.693369 2.506665 -161.283973 -3.245280 -29.940802 -119.799169 1.291944 -1.883716 -164.575400 -3.907957 29.940802 1.401013 0.450144 3.644843
963.875156 444.858159 83.145535 0.000000 0.000000 0.000000 0.000000 0.000000 0.000000 45.304844 -31.577332 -2.506665 180.000000 -6.194845 -2.506665 37.252439 2.582589 -29.940802 142.747561 1.924897 1.883716 25.146244 -9.004306 29.940802 18.000000 0.783226 3.422736
963.971479 444.850633 63.599810 0.000000 0.000000 0.000000 0.000000 0.000000 0.000000 45.383640 26.193097 -7.362491 180.000000 -17.422691 -7.362491 36.882310 -23.867583 -29.468618 143.117690 -6.175132 5.621439 24.499789 -6.165001 29.468618 18.000000 -0.398173 3.187120
1336.629524 469.010178 51.354168 0.000000 0.000000 0.000000 0.000000 0.000000 0.000000 -72.390177 -5.722671 -11.755705 107.609823 14.345672 -11.755705 -158.649984 -3.005881 -28.531695 2.583425 3.986328 9.270510 -39.658551 -11.322386 28.531695 10.837181 0.254739 2.938926
1311.966934 518.219100 57.767559 0.000000 0.000000 0.000000 0.000000 0.000000 0.000000 -63.565072 -40.946620 -15.410265 116.434928 30.733361 -15.410265 -14.840750 2.059748 -27.144812 -158.549348 -2.520276 12.773379 17.488774 2.402976 27.144812 7.174982 -3.738377 2.679134
964.257793 444.826908 48.884579 0.000000 0.000000 0.000000 0.000000 0.000000 0.000000 45.262206 -37.214990 -18.096541 180.000000 2.812508 -18.096541 35.497192 16.950359 -25.329838 144.502808 12.661918 16.074804 22.522929 -4.847963 25.329838 18.000000 -0.248318 2.408768
1275.921364 516.836239 46.536156 0.000000 0.000000 0.000000 0.000000 0.000000 0.000000 85.186295 -7.803575 -19.645745 -94.813705 -11.201411 -19.645745 52.470689 5.236730 -23.115397 -44.513683 -6.400481 19.122720 50.867598 2.728272 23.115397 -8.717188 0.707485 2.128896
1263.254128 546.875424 44.066332 0.000000 0.000000 0.000000 0.000000 0.000000 0.000000 34.848242 -67.638735 -19.960535 -145.151758 -21.897960 -19.960535 42.487561 46.955633 -20.536413 -157.415675 -2.001170 21.869059 22.420880 2.965062 20.536413 -15.757912 -0.296506 1.840623
1258.788185 528.263061 48.531099 0.000000 0.000000 0.000000 0.000000 0.000000 0.000000 118.326865 18.182929 -19.021130 -61.673135 -6.306979 -19.021130 143.214759 -5.905252 -17.633558 -156.228306 -2.400533 24.270510 28.173554 2.055839 17.633558 -15.182645 -0.205584 1.545085
1231.492081 471.383836 47.031995 0.000000 0.000000 0.000000 0.000000 0.000000 0.000000 -115.049381 -41.733642 -16.886559 64.950619 18.362177 -16.886559 172.843704 3.993767 -14.452610 -157.842300 -1.692857 26.289200 32.851042 2.733234 14.452610 -14.714896 -0.273323 1.243449
1223.928795 435.993515 42.497754 0.000000 0.000000 0.000000 0.000000 0.000000 0.000000 -115.322532 -4.424232 -13.690942 64.677468 19.429893 -13.690942 -168.597862 -4.160121 -11.043737 -158.853816 -1.859861 27.893295 31.099266 2.460520 11.043737 -14.890073 -0.246052 0.936907
1223.669701 418.195664 65.199465 0.000000 0.000000 0.000000 0.000000 0.000000 0.000000 -102.084053 -33.721570 -9.635073 77.915947 23.214181 -9.635073 -171.103858 0.576268 -7.460697 162.056334 7.104671 29.057495 -153.594437 -2.623705 7.460697 2.968481 0.284374 0.626666
1216.486244 414.503002 50.907282 0.000000 0.000000 0.000000 0.000000 0.000000 0.000000 69.261091 0.586355 -4.973798 -110.738909 -6.574690 -4.973798 -158.083722 -2.709920 -3.759997 -173.244581 -2.970260 29.763441 -154.635509 -2.743640 3.759997 2.928763 0.215809 0.313953
1212.090225 434.550980 38.912741 0.000000 0.000000 0.000000 0.000000 0.000000 0.000000 -112.403932 6.898516 0.000000 67.596068 -14.457827 0.000000 -157.060799 -2.500154 -0.000000 173.400765 -1.062624 30.000000 -154.473580 -3.151162 0.000000 2.734633 0.379143 0.000000
1214.024734 450.340490 58.005404 0.000000 0.000000 0.000000 0.000000 0.000000 0.000000 -110.634751 -4.390404 4.973798 69.365249 5.323387 4.973798 -137.583343 -1.440418 3.759997 -158.589698 -2.610071 29.763441 20.879446 2.738305 -3.759997 -15.912055 -0.273830 0.313953
1204.271393 440.192921 62.065372 0.000000 0.000000 0.000000 0.000000 0.000000 0.000000 -99.498286 -1.082719 9.635073 80.501714 -14.799150 9.635073 -156.696469 -2.525404 7.460697 -178.487725 -14.789326 29.057495 -157.318323 -2.452985 -7.460697 2.108583 0.243237 0.626666
965.269558 444.725315 47.010999 0.000000 0.000000 0.000000 0.000000 0.000000 0.000000 40.845461 34.488149 13.690942 180.000000 -19.060854 13.690942 28.615377 -6.970377 11.043737 151.384623 -1.745017 27.893295 16.305092 -5.840416 -11.043737 18.000000 0.333608 0.936907
1182.456551 475.103824 48.653543 0.000000 0.000000 0.000000 0.000000 0.000000 0.000000 -168.146016 67.614203 16.886559 11.853984 -82.948911 16.886559 -63.802645 7.017626 14.452610 -61.114510 -3.949834 26.289200 -47.869281 -3.578178 -14.452610 -13.834956 -7.762908 1.243449
965.446390 444.704404 60.781470 0.000000 0.000000 0.000000 0.000000 0.000000 0.000000 39.578146 12.196538 19.021130 180.000000 -9.632228 19.021130 27.338029 8.016996 17.633558 152.661971 -0.040714 24.270510 15.463180 -3.011596 -17.633558 18.000000 -1.017049 1.545085
965.533915 444.693669 66.823089 0.000000 0.000000 0.000000 0.000000 0.000000 0.000000 38.916706 24.786159 19.960535 180.000000 0.413382 19.960535 26.716768 -4.616114 20.536413 153.283232 -10.097701 21.869059 15.076605 4.653798 -20.536413 18.000000 0.090160 1.840623
965.620834 444.682749 65.522866 0.000000 0.000000 0.000000 0.000000 0.000000 0.000000 38.241653 -1.714436 19.645745 180.000000 -15.885474 19.645745 26.109467 -2.527373 23.115397 153.890533 -21.085611 19.122720 14.712258 12.142248 -23.115397 18.000000 -0.543752 2.128896
965.707136 444.671645 86.211493 0.000000 0.000000 0.000000 0.000000 0.000000 0.000000 37.556504 18.386670 18.096541 180.000000 -19.295048 18.096541 25.517536 -0.326809 25.329838 154.482464 3.053753 16.074804 14.369537 -6.463324 -25.329838 18.000000 0.057298 2.408768
965.792812 444.660356 78.303354 0.000000 0.000000 0.000000 0.000000 0.000000 0.000000 36.864608 7.924338 15.410265 180.000000 18.563131 15.410265 24.942131 -6.981033 27.144812 155.057869 10.207569 12.773379 14.047797 -5.535477 -27.144812 18.000000 0.542171 2.679134
965.877853 444.648882 84.719712 0.000000 0.000000 0.000000 0.000000 0.000000 0.000000 36.169118 -0.099362 11.755705 180.000000 -15.722309 11.755705 24.384173 0.094660 28.531695 155.615827 -5.324122 9.270510 13.746367 1.097236 -28.531695 18.000000 -0.467850 2.938926
965.962249 444.637226 86.283864 0.000000 0.000000 0.000000 0.000000 0.000000 0.000000 35.472980 2.967487 7.362491 180.000000 9.456091 7.362491 23.844373 0.966126 29.468618 156.155627 8.087069 5.621439 13.464570 -1.264571 -29.468618 18.000000 0.118074 3.187120
966.045991 444.625386 93.938021 0.000000 0.000000 0.000000 0.000000 0.000000 0.000000 34.778913 -29.518217 2.506665 180.000000 6.280808 2.506665 23.323250 7.183234 29.940802 156.676750 -7.366166 1.883716 13.201728 8.717965 -29.940802 18.000000 0.148091 3.422736
966.129071 444.613364 102.604535 0.000000 0.000000 0.000000 0.000000 0.000000 0.000000 34.089406 32.919660 -2.506665 180.000000 -4.294260 -2.506665 22.821158 -5.488201 29.940802 157.178842 -10.234383 -1.883716 12.957175 7.896889 -29.940802 18.000000 -0.016105 3.644843
966.211478 444.601159 104.152879 0.000000 0.000000 0.000000 0.000000 0.000000 0.000000 33.406712 5.074745 -7.362491 180.000000 -7.368270 -7.362491 22.338307 4.846562 29.468618 157.661693 3.400997 -5.621439 12.730264 0.817253 -29.468618 18.000000 -0.145982 3.852566
1171.486244 534.946783 103.296220 0.000000 0.000000 0.000000 0.000000 0.000000 0.000000 70.594720 0.404769 -11.755705 -109.405280 -5.385012 -11.755705 49.953444 11.652184 28.531695 -151.467583 -4.951086 -9.270510 0.000000 0.000000 0.000000 0.000000 0.000000 0.000000
966.374240 444.576206 91.589223 0.000000 0.000000 0.000000 0.000000 0.000000 0.000000 32.069603 15.038175 -15.410265 180.000000 -1.719008 -15.410265 21.430544 2.060818 27.144812 158.569456 -1.568086 -12.773379 12.326901 -0.827148 -27.144812 18.000000 -0.086239 4.221640
1172.156410 555.047708 126.865871 0.000000 0.000000 0.000000 0.000000 0.000000 0.000000 -121.065102 -18.127508 -18.096541 58.934898 -6.638473 -18.096541 -151.641456 -5.547207 25.329838 -177.360623 -1.484203 -16.074804 -149.076048 -6.450231 -25.329838 0.000000 0.000000 0.000000
1161.826630 552.360713 108.988124 0.000000 0.000000 0.000000 0.000000 0.000000 0.000000 69.958407 8.900155 -19.645745 -110.041593 1.298570 -19.645745 -152.437496 -6.280835 23.115397 -158.790607 -5.307887 -19.122720 -150.591725 -6.336418 -23.115397 3.219062 0.744341 4.524135
1165.827255 569.832902 130.568429 0.000000 0.000000 0.000000 0.000000 0.000000 0.000000 25.594208 -10.626845 -19.960535 -154.405792 -0.325665 -19.960535 11.723883 -0.281824 20.536413 -161.543160 1.798248 -21.869059 7.769582 -1.438642 -20.536413 -17.248199 0.125393 4.648882
1165.555573 565.067046 142.652489 0.000000 0.000000 0.000000 0.000000 0.000000 0.000000 43.355707 2.339433 -19.021130 -136.644293 -12.418321 -19.021130 15.984329 12.144200 17.633558 -140.773833 0.388233 -24.270510 13.679449 1.100004 -17.633558 -16.392157 -0.202398 4.755283
1290.255775 608.533316 129.852354 0.000000 0.000000 0.000000 0.000000 0.000000 0.000000 -153.952071 15.913124 -16.886559 26.047929 -9.462422 -16.886559 -152.683807 -5.870596 14.452610 4.794196 -9.560371 -26.289200 -154.287190 -5.306344 -14.452610 2.418080 0.549267 4.842916
1180.398903 551.817470 132.338270 0.000000 0.000000 0.000000 0.000000 0.000000 0.000000 51.640104 3.660265 -13.690942 -128.359896 4.078113 -13.690942 14.419400 1.645304 11.043737 -33.521359 -9.703709 -27.893295 -34.277510 7.882676 -11.043737 5.235387 1.072333 4.911436
1162.708626 619.419501 144.797547 0.000000 0.000000 0.000000 0.000000 0.000000 0.000000 -88.968325 0.664674 -9.635073 91.031675 12.969098 -9.635073 -52.690088 -0.298202 7.460697 25.015222 -1.053410 -29.057495 -72.561734 2.115400 -7.460697 8.557489 0.039945 4.960574
1110.899391 602.919216 153.863101 0.000000 0.000000 0.000000 0.000000 0.000000 0.000000 -86.972237 6.607130 -4.973798 93.027763 -6.444297 -4.973798 -39.551144 -0.118164 3.759997 34.838085 -3.082245 -29.763441 -44.185810 0.741769 -3.759997 10.000609 0.936315 4.990134
1150.187302 553.686991 130.185990 0.000000 0.000000 0.000000 0.000000 0.000000 0.000000 -116.065142 -2.849261 -0.000000 63.934858 -4.976486 -0.000000 -151.059314 -6.087055 0.000000 -0.492058 -8.147420 -30.000000 -14.044098 25.630465 -0.000000 1.929760 0.639784 5.000000
967.144727 444.440682 123.616603 0.000000 0.000000 0.000000 0.000000 0.000000 0.000000 26.270296 11.917206 4.973798 180.000000 -5.651268 4.973798 17.996647 -0.787382 -3.759997 162.003353 -6.863356 -29.763441 11.189167 4.407135 3.759997 18.000000 -0.168520 4.990134
1213.452644 620.002785 150.709518 0.000000 0.000000 0.000000 0.000000 0.000000 0.000000 140.390379 2.286086 9.635073 -39.609621 -6.361937 9.635073 77.724607 7.490950 -7.460697 -153.982965 -6.546523 -29.057495 24.142749 5.673506 7.460697 -0.833727 -0.765726 4.960574
1124.373779 618.464527 161.096132 0.000000 0.000000 0.000000 0.000000 0.000000 0.000000 99.329635 16.152877 13.690942 -80.670365 38.144065 13.690942 85.960927 -9.377802 -11.043737 -150.875293 -6.666552 -27.893295 31.644098 6.797762 11.043737 -14.835590 -0.679776 4.911436
967.360971 444.396582 156.966317 0.000000 0.000000 0.000000 0.000000 0.000000 0.000000 24.874716 4.421227 16.886559 180.000000 -5.076834 16.886559 17.291102 2.396478 -14.452610 162.708898 -13.099349 -26.289200 11.098846 1.045255 14.452610 18.000000 0.503985 4.842916
1107.875175 542.453964 160.779777 0.000000 0.000000 0.000000 0.000000 0.000000 0.000000 -128.741314 -1.108064 19.021130 51.258686 -2.514077 19.021130 -177.225595 -2.414573 -17.633558 19.954750 -5.044111 -24.270510 162.677362 4.310859 17.633558 -1.443098 -0.010213 4.755283
1119.652290 522.766346 154.180393 0.000000 0.000000 0.000000 0.000000 0.000000 0.000000 -99.017754 -9.805143 19.960535 80.982246 -11.541395 19.960535 -150.289603 -6.672028 -20.536413 -152.613833 -7.480249 -21.869059 0.000000 0.000000 0.000000 0.000000 0.000000 0.000000
1132.908783 538.229613 146.174082 0.000000 0.000000 0.000000 0.000000 0.000000 0.000000 -127.874185 -4.150522 19.645745 52.125815 -5.882102 19.645745 -165.450188 -3.014679 -23.115397 -152.521515 -7.676334 -19.122720 40.606225 8.027289 23.115397 -13.939378 -0.802729 4.524135
1146.969337 541.828065 133.277756 0.000000 0.000000 0.000000 0.000000 0.000000 0.000000 -113.631604 2.390665 18.096541 66.368396 6.254823 18.096541 -159.067475 -1.981859 -25.329838 113.981862 2.780145 -16.074804 -145.449815 -6.627001 25.329838 0.000000 0.000000 0.000000
1165.252304 561.329677 140.976319 0.000000 0.000000 0.000000 0.000000 0.000000 0.000000 -112.861399 22.719830 15.410265 67.138601 -5.472914 15.410265 -159.396543 -0.553542 -27.144812 -151.967552 -7.384637 -12.773379 38.422588 8.941201 27.144812 -14.157741 -0.894120 4.221640
1174.726181 592.839689 133.949833 0.000000 0.000000 0.000000 0.000000 0.000000 0.000000 -110.369899 2.298686 11.755705 69.630101 1.514254 11.755705 -148.108768 3.521765 -28.531695 -151.515612 -6.885176 -9.270510 34.277732 8.466982 28.531695 -14.572227 -0.846698 4.045085
1167.352524 605.194867 144.282663 0.000000 0.000000 0.000000 0.000000 0.000000 0.000000 -113.828445 -16.315041 7.362491 66.171555 10.726718 7.362491 -131.688453 2.573862 -29.468618 -151.045756 -5.131899 -5.621439 27.200835 9.045797 29.468618 -15.279916 -0.904580 3.852566
1139.678879 602.981014 123.653745 0.000000 0.000000 0.000000 0.000000 0.000000 0.000000 -97.599684 -2.459474 2.506665 82.400316 8.542293 2.506665 -113.965806 1.612831 -29.940802 -121.058781 -6.017910 -1.883716 -118.492407 4.945564 29.940802 10.137620 -0.763038 3.644843
1165.830002 580.020189 116.445851 0.000000 0.000000 0.000000 0.000000 0.000000 0.000000 -28.085052 9.122891 -2.506665 151.914948 -10.825330 -2.506665 -150.589103 -5.922592 -29.940802 -172.678414 -6.030941 1.883716 -149.717924 -6.048918 29.940802 0.000000 0.000000 0.000000
1184.501953 619.872494 115.875811 0.000000 0.000000 0.000000 0.000000 0.000000 0.000000 -113.790307 -18.387099 -7.362491 66.209693 12.201355 -7.362491 -59.272274 -3.485911 -29.468618 29.476823 2.356314 5.621439 -88.148483 0.852004 29.468618 7.414604 -0.041123 3.187120
968.090170 444.221640 118.810467 0.000000 0.000000 0.000000 0.000000 0.000000 0.000000 21.092887 -9.612753 -11.755705 180.000000 0.632583 -11.755705 15.757771 -3.217882 -28.531695 164.242229 10.181904 9.270510 11.678908 -5.304317 28.531695 18.000000 -0.437959 2.938926
968.151278 444.204723 118.175140 0.000000 0.000000 0.000000 0.000000 0.000000 0.000000 20.844337 9.166620 -15.410265 180.000000 -2.547064 -15.410265 15.691895 -2.283835 -27.144812 164.308105 0.427104 12.773379 11.804629 -5.915273 27.144812 18.000000 0.315056 2.679134
968.211492 444.187640 107.843088 0.000000 0.000000 0.000000 0.000000 0.000000 0.000000 20.610265 5.631012 -18.096541 180.000000 -13.436536 -18.096541 15.637361 15.303092 -25.329838 164.362639 -2.674157 16.074804 11.943263 1.735702 25.329838 18.000000 0.109441 2.408768
968.270806 444.170392 90.709247 0.000000 0.000000 0.000000 0.000000 0.000000 0.000000 20.390366 -12.776152 -19.645745 180.000000 -3.484158 -19.645745 15.594026 3.553950 -23.115397 164.405974 4.800471 19.122720 12.095062 -2.049520 23.115397 18.000000 -0.246485 2.128896
968.329212 444.152979 91.178702 0.000000 0.000000 0.000000 0.000000 0.000000 0.000000 20.184343 -4.668928 -19.960535 180.000000 -10.797343 -19.960535 15.561766 6.414020 -20.536413 164.438234 1.333994 21.869059 12.260289 -7.776941 20.536413 18.000000 0.192373 1.840623
968.386706 444.135403 91.272147 0.000000 0.000000 0.000000 0.000000 0.000000 0.000000 19.991916 -21.073658 -19.021130 180.000000 13.292030 -19.021130 15.540476 -1.200439 -17.633558 164.459524 12.559365 24.270510 12.439222 -5.071220 17.633558 18.000000 0.031163 1.545085
968.443279 444.117663 89.429700 0.000000 0.000000 0.000000 0.000000 0.000000 0.000000 19.812814 2.866940 -16.886559 180.000000 -4.685012 -16.886559 15.530069 1.127852 -14.452610 164.469931 1.374422 26.289200 12.632146 3.333143 14.452610 18.000000 -0.725982 1.243449
968.498927 444.099761 66.286977 0.000000 0.000000 0.000000 0.000000 0.000000 0.000000 19.646785 -27.750300 -13.690942 180.000000 3.038284 -13.690942 15.530474 3.996927 -11.043737 164.469526 -0.283424 27.893295 12.839349 6.946643 11.043737 18.000000 -0.659574 0.936907
968.553643 444.081696 79.188164 0.000000 0.000000 0.000000 0.000000 0.000000 0.000000 19.493591 6.232296 -9.635073 180.000000 -3.057953 -9.635073 15.541640 2.665302 -7.460697 164.458360 1.230946 29.057495 13.061119 -1.304005 7.460697 18.000000 0.120600 0.626666
1051.772690 653.004448 61.706193 0.000000 0.000000 0.000000 0.000000 0.000000 0.000000 -79.007834 -8.266405 -4.973798 100.992166 9.655922 -4.973798 -126.715299 -7.797911 -3.759997 -149.991181 -4.049195 29.763441 31.772279 5.410923 3.759997 -14.822772 -0.541092 0.313953
1061.669197 624.716241 67.973269 0.000000 0.000000 0.000000 0.000000 0.000000 0.000000 -94.718359 26.551576 0.000000 85.281641 -24.440418 0.000000 -144.150484 2.103581 -0.000000 60.155085 4.283851 30.000000 -152.711462 -5.556935 0.000000 1.815393 -0.001094 0.000000
1072.053337 571.032879 69.744388 0.000000 0.000000 0.000000 0.000000 0.000000 0.000000 71.424080 1.286558 4.973798 -108.575920 -22.125692 4.973798 -149.042361 -1.867630 3.759997 -149.913636 2.534450 29.763441 -145.792107 -4.735045 -3.759997 3.947623 0.436008 0.313953
1070.057373 572.884376 50.123222 0.000000 0.000000 0.000000 0.000000 0.000000 0.000000 -80.850201 60.198979 9.635073 99.149799 -53.634871 9.635073 -147.567525 -2.927078 7.460697 -164.443014 -3.303853 29.057495 -145.447997 -4.454344 -7.460697 4.032371 0.545621 0.626666
968.813035 443.988972 71.523432 0.000000 0.000000 0.000000 0.000000 0.000000 0.000000 18.912944 22.677117 13.690942 180.000000 -4.212588 13.690942 15.758200 -2.415804 11.043737 164.241800 -1.765232 27.893295 14.397395 -3.025701 -11.043737 18.000000 -0.331160 0.936907
968.862036 443.969952 64.156979 0.000000 0.000000 0.000000 0.000000 0.000000 0.000000 18.832684 1.712709 16.886559 180.000000 7.024005 16.886559 15.833735 -4.333255 14.452610 164.166265 1.469204 26.289200 14.711463 3.794187 -14.452610 18.000000 0.403368 1.243449
968.910065 443.950775 51.687982 0.000000 0.000000 0.000000 0.000000 0.000000 0.000000 18.764066 -15.908238 19.021130 180.000000 0.687112 19.021130 15.920102 6.072992 17.633558 164.079898 7.749942 24.270510 15.041323 -1.152946 -17.633558 18.000000 -0.108718 1.545085
968.957118 443.931442 71.601305 0.000000 0.000000 0.000000 0.000000 0.000000 0.000000 18.706990 -11.439138 19.960535 180.000000 5.590315 19.960535 16.017366 -2.839617 20.536413 163.982634 2.824385 21.869059 15.386894 0.913343 -20.536413 18.000000 -0.691389 1.840623
969.003188 443.911954 36.743008 0.000000 0.000000 0.000000 0.000000 0.000000 0.000000 18.661377 -9.748920 19.645745 180.000000 7.248229 19.645745 16.125602 -5.978670 23.115397 163.874398 9.829063 19.122720 15.747980 -9.282609 -23.115397 18.000000 0.605085 2.128896
969.048271 443.892312 40.217277 0.000000 0.000000 0.000000 0.000000 0.000000 0.000000 18.627165 3.733883 18.096541 180.000000 -13.462915 18.096541 16.244896 9.009645 25.329838 163.755104 -0.939690 16.074804 16.124252 0.426009 -25.329838 18.000000 0.279021 2.408768
969.092361 443.872515 64.428578 0.000000 0.000000 0.000000 0.000000 0.000000 0.000000 18.604312 10.724082 15.410265 180.000000 -10.462904 15.410265 16.375340 3.767931 27.144812 163.624660 -11.401369 12.773379 16.515224 -2.389000 -27.144812 18.000000 0.683823 2.679134
1055.186234 577.357593 39.229932 0.000000 0.000000 0.000000 0.000000 0.000000 0.000000 85.510211 7.808669 11.755705 -94.489789 6.097077 11.755705 37.103410 -6.630201 28.531695 -148.111343 -2.716126 9.270510 24.294182 1.370228 -28.531695 -8.601915 0.451295 2.938926
1122.856522 566.714029 48.308185 0.000000 0.000000 0.000000 0.000000 0.000000 0.000000 96.216240 3.514754 7.362491 -83.783760 -5.106258 7.362491 46.189625 8.233563 29.468618 -149.396962 -2.474500 5.621439 24.670091 2.442167 -29.468618 -7.107716 -0.348290 3.187120
969.218632 443.812213 31.094922 0.000000 0.000000 0.000000 0.000000 0.000000 0.000000 18.603763 2.240321 2.506665 180.000000 4.246451 2.506665 16.834613 -1.821588 29.940802 163.165387 -1.547538 1.883716 17.768624 -1.647243 -29.940802 18.000000 -0.030751 3.422736
1112.757797 605.798106 51.318639 0.000000 0.000000 0.000000 0.000000 0.000000 0.000000 110.914625 -20.279374 -2.506665 -69.085375 -1.560711 -2.506665 67.769469 4.513541 29.940802 -149.822316 -2.676695 -1.883716 29.049901 2.568041 -29.940802 -3.625079 -0.316411 3.644843
1086.733246 592.557156 40.886864 0.000000 0.000000 0.000000 0.000000 0.000000 0.000000 -80.132323 60.326460 -7.362491 99.867677 -56.054809 -7.362491 36.201564 4.501064 29.468618 -13.679556 -4.521205 -5.621439 78.049842 -0.936424 -29.468618 -5.127460 0.174236 3.852566
1081.109390 570.394492 44.976596 0.000000 0.000000 0.000000 0.000000 0.000000 0.000000 -175.864613 4.508105 -11.755705 4.135387 -7.553401 -11.755705 134.713876 0.966027 28.531695 -10.005873 4.286382 -9.270510 135.737755 -6.005773 -28.531695 -3.389365 0.266353 4.045085
1089.776802 536.594539 73.514500 0.000000 0.000000 0.000000 0.000000 0.000000 0.000000 -139.033903 -5.339473 -15.410265 40.966097 -12.534634 -15.410265 161.695972 -3.200795 27.144812 3.114398 -4.415911 -12.773379 148.805610 2.666779 -27.144812 -2.611636 -0.219914 4.221640
1114.282036 523.965647 64.079111 0.000000 0.000000 0.000000 0.000000 0.000000 0.000000 -156.073983 9.563261 -18.096541 23.926017 1.974782 -18.096541 174.825807 0.884434 25.329838 5.093343 -1.946393 -16.074804 161.266817 0.654300 -25.329838 -1.814366 0.067533 4.381533
1122.145157 503.425248 73.612099 0.000000 0.000000 0.000000 0.000000 0.000000 0.000000 -144.538174 -17.922366 -19.645745 35.461826 11.930554 -19.645745 174.215003 -3.418929 23.115397 -151.750905 -3.142594 -19.122720 43.887064 4.657730 -23.115397 -13.611294 -0.465773 4.524135
1134.158249 484.688419 73.951036 0.000000 0.000000 0.000000 0.000000 0.000000 0.000000 -142.311443 1.924038 -19.960535 37.688557 -4.175911 -19.960535 -174.407776 5.949759 20.536413 14.121014 -0.531295 -21.869059 176.737053 -0.368754 -20.536413 -0.386439 0.009743 4.648882
1156.756668 500.025387 73.559185 0.000000 0.000000 0.000000 0.000000 0.000000 0.000000 -140.140767 -24.767782 -19.021130 39.859233 14.928990 -19.021130 -176.866589 -4.850334 17.633558 -153.177991 -3.685984 -24.270510 40.555680 3.537410 -17.633558 -13.944432 -0.353741 4.755283
1163.818588 490.292573 75.829954 0.000000 0.000000 0.000000 0.000000 0.000000 0.000000 -126.918075 -6.262526 -16.886559 53.081925 -7.781325 -16.886559 -163.374411 2.539820 14.452610 -153.952175 -4.165839 -26.289200 36.914642 6.024076 -14.452610 0.798233 -0.043784 4.842916
1176.523705 490.346003 65.539799 0.000000 0.000000 0.000000 0.000000 0.000000 0.000000 -130.072590 -0.280823 -13.690942 49.927410 -0.004098 -13.690942 -150.224616 -1.646191 11.043737 24.749952 -2.025540 -27.893295 -162.219632 -0.498806 -11.043737 1.550269 0.061268 4.911436
1165.045052 489.521159 96.313582 0.000000 0.000000 0.000000 0.000000 0.000000 0.000000 -134.421293 -5.008955 -9.635073 45.578707 9.229293 -9.635073 -138.114962 -2.645665 7.460697 20.347125 6.135727 -29.057495 -149.675125 -2.289404 -7.460697 1.919618 -0.009990 4.960574
1186.003189 485.341580 100.861674 0.000000 0.000000 0.000000 0.000000 0.000000 0.000000 151.263424 7.108111 -4.973798 -28.736576 67.808187 -4.973798 -155.571724 -4.103480 3.759997 -114.944239 9.787619 -29.763441 -157.446860 -4.495922 -3.759997 2.096391 0.480679 4.990134
1190.285912 497.609435 92.210045 0.000000 0.000000 0.000000 0.000000 0.000000 0.000000 -104.331435 24.343364 -0.000000 75.668565 28.161838 -0.000000 -153.934692 -5.554990 0.000000 -67.465008 -5.275909 -30.000000 -71.629168 10.066939 -0.000000 -13.965204 -3.158794 5.000000
846.875610 502.341399 109.236257 0.000000 0.000000 0.000000 0.000000 0.000000 0.000000 -153.358185 14.303005 4.973798 26.641815 -22.214650 4.973798 -147.628169 -5.098773 -3.759997 -147.401289 -6.217491 -29.763441 0.000000 0.000000 0.000000 0.000000 0.000000 0.000000
969.711343 443.490827 94.781342 0.000000 0.000000 0.000000 0.000000 0.000000 0.000000 20.204512 -40.212694 9.635073 180.000000 8.326282 9.635073 20.733157 -5.398816 -7.460697 159.266843 14.361985 -29.057495 24.065833 -7.997222 7.460697 18.000000 -0.430846 4.960574
969.735789 443.468267 94.952217 0.000000 0.000000 0.000000 0.000000 0.000000 0.000000 20.415894 24.485993 13.690942 180.000000 -18.085840 13.690942 21.087741 7.919856 -11.043737 158.912259 -7.979821 -27.893295 24.320336 -5.298816 11.043737 18.000000 0.761522 4.911436
969.759168 443.445569 124.020400 0.000000 0.000000 0.000000 0.000000 0.000000 0.000000 20.642061 2.091970 16.886559 180.000000 -1.397575 16.886559 21.453029 11.391115 -14.452610 158.546971 1.845947 -26.289200 24.533304 6.892484 14.452610 18.000000 -0.054780 4.842916
585.252171 514.469179 117.527306 0.000000 0.000000 0.000000 0.000000 0.000000 0.000000 74.723181 13.315731 19.021130 -105.276819 -73.807369 19.021130 119.807175 24.606360 -17.633558 165.825978 -5.664841 -24.270510 138.012220 -8.120069 17.633558 -12.357653 0.996185 4.755283
624.843979 517.601860 118.604038 0.000000 0.000000 0.000000 0.000000 0.000000 0.000000 103.202449 -9.498035 19.960535 -76.797551 36.403339 19.960535 114.381580 -17.393849 -20.536413 -53.015473 -63.716268 -21.869059 145.467160 1.312094 20.536413 -4.173333 1.729437 4.648882
969.822873 443.376664 125.539693 0.000000 0.000000 0.000000 0.000000 0.000000 0.000000 21.413420 16.505363 19.645745 180.000000 -10.513980 19.645745 22.607712 -0.690388 -23.115397 157.392288 -11.825789 -19.122720 24.899813 3.549136 23.115397 18.000000 -0.203463 4.524135
969.841956 443.353428 127.567922 0.000000 0.000000 0.000000 0.000000 0.000000 0.000000 21.702987 1.669256 18.096541 180.000000 2.583227 18.096541 23.009909 -8.193761 -25.329838 156.990091 -3.106963 -16.074804 24.926562 1.222966 25.329838 18.000000 -0.209291 4.381533
969.859960 443.330059 127.427967 0.000000 0.000000 0.000000 0.000000 0.000000 0.000000 22.009579 2.874789 15.410265 180.000000 -5.785277 15.410265 23.419334 0.961918 -27.144812 156.580666 3.341584 -12.773379 24.904993 -1.056447 27.144812 18.000000 -0.695598 4.221640
594.905148 538.048757 136.799653 0.000000 0.000000 0.000000 0.000000 0.000000 0.000000 -57.080480 34.579161 11.755705 122.919520 -7.248534 11.755705 -12.750556 2.324448 -28.531695 149.841027 -9.730264 -9.270510 -8.274090 -0.654239 28.531695 17.596979 0.116131 4.045085
969.892723 443.282929 149.772623 0.000000 0.000000 0.000000 0.000000 0.000000 0.000000 22.675903 -24.185406 7.362491 180.000000 8.762678 7.362491 24.255612 4.823654 -29.468618 155.744388 4.038160 -5.621439 24.720303 -3.897606 29.468618 18.000000 1.724511 3.852566
1257.001877 499.708382 132.665068 0.000000 0.000000 0.000000 0.000000 0.000000 0.000000 52.818511 2.266774 2.506665 -127.181489 -6.380972 2.506665 25.369497 -2.488111 -29.940802 -143.914951 -2.971969 -1.883716 14.556766 -0.460880 29.940802 -16.686776 0.021133 3.644843
1279.050064 493.773898 155.434076 0.000000 0.000000 0.000000 0.000000 0.000000 0.000000 56.685213 -3.709879 -2.506665 -123.314787 -5.899317 -2.506665 24.065452 6.517957 -29.940802 -146.540317 -1.785481 1.883716 13.097461 2.283361 29.940802 -16.716891 -0.004601 3.422736
1295.108986 477.099677 167.227579 0.000000 0.000000 0.000000 0.000000 0.000000 0.000000 65.723361 -11.866012 -7.362491 -114.276639 4.703225 -7.362491 23.725299 -3.973555 -29.468618 -147.984281 3.867034 5.621439 13.187557 -0.439143 29.468618 -16.751134 0.230241 3.187120
1289.065018 496.763316 158.177879 0.000000 0.000000 0.000000 0.000000 0.000000 0.000000 61.662232 0.931178 -11.755705 -118.337768 -3.824227 -11.755705 31.397757 -1.299498 -28.531695 -148.047797 1.737340 9.270510 12.491083 -1.172372 28.531695 -16.898368 0.072544 2.938926
1285.337105 480.691112 164.751918 0.000000 0.000000 0.000000 0.000000 0.000000 0.000000 58.021980 -13.569007 -15.410265 -121.978020 2.429076 -15.410265 31.705930 -3.175007 -27.144812 -157.028684 3.939649 12.773379 11.107306 -1.420613 27.144812 -17.140016 0.022247 2.679134
1276.453171 465.093691 143.223771 0.000000 0.000000 0.000000 0.000000 0.000000 0.000000 70.157145 -0.557477 -18.096541 -109.842855 -0.223670 -18.096541 40.303764 -1.799424 -25.329838 -145.293609 -7.200955 16.074804 10.431204 5.381906 25.329838 -17.100572 -0.105619 2.408768
1253.658714 472.768564 140.230454 0.000000 0.000000 0.000000 0.000000 0.000000 0.000000 65.087926 6.688652 -19.645745 -114.912074 1.853475 -19.645745 -157.680356 -6.683132 -23.115397 -137.727082 2.311419 19.122720 -153.053596 -10.911003 23.115397 -16.054219 -0.773748 2.128896
1366.101608 507.691247 130.997001 0.000000 0.000000 0.000000 0.000000 0.000000 0.000000 108.715100 -13.450386 -19.960535 -71.284900 -6.677040 -19.960535 156.661132 8.997196 -20.536413 -158.224303 -6.153023 21.869059 0.000000 0.000000 0.000000 0.000000 0.000000 0.000000
969.986295 443.064535 154.560564 0.000000 0.000000 0.000000 0.000000 0.000000 0.000000 26.662144 34.060309 -19.021130 180.000000 -8.119075 -19.021130 28.015351 -5.909611 -17.633558 151.984649 -17.234903 24.270510 22.068935 1.130628 17.633558 18.000000 0.936973 1.545085
1282.107124 481.511257 135.222547 0.000000 0.000000 0.000000 0.000000 0.000000 0.000000 80.650781 6.881273 -16.886559 -99.349219 12.483806 -16.886559 1.511604 -7.099399 -14.452610 -32.896908 -5.671607 26.289200 -7.727072 4.195297 14.452610 13.531851 2.355601 1.243449
1282.921486 484.777769 140.790219 0.000000 0.000000 0.000000 0.000000 0.000000 0.000000 -81.737646 -3.762036 -13.690942 98.262354 -6.838806 -13.690942 -23.867101 -0.794970 -11.043737 12.655668 3.761196 27.893295 -29.454911 -3.308589 11.043737 9.861248 -1.147187 0.936907
1290.933037 513.180238 113.386972 0.000000 0.000000 0.000000 0.000000 0.000000 0.000000 -91.387864 -7.069229 -9.635073 88.612136 -1.415442 -9.635073 -41.685392 1.099373 -7.460697 -161.156957 -6.243502 29.057495 15.157863 4.742177 7.460697 10.543436 1.075583 0.626666
969.999452 442.964284 130.269591 0.000000 0.000000 0.000000 0.000000 0.000000 0.000000 29.025427 26.386688 -4.973798 180.000000 -14.019005 -4.973798 29.437993 10.825613 -3.759997 150.562007 -6.850595 29.763441 20.404746 -2.572411 3.759997 18.000000 -0.129683 0.313953
970.000000 442.938926 151.468485 0.000000 0.000000 0.000000 0.000000 0.000000 0.000000 29.678605 2.826305 0.000000 180.000000 10.105453 0.000000 29.744881 -8.888499 -0.000000 150.255119 34.275092 30.000000 19.983107 -18.941827 0.000000 18.000000 0.108194 0.000000
1354.522934 467.411410 127.534683 0.000000 0.000000 0.000000 0.000000 0.000000 0.000000 150.622570 4.471141 4.973798 -29.377430 2.550709 4.973798 140.176400 -2.396258 3.759997 -12.221629 -2.786953 29.763441 132.794256 2.695164 -3.759997 -2.626015 0.344660 0.313953
969.997807 442.887864 111.553084 0.000000 0.000000 0.000000 0.000000 0.000000 0.000000 31.061399 16.595078 9.635073 180.000000 -4.100036 9.635073 30.285790 2.596198 7.460697 149.714210 -9.019021 29.057495 19.151579 -0.176447 -7.460697 18.000000 0.758909 0.626666
1246.736984 514.278152 127.413895 0.000000 0.000000 0.000000 0.000000 0.000000 0.000000 143.557092 -14.546006 13.690942 -36.442908 6.160530 13.690942 133.761037 2.316554 11.043737 -156.950665 -5.101697 27.893295 0.000000 0.000000 0.000000 1.928484 0.458151 0.936907
1245.221100 458.637464 125.384123 0.000000 0.000000 0.000000 0.000000 0.000000 0.000000 160.701064 -30.408627 16.886559 -19.298936 9.556373 16.886559 140.193827 6.285027 14.452610 -157.554825 -4.685401 26.289200 29.500467 5.517160 -14.452610 -15.049953 -0.551716 1.243449
1257.365570 418.514181 114.094517 0.000000 0.000000 0.000000 0.000000 0.000000 0.000000 -143.710676 13.317138 19.021130 36.289324 -8.856085 19.021130 163.220413 0.125208 17.633558 11.688054 -5.580603 24.270510 152.038385 0.278043 -17.633558 -2.339948 -0.021873 1.545085
1275.099564 408.163741 119.318185 0.000000 0.000000 0.000000 0.000000 0.000000 0.000000 -132.929531 -3.223663 19.960535 47.070469 -10.923981 19.960535 173.491912 7.042994 20.536413 -160.709681 -4.887195 21.869059 33.138793 5.774078 -20.536413 -14.686121 -0.577408 1.840623
1290.611115 384.880857 100.595467 0.000000 0.000000 0.000000 0.000000 0.000000 0.000000 -132.705235 0.083224 19.645745 47.294765 4.167061 19.645745 -173.778854 -6.459954 23.115397 20.496835 -3.101703 19.122720 -161.220290 -3.531609 -23.115397 1.723235 0.392122 2.128896
1302.817154 380.305352 88.959325 0.000000 0.000000 0.000000 0.000000 0.000000 0.000000 -131.493915 -8.018203 18.096541 48.506085 -0.786068 18.096541 -165.393697 1.464332 25.329838 23.154815 -0.020289 16.074804 -178.200316 1.642124 -25.329838 0.138141 -0.047900 2.408768
1304.997711 379.563582 85.142066 0.000000 0.000000 0.000000 0.000000 0.000000 0.000000 -126.727972 -4.500546 15.410265 53.272028 5.716431 15.410265 -160.219593 -1.999017 27.144812 28.448880 -0.386553 12.773379 -174.368770 0.566839 -27.144812 0.079526 0.043727 2.679134
1311.668472 386.890390 92.941775 0.000000 0.000000 0.000000 0.000000 0.000000 0.000000 -122.308728 1.565840 11.755705 57.691272 2.835062 11.755705 -158.801130 -1.630654 28.531695 150.942637 -1.017767 9.270510 -154.878332 -4.197079 -28.531695 2.695409 0.574343 2.938926
1305.131836 395.180186 80.456394 0.000000 0.000000 0.000000 0.000000 0.000000 0.000000 -125.112810 22.254116 7.362491 54.887190 2.073931 7.362491 -146.487292 -4.172381 29.468618 -175.167369 -2.308593 5.621439 -159.224034 -4.119181 -29.468618 1.782042 0.412505 3.187120
1296.320457 392.734526 70.215233 0.000000 0.000000 0.000000 0.000000 0.000000 0.000000 -131.035750 0.984031 2.506665 48.964250 0.667136 2.506665 -128.969563 -0.953446 29.940802 38.856147 1.799809 1.883716 -134.776850 3.133017 -29.940802 3.458429 -0.137527 3.422736
1306.963577 386.612041 78.365107 0.000000 0.000000 0.000000 0.000000 0.000000 0.000000 -124.469622 6.044641 -2.506665 55.530378 -0.532770 -2.506665 -109.994856 -2.154929 29.940802 37.691309 0.637671 -1.883716 -118.274788 -1.935952 -29.940802 5.098336 0.002751 3.644843
969.892723 442.572198 67.212655 0.000000 0.000000 0.000000 0.000000 0.000000 0.000000 41.287575 24.273693 -7.362491 180.000000 -16.230210 -7.362491 30.974696 8.273625 29.468618 149.025304 -1.072414 -5.621439 15.072869 -3.903946 -29.468618 18.000000 0.436269 3.852566
969.876883 442.545207 74.681633 0.000000 0.000000 0.000000 0.000000 0.000000 0.000000 42.241956 -35.441507 -11.755705 180.000000 18.982171 -11.755705 30.826133 -20.956427 28.531695 149.173867 12.581126 -9.270510 14.823070 -3.298387 -28.531695 18.000000 -0.312621 4.045085
969.859960 442.518116 59.412848 0.000000 0.000000 0.000000 0.000000 0.000000 0.000000 43.199779 42.131397 -15.410265 180.000000 -11.487113 -15.410265 30.649504 -4.939403 27.144812 149.350496 -27.782533 -12.773379 14.587557 13.612901 -27.144812 18.000000 -0.196073 4.221640
969.841956 442.490926 48.572995 0.000000 0.000000 0.000000 0.000000 0.000000 0.000000 44.157210 -15.364945 -18.096541 180.000000 -9.283760 -18.096541 30.446417 8.330214 25.329838 149.553583 7.709946 -16.074804 14.366154 -4.096894 -25.329838 18.000000 0.441503 4.381533
969.822873 442.463637 48.730767 0.000000 0.000000 0.000000 0.000000 0.000000 0.000000 45.110117 -57.726977 -19.645745 180.000000 20.226098 -19.645745 30.218633 2.726320 23.115397 149.781367 15.837930 -19.122720 14.158653 -4.600678 -23.115397 18.000000 0.139646 4.524135
969.802712 442.436251 57.628552 0.000000 0.000000 0.000000 0.000000 0.000000 0.000000 46.054109 4.723326 -19.960535 180.000000 -0.366962 -19.960535 29.968037 -4.059198 20.536413 150.031963 5.302267 -21.869059 13.964823 1.019391 -20.536413 18.000000 -0.299088 4.648882
1187.040939 541.658249 47.172353 0.000000 0.000000 0.000000 0.000000 0.000000 0.000000 82.806623 7.890276 -19.021130 -97.193377 -12.377415 -19.021130 45.395981 10.107714 17.633558 -156.144455 -2.275355 -24.270510 0.000000 0.000000 0.000000 0.000000 0.000000 0.000000
1182.242889 522.024286 58.366377 0.000000 0.000000 0.000000 0.000000 0.000000 0.000000 -105.721938 14.163018 -16.886559 74.278062 -6.857017 -16.886559 -155.708006 -2.343565 14.452610 -157.302521 -2.647179 -26.289200 0.000000 0.000000 0.000000 2.684983 0.299650 4.842916
1180.914459 527.065626 55.693896 0.000000 0.000000 0.000000 0.000000 0.000000 0.000000 88.055617 1.669109 -13.690942 -91.944383 -0.775017 -13.690942 -158.862018 -2.603685 11.043737 -151.747289 -2.550554 -27.893295 0.000000 0.000000 0.000000 0.000000 0.000000 0.000000
1236.800194 541.387432 43.721511 0.000000 0.000000 0.000000 0.000000 0.000000 0.000000 -85.588400 3.203082 -9.635073 94.411600 14.449392 -9.635073 -159.297106 -14.679486 7.460697 -157.915391 -2.059629 -29.057495 26.607362 2.269707 -7.460697 14.926890 -0.284708 4.960574
1161.066513 575.006626 49.511864 0.000000 0.000000 0.000000 0.000000 0.000000 0.000000 -81.021168 -5.509710 -4.973798 98.978832 -2.248224 -4.973798 -102.851701 3.491193 3.759997 -157.041007 -2.443829 -29.763441 21.429890 2.229867 -3.759997 10.859432 -0.133562 4.990134
1255.636253 512.645942 43.885637 0.000000 0.000000 0.000000 0.000000 0.000000 0.000000 77.832564 0.362348 -0.000000 -102.167436 5.187293 -0.000000 -158.264834 -2.558511 0.000000 -130.745502 -0.923545 -30.000000 -157.699225 -1.924443 -0.000000 0.000000 0.000000 0.000000
1265.118484 521.473864 50.518877 0.000000 0.000000 0.000000 0.000000 0.000000 0.000000 64.078276 0.337831 4.973798 -115.921724 2.611849 4.973798 41.397952 -0.541448 -3.759997 -139.329851 0.325360 -29.763441 20.223252 1.559605 3.759997 -16.047574 -0.176316 4.990134
1228.099480 522.138258 62.736451 0.000000 0.000000 0.000000 0.000000 0.000000 0.000000 71.050901 5.833326 9.635073 -108.949099 1.285890 9.635073 150.099970 -11.184380 -7.460697 -139.894702 1.569234 -29.057495 -156.275691 -3.825141 7.460697 0.000000 0.000000 0.000000
1240.357246 528.695873 53.275979 0.000000 0.000000 0.000000 0.000000 0.000000 0.000000 65.413351 14.083805 13.690942 -114.586649 -0.415926 13.690942 147.242328 -7.777171 -11.043737 -154.470720 -2.888288 -27.893295 25.557225 2.509304 11.043737 -15.444278 -0.250930 4.911436
1231.815262 551.380248 65.297268 0.000000 0.000000 0.000000 0.000000 0.000000 0.000000 56.412506 -0.526748 16.886559 -123.587494 -0.611266 16.886559 -153.392336 -0.443452 -14.452610 -154.784582 -2.649334 -26.289200 24.191555 3.451841 14.452610 -15.580844 -0.345184 4.842916
1221.475182 508.360147 61.972130 0.000000 0.000000 0.000000 0.000000 0.000000 0.000000 77.450622 -4.230040 19.021130 -102.549378 9.657382 19.021130 -156.789784 -2.882690 -17.633558 -125.590168 4.330281 -24.270510 -160.017240 -3.548317 17.633558 1.833434 0.489977 4.755283
969.477684 442.100429 85.308849 0.000000 0.000000 0.000000 0.000000 0.000000 0.000000 54.932575 -49.444732 19.960535 180.000000 7.235910 19.960535 25.919122 8.523284 -20.536413 154.080878 15.580514 -21.869059 12.612867 -1.623634 20.536413 18.000000 0.365199 4.648882
1480.140495 518.878891 66.868016 0.000000 0.000000 0.000000 0.000000 0.000000 0.000000 -110.621767 -80.854335 19.645745 69.378233 87.454792 19.645745 -158.235933 -2.652409 -23.115397 166.031448 2.877969 -19.122720 -155.186432 -2.475413 23.115397 2.641553 0.369309 4.524135
1271.640472 556.840560 60.807462 0.000000 0.000000 0.000000 0.000000 0.000000 0.000000 -94.404719 0.626160 18.096541 85.595281 -4.004688 18.096541 -62.417786 7.184040 -25.329838 23.992813 -2.110360 -16.074804 -76.856107 0.372698 25.329838 7.708835 0.156038 4.381533
1258.556786 530.268441 86.128350 0.000000 0.000000 0.000000 0.000000 0.000000 0.000000 78.355945 -5.664431 15.410265 -101.644055 9.641650 15.410265 35.068294 -6.989759 -27.144812 -54.090640 7.051156 -12.773379 35.848220 -6.776813 27.144812 -8.104639 -0.248187 4.221640
1250.800209 527.150567 96.397321 0.000000 0.000000 0.000000 0.000000 0.000000 0.000000 72.417769 1.038295 11.755705 -107.582231 0.502181 11.755705 24.571109 -4.441926 -28.531695 -39.196117 -10.713345 -9.270510 10.411117 9.206529 28.531695 -9.048616 0.219305 4.045085
1243.466148 571.776259 88.710837 0.000000 0.000000 0.000000 0.000000 0.000000 0.000000 86.301473 -16.601412 7.362491 -93.698527 11.233381 7.362491 24.553534 -3.151758 -29.468618 -153.460385 -3.469366 -5.621439 19.510484 3.365997 29.468618 -10.109500 -2.370065 3.852566
1261.883812 566.052918 83.756933 0.000000 0.000000 0.000000 0.000000 0.000000 0.000000 94.015209 -8.292415 2.506665 -85.984791 -15.813122 2.506665 38.959993 2.313715 -29.940802 -154.008305 -4.509252 -1.883716 20.870951 3.217806 29.940802 -10.872440 -0.128914 3.644843
1284.436798 527.190542 101.726411 0.000000 0.000000 0.000000 0.000000 0.000000 0.000000 111.186365 -12.765008 -2.506665 -68.813635 7.309749 -2.506665 58.506163 1.598793 -29.940802 -19.138727 0.628617 1.883716 51.457372 4.511206 29.940802 -5.203198 -0.441891 3.422736
1272.860069 533.494012 114.075653 0.000000 0.000000 0.000000 0.000000 0.000000 0.000000 72.301471 -22.397828 -7.362491 -107.698529 14.334006 -7.362491 78.802573 -2.653689 -29.468618 -154.772375 -4.507756 5.621439 26.927455 3.539389 29.468618 -15.307255 -0.353939 3.187120
1255.264664 498.243735 109.996128 0.000000 0.000000 0.000000 0.000000 0.000000 0.000000 164.596971 -23.294731 -11.755705 -15.403029 1.542746 -11.755705 125.849126 -0.974284 -28.531695 -156.067666 -4.781937 9.270510 33.087561 4.078982 28.531695 -14.691244 -0.407898 2.938926
1259.202232 470.407684 126.748608 0.000000 0.000000 0.000000 0.000000 0.000000 0.000000 -139.980397 -28.825286 -15.410265 40.019603 29.496728 -15.410265 165.887722 -3.702644 -27.144812 -157.901492 -4.399827 12.773379 35.196094 5.216346 27.144812 -14.480391 -0.521635 2.679134
1236.502075 429.951335 114.108853 0.000000 0.000000 0.000000 0.000000 0.000000 0.000000 -113.295066 0.813978 -18.096541 66.704934 -3.070320 -18.096541 -174.664169 -0.752266 -25.329838 -159.007335 -5.474051 16.074804 32.868990 5.541270 25.329838 -14.713101 -0.554127 2.408768
1253.359451 413.942538 123.358330 0.000000 0.000000 0.000000 0.000000 0.000000 0.000000 -123.348580 -0.610527 -19.645745 56.651420 8.212355 -19.645745 -167.815074 -3.460610 -23.115397 -159.603180 -5.419746 19.122720 32.791747 6.183302 23.115397 -14.720825 -0.618330 2.128896
1281.206589 405.664523 129.158330 0.000000 0.000000 0.000000 0.000000 0.000000 0.000000 -124.414271 -2.090485 -19.960535 55.585729 2.293791 -19.960535 -161.281803 -0.612502 -20.536413 28.568449 2.606813 21.869059 -159.052798 -4.938003 20.536413 1.849141 0.385094 1.840623
1300.238571 418.760215 137.992709 0.000000 0.000000 0.000000 0.000000 0.000000 0.000000 -126.263092 -3.668097 -19.021130 53.736908 7.825367 -19.021130 -159.739358 -1.251734 -17.633558 31.487961 3.583615 24.270510 -170.323915 -1.779755 17.633558 0.671815 0.149277 1.545085
1321.889191 413.634385 123.075201 0.000000 0.000000 0.000000 0.000000 0.000000 0.000000 -133.874471 -1.174651 -16.886559 46.125529 5.556680 -16.886559 -159.376251 -1.351327 -14.452610 30.696824 -8.424228 26.289200 -164.929556 2.333535 14.452610 1.089735 0.006312 1.243449
1336.221428 432.881820 132.783404 0.000000 0.000000 0.000000 0.000000 0.000000 0.000000 -115.020798 -5.290550 -13.690942 64.979202 -1.423825 -13.690942 -135.609544 0.231817 -11.043737 -161.321630 -6.092095 27.893295 17.353502 8.684310 11.043737 -16.264650 -0.868431 0.936907
1329.124603 416.860342 137.882546 0.000000 0.000000 0.000000 0.000000 0.000000 0.000000 -134.023347 0.458969 -9.635073 45.976653 -1.803551 -9.635073 -128.030830 -0.689320 -7.460697 28.249885 2.364920 29.057495 -136.447985 -0.235447 7.460697 4.038834 -0.196077 0.626666
1343.366776 427.060794 143.996978 0.000000 0.000000 0.000000 0.000000 0.000000 0.000000 -130.153347 -5.227211 -4.973798 49.846653 4.293216 -4.973798 -103.564435 -4.863992 -3.759997 27.398095 0.763955 29.763441 -115.461530 0.286968 3.759997 5.470063 -0.148732 0.313953
1376.991005 465.829636 137.473244 0.000000 0.000000 0.000000 0.000000 0.000000 0.000000 -120.272352 -6.698038 0.000000 59.727648 -4.125167 0.000000 -62.204131 -1.130402 -0.000000 27.740602 3.383462 30.000000 -80.461527 -2.094318 0.000000 7.450891 -0.141008 0.000000
1384.978867 468.790376 138.498914 0.000000 0.000000 0.000000 0.000000 0.000000 0.000000 -93.720384 71.279442 4.973798 86.279616 -53.204830 4.973798 3.847814 7.929647 3.759997 -160.438787 -7.024189 29.763441 15.990976 5.570818 -3.759997 7.894783 0.579727 0.313953
1345.894547 516.257268 153.243024 0.000000 0.000000 0.000000 0.000000 0.000000 0.000000 127.577640 -7.630321 9.635073 -52.422360 15.115961 9.635073 53.096359 2.042948 7.460697 -159.021748 -5.914171 29.057495 18.308456 5.395378 -7.460697 -4.062191 -2.218956 0.626666
968.498927 441.455181 152.822928 0.000000 0.000000 0.000000 0.000000 0.000000 0.000000 47.920147 38.157332 13.690942 180.000000 -18.526598 13.690942 19.641385 2.044943 11.043737 160.358615 0.049073 27.893295 13.993219 -4.414714 -11.043737 18.000000 0.034058 0.936907
1336.846733 493.527671 148.692468 0.000000 0.000000 0.000000 0.000000 0.000000 0.000000 102.681311 5.782101 16.886559 -77.318689 5.166063 16.886559 35.985219 -1.314167 14.452610 -159.617763 -6.360732 26.289200 19.375410 5.231290 -14.452610 -16.062459 -0.523129 1.243449
968.386706 441.394956 132.213385 0.000000 0.000000 0.000000 0.000000 0.000000 0.000000 46.120581 -5.680303 19.021130 180.000000 -5.718961 19.021130 19.316787 5.696170 17.633558 160.683213 -1.153397 24.270510 14.327067 -0.780806 -17.633558 18.000000 -0.123664 1.545085
1263.984947 433.341283 148.506928 0.000000 0.000000 0.000000 0.000000 0.000000 0.000000 -115.578373 -2.259342 19.960535 64.421627 -10.970425 19.960535 -82.396446 14.200939 20.536413 25.733383 -3.974366 21.869059 -77.477544 0.315016 -20.536413 5.836928 0.923469 1.840623
1352.596436 477.564354 136.615597 0.000000 0.000000 0.000000 0.000000 0.000000 0.000000 -99.196741 12.164051 19.645745 80.803259 -12.212252 19.645745 -125.272585 -1.769701 23.115397 -162.405270 -7.158844 19.122720 17.377627 7.036707 -23.115397 -16.262237 -0.703671 2.128896
1384.326782 408.174427 144.557481 0.000000 0.000000 0.000000 0.000000 0.000000 0.000000 96.868601 12.886054 18.096541 -83.131399 -13.448601 18.096541 -160.848957 -5.771130 25.329838 -137.255583 3.488419 16.074804 -162.076720 -7.415588 -25.329838 0.000000 0.000000 0.000000
1387.580223 387.128634 138.450022 0.000000 0.000000 0.000000 0.000000 0.000000 0.000000 78.087764 -25.217965 15.410265 -101.912236 9.275669 15.410265 -161.807915 -5.868963 27.144812 -147.504361 8.527209 12.773379 -162.566306 -8.038403 -27.144812 1.735427 0.746265 2.679134
1345.818558 392.423122 151.063728 0.000000 0.000000 0.000000 0.000000 0.000000 0.000000 71.782984 3.379290 11.755705 -108.217016 1.624480 11.755705 -169.469261 1.101401 28.531695 -153.903088 0.137419 9.270510 -154.670689 5.839476 -28.531695 15.277725 -0.170507 2.938926
1331.471329 361.814139 147.994451 0.000000 0.000000 0.000000 0.000000 0.000000 0.000000 53.586100 8.414722 7.362491 -126.413900 5.754637 7.362491 -162.290330 -5.664135 29.468618 -154.912165 3.861035 5.621439 -162.550394 -7.394574 -29.468618 1.742175 0.855887 3.187120
1354.413986 427.213873 131.982453 0.000000 0.000000 0.000000 0.000000 0.000000 0.000000 -131.358118 15.833533 2.506665 48.641882 -21.660619 2.506665 -142.488821 -1.128703 29.940802 -161.977882 -6.720992 1.883716 12.673705 8.499191 -29.940802 1.397524 -0.217471 3.422736
1330.326691 347.207226 128.973155 0.000000 0.000000 0.000000 0.000000 0.000000 0.000000 52.464175 0.194567 -2.506665 -127.535825 3.263390 -2.506665 14.270918 -2.672265 29.940802 -122.057234 1.748766 -1.883716 22.820874 -2.255321 -29.940802 -15.244909 0.079283 3.644843
1317.103271 414.475805 118.271764 0.000000 0.000000 0.000000 0.000000 0.000000 0.000000 76.170457 -0.207018 -7.362491 -103.829543 -12.422892 -7.362491 -50.250674 7.419829 29.468618 -52.503744 -1.162541 -5.621439 -92.793049 2.929461 -29.468618 3.303440 -0.118968 3.852566
1331.844635 430.291482 107.696078 0.000000 0.000000 0.000000 0.000000 0.000000 0.000000 79.985160 14.515328 -11.755705 -100.014840 2.104955 -11.755705 25.995082 -1.722542 28.531695 -75.062603 -1.867520 -9.270510 38.761234 3.320482 -28.531695 -11.442229 -0.205642 4.045085
1359.462433 496.472383 113.052157 0.000000 0.000000 0.000000 0.000000 0.000000 0.000000 84.268829 -1.982496 -15.410265 -95.731171 5.540511 -15.410265 30.279153 -0.067018 27.144812 -63.318008 6.863815 -12.773379 39.457716 -4.474917 -27.144812 -9.485742 -0.195259 4.221640
1323.514366 546.771398 122.989706 0.000000 0.000000 0.000000 0.000000 0.000000 0.000000 84.407325 1.276890 -18.096541 -95.592675 -6.177889 -18.096541 27.768249 1.679766 25.329838 -47.660055 -1.038865 -16.074804 28.281511 0.199170 -25.329838 -7.827901 -0.990374 4.381533
1268.535347 591.567099 114.380759 0.000000 0.000000 0.000000 0.000000 0.000000 0.000000 90.890792 -3.187818 -19.645745 -89.109208 -4.088794 -19.645745 44.654760 2.109964 23.115397 -48.200667 2.068100 -19.122720 43.369388 -1.913124 -23.115397 -8.974980 0.426851 4.524135
1303.157158 602.888768 86.175192 0.000000 0.000000 0.000000 0.000000 0.000000 0.000000 90.349289 3.653273 -19.960535 -89.650711 6.025664 -19.960535 47.707312 -2.170557 20.536413 -53.918782 0.944509 -21.869059 40.070965 1.457299 -20.536413 -9.318632 -0.198696 4.648882
1314.841690 613.141973 99.741007 0.000000 0.000000 0.000000 0.000000 0.000000 0.000000 94.480501 -1.813350 -19.021130 -85.519499 -3.632874 -19.021130 58.462862 5.015792 17.633558 -52.020507 2.536693 -24.270510 55.276552 -1.971328 -17.633558 -7.777523 -0.009048 4.755283
1327.521400 639.394319 109.590391 0.000000 0.000000 0.000000 0.000000 0.000000 0.000000 99.879576 -0.203400 -16.886559 -80.120424 -1.807279 -16.886559 69.161359 3.201587 14.452610 -46.413613 2.005467 -26.289200 76.680143 -1.399218 -14.452610 -6.257768 0.095464 4.842916
1277.812729 671.228578 104.498339 0.000000 0.000000 0.000000 0.000000 0.000000 0.000000 99.708534 -2.794567 -13.690942 -80.291466 10.292130 -13.690942 92.239140 -7.393858 11.043737 -26.764021 -2.396601 -27.893295 98.168457 -3.618109 -11.043737 -4.372074 0.485797 4.911436
1309.642181 690.479329 78.338697 0.000000 0.000000 0.000000 0.000000 0.000000 0.000000 117.292414 2.106220 -9.635073 -62.707586 4.230298 -9.635073 137.002702 -4.678016 7.460697 -32.045917 0.606582 -29.057495 135.211322 -0.364027 -7.460697 -3.212944 0.007727 4.960574
1299.770966 664.126496 67.330216 0.000000 0.000000 0.000000 0.000000 0.000000 0.000000 158.531160 -12.391268 -4.973798 -21.468840 12.066173 -4.973798 161.478323 -1.812126 3.759997 -12.838206 -1.486444 -29.763441 151.269584 2.145008 -3.759997 -2.521934 0.070452 4.990134
1313.353729 643.668108 86.411301 0.000000 0.000000 0.000000 0.000000 0.000000 0.000000 -154.315892 0.032446 -0.000000 25.684108 10.725520 -0.000000 173.459940 0.811518 0.000000 1.519689 -0.331742 -30.000000 164.244875 0.106179 -0.000000 -1.552244 0.030081 5.000000
1342.841377 638.982847 68.734427 0.000000 0.000000 0.000000 0.000000 0.000000 0.000000 -138.993869 7.340976 4.973798 41.006131 -5.687262 4.973798 175.724056 0.483277 -3.759997 -151.723069 -3.106753 -29.763441 43.242568 4.118005 3.759997 -13.675743 -0.411800 4.990134
1350.000229 614.724133 61.805998 0.000000 0.000000 0.000000 0.000000 0.000000 0.000000 -144.248147 -7.158489 9.635073 35.751853 -2.445735 9.635073 177.069273 -2.782229 -7.460697 -152.227621 -3.010059 -29.057495 43.136563 3.067082 7.460697 -13.686344 -0.306708 4.960574
1328.535919 624.780936 51.124725 0.000000 0.000000 0.000000 0.000000 0.000000 0.000000 -165.447222 -1.466187 13.690942 14.552778 13.339716 13.690942 169.657511 -4.532751 -11.043737 -152.168050 -3.071556 -27.893295 41.929642 3.172896 11.043737 -13.807036 -0.317290 4.911436
1318.810501 615.688248 50.268412 0.000000 0.000000 0.000000 0.000000 0.000000 0.000000 -120.063657 -6.254166 16.886559 59.936343 -15.795610 16.886559 -165.389465 0.605158 -14.452610 -152.866764 -2.852565 -26.289200 39.162270 3.768806 14.452610 -14.083773 -0.376881 4.842916
1321.656418 659.275410 68.483105 0.000000 0.000000 0.000000 0.000000 0.000000 0.000000 -121.435085 7.488443 19.021130 58.564915 -1.592604 19.021130 -149.190712 -1.772183 -17.633558 -151.926374 -2.814074 -24.270510 33.097066 2.705945 17.633558 -14.690293 -0.270594 4.755283
1328.445511 687.490232 50.216406 0.000000 0.000000 0.000000 0.000000 0.000000 0.000000 -104.253419 -0.743124 19.960535 75.746581 -8.017063 19.960535 -110.140878 4.130885 -20.536413 -152.911692 -2.361977 -21.869059 23.882145 2.090926 20.536413 3.694979 0.136612 4.648882
966.534206 440.564282 62.810385 0.000000 0.000000 0.000000 0.000000 0.000000 0.000000 25.865486 6.864823 19.645745 180.000000 -0.651222 19.645745 18.728337 -1.292224 -23.115397 161.271663 -6.436679 -19.122720 19.024234 8.901572 23.115397 18.000000 -0.813979 4.524135
966.454577 440.533056 38.086397 0.000000 0.000000 0.000000 0.000000 0.000000 0.000000 25.417507 10.422207 18.096541 180.000000 -4.853622 18.096541 18.825450 0.346712 -25.329838 161.174550 -2.763474 -16.074804 19.071566 -3.972742 25.329838 18.000000 0.282915 4.381533
966.374240 440.501809 42.839920 0.000000 0.000000 0.000000 0.000000 0.000000 0.000000 24.990320 3.660395 15.410265 180.000000 1.468046 15.410265 18.929718 -5.072795 -27.144812 161.070282 3.289974 -12.773379 19.102411 3.468351 27.144812 18.000000 -1.491692 4.221640
966.293204 440.470542 33.926421 0.000000 0.000000 0.000000 0.000000 0.000000 0.000000 24.583377 -20.340114 11.755705 180.000000 -5.470349 11.755705 19.040946 7.202122 -28.531695 160.959054 1.397705 -9.270510 19.116765 6.231179 28.531695 18.000000 -0.326797 4.045085
966.211478 440.439256 48.527362 0.000000 0.000000 0.000000 0.000000 0.000000 0.000000 24.196129 17.261408 7.362491 180.000000 5.960102 7.362491 19.158923 -10.380783 -29.468618 160.841077 -9.315711 -5.621439 19.114778 4.477280 29.468618 18.000000 -0.179036 3.852566
644.985180 745.864069 39.777990 0.000000 0.000000 0.000000 0.000000 0.000000 0.000000 96.086415 8.924612 2.506665 -83.913585 -4.216677 2.506665 -159.662371 -10.328720 -29.940802 -116.741565 -12.094215 -1.883716 -176.001217 1.431196 29.940802 -1.006627 0.118228 3.644843
1269.020119 699.025490 49.939599 0.000000 0.000000 0.000000 0.000000 0.000000 0.000000 83.810916 -4.492873 -2.506665 -96.189084 10.252278 -2.506665 51.932890 -2.546999 -29.940802 -149.314466 -1.784437 1.883716 27.598511 2.338607 29.940802 -15.240149 -0.233861 3.422736
573.721218 678.450201 67.783579 0.000000 0.000000 0.000000 0.000000 0.000000 0.000000 18.756393 2.718790 -7.362491 -161.243607 -33.959875 -7.362491 -174.158094 4.709307 -29.468618 178.010322 -9.658251 5.621439 -154.394154 2.549900 29.468618 11.886524 2.868846 3.187120
1261.580200 714.897366 42.167694 0.000000 0.000000 0.000000 0.000000 0.000000 0.000000 87.191276 -6.780202 -11.755705 -92.808724 -7.052761 -11.755705 23.129119 8.188279 -28.531695 -149.376238 -2.332876 9.270510 24.545507 1.762242 28.531695 13.583501 4.188385 2.938926
1314.655838 684.171546 51.669224 0.000000 0.000000 0.000000 0.000000 0.000000 0.000000 61.219932 -11.488358 -15.410265 -118.780068 11.654734 -15.410265 25.476616 -2.641512 -27.144812 -150.404247 -1.393909 12.773379 24.621454 2.327341 27.144812 -15.537855 -0.232734 2.679134
1319.638939 674.820013 48.933812 0.000000 0.000000 0.000000 0.000000 0.000000 0.000000 82.055377 7.214076 -18.096541 -97.944623 -0.235534 -18.096541 17.325085 -4.630488 -25.329838 -60.067277 -4.960925 16.074804 23.747728 1.588125 25.329838 -13.005173 -0.312864 2.408768
1367.852325 659.536314 49.492506 0.000000 0.000000 0.000000 0.000000 0.000000 0.000000 -150.278430 19.264037 -19.645745 29.721570 -36.042184 -19.645745 -151.222797 -2.099855 -23.115397 18.758043 -0.629075 19.122720 -152.451920 -2.509995 23.115397 2.484143 0.289469 2.128896
1392.624664 638.981302 72.779018 0.000000 0.000000 0.000000 0.000000 0.000000 0.000000 -122.704248 -2.173628 -19.960535 57.295752 -10.841668 -19.960535 -134.513385 3.753564 -20.536413 30.292627 -1.748554 21.869059 -146.694539 0.702986 20.536413 2.430965 0.024197 1.840623
1401.291389 646.422758 48.114687 0.000000 0.000000 0.000000 0.000000 0.000000 0.000000 83.316637 1.255518 -19.021130 -96.683363 -5.012457 -19.021130 29.335627 3.451507 -17.633558 -136.281416 -2.013068 24.270510 19.119183 -0.628123 17.633558 -15.871560 0.351624 1.545085
1381.838951 663.410475 84.727862 0.000000 0.000000 0.000000 0.000000 0.000000 0.000000 79.215331 -6.147898 -16.886559 -100.784669 0.267418 -16.886559 30.640455 4.832536 -14.452610 -139.113455 -0.489345 26.289200 14.302413 1.245487 14.452610 -16.408036 -0.159631 1.243449
1390.185928 664.248354 89.253500 0.000000 0.000000 0.000000 0.000000 0.000000 0.000000 75.546066 -0.282209 -13.690942 -104.453934 -9.965484 -13.690942 38.995097 11.979153 -11.043737 -142.871297 -2.910927 27.893295 14.209110 1.298435 11.043737 -16.737090 0.122330 0.936907
1393.889923 677.551103 81.383204 0.000000 0.000000 0.000000 0.000000 0.000000 0.000000 84.293627 -8.577636 -9.635073 -95.706373 5.396591 -9.635073 -152.700272 -3.384335 -7.460697 -143.357755 -0.071788 29.057495 -148.868889 -3.277333 7.460697 3.626268 0.470370 0.626666
905.601082 693.654528 82.411844 0.000000 0.000000 0.000000 0.000000 0.000000 0.000000 -84.410869 -9.049572 -4.973798 95.589131 15.777937 -4.973798 -139.498802 -4.397861 -3.759997 -178.556713 5.517288 29.763441 -142.061844 -3.629269 3.759997 3.411456 0.422195 0.313953
1337.643929 680.318756 78.895904 0.000000 0.000000 0.000000 0.000000 0.000000 0.000000 78.192517 -2.599847 0.000000 -101.807483 -13.828962 0.000000 48.289813 9.909644 -0.000000 -140.291980 -1.768628 30.000000 13.663140 2.957124 0.000000 -17.395561 0.027549 0.000000
1322.670708 685.543334 105.778121 0.000000 0.000000 0.000000 0.000000 0.000000 0.000000 71.501063 5.578745 4.973798 -108.498937 -10.103259 4.973798 23.648228 0.371964 3.759997 -144.586500 -2.338718 29.763441 14.578018 0.672854 -3.759997 -16.885607 -0.042136 0.313953
1305.530548 682.910864 115.707956 0.000000 0.000000 0.000000 0.000000 0.000000 0.000000 72.979287 -37.890858 9.635073 -107.020713 60.878500 9.635073 -148.728581 -4.567712 7.460697 -74.802907 16.995332 29.057495 -151.178244 -4.299689 -7.460697 2.601049 0.397082 0.626666
1359.363556 692.650115 107.991353 0.000000 0.000000 0.000000 0.000000 0.000000 0.000000 73.244804 6.773906 13.690942 -106.755196 3.559591 13.690942 13.983499 -5.620831 11.043737 -67.611809 1.140769 27.893295 13.130547 -4.848339 -11.043737 -11.004089 0.464946 0.936907
1299.495964 679.994059 121.713346 0.000000 0.000000 0.000000 0.000000 0.000000 0.000000 116.206779 -3.080505 16.886559 -63.793221 -7.636952 16.886559 -150.858719 -4.033882 14.452610 -34.548592 2.227513 26.289200 60.366751 -6.369973 -14.452610 -4.627493 0.352751 1.243449
1306.260338 711.527116 119.833572 0.000000 0.000000 0.000000 0.000000 0.000000 0.000000 -85.758672 5.109045 19.021130 94.241328 -10.056376 19.021130 -31.461750 5.734512 17.633558 -4.237664 -1.038363 24.270510 -15.215787 -0.750836 -17.633558 7.867754 1.158299 1.545085
1272.614822 704.778571 122.284283 0.000000 0.000000 0.000000 0.000000 0.000000 0.000000 -78.634637 3.314992 19.960535 101.365363 -9.346480 19.960535 -34.118569 6.716511 20.536413 22.539652 2.721339 21.869059 -31.373170 -2.001828 -20.536413 11.310693 0.983044 1.840623
1310.345650 676.427021 123.356722 0.000000 0.000000 0.000000 0.000000 0.000000 0.000000 97.572435 5.931611 19.645745 -82.427565 -3.971931 19.645745 50.400703 1.881043 23.115397 -39.584286 -3.236793 19.122720 44.966766 3.326534 -23.115397 -8.852712 -0.539908 2.128896
1315.732956 671.025095 143.582879 0.000000 0.000000 0.000000 0.000000 0.000000 0.000000 97.797337 1.007586 18.096541 -82.202663 -5.092403 18.096541 49.825934 2.957608 25.329838 -39.162923 2.509503 16.074804 36.475631 -4.988804 -25.329838 -8.191519 -0.159746 2.408768
1329.935532 653.525419 129.960413 0.000000 0.000000 0.000000 0.000000 0.000000 0.000000 96.469555 0.335624 15.410265 -83.530445 2.461721 15.410265 63.882053 -5.955219 27.144812 -51.972064 -0.613697 12.773379 58.624362 -1.113680 -27.144812 -8.239564 -0.327611 2.679134
1316.170578 674.246514 130.782271 0.000000 0.000000 0.000000 0.000000 0.000000 0.000000 -87.946330 3.335458 11.755705 92.053670 -3.785437 11.755705 -29.715798 4.438043 28.531695 54.212796 -2.868713 9.270510 -40.560774 -0.176195 -28.531695 11.008015 -0.560005 2.938926
1317.367287 678.027205 154.150378 0.000000 0.000000 0.000000 0.000000 0.000000 0.000000 95.152942 -11.423996 7.362491 -84.847058 11.247874 7.362491 98.792835 -5.334224 29.468618 -150.515547 -5.883399 5.621439 32.983753 5.242566 -29.468618 -14.701625 -0.524257 3.187120
1318.168488 670.157025 151.640111 0.000000 0.000000 0.000000 0.000000 0.000000 0.000000 -151.252255 38.484079 2.506665 28.747745 -43.020415 2.506665 138.896993 2.830301 29.940802 -151.946620 -6.334319 1.883716 38.784684 5.659741 -29.940802 -14.121532 -0.565974 3.422736
1323.412628 644.667885 150.889082 0.000000 0.000000 0.000000 0.000000 0.000000 0.000000 -97.904066 18.295455 -2.506665 82.095934 13.443776 -2.506665 155.695030 -3.697257 29.940802 -152.500978 -6.418247 -1.883716 44.721081 6.431673 -29.940802 -13.527892 -0.643167 3.644843
1312.776718 630.059459 159.809648 0.000000 0.000000 0.000000 0.000000 0.000000 0.000000 -116.637972 -7.361470 -7.362491 63.362028 -11.549944 -7.362491 171.094570 3.556102 29.468618 -152.894064 -6.326646 -5.621439 43.947863 7.206666 -29.468618 -13.605214 -0.720667 3.852566
1316.420746 625.237019 135.871355 0.000000 0.000000 0.000000 0.000000 0.000000 0.000000 -136.254273 1.007596 -11.755705 43.745727 3.812694 -11.755705 -177.663204 -4.988609 28.531695 -153.006287 -6.456802 -9.270510 42.784597 8.190478 -28.531695 -13.721540 -0.819048 4.045085
1314.719925 628.818026 150.414855 0.000000 0.000000 0.000000 0.000000 0.000000 0.000000 -114.737929 -4.476984 -15.410265 65.262071 6.929707 -15.410265 -169.764314 -1.835450 27.144812 -153.369487 -6.315387 -12.773379 41.498347 7.886161 -27.144812 -13.850165 -0.788616 4.221640
1334.396782 646.165652 150.378212 0.000000 0.000000 0.000000 0.000000 0.000000 0.000000 -116.903454 -9.627066 -18.096541 63.096546 3.017445 -18.096541 -154.594534 -2.328389 25.329838 -153.225015 -5.984271 -16.074804 37.136182 8.148977 -25.329838 -14.286382 -0.814898 4.381533
1340.823784 648.244128 156.168506 0.000000 0.000000 0.000000 0.000000 0.000000 0.000000 -116.932323 1.933110 -19.645745 63.067677 -1.009736 -19.645745 -138.898656 -1.496910 23.115397 35.335752 -0.138746 -19.122720 -153.336856 1.629648 -23.115397 2.206211 -0.082367 4.524135
1330.023880 654.599032 144.905545 0.000000 0.000000 0.000000 0.000000 0.000000 0.000000 -112.150704 -13.534718 -19.960535 67.849296 5.941203 -19.960535 -118.798313 1.666967 20.536413 -153.636372 -5.890014 -21.869059 16.691869 8.200747 -20.536413 -16.330813 -0.820075 4.648882
1337.431641 662.410698 140.151621 0.000000 0.000000 0.000000 0.000000 0.000000 0.000000 -109.111809 -7.791986 -19.021130 70.888191 -3.816170 -19.021130 -91.144379 1.971141 17.633558 -154.448144 -6.104929 -24.270510 10.298202 6.360105 -17.633558 6.642051 0.026641 4.755283
1324.339714 676.416593 138.768790 0.000000 0.000000 0.000000 0.000000 0.000000 0.000000 -104.120178 11.205720 -16.886559 75.879822 -8.646008 -16.886559 -57.095620 0.356731 14.452610 38.799650 -1.400764 -26.289200 -71.942639 -0.065906 -14.452610 8.831938 0.141873 4.842916
962.890318 439.311049 154.702219 0.000000 0.000000 0.000000 0.000000 0.000000 0.000000 19.986963 -1.128880 -13.690942 180.000000 0.052062 -13.690942 24.297229 9.175113 11.043737 155.702771 -17.079354 -27.893295 14.983342 13.687857 -11.043737 18.000000 -0.089344 4.911436
962.789911 439.279946 145.545906 0.000000 0.000000 0.000000 0.000000 0.000000 0.000000 20.089586 -0.866862 -9.635073 180.000000 10.234466 -9.635073 24.330184 -3.216919 7.460697 155.669816 0.914754 -29.057495 14.926290 -0.731822 -7.460697 18.000000 0.276517 4.960574
641.318550 641.336324 143.351590 0.000000 0.000000 0.000000 0.000000 0.000000 0.000000 163.642929 -30.913778 -4.973798 -16.357071 9.171775 -4.973798 -155.926011 -2.222213 3.759997 -130.644608 -8.229067 -29.763441 68.679337 12.029991 -3.759997 -11.132066 -1.202999 4.990134
1305.385551 662.289033 131.419786 0.000000 0.000000 0.000000 0.000000 0.000000 0.000000 -81.949824 3.166786 -0.000000 98.050176 1.680806 -0.000000 9.536664 -3.881901 0.000000 -153.586691 -5.736153 -30.000000 24.402531 5.202478 -0.000000 -15.559747 -0.520248 5.000000
962.486899 439.186814 145.606998 0.000000 0.000000 0.000000 0.000000 0.000000 0.000000 20.465882 1.805466 4.973798 180.000000 1.135408 4.973798 24.357206 -4.443892 -3.759997 155.642794 -15.362677 -29.763441 14.800425 9.513916 3.759997 18.000000 -0.447010 4.990134
1216.314240 612.580640 125.958623 0.000000 0.000000 0.000000 0.000000 0.000000 0.000000 78.221991 -3.324158 9.635073 -101.778009 -3.252720 9.635073 46.689014 5.560549 -7.460697 -61.937558 -5.225367 -29.057495 44.546377 4.679101 7.460697 -10.771750 -0.295594 4.960574
1273.897820 573.707514 124.766293 0.000000 0.000000 0.000000 0.000000 0.000000 0.000000 77.469628 1.981030 13.690942 -102.530372 0.159011 13.690942 -155.691164 -5.324583 -11.043737 -120.750172 -1.462958 -27.893295 -156.229293 -5.451761 11.043737 2.162203 0.526052 4.911436
1337.358742 570.303276 107.368337 0.000000 0.000000 0.000000 0.000000 0.000000 0.000000 73.705918 1.729969 16.886559 -106.294082 -1.543260 16.886559 -155.918376 -5.035190 -14.452610 -149.887909 -4.771096 -26.289200 0.000000 0.000000 0.000000 0.000000 0.000000 0.000000
1342.446442 569.623497 126.469018 0.000000 0.000000 0.000000 0.000000 0.000000 0.000000 68.898287 -2.867358 19.021130 -111.101713 -4.316435 19.021130 39.314088 4.235987 -17.633558 -140.912764 0.163843 -24.270510 -153.216026 -5.944102 17.633558 2.759242 0.646127 4.755283
1335.759430 584.665475 109.565656 0.000000 0.000000 0.000000 0.000000 0.000000 0.000000 66.989329 0.731370 19.960535 -113.010671 2.404793 19.960535 -154.807077 -4.819317 -20.536413 -142.328055 2.742706 -21.869059 -153.049156 -6.168967 20.536413 2.866457 0.652632 4.648882
1337.950974 598.074245 115.511112 0.000000 0.000000 0.000000 0.000000 0.000000 0.000000 62.697633 -4.662488 19.645745 -117.302367 -1.042365 19.645745 19.366736 2.613044 -23.115397 -144.826223 -0.589662 -19.122720 9.911455 -0.293801 23.115397 -17.004209 0.104712 4.524135
1352.846489 601.043322 102.499329 0.000000 0.000000 0.000000 0.000000 0.000000 0.000000 59.083577 3.484813 18.096541 -120.916423 2.452319 18.096541 20.876734 0.893240 -25.329838 -142.301690 -1.025991 -16.074804 13.356960 1.615290 25.329838 -16.821524 -0.019961 4.381533
1347.310982 587.475100 78.910307 0.000000 0.000000 0.000000 0.000000 0.000000 0.000000 56.169135 -2.087980 15.410265 -123.830865 -1.286996 15.410265 21.172503 0.013112 -27.144812 -139.640745 0.875266 -12.773379 14.641496 -1.116296 27.144812 -16.282575 0.136542 4.221640
1326.982155 606.886139 99.899530 0.000000 0.000000 0.000000 0.000000 0.000000 0.000000 70.119981 -4.583987 11.755705 -109.880019 6.837336 11.755705 26.511889 -4.495353 -28.531695 -111.264667 -0.631027 -9.270510 31.153840 1.360417 28.531695 -13.943905 -0.090425 4.045085
1354.391098 626.185555 99.977304 0.000000 0.000000 0.000000 0.000000 0.000000 0.000000 88.154395 -3.511749 7.362491 -91.845605 1.433072 7.362491 30.442275 -5.185589 -29.468618 -76.284233 4.121944 -5.621439 43.854867 -3.497622 29.468618 -10.818190 0.152266 3.852566
1370.667114 610.219567 76.445448 0.000000 0.000000 0.000000 0.000000 0.000000 0.000000 89.945118 3.563906 2.506665 -90.054882 -1.641256 2.506665 44.053326 2.847242 -29.940802 -56.238091 1.070663 -1.883716 55.411270 -4.041847 29.940802 -7.805659 0.349988 3.644843
1372.834854 597.828534 66.700281 0.000000 0.000000 0.000000 0.000000 0.000000 0.000000 93.407992 5.383094 -2.506665 -86.592008 2.565430 -2.506665 54.165845 -1.187831 -29.940802 -47.239220 -0.355652 1.883716 56.575186 -5.500097 29.940802 -6.344474 0.852098 3.422736
1336.554337 597.454848 71.788839 0.000000 0.000000 0.000000 0.000000 0.000000 0.000000 95.622643 1.244353 -7.362491 -84.377357 1.714722 -7.362491 56.597780 0.559909 -29.468618 -45.108662 2.558918 5.621439 55.386034 -0.851994 29.468618 -7.206870 -0.603561 3.187120
1310.567093 590.844769 53.294600 0.000000 0.000000 0.000000 0.000000 0.000000 0.000000 100.193768 1.313838 -11.755705 -79.806232 3.883781 -11.755705 61.986347 -2.845489 -28.531695 -37.593815 -2.386214 9.270510 62.907615 5.028570 28.531695 -6.637230 -0.134972 2.938926
1328.574371 576.493385 72.993048 0.000000 0.000000 0.000000 0.000000 0.000000 0.000000 101.943783 9.019292 -15.410265 -78.056217 -6.706372 -15.410265 61.902838 3.353638 -27.144812 -33.889586 -4.415579 12.773379 55.760387 -5.611274 27.144812 -7.097415 0.823087 2.679134
1316.178360 595.500870 59.375559 0.000000 0.000000 0.000000 0.000000 0.000000 0.000000 103.792097 -5.483892 -18.096541 -76.207903 -4.621809 -18.096541 65.535198 -1.911505 -25.329838 -28.739437 5.141141 16.074804 68.415337 -3.052283 25.329838 -6.481753 -0.212669 2.408768
1302.343140 568.138025 54.423482 0.000000 0.000000 0.000000 0.000000 0.000000 0.000000 101.222717 4.918353 -19.645745 -78.777283 -12.381492 -19.645745 90.757296 0.034371 -23.115397 -18.578033 -5.700835 19.122720 97.909038 2.508287 23.115397 -5.050134 0.274746 2.128896
1274.166183 540.660596 52.827718 0.000000 0.000000 0.000000 0.000000 0.000000 0.000000 -126.898591 -9.176258 -19.960535 53.101409 -7.136428 -19.960535 127.276662 0.987859 -20.536413 8.808645 -2.534311 21.869059 119.711272 -2.193018 20.536413 -4.115393 0.121606 1.840623
1268.557091 468.331075 52.082719 0.000000 0.000000 0.000000 0.000000 0.000000 0.000000 -124.112133 2.340418 -19.021130 55.887867 3.415231 -19.021130 163.344780 -4.032417 -17.633558 38.476068 -3.105361 24.270510 145.889074 1.290026 17.633558 -1.929933 0.002325 1.545085
1278.673096 454.375906 69.183907 0.000000 0.000000 0.000000 0.000000 0.000000 0.000000 -126.805061 11.131393 -16.886559 53.194939 -6.749031 -16.886559 -174.009950 2.699092 -14.452610 27.419224 -1.839498 26.289200 168.192977 -1.260236 14.452610 -0.976267 0.069282 1.243449
1285.008774 434.700390 55.803546 0.000000 0.000000 0.000000 0.000000 0.000000 0.000000 -132.005120 0.429121 -13.690942 47.994880 7.541791 -13.690942 -171.247775 -3.879362 -11.043737 26.625253 0.126082 27.893295 178.805957 -1.060833 11.043737 0.023422 -0.128527 0.936907
1288.157730 426.987666 43.601901 0.000000 0.000000 0.000000 0.000000 0.000000 0.000000 -123.987926 -2.181877 -9.635073 56.012074 -3.446287 -9.635073 -166.356219 2.072896 -7.460697 35.716336 -0.653519 29.057495 -172.960762 -1.078190 7.460697 0.819533 0.153051 0.626666
1291.221657 420.425448 48.217072 0.000000 0.000000 0.000000 0.000000 0.000000 0.000000 -122.265643 -7.124961 -4.973798 57.734357 -2.890036 -4.973798 -156.870161 2.409546 -3.759997 38.220704 4.695719 29.763441 -165.716368 -1.754736 3.759997 1.405814 -0.015934 0.313953
