HIERARCHY
ROOT Hips
{
    OFFSET 0.0 0.0 0.0
    CHANNELS 6 Xposition Yposition Zposition Zrotation Xrotation Yrotation
    JOINT Spine
    {
        OFFSET 0.0 5.0 0.0
        CHANNELS 3 Zrotation Xrotation Yrotation
        JOINT Chest
        {
            OFFSET 0.0 5.0 0.0
            CHANNELS 3 Zrotation Xrotation Yrotation
            JOINT Neck
            {
                OFFSET 0.0 8.0 0.0
                CHANNELS 3 Zrotation Xrotation Yrotation
                JOINT Head
                {
                    OFFSET 0.0 5.0 0.0
                    CHANNELS 3 Zrotation Xrotation Yrotation
                    End Site
                    {
                        OFFSET 0.0 3.0 0.0
                    }
                }
            }
            JOINT LeftShoulder
            {
                OFFSET -5.0 0.0 0.0
                CHANNELS 3 Zrotation Xrotation Yrotation
                JOINT LeftArm
                {
                    OFFSET 0.0 -10.0 0.0
                    CHANNELS 3 Zrotation Xrotation Yrotation
                    JOINT LeftForeArm
                    {
                        OFFSET 0.0 -10.0 0.0
                        CHANNELS 3 Zrotation Xrotation Yrotation
                        End Site
                        {
                            OFFSET 0.0 -3.0 0.0
                        }
                    }
                }
            }
        }
    }
}

MOTION
Frames: 300
Frame Time: 0.033333

960.000000 445.000000 109.789733 0.000000 0.000000 0.000000 0.000000 0.000000 0.000000 23.025492 -15.629409 0.000000 180.000000 6.084224 0.000000 21.801409 -3.302100 -0.000000 158.198591 -3.371969 30.000000 15.945396 9.057444 0.000000 18.000000 -0.115195 0.000000
1691.525230 140.756605 100.042876 0.000000 0.000000 0.000000 0.000000 0.000000 0.000000 -163.376529 3.959424 4.973798 16.623471 -1.571899 4.973798 -171.853121 -3.196636 3.759997 99.744051 26.234976 29.763441 -171.126653 -4.157513 -3.759997 0.673538 0.411413 0.313953
1636.048050 128.802021 101.505527 0.000000 0.000000 0.000000 0.000000 0.000000 0.000000 157.904128 -15.515751 9.635073 -22.095872 30.084091 9.635073 -171.936471 -4.040813 7.460697 -143.675701 -1.462565 29.057495 -173.500805 -3.591462 -7.460697 0.570999 0.445116 0.626666
1578.156967 80.474526 89.981047 0.000000 0.000000 0.000000 0.000000 0.000000 0.000000 -139.519796 -8.274120 13.690942 40.480204 9.518356 13.690942 -174.507724 -4.051253 11.043737 119.111399 1.090344 27.893295 -173.607258 -3.835813 -11.043737 0.461920 0.467814 0.936907
960.418757 444.998421 118.427162 0.000000 0.000000 0.000000 0.000000 0.000000 0.000000 25.077893 -35.807226 16.886559 180.000000 4.437839 16.886559 23.861935 7.756949 14.452610 156.138065 12.494012 26.289200 17.903699 -10.272280 -14.452610 18.000000 0.435717 1.243449
960.523360 444.997533 133.809220 0.000000 0.000000 0.000000 0.000000 0.000000 0.000000 25.638906 25.138752 19.021130 180.000000 -1.751605 19.021130 24.425035 -5.355227 17.633558 155.574965 5.406311 24.270510 18.452907 -3.416846 -17.633558 18.000000 0.191288 1.545085
960.627905 444.996447 118.527009 0.000000 0.000000 0.000000 0.000000 0.000000 0.000000 26.219073 -10.295545 19.960535 180.000000 11.787653 19.960535 25.006291 1.609877 20.536413 154.993709 -4.025190 21.869059 19.024920 11.300085 -20.536413 18.000000 0.221905 1.840623
1126.242828 420.359820 122.034205 0.000000 0.000000 0.000000 0.000000 0.000000 0.000000 31.410514 -2.337414 19.645745 -148.589486 -3.970639 19.645745 32.280463 4.367807 23.115397 -131.603972 -1.281143 19.122720 45.585331 1.610239 -23.115397 -13.449727 -0.069769 2.128896
1257.895088 650.549197 127.009004 0.000000 0.000000 0.000000 0.000000 0.000000 0.000000 25.073180 -11.700518 18.096541 -154.926820 0.005519 18.096541 46.260945 10.812148 25.329838 -154.651428 -5.335384 16.074804 27.339487 5.162626 -25.329838 -13.619892 0.301742 2.408768
960.941083 444.992008 142.209239 0.000000 0.000000 0.000000 0.000000 0.000000 0.000000 28.072001 12.793683 15.410265 180.000000 -1.833388 15.410265 26.849221 11.037043 27.144812 153.150779 -4.942526 12.773379 20.864045 -3.653890 -27.144812 18.000000 0.377864 2.679134
1163.815842 547.748709 146.007824 0.000000 0.000000 0.000000 0.000000 0.000000 0.000000 117.162728 9.971414 11.755705 -62.837272 -12.216862 11.755705 102.363764 -4.732008 28.531695 -47.376450 -2.959250 9.270510 104.768601 1.229515 -28.531695 -6.003489 -0.134530 2.938926
961.149372 444.988063 136.155412 0.000000 0.000000 0.000000 0.000000 0.000000 0.000000 29.395983 22.300334 7.362491 180.000000 5.771857 7.362491 28.146217 2.097635 29.468618 151.853783 3.601379 5.621439 22.170006 6.521292 -29.468618 18.000000 -1.395901 3.187120
1136.717377 590.104480 128.094385 0.000000 0.000000 0.000000 0.000000 0.000000 0.000000 115.752126 -1.849829 2.506665 -64.247874 0.276225 2.506665 73.638146 -2.933419 29.940802 -21.842452 2.488151 1.883716 75.369282 -4.124596 -29.940802 -6.767207 0.776552 3.422736
1163.079758 634.077559 136.508129 0.000000 0.000000 0.000000 0.000000 0.000000 0.000000 132.174340 1.089932 -2.506665 -47.825660 -2.950201 -2.506665 94.255711 3.098071 29.940802 -149.364979 -7.298040 -1.883716 30.021641 5.147542 -29.940802 -5.096180 0.893519 3.644843
961.460830 444.980668 159.597040 0.000000 0.000000 0.000000 0.000000 0.000000 0.000000 31.497152 -39.922961 -7.362491 180.000000 -1.539333 -7.362491 30.152455 2.388016 29.468618 149.847545 19.757507 -5.621439 24.175589 -20.364074 -29.468618 18.000000 1.821190 3.852566
1097.449951 565.089898 164.483376 0.000000 0.000000 0.000000 0.000000 0.000000 0.000000 -119.219568 1.240646 -11.755705 60.780432 -1.111939 -11.755705 -150.180642 -6.612118 28.531695 48.804955 0.295543 -9.270510 -149.874178 -6.219330 -28.531695 2.713854 0.609971 4.045085
1114.140244 528.302071 135.165876 0.000000 0.000000 0.000000 0.000000 0.000000 0.000000 -142.671523 -3.571039 -15.410265 37.328477 1.230826 -15.410265 -177.395681 1.872634 27.144812 34.687329 0.980913 -12.773379 161.894167 -4.267102 -27.144812 -0.910956 0.325216 4.221640
1116.433640 479.728639 150.592095 0.000000 0.000000 0.000000 0.000000 0.000000 0.000000 -102.267481 1.811854 -18.096541 77.732519 6.472664 -18.096541 -163.695626 -4.786973 25.329838 38.575767 1.060583 -16.074804 -176.001122 0.258120 -25.329838 0.706594 -0.037282 4.381533
1135.931282 466.493965 140.036178 0.000000 0.000000 0.000000 0.000000 0.000000 0.000000 -112.868406 10.949830 -19.645745 67.131594 -7.235856 -19.645745 -159.517862 -2.163357 23.115397 36.204678 -1.897470 -19.122720 -154.426613 -5.607361 -23.115397 2.428729 0.533376 4.524135
1141.618767 467.420679 142.274213 0.000000 0.000000 0.000000 0.000000 0.000000 0.000000 -123.086385 13.289419 -19.960535 56.913615 -8.716637 -19.960535 -154.885724 0.918680 20.536413 36.481623 0.565881 -21.869059 -153.965441 -6.594322 -20.536413 2.446728 0.525298 4.648882
1150.647926 469.370956 152.224787 0.000000 0.000000 0.000000 0.000000 0.000000 0.000000 -43.953779 -19.112289 -19.021130 136.046221 -37.347059 -19.021130 -154.327268 -6.407597 17.633558 60.745168 1.628072 -24.270510 -153.350642 -7.083495 -17.633558 2.386216 0.669026 4.755283
1151.529922 496.420240 148.480464 0.000000 0.000000 0.000000 0.000000 0.000000 0.000000 -116.362129 -4.586047 -16.886559 63.637871 0.443377 -16.886559 -149.081043 7.279789 14.452610 35.941860 5.186342 -26.289200 -156.847177 -1.113922 -14.452610 2.056513 -0.012637 4.842916
1148.402367 515.713574 140.037261 0.000000 0.000000 0.000000 0.000000 0.000000 0.000000 -118.252650 6.097011 -13.690942 61.747350 -2.395793 -13.690942 -138.082896 2.887111 11.043737 -156.312677 -6.772903 -27.893295 21.649626 9.634296 -11.043737 2.962417 0.012809 4.911436
1175.363617 533.368646 135.825350 0.000000 0.000000 0.000000 0.000000 0.000000 0.000000 -95.476638 10.254286 -9.635073 84.523362 -3.105791 -9.635073 -113.907461 -4.304753 7.460697 -155.995907 -7.182717 -29.057495 12.512064 7.825188 -7.460697 -16.748794 -0.782519 4.960574
1199.533310 485.991104 136.077192 0.000000 0.000000 0.000000 0.000000 0.000000 0.000000 -100.003195 -4.906206 -4.973798 79.996805 -3.487478 -4.973798 -86.083188 4.959146 3.759997 38.843754 -2.980389 -29.763441 -106.539452 0.100946 -3.759997 6.197806 -0.018958 4.990134
962.588190 444.938442 131.695266 0.000000 0.000000 0.000000 0.000000 0.000000 0.000000 39.579754 23.505788 -0.000000 180.000000 -3.668786 -0.000000 36.680773 -7.276628 0.000000 143.319227 -25.280707 -30.000000 29.388385 5.603162 -0.000000 18.000000 0.176527 5.000000
1142.094727 445.716287 128.979470 0.000000 0.000000 0.000000 0.000000 0.000000 0.000000 -140.228454 19.229555 4.973798 39.771546 -18.905544 4.973798 -156.118008 -5.675419 -3.759997 3.479189 -0.648951 -29.763441 -158.005660 -5.721619 3.759997 2.150019 0.595217 4.990134
1164.005928 424.847746 115.380817 0.000000 0.000000 0.000000 0.000000 0.000000 0.000000 -84.241076 -38.517671 9.635073 95.758924 10.472199 9.635073 -156.181584 -5.747924 -7.460697 166.928360 16.917881 -29.057495 -154.947270 -7.058634 7.460697 2.644196 0.736338 4.960574
1124.208755 418.286655 117.829359 0.000000 0.000000 0.000000 0.000000 0.000000 0.000000 -117.427077 -0.475623 13.690942 62.572923 6.349864 13.690942 -155.943063 -5.809974 -11.043737 14.023837 -14.654373 -27.893295 -157.382674 -4.813698 11.043737 2.188130 0.511179 4.911436
962.990408 444.917226 116.166007 0.000000 0.000000 0.000000 0.000000 0.000000 0.000000 42.110883 -9.566683 16.886559 180.000000 -22.046407 16.886559 37.946959 9.760448 -14.452610 142.053041 8.528023 -26.289200 29.293612 -13.151282 14.452610 18.000000 0.710084 4.842916
963.090170 444.911436 127.790901 0.000000 0.000000 0.000000 0.000000 0.000000 0.000000 42.659200 39.668732 19.021130 180.000000 26.385535 19.021130 38.119107 -28.995767 -17.633558 141.880893 0.025759 -24.270510 29.068887 -14.354131 17.633558 18.000000 1.192865 4.755283
1186.646461 396.272757 83.621606 0.000000 0.000000 0.000000 0.000000 0.000000 0.000000 -72.847419 -6.093534 19.960535 107.152581 -16.502236 19.960535 -156.703603 -4.537462 -20.536413 178.447294 -3.216211 -21.869059 -157.212393 -5.284182 20.536413 1.964058 0.491910 4.648882
1313.051605 426.636125 91.306399 0.000000 0.000000 0.000000 0.000000 0.000000 0.000000 90.994869 5.887816 19.645745 -89.005131 -3.905637 19.645745 -160.515303 -4.148367 -23.115397 -153.248861 9.715364 -19.122720 -159.640525 -6.104804 23.115397 0.000000 0.000000 0.000000
1347.999344 420.772226 97.707137 0.000000 0.000000 0.000000 0.000000 0.000000 0.000000 90.154351 -0.894289 18.096541 -89.845649 4.078465 18.096541 -162.053401 -3.996070 -25.329838 -136.198880 -0.343280 -16.074804 -160.991694 -4.048508 25.329838 0.000000 0.000000 0.000000
1344.315948 421.031681 72.013244 0.000000 0.000000 0.000000 0.000000 0.000000 0.000000 69.757587 15.526814 15.410265 -110.242413 -7.984472 15.410265 25.616746 -3.111455 -27.144812 -157.821005 -4.494706 -12.773379 17.214985 3.154825 27.144812 -16.704706 -0.003882 4.221640
1350.307617 440.309436 89.831987 0.000000 0.000000 0.000000 0.000000 0.000000 0.000000 71.124018 -4.683201 11.755705 -108.875982 3.700186 11.755705 42.739987 5.751075 -28.531695 -142.315466 -0.965023 -9.270510 16.600926 1.338077 28.531695 -16.660102 -0.053757 4.045085
1357.685051 430.688889 96.843696 0.000000 0.000000 0.000000 0.000000 0.000000 0.000000 77.656077 -8.886388 7.362491 -102.343923 1.900145 7.362491 39.407151 6.516612 -29.468618 -136.343173 3.533674 -5.621439 22.144452 0.141965 29.468618 -16.305135 -0.095121 3.852566
1369.482193 445.909406 78.336054 0.000000 0.000000 0.000000 0.000000 0.000000 0.000000 88.051188 12.377338 2.506665 -91.948812 4.956780 2.506665 -161.283973 -3.394042 -29.940802 -119.799169 0.532518 -1.883716 -164.575400 -3.545722 29.940802 1.401013 0.343227 3.644843
963.875156 444.858159 83.883117 0.000000 0.000000 0.000000 0.000000 0.000000 0.000000 45.304844 23.493243 -2.506665 180.000000 -11.440301 -2.506665 37.252439 -8.205064 -29.940802 142.747561 -18.433816 1.883716 25.146244 6.844845 29.940802 18.000000 -0.282390 3.422736
963.971479 444.850633 65.243658 0.000000 0.000000 0.000000 0.000000 0.000000 0.000000 45.383640 -23.707506 -7.362491 180.000000 15.126722 -7.362491 36.882310 -13.203985 -29.468618 143.117690 3.217583 5.621439 24.499789 2.440132 29.468618 18.000000 -0.816839 3.187120
1336.629524 469.010178 45.724546 0.000000 0.000000 0.000000 0.000000 0.000000 0.000000 -72.390177 -20.482995 -11.755705 107.609823 -10.464345 -11.755705 -158.649984 -2.547466 -28.531695 2.583425 -6.651359 9.270510 -39.658551 9.073501 28.531695 10.837181 -1.764396 2.938926
1311.966934 518.219100 68.766250 0.000000 0.000000 0.000000 0.000000 0.000000 0.000000 -63.565072 27.762834 -15.410265 116.434928 -51.204440 -15.410265 -14.840750 6.956775 -27.144812 -158.549348 -2.806602 12.773379 17.488774 1.998228 27.144812 7.174982 3.016330 2.679134
964.257793 444.826908 60.174967 0.000000 0.000000 0.000000 0.000000 0.000000 0.000000 45.262206 -39.761721 -18.096541 180.000000 -17.733646 -18.096541 35.497192 5.925381 -25.329838 144.502808 -13.166606 16.074804 22.522929 16.744982 25.329838 18.000000 -1.113656 2.408768
1275.921364 516.836239 59.371552 0.000000 0.000000 0.000000 0.000000 0.000000 0.000000 85.186295 4.093101 -19.645745 -94.813705 -0.077215 -19.645745 52.470689 2.104169 -23.115397 -44.513683 1.802222 19.122720 50.867598 -1.348829 23.115397 -8.717188 -0.203179 2.128896
1263.254128 546.875424 58.724587 0.000000 0.000000 0.000000 0.000000 0.000000 0.000000 34.848242 -35.972266 -19.960535 -145.151758 45.480418 -19.960535 42.487561 -42.183023 -20.536413 -157.415675 -1.633531 21.869059 22.420880 2.467069 20.536413 -15.757912 -0.246707 1.840623
1258.788185 528.263061 57.716211 0.000000 0.000000 0.000000 0.000000 0.000000 0.000000 118.326865 -9.517983 -19.021130 -61.673135 -14.244625 -19.021130 143.214759 6.487993 -17.633558 -156.228306 -2.039908 24.270510 28.173554 1.973716 17.633558 -15.182645 -0.197372 1.545085
1231.492081 471.383836 42.907481 0.000000 0.000000 0.000000 0.000000 0.000000 0.000000 -115.049381 20.529257 -16.886559 64.950619 -26.224834 -16.886559 172.843704 3.304477 -14.452610 -157.842300 -3.327072 26.289200 32.851042 3.378103 14.452610 -14.714896 -0.337810 1.243449
1223.928795 435.993515 51.423673 0.000000 0.000000 0.000000 0.000000 0.000000 0.000000 -115.322532 -8.622531 -13.690942 64.677468 -1.440344 -13.690942 -168.597862 3.813187 -11.043737 -158.853816 -2.431253 27.893295 31.099266 1.823587 11.043737 -14.890073 -0.182359 0.936907
1223.669701 418.195664 51.219029 0.000000 0.000000 0.000000 0.000000 0.000000 0.000000 -102.084053 28.304153 -9.635073 77.915947 -9.728582 -9.635073 -171.103858 0.207741 -7.460697 162.056334 -0.174067 29.057495 -153.594437 -2.707699 7.460697 2.968481 0.346460 0.626666
1216.486244 414.503002 55.440724 0.000000 0.000000 0.000000 0.000000 0.000000 0.000000 69.261091 19.661216 -4.973798 -110.738909 18.468507 -4.973798 -158.083722 -3.045235 -3.759997 -173.244581 -1.184150 29.763441 -154.635509 -2.898228 3.759997 2.928763 0.303484 0.313953
1212.090225 434.550980 45.064945 0.000000 0.000000 0.000000 0.000000 0.000000 0.000000 -112.403932 11.856208 0.000000 67.596068 24.727151 0.000000 -157.060799 -2.968338 -0.000000 173.400765 2.957156 30.000000 -154.473580 -2.973842 0.000000 2.734633 0.363198 0.000000
1214.024734 450.340490 56.346689 0.000000 0.000000 0.000000 0.000000 0.000000 0.000000 -110.634751 5.495534 4.973798 69.365249 -2.087724 4.973798 -137.583343 -0.812361 3.759997 -158.589698 -2.940965 29.763441 20.879446 3.958880 -3.759997 -15.912055 -0.395888 0.313953
1204.271393 440.192921 62.742438 0.000000 0.000000 0.000000 0.000000 0.000000 0.000000 -99.498286 -6.694680 9.635073 80.501714 12.422002 9.635073 -156.696469 -2.734896 7.460697 -178.487725 12.905626 29.057495 -157.318323 -3.148949 -7.460697 2.108583 0.265435 0.626666
965.269558 444.725315 57.543851 0.000000 0.000000 0.000000 0.000000 0.000000 0.000000 40.845461 6.787873 13.690942 180.000000 -8.718632 13.690942 28.615377 7.518730 11.043737 151.384623 -12.836814 27.893295 16.305092 2.173207 -11.043737 18.000000 0.506870 0.936907
1182.456551 475.103824 58.051384 0.000000 0.000000 0.000000 0.000000 0.000000 0.000000 -168.146016 83.370151 16.886559 11.853984 47.400629 16.886559 -63.802645 -7.368611 14.452610 -61.114510 -2.219434 26.289200 -47.869281 4.568243 -14.452610 -13.834956 -8.337560 1.243449
965.446390 444.704404 65.183858 0.000000 0.000000 0.000000 0.000000 0.000000 0.000000 39.578146 -20.412576 19.021130 180.000000 2.931757 19.021130 27.338029 10.400766 17.633558 152.661971 8.552813 24.270510 15.463180 0.343622 -17.633558 18.000000 -0.870696 1.545085
965.533915 444.693669 58.142736 0.000000 0.000000 0.000000 0.000000 0.000000 0.000000 38.916706 5.442459 19.960535 180.000000 -16.359525 19.960535 26.716768 11.937459 20.536413 153.283232 -7.687848 21.869059 15.076605 10.453550 -20.536413 18.000000 -0.659670 1.840623
965.620834 444.682749 63.026945 0.000000 0.000000 0.000000 0.000000 0.000000 0.000000 38.241653 -36.720396 19.645745 180.000000 17.738024 19.645745 26.109467 -14.620014 23.115397 153.890533 2.658564 19.122720 14.712258 3.341624 -23.115397 18.000000 0.217166 2.128896
965.707136 444.671645 65.433099 0.000000 0.000000 0.000000 0.000000 0.000000 0.000000 37.556504 5.161589 18.096541 180.000000 16.426644 18.096541 25.517536 -7.909961 25.329838 154.482464 -4.621952 16.074804 14.369537 9.068921 -25.329838 18.000000 -0.404667 2.408768
965.792812 444.660356 74.558128 0.000000 0.000000 0.000000 0.000000 0.000000 0.000000 36.864608 2.874606 15.410265 180.000000 -13.713189 15.410265 24.942131 9.423146 27.144812 155.057869 -5.893429 12.773379 14.047797 3.150501 -27.144812 18.000000 -0.209027 2.679134
965.877853 444.648882 87.439501 0.000000 0.000000 0.000000 0.000000 0.000000 0.000000 36.169118 23.869406 11.755705 180.000000 -12.965221 11.755705 24.384173 -3.548551 28.531695 155.615827 2.503906 9.270510 13.746367 -9.158152 -28.531695 18.000000 0.057935 2.938926
965.962249 444.637226 96.497080 0.000000 0.000000 0.000000 0.000000 0.000000 0.000000 35.472980 -18.470538 7.362491 180.000000 -12.242222 7.362491 23.844373 1.513143 29.468618 156.155627 -1.869694 5.621439 13.464570 4.097081 -29.468618 18.000000 0.004102 3.187120
966.045991 444.625386 94.596594 0.000000 0.000000 0.000000 0.000000 0.000000 0.000000 34.778913 -39.655860 2.506665 180.000000 11.112014 2.506665 23.323250 -5.267810 29.940802 156.676750 16.110279 1.883716 13.201728 -9.884779 -29.940802 18.000000 0.299691 3.422736
966.129071 444.613364 89.519636 0.000000 0.000000 0.000000 0.000000 0.000000 0.000000 34.089406 7.187065 -2.506665 180.000000 -4.381255 -2.506665 22.821158 -0.856808 29.940802 157.178842 4.496219 -1.883716 12.957175 -2.452365 -29.940802 18.000000 0.188091 3.644843
966.211478 444.601159 109.281608 0.000000 0.000000 0.000000 0.000000 0.000000 0.000000 33.406712 -10.863690 -7.362491 180.000000 4.182736 -7.362491 22.338307 -2.575943 29.468618 157.661693 -1.972923 -5.621439 12.730264 9.185235 -29.468618 18.000000 0.054478 3.852566
1171.486244 534.946783 141.761900 0.000000 0.000000 0.000000 0.000000 0.000000 0.000000 70.594720 8.314677 -11.755705 -109.405280 -2.981521 -11.755705 49.953444 -9.088852 28.531695 -151.467583 -5.222952 -9.270510 0.000000 0.000000 0.000000 0.000000 0.000000 0.000000
966.374240 444.576206 117.495498 0.000000 0.000000 0.000000 0.000000 0.000000 0.000000 32.069603 31.489550 -15.410265 180.000000 -32.574819 -15.410265 21.430544 4.719135 27.144812 158.569456 -10.495024 -12.773379 12.326901 -0.698656 -27.144812 18.000000 -0.137317 4.221640
1172.156410 555.047708 111.028996 0.000000 0.000000 0.000000 0.000000 0.000000 0.000000 -121.065102 -3.232112 -18.096541 58.934898 -5.962616 -18.096541 -151.641456 -5.700511 25.329838 -177.360623 -0.286717 -16.074804 -149.076048 -6.774594 -25.329838 0.000000 0.000000 0.000000
1161.826630 552.360713 137.667507 0.000000 0.000000 0.000000 0.000000 0.000000 0.000000 69.958407 37.677801 -19.645745 -110.041593 -27.260368 -19.645745 -152.437496 -5.523003 23.115397 -158.790607 1.745469 -19.122720 -150.591725 -7.264125 -23.115397 3.219062 0.703959 4.524135
1165.827255 569.832902 117.482025 0.000000 0.000000 0.000000 0.000000 0.000000 0.000000 25.594208 -13.092902 -19.960535 -154.405792 3.138474 -19.960535 11.723883 2.498703 20.536413 -161.543160 -1.016411 -21.869059 7.769582 2.486522 -20.536413 -17.248199 -0.235469 4.648882
1165.555573 565.067046 138.268703 0.000000 0.000000 0.000000 0.000000 0.000000 0.000000 43.355707 6.054884 -19.021130 -136.644293 9.309944 -19.021130 15.984329 -3.831125 17.633558 -140.773833 2.710932 -24.270510 13.679449 -0.756213 -17.633558 -16.392157 -0.192299 4.755283
1290.255775 608.533316 118.618859 0.000000 0.000000 0.000000 0.000000 0.000000 0.000000 -153.952071 13.076017 -16.886559 26.047929 -7.072395 -16.886559 -152.683807 -5.317544 14.452610 4.794196 -0.729390 -26.289200 -154.287190 -5.347034 -14.452610 2.418080 0.525651 4.842916
1180.398903 551.817470 170.559203 0.000000 0.000000 0.000000 0.000000 0.000000 0.000000 51.640104 -27.140442 -13.690942 -128.359896 15.085267 -13.690942 14.419400 -2.947559 11.043737 -33.521359 31.394373 -27.893295 -34.277510 -2.141320 -11.043737 5.235387 1.711926 4.911436
1162.708626 619.419501 139.227932 0.000000 0.000000 0.000000 0.000000 0.000000 0.000000 -88.968325 0.371686 -9.635073 91.031675 -17.964067 -9.635073 -52.690088 4.014308 7.460697 25.015222 -0.297282 -29.057495 -72.561734 -0.936639 -7.460697 8.557489 0.175794 4.960574
1110.899391 602.919216 135.553918 0.000000 0.000000 0.000000 0.000000 0.000000 0.000000 -86.972237 -9.391522 -4.973798 93.027763 -4.520421 -4.973798 -39.551144 3.706529 3.759997 34.838085 -3.730374 -29.763441 -44.185810 2.418654 -3.759997 10.000609 -0.128703 4.990134
1150.187302 553.686991 169.127588 0.000000 0.000000 0.000000 0.000000 0.000000 0.000000 -116.065142 -4.633989 -0.000000 63.934858 22.984947 -0.000000 -151.059314 -6.742658 0.000000 -0.492058 12.896278 -30.000000 -14.044098 -0.601913 -0.000000 1.929760 -1.247332 5.000000
967.144727 444.440682 148.670891 0.000000 0.000000 0.000000 0.000000 0.000000 0.000000 26.270296 21.976936 4.973798 180.000000 -21.211856 4.973798 17.996647 10.853299 -3.759997 162.003353 -5.997371 -29.763441 11.189167 0.127896 3.759997 18.000000 0.174145 4.990134
1213.452644 620.002785 160.042142 0.000000 0.000000 0.000000 0.000000 0.000000 0.000000 140.390379 18.910497 9.635073 -39.609621 -33.673479 9.635073 77.724607 8.751259 -7.460697 -153.982965 -7.041096 -29.057495 24.142749 5.571982 7.460697 -0.833727 0.740484 4.960574
1124.373779 618.464527 149.665992 0.000000 0.000000 0.000000 0.000000 0.000000 0.000000 99.329635 36.567516 13.690942 -80.670365 -3.264801 13.690942 85.960927 -10.332072 -11.043737 -150.875293 -7.830325 -27.893295 31.644098 6.837646 11.043737 -14.835590 -0.683765 4.911436
967.360971 444.396582 137.861817 0.000000 0.000000 0.000000 0.000000 0.000000 0.000000 24.874716 -11.144844 16.886559 180.000000 3.402698 16.886559 17.291102 -1.496388 -14.452610 162.708898 2.940761 -26.289200 11.098846 -2.782972 14.452610 18.000000 -0.206449 4.842916
1107.875175 542.453964 137.598198 0.000000 0.000000 0.000000 0.000000 0.000000 0.000000 -128.741314 11.154563 19.021130 51.258686 -9.224105 19.021130 -177.225595 -4.530807 -17.633558 19.954750 0.791944 -24.270510 162.677362 -0.881181 17.633558 -1.443098 -0.258507 4.755283
1119.652290 522.766346 149.710982 0.000000 0.000000 0.000000 0.000000 0.000000 0.000000 -99.017754 14.456386 19.960535 80.982246 -6.204671 19.960535 -150.289603 -7.348754 -20.536413 -152.613833 -7.896986 -21.869059 0.000000 0.000000 0.000000 0.000000 0.000000 0.000000
1132.908783 538.229613 154.095831 0.000000 0.000000 0.000000 0.000000 0.000000 0.000000 -127.874185 0.261598 19.645745 52.125815 2.913241 19.645745 -165.450188 -2.413279 -23.115397 -152.521515 -6.491063 -19.122720 40.606225 8.260549 23.115397 -13.939378 -0.826055 4.524135
1146.969337 541.828065 136.492982 0.000000 0.000000 0.000000 0.000000 0.000000 0.000000 -113.631604 0.487083 18.096541 66.368396 5.562249 18.096541 -159.067475 -3.724875 -25.329838 113.981862 6.562144 -16.074804 -145.449815 -7.688857 25.329838 0.000000 0.000000 0.000000
1165.252304 561.329677 158.291213 0.000000 0.000000 0.000000 0.000000 0.000000 0.000000 -112.861399 -7.116421 15.410265 67.138601 8.336814 15.410265 -159.396543 -2.871154 -27.144812 -151.967552 -6.454863 -12.773379 38.422588 9.042095 27.144812 -14.157741 -0.904209 4.221640
1174.726181 592.839689 137.888088 0.000000 0.000000 0.000000 0.000000 0.000000 0.000000 -110.369899 6.424251 11.755705 69.630101 -9.991079 11.755705 -148.108768 -0.553057 -28.531695 -151.515612 -7.608916 -9.270510 34.277732 9.040650 28.531695 -14.572227 -0.904065 4.045085
1167.352524 605.194867 131.260289 0.000000 0.000000 0.000000 0.000000 0.000000 0.000000 -113.828445 -1.144410 7.362491 66.171555 8.783897 7.362491 -131.688453 1.806351 -29.468618 -151.045756 -6.037989 -5.621439 27.200835 9.634601 29.468618 -15.279916 -0.963460 3.852566
1139.678879 602.981014 126.239012 0.000000 0.000000 0.000000 0.000000 0.000000 0.000000 -97.599684 -3.595841 2.506665 82.400316 5.857302 2.506665 -113.965806 -3.305433 -29.940802 -121.058781 -11.302107 -1.883716 -118.492407 7.935770 29.940802 10.137620 -2.809917 3.644843
1165.830002 580.020189 134.006415 0.000000 0.000000 0.000000 0.000000 0.000000 0.000000 -28.085052 4.515906 -2.506665 151.914948 3.265481 -2.506665 -150.589103 -5.967360 -29.940802 -172.678414 -12.227392 1.883716 -149.717924 -5.192689 29.940802 0.000000 0.000000 0.000000
1184.501953 619.872494 123.246871 0.000000 0.000000 0.000000 0.000000 0.000000 0.000000 -113.790307 28.611737 -7.362491 66.209693 0.399069 -7.362491 -59.272274 -7.133605 -29.468618 29.476823 -8.769704 5.621439 -88.148483 0.927687 29.468618 7.414604 0.146724 3.187120
968.090170 444.221640 116.495527 0.000000 0.000000 0.000000 0.000000 0.000000 0.000000 21.092887 12.999333 -11.755705 180.000000 2.716809 -11.755705 15.757771 -6.194201 -28.531695 164.242229 -5.935966 9.270510 11.678908 0.807609 28.531695 18.000000 0.465247 2.938926
968.151278 444.204723 106.220242 0.000000 0.000000 0.000000 0.000000 0.000000 0.000000 20.844337 11.530975 -15.410265 180.000000 4.768698 -15.410265 15.691895 -5.315539 -27.144812 164.308105 8.842304 12.773379 11.804629 -4.972833 27.144812 18.000000 0.233737 2.679134
968.211492 444.187640 110.773910 0.000000 0.000000 0.000000 0.000000 0.000000 0.000000 20.610265 2.205745 -18.096541 180.000000 7.486840 -18.096541 15.637361 -3.809545 -25.329838 164.362639 5.340743 16.074804 11.943263 -6.789885 25.329838 18.000000 -0.240080 2.408768
968.270806 444.170392 104.332295 0.000000 0.000000 0.000000 0.000000 0.000000 0.000000 20.390366 27.093707 -19.645745 180.000000 -8.033154 -19.645745 15.594026 2.380171 -23.115397 164.405974 -4.098762 19.122720 12.095062 -1.389671 23.115397 18.000000 0.050551 2.128896
968.329212 444.152979 112.358972 0.000000 0.000000 0.000000 0.000000 0.000000 0.000000 20.184343 -22.782472 -19.960535 180.000000 5.110379 -19.960535 15.561766 1.327843 -20.536413 164.438234 -0.327476 21.869059 12.260289 2.354130 20.536413 18.000000 0.310058 1.840623
968.386706 444.135403 99.435960 0.000000 0.000000 0.000000 0.000000 0.000000 0.000000 19.991916 14.698831 -19.021130 180.000000 5.579251 -19.021130 15.540476 2.159384 -17.633558 164.459524 1.102742 24.270510 12.439222 0.500286 17.633558 18.000000 0.255613 1.545085
968.443279 444.117663 88.454656 0.000000 0.000000 0.000000 0.000000 0.000000 0.000000 19.812814 -18.823584 -16.886559 180.000000 3.627424 -16.886559 15.530069 6.691845 -14.452610 164.469931 -7.282411 26.289200 12.632146 7.944635 14.452610 18.000000 -0.132049 1.243449
968.498927 444.099761 90.769435 0.000000 0.000000 0.000000 0.000000 0.000000 0.000000 19.646785 -3.388165 -13.690942 180.000000 -1.823243 -13.690942 15.530474 -1.536335 -11.043737 164.469526 1.487862 27.893295 12.839349 -0.891039 11.043737 18.000000 -0.568254 0.936907
968.553643 444.081696 78.043860 0.000000 0.000000 0.000000 0.000000 0.000000 0.000000 19.493591 12.389090 -9.635073 180.000000 -6.431466 -9.635073 15.541640 -0.494323 -7.460697 164.458360 -5.999452 29.057495 13.061119 6.836269 7.460697 18.000000 -0.542957 0.626666
1051.772690 653.004448 75.629466 0.000000 0.000000 0.000000 0.000000 0.000000 0.000000 -79.007834 4.507550 -4.973798 100.992166 4.215930 -4.973798 -126.715299 -4.845641 -3.759997 -149.991181 -4.024578 29.763441 31.772279 4.993129 3.759997 -14.822772 -0.499313 0.313953
1061.669197 624.716241 71.986765 0.000000 0.000000 0.000000 0.000000 0.000000 0.000000 -94.718359 -24.705070 0.000000 85.281641 13.035264 0.000000 -144.150484 4.355430 -0.000000 60.155085 18.896831 30.000000 -152.711462 -0.465681 0.000000 1.815393 -0.158015 0.000000
1072.053337 571.032879 69.631791 0.000000 0.000000 0.000000 0.000000 0.000000 0.000000 71.424080 1.060071 4.973798 -108.575920 -2.424959 4.973798 -149.042361 -3.255335 3.759997 -149.913636 -3.957864 29.763441 -145.792107 -3.070514 -3.759997 3.947623 0.476749 0.313953
1070.057373 572.884376 58.202160 0.000000 0.000000 0.000000 0.000000 0.000000 0.000000 -80.850201 -49.161431 9.635073 99.149799 37.992810 9.635073 -147.567525 -3.134851 7.460697 -164.443014 5.257341 29.057495 -145.447997 -3.826103 -7.460697 4.032371 0.426821 0.626666
968.813035 443.988972 54.468464 0.000000 0.000000 0.000000 0.000000 0.000000 0.000000 18.912944 2.831059 13.690942 180.000000 -0.099275 13.690942 15.758200 -0.455586 11.043737 164.241800 4.970198 27.893295 14.397395 -5.431839 -11.043737 18.000000 0.167515 0.936907
968.862036 443.969952 47.093796 0.000000 0.000000 0.000000 0.000000 0.000000 0.000000 18.832684 -14.296215 16.886559 180.000000 3.464648 16.886559 15.833735 -2.171939 14.452610 164.166265 2.645386 26.289200 14.711463 6.098035 -14.452610 18.000000 -0.633116 1.243449
968.910065 443.950775 61.100665 0.000000 0.000000 0.000000 0.000000 0.000000 0.000000 18.764066 -7.251770 19.021130 180.000000 4.444425 19.021130 15.920102 2.029975 17.633558 164.079898 11.152772 24.270510 15.041323 -11.841873 -17.633558 18.000000 0.754314 1.545085
968.957118 443.931442 66.082691 0.000000 0.000000 0.000000 0.000000 0.000000 0.000000 18.706990 -6.030594 19.960535 180.000000 3.690980 19.960535 16.017366 5.033944 20.536413 163.982634 7.245740 21.869059 15.386894 -4.825288 -20.536413 18.000000 -0.267149 1.840623
969.003188 443.911954 46.179033 0.000000 0.000000 0.000000 0.000000 0.000000 0.000000 18.661377 -6.038354 19.645745 180.000000 7.513731 19.645745 16.125602 -10.405360 23.115397 163.874398 -4.508595 19.122720 15.747980 8.757332 -23.115397 18.000000 -0.824744 2.128896
969.048271 443.892312 54.706352 0.000000 0.000000 0.000000 0.000000 0.000000 0.000000 18.627165 -9.668474 18.096541 180.000000 -7.993363 18.096541 16.244896 10.128784 25.329838 163.755104 1.521366 16.074804 16.124252 -7.203617 -25.329838 18.000000 1.215869 2.408768
969.092361 443.872515 61.640733 0.000000 0.000000 0.000000 0.000000 0.000000 0.000000 18.604312 13.371240 15.410265 180.000000 2.174285 15.410265 16.375340 3.109253 27.144812 163.624660 5.053797 12.773379 16.515224 -0.728772 -27.144812 18.000000 -0.388561 2.679134
1055.186234 577.357593 40.104682 0.000000 0.000000 0.000000 0.000000 0.000000 0.000000 85.510211 -2.391508 11.755705 -94.489789 6.976929 11.755705 37.103410 -2.875158 28.531695 -148.111343 -2.043378 9.270510 24.294182 2.684928 -28.531695 -8.601915 -2.207061 2.938926
1122.856522 566.714029 54.971171 0.000000 0.000000 0.000000 0.000000 0.000000 0.000000 96.216240 3.779690 7.362491 -83.783760 -8.560875 7.362491 46.189625 0.964582 29.468618 -149.396962 -2.973533 5.621439 24.670091 1.360069 -29.468618 -7.107716 0.574768 3.187120
969.218632 443.812213 59.135501 0.000000 0.000000 0.000000 0.000000 0.000000 0.000000 18.603763 13.720103 2.506665 180.000000 -8.141486 2.506665 16.834613 5.885561 29.940802 163.165387 4.422654 1.883716 17.768624 -2.341734 -29.940802 18.000000 -0.167305 3.422736
1112.757797 605.798106 45.307528 0.000000 0.000000 0.000000 0.000000 0.000000 0.000000 110.914625 17.359505 -2.506665 -69.085375 -3.754440 -2.506665 67.769469 -6.001119 29.940802 -149.822316 -2.977246 -1.883716 29.049901 2.618787 -29.940802 -3.625079 -0.228909 3.644843
1086.733246 592.557156 46.451526 0.000000 0.000000 0.000000 0.000000 0.000000 0.000000 -80.132323 16.394947 -7.362491 99.867677 74.073159 -7.362491 36.201564 -8.495122 29.468618 -13.679556 -1.090884 -5.621439 78.049842 11.846125 -29.468618 -5.127460 -0.706495 3.852566
1081.109390 570.394492 33.595208 0.000000 0.000000 0.000000 0.000000 0.000000 0.000000 -175.864613 -5.604024 -11.755705 4.135387 -7.010273 -11.755705 134.713876 4.158900 28.531695 -10.005873 1.940264 -9.270510 135.737755 -1.764013 -28.531695 -3.389365 0.301323 4.045085
1089.776802 536.594539 59.705811 0.000000 0.000000 0.000000 0.000000 0.000000 0.000000 -139.033903 -0.295528 -15.410265 40.966097 1.658994 -15.410265 161.695972 -1.158923 27.144812 3.114398 -0.156797 -12.773379 148.805610 -0.197896 -27.144812 -2.611636 0.010745 4.221640
1114.282036 523.965647 70.237137 0.000000 0.000000 0.000000 0.000000 0.000000 0.000000 -156.073983 -14.464051 -18.096541 23.926017 3.356746 -18.096541 174.825807 -3.480994 25.329838 5.093343 2.180777 -16.074804 161.266817 -2.796156 -25.329838 -1.814366 0.061867 4.381533
1122.145157 503.425248 73.161938 0.000000 0.000000 0.000000 0.000000 0.000000 0.000000 -144.538174 -19.899218 -19.645745 35.461826 15.207127 -19.645745 174.215003 -3.704263 23.115397 -151.750905 -3.064153 -19.122720 43.887064 3.526466 -23.115397 -13.611294 -0.352647 4.524135
1134.158249 484.688419 71.461802 0.000000 0.000000 0.000000 0.000000 0.000000 0.000000 -142.311443 4.710151 -19.960535 37.688557 -5.162166 -19.960535 -174.407776 0.946530 20.536413 14.121014 -2.826630 -21.869059 176.737053 1.347162 -20.536413 -0.386439 0.000486 4.648882
1156.756668 500.025387 60.311399 0.000000 0.000000 0.000000 0.000000 0.000000 0.000000 -140.140767 10.582396 -19.021130 39.859233 -0.363355 -19.021130 -176.866589 1.870604 17.633558 -153.177991 -3.824952 -24.270510 40.555680 4.140260 -17.633558 -13.944432 -0.414026 4.755283
1163.818588 490.292573 69.099045 0.000000 0.000000 0.000000 0.000000 0.000000 0.000000 -126.918075 -9.172380 -16.886559 53.081925 -5.660238 -16.886559 -163.374411 0.519266 14.452610 -153.952175 -3.693646 -26.289200 36.914642 5.416728 -14.452610 0.798233 0.012536 4.842916
1176.523705 490.346003 74.886111 0.000000 0.000000 0.000000 0.000000 0.000000 0.000000 -130.072590 2.544274 -13.690942 49.927410 -2.397118 -13.690942 -150.224616 -1.272841 11.043737 24.749952 -6.006743 -27.893295 -162.219632 2.365436 -11.043737 1.550269 0.148695 4.911436
1165.045052 489.521159 72.385799 0.000000 0.000000 0.000000 0.000000 0.000000 0.000000 -134.421293 2.270325 -9.635073 45.578707 -4.268174 -9.635073 -138.114962 1.296133 7.460697 20.347125 -1.554435 -29.057495 -149.675125 0.337019 -7.460697 1.919618 -0.068941 4.960574
1186.003189 485.341580 83.899925 0.000000 0.000000 0.000000 0.000000 0.000000 0.000000 151.263424 -53.735405 -4.973798 -28.736576 -19.466515 -4.973798 -155.571724 -4.355623 3.759997 -114.944239 1.371838 -29.763441 -157.446860 -4.647079 -3.759997 2.096391 0.386065 4.990134
1190.285912 497.609435 85.044152 0.000000 0.000000 0.000000 0.000000 0.000000 0.000000 -104.331435 -11.817588 -0.000000 75.668565 21.706545 -0.000000 -153.934692 -4.843960 0.000000 -67.465008 2.355256 -30.000000 -71.629168 2.366032 -0.000000 -13.965204 -8.298568 5.000000
846.875610 502.341399 120.862904 0.000000 0.000000 0.000000 0.000000 0.000000 0.000000 -153.358185 -0.990217 4.973798 26.641815 -11.389309 4.973798 -147.628169 -5.266573 -3.759997 -147.401289 -5.926367 -29.763441 0.000000 0.000000 0.000000 0.000000 0.000000 0.000000
969.711343 443.490827 89.595846 0.000000 0.000000 0.000000 0.000000 0.000000 0.000000 20.204512 13.551263 9.635073 180.000000 1.068397 9.635073 20.733157 0.908406 -7.460697 159.266843 -4.624573 -29.057495 24.065833 12.517987 7.460697 18.000000 0.227607 4.960574
969.735789 443.468267 119.214822 0.000000 0.000000 0.000000 0.000000 0.000000 0.000000 20.415894 24.302914 13.690942 180.000000 -12.396188 13.690942 21.087741 6.443361 -11.043737 158.912259 -5.353439 -27.893295 24.320336 -10.809495 11.043737 18.000000 1.340336 4.911436
969.759168 443.445569 114.990866 0.000000 0.000000 0.000000 0.000000 0.000000 0.000000 20.642061 17.688365 16.886559 180.000000 -11.405084 16.886559 21.453029 1.099867 -14.452610 158.546971 -4.631125 -26.289200 24.533304 -8.944287 14.452610 18.000000 1.247349 4.842916
585.252171 514.469179 114.510298 0.000000 0.000000 0.000000 0.000000 0.000000 0.000000 74.723181 -12.569206 19.021130 -105.276819 35.902728 19.021130 119.807175 -5.519011 -17.633558 165.825978 17.635740 -24.270510 138.012220 0.493032 17.633558 -12.357653 -2.066562 4.755283
624.843979 517.601860 134.527912 0.000000 0.000000 0.000000 0.000000 0.000000 0.000000 103.202449 2.150111 19.960535 -76.797551 17.783599 19.960535 114.381580 -12.837741 -20.536413 -53.015473 48.224350 -21.869059 145.467160 -2.103161 20.536413 -4.173333 -0.380186 4.648882
969.822873 443.376664 133.034921 0.000000 0.000000 0.000000 0.000000 0.000000 0.000000 21.413420 13.135907 19.645745 180.000000 3.153852 19.645745 22.607712 -13.454483 -23.115397 157.392288 -1.613215 -19.122720 24.899813 0.207067 23.115397 18.000000 -1.122520 4.524135
969.841956 443.353428 141.677048 0.000000 0.000000 0.000000 0.000000 0.000000 0.000000 21.702987 5.959364 18.096541 180.000000 2.162013 18.096541 23.009909 -7.620796 -25.329838 156.990091 -4.842683 -16.074804 24.926562 6.365940 25.329838 18.000000 -0.953162 4.381533
969.859960 443.330059 115.559110 0.000000 0.000000 0.000000 0.000000 0.000000 0.000000 22.009579 -10.741377 15.410265 180.000000 6.826291 15.410265 23.419334 -4.225592 -27.144812 156.580666 5.381676 -12.773379 24.904993 -9.240528 27.144812 18.000000 0.693095 4.221640
594.905148 538.048757 137.415833 0.000000 0.000000 0.000000 0.000000 0.000000 0.000000 -57.080480 -12.253979 11.755705 122.919520 -9.187047 11.755705 -12.750556 -1.123368 -28.531695 149.841027 -9.593231 -9.270510 -8.274090 -0.907729 28.531695 17.596979 0.256449 4.045085
969.892723 443.282929 123.911890 0.000000 0.000000 0.000000 0.000000 0.000000 0.000000 22.675903 25.932670 7.362491 180.000000 -8.061177 7.362491 24.255612 10.538423 -29.468618 155.744388 7.010067 -5.621439 24.720303 -22.097547 29.468618 18.000000 0.794088 3.852566
1257.001877 499.708382 162.706630 0.000000 0.000000 0.000000 0.000000 0.000000 0.000000 52.818511 4.347656 2.506665 -127.181489 9.455374 2.506665 25.369497 -1.347873 -29.940802 -143.914951 3.845665 -1.883716 14.556766 -2.336564 29.940802 -16.686776 0.058188 3.644843
1279.050064 493.773898 180.065021 0.000000 0.000000 0.000000 0.000000 0.000000 0.000000 56.685213 3.758798 -2.506665 -123.314787 -3.114919 -2.506665 24.065452 -1.205168 -29.940802 -146.540317 -2.141329 1.883716 13.097461 0.418390 29.940802 -16.716891 -0.023473 3.422736
1295.108986 477.099677 133.668607 0.000000 0.000000 0.000000 0.000000 0.000000 0.000000 65.723361 19.875343 -7.362491 -114.276639 -4.896882 -7.362491 23.725299 -6.954126 -29.468618 -147.984281 -1.390730 5.621439 13.187557 -1.004108 29.468618 -16.751134 0.130257 3.187120
1289.065018 496.763316 178.789265 0.000000 0.000000 0.000000 0.000000 0.000000 0.000000 61.662232 2.811394 -11.755705 -118.337768 -4.472216 -11.755705 31.397757 2.449826 -28.531695 -148.047797 -1.912444 9.270510 12.491083 -1.663296 28.531695 -16.898368 0.113422 2.938926
1285.337105 480.691112 149.821557 0.000000 0.000000 0.000000 0.000000 0.000000 0.000000 58.021980 4.730968 -15.410265 -121.978020 -5.974299 -15.410265 31.705930 2.617476 -27.144812 -157.028684 -1.852773 12.773379 11.107306 0.754535 27.144812 -17.140016 -0.159407 2.679134
1276.453171 465.093691 158.013805 0.000000 0.000000 0.000000 0.000000 0.000000 0.000000 70.157145 1.951337 -18.096541 -109.842855 9.915901 -18.096541 40.303764 -4.509850 -25.329838 -145.293609 -2.212643 16.074804 10.431204 3.408551 25.329838 -17.100572 -0.158535 2.408768
1253.658714 472.768564 167.757329 0.000000 0.000000 0.000000 0.000000 0.000000 0.000000 65.087926 29.000787 -19.645745 -114.912074 -17.214586 -19.645745 -157.680356 -6.433734 -23.115397 -137.727082 -0.609836 19.122720 -153.053596 -9.915327 23.115397 -16.054219 -0.763412 2.128896
1366.101608 507.691247 141.276868 0.000000 0.000000 0.000000 0.000000 0.000000 0.000000 108.715100 2.624452 -19.960535 -71.284900 -22.671521 -19.960535 156.661132 11.743439 -20.536413 -158.224303 -6.087595 21.869059 0.000000 0.000000 0.000000 0.000000 0.000000 0.000000
969.986295 443.064535 161.053740 0.000000 0.000000 0.000000 0.000000 0.000000 0.000000 26.662144 -18.398427 -19.021130 180.000000 -1.323650 -19.021130 28.015351 5.835054 -17.633558 151.984649 -11.552482 24.270510 22.068935 7.638170 17.633558 18.000000 0.329262 1.545085
1282.107124 481.511257 143.010106 0.000000 0.000000 0.000000 0.000000 0.000000 0.000000 80.650781 -26.502285 -16.886559 -99.349219 16.201103 -16.886559 1.511604 1.583016 -14.452610 -32.896908 5.987126 26.289200 -7.727072 -0.516517 14.452610 13.531851 -7.044734 1.243449
1282.921486 484.777769 142.329952 0.000000 0.000000 0.000000 0.000000 0.000000 0.000000 -81.737646 29.600100 -13.690942 98.262354 -17.563655 -13.690942 -23.867101 -0.083755 -11.043737 12.655668 -3.249938 27.893295 -29.454911 -2.347438 11.043737 9.861248 -0.575680 0.936907
1290.933037 513.180238 145.239604 0.000000 0.000000 0.000000 0.000000 0.000000 0.000000 -91.387864 -8.715105 -9.635073 88.612136 9.980207 -9.635073 -41.685392 -1.487339 -7.460697 -161.156957 -5.587129 29.057495 15.157863 5.316523 7.460697 10.543436 1.602121 0.626666
969.999452 442.964284 125.764962 0.000000 0.000000 0.000000 0.000000 0.000000 0.000000 29.025427 -11.360529 -4.973798 180.000000 1.261959 -4.973798 29.437993 5.569259 -3.759997 150.562007 -0.157806 29.763441 20.404746 -3.344313 3.759997 18.000000 0.157467 0.313953
970.000000 442.938926 115.538691 0.000000 0.000000 0.000000 0.000000 0.000000 0.000000 29.678605 13.068239 0.000000 180.000000 -15.109471 0.000000 29.744881 -3.290094 -0.000000 150.255119 -6.275600 30.000000 19.983107 -3.498729 0.000000 18.000000 0.533691 0.000000
1354.522934 467.411410 139.207189 0.000000 0.000000 0.000000 0.000000 0.000000 0.000000 150.622570 9.918446 4.973798 -29.377430 -9.446788 4.973798 140.176400 -0.265776 3.759997 -12.221629 -1.483308 29.763441 132.794256 -8.539379 -3.759997 -2.626015 0.410938 0.313953
969.997807 442.887864 142.073557 0.000000 0.000000 0.000000 0.000000 0.000000 0.000000 31.061399 -2.892074 9.635073 180.000000 -8.292899 9.635073 30.285790 -2.351883 7.460697 149.714210 -7.897713 29.057495 19.151579 0.952964 -7.460697 18.000000 0.319924 0.626666
1246.736984 514.278152 128.688714 0.000000 0.000000 0.000000 0.000000 0.000000 0.000000 143.557092 -2.268182 13.690942 -36.442908 -0.448355 13.690942 133.761037 8.852382 11.043737 -156.950665 -4.996009 27.893295 0.000000 0.000000 0.000000 1.928484 0.490862 0.936907
1245.221100 458.637464 123.569417 0.000000 0.000000 0.000000 0.000000 0.000000 0.000000 160.701064 -46.111899 16.886559 -19.298936 34.563625 16.886559 140.193827 -4.650127 14.452610 -157.554825 -4.518905 26.289200 29.500467 5.302791 -14.452610 -15.049953 -0.530279 1.243449
1257.365570 418.514181 112.717883 0.000000 0.000000 0.000000 0.000000 0.000000 0.000000 -143.710676 -0.312289 19.021130 36.289324 -8.717100 19.021130 163.220413 2.571483 17.633558 11.688054 -2.742069 24.270510 152.038385 -1.098834 -17.633558 -2.339948 -0.059731 1.545085
1275.099564 408.163741 103.024122 0.000000 0.000000 0.000000 0.000000 0.000000 0.000000 -132.929531 0.026117 19.960535 47.070469 2.148643 19.960535 173.491912 -1.399983 20.536413 -160.709681 -4.893383 21.869059 33.138793 6.229537 -20.536413 -14.686121 -0.622954 1.840623
1290.611115 384.880857 83.766875 0.000000 0.000000 0.000000 0.000000 0.000000 0.000000 -132.705235 -6.295430 19.645745 47.294765 -8.659330 19.645745 -173.778854 3.065004 23.115397 20.496835 1.702902 19.122720 -161.220290 -4.105761 -23.115397 1.723235 0.355579 2.128896
1302.817154 380.305352 87.619942 0.000000 0.000000 0.000000 0.000000 0.000000 0.000000 -131.493915 0.843186 18.096541 48.506085 6.234744 18.096541 -165.393697 -3.704980 25.329838 23.154815 2.370059 16.074804 -178.200316 -0.084349 -25.329838 0.138141 0.012740 2.408768
1304.997711 379.563582 94.166229 0.000000 0.000000 0.000000 0.000000 0.000000 0.000000 -126.727972 -4.474863 15.410265 53.272028 -0.053199 15.410265 -160.219593 -2.201595 27.144812 28.448880 2.539475 12.773379 -174.368770 -0.548169 -27.144812 0.079526 -0.102059 2.679134
1311.668472 386.890390 95.195035 0.000000 0.000000 0.000000 0.000000 0.000000 0.000000 -122.308728 10.621745 11.755705 57.691272 -7.920436 11.755705 -158.801130 -0.201777 28.531695 150.942637 -3.635216 9.270510 -154.878332 -4.384110 -28.531695 2.695409 0.538332 2.938926
1305.131836 395.180186 84.335713 0.000000 0.000000 0.000000 0.000000 0.000000 0.000000 -125.112810 0.283191 7.362491 54.887190 -15.491711 7.362491 -146.487292 10.109370 29.468618 -175.167369 -3.734573 5.621439 -159.224034 -3.908579 -29.468618 1.782042 0.514618 3.187120
1296.320457 392.734526 88.342710 0.000000 0.000000 0.000000 0.000000 0.000000 0.000000 -131.035750 0.420198 2.506665 48.964250 2.082236 2.506665 -128.969563 1.198066 29.940802 38.856147 4.134016 1.883716 -134.776850 1.366271 -29.940802 3.458429 -0.001702 3.422736
1306.963577 386.612041 74.027056 0.000000 0.000000 0.000000 0.000000 0.000000 0.000000 -124.469622 -3.284096 -2.506665 55.530378 -4.985317 -2.506665 -109.994856 3.458971 29.940802 37.691309 1.271327 -1.883716 -118.274788 -1.337030 -29.940802 5.098336 -0.093975 3.644843
969.892723 442.572198 56.305887 0.000000 0.000000 0.000000 0.000000 0.000000 0.000000 41.287575 38.470796 -7.362491 180.000000 -18.030645 -7.362491 30.974696 -2.120996 29.468618 149.025304 -13.741271 -5.621439 15.072869 3.159427 -29.468618 18.000000 0.529406 3.852566
969.876883 442.545207 76.002622 0.000000 0.000000 0.000000 0.000000 0.000000 0.000000 42.241956 36.586302 -11.755705 180.000000 -13.760330 -11.755705 30.826133 8.025499 28.531695 149.173867 1.815260 -9.270510 14.823070 -8.539552 -28.531695 18.000000 0.142696 4.045085
969.859960 442.518116 69.956054 0.000000 0.000000 0.000000 0.000000 0.000000 0.000000 43.199779 2.131757 -15.410265 180.000000 9.095596 -15.410265 30.649504 -2.303381 27.144812 149.350496 11.031455 -12.773379 14.587557 -0.117563 -27.144812 18.000000 -0.259785 4.221640
969.841956 442.490926 49.839656 0.000000 0.000000 0.000000 0.000000 0.000000 0.000000 44.157210 -0.982150 -18.096541 180.000000 27.469336 -18.096541 30.446417 -5.306588 25.329838 149.553583 16.867473 -16.074804 14.366154 -6.326416 -25.329838 18.000000 -0.131286 4.381533
969.822873 442.463637 61.478762 0.000000 0.000000 0.000000 0.000000 0.000000 0.000000 45.110117 -25.926420 -19.645745 180.000000 12.473382 -19.645745 30.218633 1.271443 23.115397 149.781367 16.988392 -19.122720 14.158653 -0.433160 -23.115397 18.000000 -0.009014 4.524135
969.802712 442.436251 61.968494 0.000000 0.000000 0.000000 0.000000 0.000000 0.000000 46.054109 -20.192554 -19.960535 180.000000 17.295612 -19.960535 29.968037 -9.627509 20.536413 150.031963 4.189448 -21.869059 13.964823 5.279924 -20.536413 18.000000 -0.331797 4.648882
1187.040939 541.658249 49.000175 0.000000 0.000000 0.000000 0.000000 0.000000 0.000000 82.806623 -1.552688 -19.021130 -97.193377 11.881253 -19.021130 45.395981 -2.873787 17.633558 -156.144455 -2.278836 -24.270510 0.000000 0.000000 0.000000 0.000000 0.000000 0.000000
1182.242889 522.024286 70.313517 0.000000 0.000000 0.000000 0.000000 0.000000 0.000000 -105.721938 -9.072874 -16.886559 74.278062 -6.549864 -16.886559 -155.708006 -1.885764 14.452610 -157.302521 -2.167757 -26.289200 0.000000 0.000000 0.000000 2.684983 0.230177 4.842916
1180.914459 527.065626 61.100728 0.000000 0.000000 0.000000 0.000000 0.000000 0.000000 88.055617 -2.672046 -13.690942 -91.944383 -1.965582 -13.690942 -158.862018 -2.335890 11.043737 -151.747289 -2.459052 -27.893295 0.000000 0.000000 0.000000 0.000000 0.000000 0.000000
1236.800194 541.387432 36.327282 0.000000 0.000000 0.000000 0.000000 0.000000 0.000000 -85.588400 -1.146636 -9.635073 94.411600 -0.031533 -9.635073 -159.297106 4.927883 7.460697 -157.915391 -2.276524 -29.057495 26.607362 1.642832 -7.460697 14.926890 0.343251 4.960574
1161.066513 575.006626 59.160700 0.000000 0.000000 0.000000 0.000000 0.000000 0.000000 -81.021168 -3.175337 -4.973798 98.978832 0.651652 -4.973798 -102.851701 -1.865181 3.759997 -157.041007 -2.296623 -29.763441 21.429890 1.239237 -3.759997 10.859432 0.869135 4.990134
1255.636253 512.645942 53.846459 0.000000 0.000000 0.000000 0.000000 0.000000 0.000000 77.832564 0.119029 -0.000000 -102.167436 -1.462966 -0.000000 -158.264834 -2.391932 0.000000 -130.745502 -4.694644 -30.000000 -157.699225 -1.798329 -0.000000 0.000000 0.000000 0.000000
1265.118484 521.473864 63.411303 0.000000 0.000000 0.000000 0.000000 0.000000 0.000000 64.078276 -3.035222 4.973798 -115.921724 -1.435519 4.973798 41.397952 -2.339023 -3.759997 -139.329851 -2.070838 -29.763441 20.223252 2.132874 3.759997 -16.047574 -0.290265 4.990134
1228.099480 522.138258 50.168082 0.000000 0.000000 0.000000 0.000000 0.000000 0.000000 71.050901 5.087415 9.635073 -108.949099 -7.566312 9.635073 150.099970 2.031291 -7.460697 -139.894702 -0.742444 -29.057495 -156.275691 -3.638535 7.460697 0.000000 0.000000 0.000000
1240.357246 528.695873 53.139998 0.000000 0.000000 0.000000 0.000000 0.000000 0.000000 65.413351 7.909265 13.690942 -114.586649 2.079058 13.690942 147.242328 -6.816310 -11.043737 -154.470720 -2.516070 -27.893295 25.557225 2.669217 11.043737 -15.444278 -0.266922 4.911436
1231.815262 551.380248 63.648121 0.000000 0.000000 0.000000 0.000000 0.000000 0.000000 56.412506 0.021921 16.886559 -123.587494 -21.213999 16.886559 -153.392336 18.266451 -14.452610 -154.784582 -2.754447 -26.289200 24.191555 3.433703 14.452610 -15.580844 -0.343370 4.842916
1221.475182 508.360147 66.834191 0.000000 0.000000 0.000000 0.000000 0.000000 0.000000 77.450622 12.832520 19.021130 -102.549378 -14.675441 19.021130 -156.789784 -1.862215 -17.633558 -125.590168 2.974038 -24.270510 -160.017240 -4.185669 17.633558 1.833434 0.459523 4.755283
969.477684 442.100429 67.231827 0.000000 0.000000 0.000000 0.000000 0.000000 0.000000 54.932575 -17.512357 19.960535 180.000000 17.966160 19.960535 25.919122 11.308364 -20.536413 154.080878 12.010773 -21.869059 12.612867 -5.865052 20.536413 18.000000 0.162354 4.648882
1480.140495 518.878891 74.563512 0.000000 0.000000 0.000000 0.000000 0.000000 0.000000 -110.621767 -85.139859 19.645745 69.378233 87.305912 19.645745 -158.235933 -3.071217 -23.115397 166.031448 -3.796158 -19.122720 -155.186432 -2.348642 23.115397 2.641553 0.305051 4.524135
1271.640472 556.840560 75.402420 0.000000 0.000000 0.000000 0.000000 0.000000 0.000000 -94.404719 5.727880 18.096541 85.595281 -14.406592 18.096541 -62.417786 0.792648 -25.329838 23.992813 1.391141 -16.074804 -76.856107 -3.533677 25.329838 7.708835 -0.099305 4.381533
1258.556786 530.268441 90.065124 0.000000 0.000000 0.000000 0.000000 0.000000 0.000000 78.355945 4.355625 15.410265 -101.644055 4.848240 15.410265 35.068294 -1.380855 -27.144812 -54.090640 1.910161 -12.773379 35.848220 0.954992 27.144812 -8.104639 -0.876103 4.221640
1250.800209 527.150567 88.714258 0.000000 0.000000 0.000000 0.000000 0.000000 0.000000 72.417769 -12.101426 11.755705 -107.582231 -0.862564 11.755705 24.571109 5.621890 -28.531695 -39.196117 8.191788 -9.270510 10.411117 -5.545719 28.531695 -9.048616 -0.491386 4.045085
1243.466148 571.776259 98.752240 0.000000 0.000000 0.000000 0.000000 0.000000 0.000000 86.301473 11.484142 7.362491 -93.698527 -0.103265 7.362491 24.553534 1.236972 -29.468618 -153.460385 -3.869712 -5.621439 19.510484 3.808002 29.468618 -10.109500 -4.668982 3.852566
1261.883812 566.052918 87.775852 0.000000 0.000000 0.000000 0.000000 0.000000 0.000000 94.015209 -17.808105 2.506665 -85.984791 5.545234 2.506665 38.959993 -3.790478 -29.940802 -154.008305 -3.268031 -1.883716 20.870951 3.586244 29.940802 -10.872440 0.283498 3.644843
1284.436798 527.190542 112.244880 0.000000 0.000000 0.000000 0.000000 0.000000 0.000000 111.186365 5.244404 -2.506665 -68.813635 -3.474877 -2.506665 58.506163 4.674512 -29.940802 -19.138727 5.456896 1.883716 51.457372 -18.254263 29.940802 -5.203198 1.642847 3.422736
1272.860069 533.494012 111.520559 0.000000 0.000000 0.000000 0.000000 0.000000 0.000000 72.301471 -34.885437 -7.362491 -107.698529 -11.686775 -7.362491 78.802573 10.288723 -29.468618 -154.772375 -3.423324 5.621439 26.927455 3.512621 29.468618 -15.307255 -0.351262 3.187120
1255.264664 498.243735 103.185856 0.000000 0.000000 0.000000 0.000000 0.000000 0.000000 164.596971 69.810018 -11.755705 -15.403029 -20.683734 -11.755705 125.849126 -3.780440 -28.531695 -156.067666 -5.347119 9.270510 33.087561 4.031460 28.531695 -14.691244 -0.403146 2.938926
1259.202232 470.407684 111.251925 0.000000 0.000000 0.000000 0.000000 0.000000 0.000000 -139.980397 -2.519278 -15.410265 40.019603 -13.934910 -15.410265 165.887722 6.747849 -27.144812 -157.901492 -5.426415 12.773379 35.196094 5.709473 27.144812 -14.480391 -0.570947 2.679134
1236.502075 429.951335 152.038385 0.000000 0.000000 0.000000 0.000000 0.000000 0.000000 -113.295066 12.916242 -18.096541 66.704934 -11.469078 -18.096541 -174.664169 4.436514 -25.329838 -159.007335 -5.553251 16.074804 32.868990 6.689945 25.329838 -14.713101 -0.668995 2.408768
1253.359451 413.942538 119.056467 0.000000 0.000000 0.000000 0.000000 0.000000 0.000000 -123.348580 9.202816 -19.645745 56.651420 -2.010928 -19.645745 -167.815074 -3.308398 -23.115397 -159.603180 -6.023539 19.122720 32.791747 6.880142 23.115397 -14.720825 -0.688014 2.128896
1281.206589 405.664523 123.782694 0.000000 0.000000 0.000000 0.000000 0.000000 0.000000 -124.414271 -10.058796 -19.960535 55.585729 2.286680 -19.960535 -161.281803 3.575580 -20.536413 28.568449 7.879171 21.869059 -159.052798 -5.641518 20.536413 1.849141 0.425393 1.840623
1300.238571 418.760215 136.002731 0.000000 0.000000 0.000000 0.000000 0.000000 0.000000 -126.263092 6.467968 -19.021130 53.736908 -6.907121 -19.021130 -159.739358 1.266160 -17.633558 31.487961 -4.547372 24.270510 -170.323915 0.524775 17.633558 0.671815 0.019091 1.545085
1321.889191 413.634385 139.882203 0.000000 0.000000 0.000000 0.000000 0.000000 0.000000 -133.874471 -5.713818 -16.886559 46.125529 6.524926 -16.886559 -159.376251 -2.032994 -14.452610 30.696824 5.674075 26.289200 -164.929556 -1.037554 14.452610 1.089735 0.091590 1.243449
1336.221428 432.881820 134.504302 0.000000 0.000000 0.000000 0.000000 0.000000 0.000000 -115.020798 -5.387825 -13.690942 64.979202 -1.225637 -13.690942 -135.609544 1.278792 -11.043737 -161.321630 -5.963899 27.893295 17.353502 7.819266 11.043737 -16.264650 -0.781927 0.936907
1329.124603 416.860342 133.499962 0.000000 0.000000 0.000000 0.000000 0.000000 0.000000 -134.023347 -3.073769 -9.635073 45.976653 -4.022822 -9.635073 -128.030830 2.004983 -7.460697 28.249885 -2.637163 29.057495 -136.447985 1.814778 7.460697 4.038834 0.162260 0.626666
1343.366776 427.060794 146.513060 0.000000 0.000000 0.000000 0.000000 0.000000 0.000000 -130.153347 -9.767042 -4.973798 49.846653 7.528247 -4.973798 -103.564435 0.983519 -3.759997 27.398095 5.578025 29.763441 -115.461530 -4.144341 3.759997 5.470063 0.258627 0.313953
1376.991005 465.829636 136.363045 0.000000 0.000000 0.000000 0.000000 0.000000 0.000000 -120.272352 -19.136635 0.000000 59.727648 17.279014 0.000000 -62.204131 -4.570973 -0.000000 27.740602 6.225761 30.000000 -80.461527 0.660421 0.000000 7.450891 -0.127392 0.000000
1384.978867 468.790376 154.680063 0.000000 0.000000 0.000000 0.000000 0.000000 0.000000 -93.720384 -65.992422 4.973798 86.279616 1.752940 4.973798 3.847814 3.120677 3.759997 -160.438787 -5.779458 29.763441 15.990976 4.866144 -3.759997 7.894783 1.877516 0.313953
1345.894547 516.257268 134.249797 0.000000 0.000000 0.000000 0.000000 0.000000 0.000000 127.577640 -7.498574 9.635073 -52.422360 10.512197 9.635073 53.096359 -0.214264 7.460697 -159.021748 -6.070564 29.057495 18.308456 5.667934 -7.460697 -4.062191 -2.807980 0.626666
968.498927 441.455181 150.937243 0.000000 0.000000 0.000000 0.000000 0.000000 0.000000 47.920147 22.911184 13.690942 180.000000 21.196262 13.690942 19.641385 -8.961721 11.043737 160.358615 0.534544 27.893295 13.993219 -0.429328 -11.043737 18.000000 -0.201767 0.936907
1336.846733 493.527671 143.513344 0.000000 0.000000 0.000000 0.000000 0.000000 0.000000 102.681311 -45.321461 16.886559 -77.318689 16.777368 16.886559 35.985219 -0.219934 14.452610 -159.617763 -5.938011 26.289200 19.375410 5.314573 -14.452610 -16.062459 -0.531457 1.243449
968.386706 441.394956 144.345149 0.000000 0.000000 0.000000 0.000000 0.000000 0.000000 46.120581 18.428655 19.021130 180.000000 -1.441772 19.021130 19.316787 -10.416752 17.633558 160.683213 -2.386686 24.270510 14.327067 0.707023 -17.633558 18.000000 0.524118 1.545085
1263.984947 433.341283 163.960841 0.000000 0.000000 0.000000 0.000000 0.000000 0.000000 -115.578373 -24.855409 19.960535 64.421627 19.960056 19.960535 -82.396446 6.160819 20.536413 25.733383 19.514139 21.869059 -77.477544 -15.814722 -20.536413 5.836928 0.783999 1.840623
1352.596436 477.564354 164.502088 0.000000 0.000000 0.000000 0.000000 0.000000 0.000000 -99.196741 -1.340393 19.645745 80.803259 11.404242 19.645745 -125.272585 -10.671055 23.115397 -162.405270 -6.503632 19.122720 17.377627 6.616573 -23.115397 -16.262237 -0.661657 2.128896
1384.326782 408.174427 128.139584 0.000000 0.000000 0.000000 0.000000 0.000000 0.000000 96.868601 -17.152807 18.096541 -83.131399 0.557447 18.096541 -160.848957 -5.943096 25.329838 -137.255583 4.804083 16.074804 -162.076720 -7.294276 -25.329838 0.000000 0.000000 0.000000
1387.580223 387.128634 141.779057 0.000000 0.000000 0.000000 0.000000 0.000000 0.000000 78.087764 -22.846918 15.410265 -101.912236 -8.911128 15.410265 -161.807915 -6.068993 27.144812 -147.504361 -0.843766 12.773379 -162.566306 -7.223398 -27.144812 1.735427 0.870313 2.679134
1345.818558 392.423122 136.559679 0.000000 0.000000 0.000000 0.000000 0.000000 0.000000 71.782984 15.281340 11.755705 -108.217016 -7.334862 11.755705 -169.469261 -2.289417 28.531695 -153.903088 -0.594199 9.270510 -154.670689 -0.254816 -28.531695 15.277725 -1.900670 2.938926
1331.471329 361.814139 140.715761 0.000000 0.000000 0.000000 0.000000 0.000000 0.000000 53.586100 -17.508226 7.362491 -126.413900 22.376806 7.362491 -162.290330 -6.790534 29.468618 -154.912165 0.161875 5.621439 -162.550394 -7.137539 -29.468618 1.742175 0.759844 3.187120
1354.413986 427.213873 119.932628 0.000000 0.000000 0.000000 0.000000 0.000000 0.000000 -131.358118 -30.683743 2.506665 48.641882 -5.051344 2.506665 -142.488821 2.147944 29.940802 -161.977882 -5.891755 1.883716 12.673705 7.595053 -29.940802 1.397524 0.077132 3.422736
1330.326691 347.207226 100.832376 0.000000 0.000000 0.000000 0.000000 0.000000 0.000000 52.464175 1.477597 -2.506665 -127.535825 5.679760 -2.506665 14.270918 -3.658243 29.940802 -122.057234 -1.122024 -1.883716 22.820874 1.047792 -29.940802 -15.244909 -0.207266 3.644843
1317.103271 414.475805 118.037678 0.000000 0.000000 0.000000 0.000000 0.000000 0.000000 76.170457 -23.100955 -7.362491 -103.829543 11.930408 -7.362491 -50.250674 -1.612411 29.468618 -52.503744 0.635913 -5.621439 -92.793049 1.929670 -29.468618 3.303440 0.153246 3.852566
1331.844635 430.291482 128.365957 0.000000 0.000000 0.000000 0.000000 0.000000 0.000000 79.985160 -4.562608 -11.755705 -100.014840 -6.736057 -11.755705 25.995082 5.704201 28.531695 -75.062603 -1.781007 -9.270510 38.761234 -0.173087 -28.531695 -11.442229 0.115714 4.045085
1359.462433 496.472383 126.277196 0.000000 0.000000 0.000000 0.000000 0.000000 0.000000 84.268829 7.316780 -15.410265 -95.731171 -7.201267 -15.410265 30.279153 -1.108661 27.144812 -63.318008 -3.992077 -12.773379 39.457716 4.643726 -27.144812 -9.485742 -0.172423 4.221640
1323.514366 546.771398 115.126235 0.000000 0.000000 0.000000 0.000000 0.000000 0.000000 84.407325 0.503173 -18.096541 -95.592675 5.926879 -18.096541 27.768249 -0.307348 25.329838 -47.660055 -0.486426 -16.074804 28.281511 2.695552 -25.329838 -7.827901 0.434706 4.381533
1268.535347 591.567099 110.786415 0.000000 0.000000 0.000000 0.000000 0.000000 0.000000 90.890792 -0.223444 -19.645745 -89.109208 -0.362989 -19.645745 44.654760 -3.719244 23.115397 -48.200667 -0.848617 -19.122720 43.369388 1.657463 -23.115397 -8.974980 -0.033409 4.524135
1303.157158 602.888768 98.032763 0.000000 0.000000 0.000000 0.000000 0.000000 0.000000 90.349289 2.258906 -19.960535 -89.650711 -5.828317 -19.960535 47.707312 -1.831939 20.536413 -53.918782 0.621430 -21.869059 40.070965 -4.669863 -20.536413 -9.318632 -0.460183 4.648882
1314.841690 613.141973 110.135356 0.000000 0.000000 0.000000 0.000000 0.000000 0.000000 94.480501 1.461524 -19.021130 -85.519499 -2.087753 -19.021130 58.462862 1.748710 17.633558 -52.020507 -1.299723 -24.270510 55.276552 0.618795 -17.633558 -7.777523 0.023865 4.755283
1327.521400 639.394319 83.309994 0.000000 0.000000 0.000000 0.000000 0.000000 0.000000 99.879576 7.716314 -16.886559 -80.120424 -6.352001 -16.886559 69.161359 -0.463824 14.452610 -46.413613 -4.135966 -26.289200 76.680143 0.371421 -14.452610 -6.257768 -0.142404 4.842916
1277.812729 671.228578 96.890538 0.000000 0.000000 0.000000 0.000000 0.000000 0.000000 99.708534 -5.015978 -13.690942 -80.291466 -9.923495 -13.690942 92.239140 7.420008 11.043737 -26.764021 0.325437 -27.893295 98.168457 -1.457512 -11.043737 -4.372074 0.191884 4.911436
1309.642181 690.479329 80.566252 0.000000 0.000000 0.000000 0.000000 0.000000 0.000000 117.292414 -8.336325 -9.635073 -62.707586 5.227478 -9.635073 137.002702 0.353567 7.460697 -32.045917 0.814715 -29.057495 135.211322 -0.169136 -7.460697 -3.212944 -0.023072 4.960574
1299.770966 664.126496 91.674485 0.000000 0.000000 0.000000 0.000000 0.000000 0.000000 158.531160 14.464035 -4.973798 -21.468840 -8.256793 -4.973798 161.478323 2.607600 3.759997 -12.838206 -6.959476 -29.763441 151.269584 0.963500 -3.759997 -2.521934 0.026969 4.990134
1313.353729 643.668108 76.614783 0.000000 0.000000 0.000000 0.000000 0.000000 0.000000 -154.315892 -6.891977 -0.000000 25.684108 16.501477 -0.000000 173.459940 -2.022270 0.000000 1.519689 0.997086 -30.000000 164.244875 0.635608 -0.000000 -1.552244 -0.031730 5.000000
1342.841377 638.982847 61.372820 0.000000 0.000000 0.000000 0.000000 0.000000 0.000000 -138.993869 0.469342 4.973798 41.006131 -19.956378 4.973798 175.724056 3.347240 -3.759997 -151.723069 -3.248272 -29.763441 43.242568 4.033628 3.759997 -13.675743 -0.403363 4.990134
1350.000229 614.724133 73.239996 0.000000 0.000000 0.000000 0.000000 0.000000 0.000000 -144.248147 -14.336061 9.635073 35.751853 -5.518631 9.635073 177.069273 6.049115 -7.460697 -152.227621 -2.737243 -29.057495 43.136563 3.353339 7.460697 -13.686344 -0.335334 4.960574
1328.535919 624.780936 51.227324 0.000000 0.000000 0.000000 0.000000 0.000000 0.000000 -165.447222 1.369712 13.690942 14.552778 3.148805 13.690942 169.657511 -5.672749 -11.043737 -152.168050 -3.167285 -27.893295 41.929642 3.918653 11.043737 -13.807036 -0.391865 4.911436
1318.810501 615.688248 62.975376 0.000000 0.000000 0.000000 0.000000 0.000000 0.000000 -120.063657 -7.979468 16.886559 59.936343 12.320025 16.886559 -165.389465 -2.971336 -14.452610 -152.866764 -2.376849 -26.289200 39.162270 3.502430 14.452610 -14.083773 -0.350243 4.842916
1321.656418 659.275410 53.366925 0.000000 0.000000 0.000000 0.000000 0.000000 0.000000 -121.435085 -8.083627 19.021130 58.564915 3.692116 19.021130 -149.190712 0.130078 -17.633558 -151.926374 -2.314521 -24.270510 33.097066 2.434166 17.633558 -14.690293 -0.243417 4.755283
1328.445511 687.490232 64.165561 0.000000 0.000000 0.000000 0.000000 0.000000 0.000000 -104.253419 -0.291459 19.960535 75.746581 -7.138795 19.960535 -110.140878 6.322055 -20.536413 -152.911692 -2.662967 -21.869059 23.882145 2.313552 20.536413 3.694979 0.251180 4.648882
966.534206 440.564282 63.856111 0.000000 0.000000 0.000000 0.000000 0.000000 0.000000 25.865486 21.738572 19.645745 180.000000 12.347147 19.645745 18.728337 -9.411574 -23.115397 161.271663 -1.342849 -19.122720 19.024234 -0.656435 23.115397 18.000000 0.428490 4.524135
966.454577 440.533056 34.843786 0.000000 0.000000 0.000000 0.000000 0.000000 0.000000 25.417507 -3.656250 18.096541 180.000000 1.889436 18.096541 18.825450 -2.000837 -25.329838 161.174550 1.722969 -16.074804 19.071566 0.626643 25.329838 18.000000 0.157257 4.381533
966.374240 440.501809 48.244434 0.000000 0.000000 0.000000 0.000000 0.000000 0.000000 24.990320 16.155550 15.410265 180.000000 -7.114706 15.410265 18.929718 9.788036 -27.144812 161.070282 -8.628008 -12.773379 19.102411 6.696711 27.144812 18.000000 -0.834210 4.221640
966.293204 440.470542 37.781618 0.000000 0.000000 0.000000 0.000000 0.000000 0.000000 24.583377 -20.612586 11.755705 180.000000 1.066393 11.755705 19.040946 -4.125907 -28.531695 160.959054 8.752002 -9.270510 19.116765 -2.703031 28.531695 18.000000 0.806644 4.045085
966.211478 440.439256 72.425056 0.000000 0.000000 0.000000 0.000000 0.000000 0.000000 24.196129 20.334813 7.362491 180.000000 -11.938714 7.362491 19.158923 -5.538850 -29.468618 160.841077 -11.076410 -5.621439 19.114778 1.609672 29.468618 18.000000 0.080916 3.852566
644.985180 745.864069 75.832741 0.000000 0.000000 0.000000 0.000000 0.000000 0.000000 96.086415 19.945008 2.506665 -83.913585 22.392116 2.506665 -159.662371 -4.959768 -29.940802 -116.741565 10.186880 -1.883716 -176.001217 -6.164444 29.940802 -1.006627 -0.603727 3.644843
1269.020119 699.025490 47.535071 0.000000 0.000000 0.000000 0.000000 0.000000 0.000000 83.810916 4.202902 -2.506665 -96.189084 -11.116885 -2.506665 51.932890 4.876194 -29.940802 -149.314466 -2.300486 1.883716 27.598511 2.281861 29.940802 -15.240149 -0.228186 3.422736
573.721218 678.450201 54.590833 0.000000 0.000000 0.000000 0.000000 0.000000 0.000000 18.756393 18.399696 -7.362491 -161.243607 -10.042112 -7.362491 -174.158094 -2.778337 -29.468618 178.010322 5.054156 5.621439 -154.394154 -2.011766 29.468618 11.886524 0.003680 3.187120
1261.580200 714.897366 58.766903 0.000000 0.000000 0.000000 0.000000 0.000000 0.000000 87.191276 -3.191517 -11.755705 -92.808724 15.281894 -11.755705 23.129119 -9.738038 -28.531695 -149.376238 -1.969609 9.270510 24.545507 2.100690 28.531695 13.583501 0.646791 2.938926
1314.655838 684.171546 53.110146 0.000000 0.000000 0.000000 0.000000 0.000000 0.000000 61.219932 6.682256 -15.410265 -118.780068 -0.884420 -15.410265 25.476616 1.308822 -27.144812 -150.404247 -2.678432 12.773379 24.621454 1.562984 27.144812 -15.537855 -0.156298 2.679134
1319.638939 674.820013 72.327684 0.000000 0.000000 0.000000 0.000000 0.000000 0.000000 82.055377 10.991917 -18.096541 -97.944623 -0.327709 -18.096541 17.325085 -2.464367 -25.329838 -60.067277 -1.929831 16.074804 23.747728 -0.270687 25.329838 -13.005173 1.249939 2.408768
1367.852325 659.536314 63.138730 0.000000 0.000000 0.000000 0.000000 0.000000 0.000000 -150.278430 -53.244483 -19.645745 29.721570 35.697668 -19.645745 -151.222797 -2.445643 -23.115397 18.758043 8.473704 19.122720 -152.451920 -2.536493 23.115397 2.484143 0.219218 2.128896
1392.624664 638.981302 74.934878 0.000000 0.000000 0.000000 0.000000 0.000000 0.000000 -122.704248 4.428559 -19.960535 57.295752 -12.153541 -19.960535 -134.513385 6.311828 -20.536413 30.292627 -0.685545 21.869059 -146.694539 -0.028140 20.536413 2.430965 0.049982 1.840623
1401.291389 646.422758 72.694077 0.000000 0.000000 0.000000 0.000000 0.000000 0.000000 83.316637 -1.717647 -19.021130 -96.683363 13.270180 -19.021130 29.335627 -6.624466 -17.633558 -136.281416 5.060472 24.270510 19.119183 -2.036466 17.633558 -15.871560 0.096634 1.545085
1381.838951 663.410475 83.469536 0.000000 0.000000 0.000000 0.000000 0.000000 0.000000 79.215331 -3.649800 -16.886559 -100.784669 5.210867 -16.886559 30.640455 -4.606149 -14.452610 -139.113455 2.119300 26.289200 14.302413 -1.355926 14.452610 -16.408036 0.080402 1.243449
1390.185928 664.248354 74.855126 0.000000 0.000000 0.000000 0.000000 0.000000 0.000000 75.546066 0.503810 -13.690942 -104.453934 5.238776 -13.690942 38.995097 -3.197087 -11.043737 -142.871297 0.691073 27.893295 14.209110 -0.214427 11.043737 -16.737090 -0.041977 0.936907
1393.889923 677.551103 96.953952 0.000000 0.000000 0.000000 0.000000 0.000000 0.000000 84.293627 -14.684619 -9.635073 -95.706373 4.812031 -9.635073 -152.700272 -3.030484 -7.460697 -143.357755 3.703399 29.057495 -148.868889 -3.901333 7.460697 3.626268 0.471618 0.626666
905.601082 693.654528 100.521071 0.000000 0.000000 0.000000 0.000000 0.000000 0.000000 -84.410869 5.429598 -4.973798 95.589131 -0.240817 -4.973798 -139.498802 -4.567641 -3.759997 -178.556713 36.705504 29.763441 -142.061844 -5.423089 3.759997 3.411456 0.380469 0.313953
1337.643929 680.318756 92.478119 0.000000 0.000000 0.000000 0.000000 0.000000 0.000000 78.192517 -2.842002 0.000000 -101.807483 3.494574 0.000000 48.289813 -10.995227 -0.000000 -140.291980 6.821388 30.000000 13.663140 -6.564215 0.000000 -17.395561 0.077430 0.000000
1322.670708 685.543334 93.193877 0.000000 0.000000 0.000000 0.000000 0.000000 0.000000 71.501063 3.570795 4.973798 -108.498937 7.761563 4.973798 23.648228 -2.556675 3.759997 -144.586500 -0.233342 29.763441 14.578018 1.624113 -3.759997 -16.885607 0.066592 0.313953
1305.530548 682.910864 97.921346 0.000000 0.000000 0.000000 0.000000 0.000000 0.000000 72.979287 -59.948513 9.635073 -107.020713 41.172165 9.635073 -148.728581 -3.937976 7.460697 -74.802907 12.031594 29.057495 -151.178244 -4.008326 -7.460697 2.601049 0.363748 0.626666
1359.363556 692.650115 107.606884 0.000000 0.000000 0.000000 0.000000 0.000000 0.000000 73.244804 9.832668 13.690942 -106.755196 -8.296806 13.690942 13.983499 -4.339528 11.043737 -67.611809 -6.146855 27.893295 13.130547 4.269461 -11.043737 -11.004089 -0.105148 0.936907
1299.495964 679.994059 112.573699 0.000000 0.000000 0.000000 0.000000 0.000000 0.000000 116.206779 -0.835137 16.886559 -63.793221 -16.448918 16.886559 -150.858719 -3.696867 14.452610 -34.548592 -1.779126 26.289200 60.366751 4.086429 -14.452610 -4.627493 0.002564 1.243449
1306.260338 711.527116 120.892405 0.000000 0.000000 0.000000 0.000000 0.000000 0.000000 -85.758672 6.080617 19.021130 94.241328 0.957707 19.021130 -31.461750 -0.568288 17.633558 -4.237664 -3.865407 24.270510 -15.215787 1.403784 -17.633558 7.867754 -3.679652 1.545085
1272.614822 704.778571 122.139911 0.000000 0.000000 0.000000 0.000000 0.000000 0.000000 -78.634637 0.344485 19.960535 101.365363 -10.947024 19.960535 -34.118569 0.596716 20.536413 22.539652 -1.224719 21.869059 -31.373170 -0.221461 -20.536413 11.310693 -0.497656 1.840623
1310.345650 676.427021 125.524135 0.000000 0.000000 0.000000 0.000000 0.000000 0.000000 97.572435 -9.297354 19.645745 -82.427565 10.134030 19.645745 50.400703 -3.285776 23.115397 -39.584286 1.130567 19.122720 44.966766 -1.006621 -23.115397 -8.852712 0.304368 2.128896
1315.732956 671.025095 137.147832 0.000000 0.000000 0.000000 0.000000 0.000000 0.000000 97.797337 -7.685266 18.096541 -82.202663 -1.355513 18.096541 49.825934 -0.108293 25.329838 -39.162923 1.227477 16.074804 36.475631 -3.078564 -25.329838 -8.191519 -1.013360 2.408768
1329.935532 653.525419 149.390050 0.000000 0.000000 0.000000 0.000000 0.000000 0.000000 96.469555 -6.239724 15.410265 -83.530445 0.374735 15.410265 63.882053 -1.483858 27.144812 -51.972064 2.112395 12.773379 58.624362 -1.288508 -27.144812 -8.239564 -0.474327 2.679134
1316.170578 674.246514 125.824765 0.000000 0.000000 0.000000 0.000000 0.000000 0.000000 -87.946330 5.058563 11.755705 92.053670 -3.399405 11.755705 -29.715798 0.619417 28.531695 54.212796 -2.234402 9.270510 -40.560774 -1.644619 -28.531695 11.008015 0.286360 2.938926
1317.367287 678.027205 137.046551 0.000000 0.000000 0.000000 0.000000 0.000000 0.000000 95.152942 -10.844379 7.362491 -84.847058 5.706830 7.362491 98.792835 3.861851 29.468618 -150.515547 -5.315668 5.621439 32.983753 5.293277 -29.468618 -14.701625 -0.529328 3.187120
1318.168488 670.157025 154.592744 0.000000 0.000000 0.000000 0.000000 0.000000 0.000000 -151.252255 46.525039 2.506665 28.747745 17.037574 2.506665 138.896993 -0.353991 29.940802 -151.946620 -6.481291 1.883716 38.784684 5.678970 -29.940802 -14.121532 -0.567897 3.422736
1323.412628 644.667885 136.744399 0.000000 0.000000 0.000000 0.000000 0.000000 0.000000 -97.904066 -19.917455 -2.506665 82.095934 4.860432 -2.506665 155.695030 4.134332 29.940802 -152.500978 -6.074732 -1.883716 44.721081 6.157108 -29.940802 -13.527892 -0.615711 3.644843
1312.776718 630.059459 158.202168 0.000000 0.000000 0.000000 0.000000 0.000000 0.000000 -116.637972 33.721812 -7.362491 63.362028 -21.356349 -7.362491 171.094570 -0.889226 29.468618 -152.894064 -7.338345 -5.621439 43.947863 7.843578 -29.468618 -13.605214 -0.784358 3.852566
1316.420746 625.237019 162.262890 0.000000 0.000000 0.000000 0.000000 0.000000 0.000000 -136.254273 17.289694 -11.755705 43.745727 -8.806579 -11.755705 -177.663204 1.779296 28.531695 -153.006287 -6.962795 -9.270510 42.784597 8.095623 -28.531695 -13.721540 -0.809562 4.045085
1314.719925 628.818026 145.016705 0.000000 0.000000 0.000000 0.000000 0.000000 0.000000 -114.737929 15.070490 -15.410265 65.262071 -5.024923 -15.410265 -169.764314 -5.376299 27.144812 -153.369487 -7.143146 -12.773379 41.498347 8.097011 -27.144812 -13.850165 -0.809701 4.221640
1334.396782 646.165652 151.959073 0.000000 0.000000 0.000000 0.000000 0.000000 0.000000 -116.903454 9.510319 -18.096541 63.096546 -13.707085 -18.096541 -154.594534 4.223327 25.329838 -153.225015 -6.992615 -16.074804 37.136182 8.122508 -25.329838 -14.286382 -0.812251 4.381533
1340.823784 648.244128 163.067207 0.000000 0.000000 0.000000 0.000000 0.000000 0.000000 -116.932323 -4.599918 -19.645745 63.067677 4.338966 -19.645745 -138.898656 0.052687 23.115397 35.335752 -0.099861 -19.122720 -153.336856 -0.430334 -23.115397 2.206211 0.051766 4.524135
1330.023880 654.599032 138.930721 0.000000 0.000000 0.000000 0.000000 0.000000 0.000000 -112.150704 6.624126 -19.960535 67.849296 0.059848 -19.960535 -118.798313 3.300423 20.536413 -153.636372 -6.219926 -21.869059 16.691869 8.666662 -20.536413 -16.330813 -0.866666 4.648882
1337.431641 662.410698 145.925677 0.000000 0.000000 0.000000 0.000000 0.000000 0.000000 -109.111809 -3.983433 -19.021130 70.888191 -1.435845 -19.021130 -91.144379 -3.740193 17.633558 -154.448144 -6.442861 -24.270510 10.298202 7.095493 -17.633558 6.642051 -0.014852 4.755283
1324.339714 676.416593 150.270995 0.000000 0.000000 0.000000 0.000000 0.000000 0.000000 -104.120178 -8.167573 -16.886559 75.879822 -1.207548 -16.886559 -57.095620 2.988245 14.452610 38.799650 -0.582028 -26.289200 -71.942639 2.273695 -14.452610 8.831938 -0.066961 4.842916
962.890318 439.311049 145.221687 0.000000 0.000000 0.000000 0.000000 0.000000 0.000000 19.986963 -32.728348 -13.690942 180.000000 17.480750 -13.690942 24.297229 -5.764182 11.043737 155.702771 6.213371 -27.893295 14.983342 7.426153 -11.043737 18.000000 -0.231253 4.911436
962.789911 439.279946 147.940898 0.000000 0.000000 0.000000 0.000000 0.000000 0.000000 20.089586 -5.362759 -9.635073 180.000000 -0.934432 -9.635073 24.330184 15.527811 7.460697 155.669816 4.575931 -29.057495 14.926290 -1.471224 -7.460697 18.000000 -0.027472 4.960574
641.318550 641.336324 136.671587 0.000000 0.000000 0.000000 0.000000 0.000000 0.000000 163.642929 9.020899 -4.973798 -16.357071 12.819080 -4.973798 -155.926011 -0.388815 3.759997 -130.644608 -8.011045 -29.763441 68.679337 11.855174 -3.759997 -11.132066 -1.185517 4.990134
1305.385551 662.289033 130.408658 0.000000 0.000000 0.000000 0.000000 0.000000 0.000000 -81.949824 10.011623 -0.000000 98.050176 -15.960361 -0.000000 9.536664 9.059447 0.000000 -153.586691 -5.948041 -30.000000 24.402531 5.179395 -0.000000 -15.559747 -0.517940 5.000000
962.486899 439.186814 133.656697 0.000000 0.000000 0.000000 0.000000 0.000000 0.000000 20.465882 15.257255 4.973798 180.000000 4.058383 4.973798 24.357206 -1.914790 -3.759997 155.642794 -0.929560 -29.763441 14.800425 -9.861747 3.759997 18.000000 0.849697 4.990134
1216.314240 612.580640 141.297572 0.000000 0.000000 0.000000 0.000000 0.000000 0.000000 78.221991 -6.305964 9.635073 -101.778009 -3.319441 9.635073 46.689014 5.532097 -7.460697 -61.937558 -1.727541 -29.057495 44.546377 4.650981 7.460697 -10.771750 0.554635 4.960574
1273.897820 573.707514 121.967428 0.000000 0.000000 0.000000 0.000000 0.000000 0.000000 77.469628 5.452010 13.690942 -102.530372 -0.709487 13.690942 -155.691164 -5.604301 -11.043737 -120.750172 2.650044 -27.893295 -156.229293 -6.561852 11.043737 2.162203 0.431890 4.911436
1337.358742 570.303276 111.201046 0.000000 0.000000 0.000000 0.000000 0.000000 0.000000 73.705918 0.307631 16.886559 -106.294082 2.332747 16.886559 -155.918376 -5.898925 -14.452610 -149.887909 -5.023467 -26.289200 0.000000 0.000000 0.000000 0.000000 0.000000 0.000000
1342.446442 569.623497 104.442643 0.000000 0.000000 0.000000 0.000000 0.000000 0.000000 68.898287 -10.081933 19.021130 -111.101713 0.979508 19.021130 39.314088 5.421513 -17.633558 -140.912764 5.556496 -24.270510 -153.216026 -7.187466 17.633558 2.759242 0.785916 4.755283
1335.759430 584.665475 98.400778 0.000000 0.000000 0.000000 0.000000 0.000000 0.000000 66.989329 0.240671 19.960535 -113.010671 -4.148735 19.960535 -154.807077 -4.577805 -20.536413 -142.328055 -3.071633 -21.869059 -153.049156 -5.094862 20.536413 2.866457 0.731459 4.648882
1337.950974 598.074245 103.456439 0.000000 0.000000 0.000000 0.000000 0.000000 0.000000 62.697633 3.700298 19.645745 -117.302367 -5.230589 19.645745 19.366736 1.657092 -23.115397 -144.826223 -2.504700 -19.122720 9.911455 0.802004 23.115397 -17.004209 -0.046108 4.524135
1352.846489 601.043322 96.654087 0.000000 0.000000 0.000000 0.000000 0.000000 0.000000 59.083577 -1.665403 18.096541 -120.916423 2.978390 18.096541 20.876734 -7.671585 -25.329838 -142.301690 -0.448952 -16.074804 13.356960 0.535660 25.329838 -16.821524 -0.098783 4.381533
1347.310982 587.475100 103.530395 0.000000 0.000000 0.000000 0.000000 0.000000 0.000000 56.169135 7.060095 15.410265 -123.830865 -3.569176 15.410265 21.172503 -0.588396 -27.144812 -139.640745 -2.682666 -12.773379 14.641496 2.065470 27.144812 -16.282575 -0.105841 4.221640
1326.982155 606.886139 81.205698 0.000000 0.000000 0.000000 0.000000 0.000000 0.000000 70.119981 8.493545 11.755705 -109.880019 -6.611922 11.755705 26.511889 0.854910 -28.531695 -111.264667 -3.623061 -9.270510 31.153840 -0.526572 28.531695 -13.943905 0.198034 4.045085
1354.391098 626.185555 98.164519 0.000000 0.000000 0.000000 0.000000 0.000000 0.000000 88.154395 -3.393913 7.362491 -91.845605 -3.098251 7.362491 30.442275 0.035545 -29.468618 -76.284233 3.119268 -5.621439 43.854867 -3.108616 29.468618 -10.818190 -0.188304 3.852566
1370.667114 610.219567 94.521449 0.000000 0.000000 0.000000 0.000000 0.000000 0.000000 89.945118 -1.284898 2.506665 -90.054882 4.294483 2.506665 44.053326 0.126097 -29.940802 -56.238091 5.018208 -1.883716 55.411270 -5.057936 29.940802 -7.805659 -0.069292 3.644843
1372.834854 597.828534 91.738552 0.000000 0.000000 0.000000 0.000000 0.000000 0.000000 93.407992 -1.502063 -2.506665 -86.592008 -1.411433 -2.506665 54.165845 5.010724 -29.940802 -47.239220 -0.624577 1.883716 56.575186 5.154673 29.940802 -6.344474 -1.062748 3.422736
1336.554337 597.454848 72.102903 0.000000 0.000000 0.000000 0.000000 0.000000 0.000000 95.622643 4.511246 -7.362491 -84.377357 -4.049567 -7.362491 56.597780 2.320511 -29.468618 -45.108662 0.228607 5.621439 55.386034 1.529404 29.468618 -7.206870 -0.504796 3.187120
1310.567093 590.844769 70.188441 0.000000 0.000000 0.000000 0.000000 0.000000 0.000000 100.193768 5.773938 -11.755705 -79.806232 7.267395 -11.755705 61.986347 -3.958875 -28.531695 -37.593815 1.276280 9.270510 62.907615 -1.021760 28.531695 -6.637230 0.256622 2.938926
1328.574371 576.493385 56.659869 0.000000 0.000000 0.000000 0.000000 0.000000 0.000000 101.943783 2.270779 -15.410265 -78.056217 3.788524 -15.410265 61.902838 -7.748048 -27.144812 -33.889586 1.909601 12.773379 55.760387 -7.769095 27.144812 -7.097415 0.112261 2.679134
1316.178360 595.500870 61.005734 0.000000 0.000000 0.000000 0.000000 0.000000 0.000000 103.792097 -2.852422 -18.096541 -76.207903 7.234640 -18.096541 65.535198 -5.169340 -25.329838 -28.739437 -1.291192 16.074804 68.415337 4.108643 25.329838 -6.481753 -0.393907 2.408768
1302.343140 568.138025 58.423537 0.000000 0.000000 0.000000 0.000000 0.000000 0.000000 101.222717 -0.560092 -19.645745 -78.777283 2.000333 -19.645745 90.757296 1.991540 -23.115397 -18.578033 2.369677 19.122720 97.909038 -2.859722 23.115397 -5.050134 0.300019 2.128896
1274.166183 540.660596 61.234344 0.000000 0.000000 0.000000 0.000000 0.000000 0.000000 -126.898591 -11.848034 -19.960535 53.101409 28.304286 -19.960535 127.276662 -2.633986 -20.536413 8.808645 -0.158053 21.869059 119.711272 0.858004 20.536413 -4.115393 0.052957 1.840623
1268.557091 468.331075 61.328728 0.000000 0.000000 0.000000 0.000000 0.000000 0.000000 -124.112133 14.568363 -19.021130 55.887867 -4.037902 -19.021130 163.344780 -4.572852 -17.633558 38.476068 -1.395698 24.270510 145.889074 -0.412292 17.633558 -1.929933 0.099070 1.545085
1278.673096 454.375906 41.609565 0.000000 0.000000 0.000000 0.000000 0.000000 0.000000 -126.805061 -6.184882 -16.886559 53.194939 1.363958 -16.886559 -174.009950 -0.175485 -14.452610 27.419224 0.345998 26.289200 168.192977 1.010132 14.452610 -0.976267 0.017729 1.243449
1285.008774 434.700390 40.959940 0.000000 0.000000 0.000000 0.000000 0.000000 0.000000 -132.005120 3.773769 -13.690942 47.994880 2.925886 -13.690942 -171.247775 -0.370634 -11.043737 26.625253 0.041623 27.893295 178.805957 -0.672663 11.043737 0.023422 0.145129 0.936907
1288.157730 426.987666 45.394271 0.000000 0.000000 0.000000 0.000000 0.000000 0.000000 -123.987926 2.800785 -9.635073 56.012074 -0.426748 -9.635073 -166.356219 0.293413 -7.460697 35.716336 3.318070 29.057495 -172.960762 -1.780263 7.460697 0.819533 0.039603 0.626666
1291.221657 420.425448 35.972730 0.000000 0.000000 0.000000 0.000000 0.000000 0.000000 -122.265643 7.337965 -4.973798 57.734357 -16.806671 -4.973798 -156.870161 7.124160 -3.759997 38.220704 -4.015169 29.763441 -165.716368 1.070223 3.759997 1.405814 0.022635 0.313953
