HIERARCHY
ROOT Hips
{
    OFFSET 0.0 0.0 0.0
    CHANNELS 6 Xposition Yposition Zposition Zrotation Xrotation Yrotation
    JOINT Spine
    {
        OFFSET 0.0 5.0 0.0
        CHANNELS 3 Zrotation Xrotation Yrotation
        JOINT Chest
        {
            OFFSET 0.0 5.0 0.0
            CHANNELS 3 Zrotation Xrotation Yrotation
            JOINT Neck
            {
                OFFSET 0.0 8.0 0.0
                CHANNELS 3 Zrotation Xrotation Yrotation
                JOINT Head
                {
                    OFFSET 0.0 5.0 0.0
                    CHANNELS 3 Zrotation Xrotation Yrotation
                    End Site
                    {
                        OFFSET 0.0 3.0 0.0
                    }
                }
            }
            JOINT LeftShoulder
            {
                OFFSET -5.0 0.0 0.0
                CHANNELS 3 Zrotation Xrotation Yrotation
                JOINT LeftArm
                {
                    OFFSET 0.0 -10.0 0.0
                    CHANNELS 3 Zrotation Xrotation Yrotation
                    JOINT LeftForeArm
                    {
                        OFFSET 0.0 -10.0 0.0
                        CHANNELS 3 Zrotation Xrotation Yrotation
                        End Site
                        {
                            OFFSET 0.0 -3.0 0.0
                        }
                    }
                }
            }
        }
    }
}

MOTION
Frames: 300
Frame Time: 0.033333

960.000000 445.000000 87.963841 0.000000 0.000000 0.000000 0.000000 0.000000 0.000000 23.025492 26.606401 0.000000 180.000000 4.245100 0.000000 21.801409 1.002045 -0.000000 158.198591 -6.831164 30.000000 15.945396 -0.871472 0.000000 18.000000 0.868187 0.000000
1691.525230 140.756605 97.739839 0.000000 0.000000 0.000000 0.000000 0.000000 0.000000 -163.376529 -1.208145 4.973798 16.623471 6.712695 4.973798 -171.853121 -3.703604 3.759997 99.744051 9.229150 29.763441 -171.126653 -3.708012 -3.759997 0.673538 0.414938 0.313953
1636.048050 128.802021 105.476339 0.000000 0.000000 0.000000 0.000000 0.000000 0.000000 157.904128 20.465464 9.635073 -22.095872 -4.795133 9.635073 -171.936471 -3.900434 7.460697 -143.675701 2.817872 29.057495 -173.500805 -4.564643 -7.460697 0.570999 0.419847 0.626666
1578.156967 80.474526 121.053239 0.000000 0.000000 0.000000 0.000000 0.000000 0.000000 -139.519796 -10.873340 13.690942 40.480204 3.721404 13.690942 -174.507724 -3.516310 11.043737 119.111399 13.287257 27.893295 -173.607258 -4.256244 -11.043737 0.461920 0.376002 0.936907
960.418757 444.998421 111.710166 0.000000 0.000000 0.000000 0.000000 0.000000 0.000000 25.077893 4.449148 16.886559 180.000000 -6.744953 16.886559 23.861935 6.217953 14.452610 156.138065 -1.425316 26.289200 17.903699 3.920358 -14.452610 18.000000 -0.383433 1.243449
960.523360 444.997533 123.389592 0.000000 0.000000 0.000000 0.000000 0.000000 0.000000 25.638906 -18.764968 19.021130 180.000000 11.153325 19.021130 24.425035 4.519650 17.633558 155.574965 12.884789 24.270510 18.452907 -6.119738 -17.633558 18.000000 0.641555 1.545085
960.627905 444.996447 132.951338 0.000000 0.000000 0.000000 0.000000 0.000000 0.000000 26.219073 -34.994304 19.960535 180.000000 26.117165 19.960535 25.006291 -1.519329 20.536413 154.993709 12.719350 21.869059 19.024920 4.607993 -20.536413 18.000000 -0.618302 1.840623
1126.242828 420.359820 139.715048 0.000000 0.000000 0.000000 0.000000 0.000000 0.000000 31.410514 4.274926 19.645745 -148.589486 -0.820097 19.645745 32.280463 0.022573 23.115397 -131.603972 1.056561 19.122720 45.585331 -3.067692 -23.115397 -13.449727 0.101385 2.128896
1257.895088 650.549197 137.869790 0.000000 0.000000 0.000000 0.000000 0.000000 0.000000 25.073180 -8.686304 18.096541 -154.926820 1.563272 18.096541 46.260945 7.259282 25.329838 -154.651428 -4.919254 16.074804 27.339487 4.875486 -25.329838 -13.619892 1.117445 2.408768
960.941083 444.992008 141.939443 0.000000 0.000000 0.000000 0.000000 0.000000 0.000000 28.072001 -26.688072 15.410265 180.000000 -11.217340 15.410265 26.849221 9.324787 27.144812 153.150779 -2.101822 12.773379 20.864045 -0.034273 -27.144812 18.000000 0.407801 2.679134
1163.815842 547.748709 135.140028 0.000000 0.000000 0.000000 0.000000 0.000000 0.000000 117.162728 -2.695443 11.755705 -62.837272 -10.821478 11.755705 102.363764 7.908960 28.531695 -47.376450 -1.023726 9.270510 104.768601 1.749885 -28.531695 -6.003489 -0.020096 2.938926
961.149372 444.988063 151.010155 0.000000 0.000000 0.000000 0.000000 0.000000 0.000000 29.395983 8.812469 7.362491 180.000000 -1.210967 7.362491 28.146217 2.049967 29.468618 151.853783 0.455842 5.621439 22.170006 -3.486661 -29.468618 18.000000 -0.002039 3.187120
1136.717377 590.104480 144.402783 0.000000 0.000000 0.000000 0.000000 0.000000 0.000000 115.752126 0.924866 2.506665 -64.247874 -2.839532 2.506665 73.638146 -7.295854 29.940802 -21.842452 -0.894188 1.883716 75.369282 3.695776 -29.940802 -6.767207 -0.443592 3.422736
1163.079758 634.077559 146.233673 0.000000 0.000000 0.000000 0.000000 0.000000 0.000000 132.174340 3.753491 -2.506665 -47.825660 -8.305180 -2.506665 94.255711 4.716847 29.940802 -149.364979 -7.580775 -1.883716 30.021641 5.290008 -29.940802 -5.096180 1.577237 3.644843
961.460830 444.980668 154.779301 0.000000 0.000000 0.000000 0.000000 0.000000 0.000000 31.497152 -14.947679 -7.362491 180.000000 2.240628 -7.362491 30.152455 9.073297 29.468618 149.847545 18.472481 -5.621439 24.175589 -9.514641 -29.468618 18.000000 -0.084952 3.852566
1097.449951 565.089898 126.777562 0.000000 0.000000 0.000000 0.000000 0.000000 0.000000 -119.219568 1.789965 -11.755705 60.780432 -0.627482 -11.755705 -150.180642 -6.924201 28.531695 48.804955 0.636063 -9.270510 -149.874178 -6.516124 -28.531695 2.713854 0.589756 4.045085
1114.140244 528.302071 145.057890 0.000000 0.000000 0.000000 0.000000 0.000000 0.000000 -142.671523 0.043357 -15.410265 37.328477 5.264769 -15.410265 -177.395681 0.167052 27.144812 34.687329 4.161049 -12.773379 161.894167 0.673369 -27.144812 -0.910956 -0.025683 4.221640
1116.433640 479.728639 144.943137 0.000000 0.000000 0.000000 0.000000 0.000000 0.000000 -102.267481 15.494150 -18.096541 77.732519 -6.687403 -18.096541 -163.695626 0.630906 25.329838 38.575767 -0.975322 -16.074804 -176.001122 -0.031306 -25.329838 0.706594 -0.017720 4.381533
1135.931282 466.493965 143.732551 0.000000 0.000000 0.000000 0.000000 0.000000 0.000000 -112.868406 6.823857 -19.645745 67.131594 -13.932051 -19.645745 -159.517862 0.388814 23.115397 36.204678 -4.841583 -19.122720 -154.426613 -5.524520 -23.115397 2.428729 0.527925 4.524135
1141.618767 467.420679 158.297485 0.000000 0.000000 0.000000 0.000000 0.000000 0.000000 -123.086385 -3.504604 -19.960535 56.913615 6.040744 -19.960535 -154.885724 2.615117 20.536413 36.481623 5.004757 -21.869059 -153.965441 -6.381238 -20.536413 2.446728 0.514148 4.648882
1150.647926 469.370956 150.303292 0.000000 0.000000 0.000000 0.000000 0.000000 0.000000 -43.953779 -31.424560 -19.021130 136.046221 40.917267 -19.021130 -154.327268 -7.299236 17.633558 60.745168 13.922892 -24.270510 -153.350642 -6.682764 -17.633558 2.386216 0.608567 4.755283
1151.529922 496.420240 148.083460 0.000000 0.000000 0.000000 0.000000 0.000000 0.000000 -116.362129 1.262467 -16.886559 63.637871 8.290102 -16.886559 -149.081043 -4.669462 14.452610 35.941860 1.266331 -26.289200 -156.847177 -0.361849 -14.452610 2.056513 0.066082 4.842916
1148.402367 515.713574 129.634547 0.000000 0.000000 0.000000 0.000000 0.000000 0.000000 -118.252650 7.155713 -13.690942 61.747350 -8.358236 -13.690942 -138.082896 5.683653 11.043737 -156.312677 -7.081082 -27.893295 21.649626 8.629862 -11.043737 2.962417 0.099967 4.911436
1175.363617 533.368646 135.431631 0.000000 0.000000 0.000000 0.000000 0.000000 0.000000 -95.476638 -15.634642 -9.635073 84.523362 5.488481 -9.635073 -113.907461 -1.544267 7.460697 -155.995907 -6.180575 -29.057495 12.512064 8.706001 -7.460697 -16.748794 -0.870600 4.960574
1199.533310 485.991104 136.809738 0.000000 0.000000 0.000000 0.000000 0.000000 0.000000 -100.003195 4.163739 -4.973798 79.996805 10.128351 -4.973798 -86.083188 -4.490761 3.759997 38.843754 -2.977774 -29.763441 -106.539452 2.999823 -3.759997 6.197806 0.022079 4.990134
962.588190 444.938442 136.098770 0.000000 0.000000 0.000000 0.000000 0.000000 0.000000 39.579754 -22.813689 -0.000000 180.000000 -14.920484 -0.000000 36.680773 26.699271 0.000000 143.319227 2.567316 -30.000000 29.388385 0.473911 -0.000000 18.000000 -0.901001 5.000000
1142.094727 445.716287 134.129430 0.000000 0.000000 0.000000 0.000000 0.000000 0.000000 -140.228454 -31.202090 4.973798 39.771546 34.373296 4.973798 -156.118008 -6.492940 -3.759997 3.479189 9.048378 -29.763441 -158.005660 -6.050788 3.759997 2.150019 0.566635 4.990134
1164.005928 424.847746 129.208111 0.000000 0.000000 0.000000 0.000000 0.000000 0.000000 -84.241076 -11.354559 9.635073 95.758924 -34.733575 9.635073 -156.181584 -5.486145 -7.460697 166.928360 -9.712667 -29.057495 -154.947270 -5.963109 7.460697 2.644196 0.558894 4.960574
1124.208755 418.286655 111.143678 0.000000 0.000000 0.000000 0.000000 0.000000 0.000000 -117.427077 -10.336087 13.690942 62.572923 -17.774312 13.690942 -155.943063 -4.990409 -11.043737 14.023837 4.149627 -27.893295 -157.382674 -5.560761 11.043737 2.188130 0.505392 4.911436
962.990408 444.917226 129.706202 0.000000 0.000000 0.000000 0.000000 0.000000 0.000000 42.110883 -21.299128 16.886559 180.000000 4.507519 16.886559 37.946959 25.570832 -14.452610 142.053041 9.744444 -26.289200 29.293612 6.449842 14.452610 18.000000 0.876557 4.842916
963.090170 444.911436 108.047379 0.000000 0.000000 0.000000 0.000000 0.000000 0.000000 42.659200 22.809970 19.021130 180.000000 -0.533470 19.021130 38.119107 -14.387584 -17.633558 141.880893 0.141347 -24.270510 29.068887 -11.807655 17.633558 18.000000 0.360600 4.755283
1186.646461 396.272757 99.499135 0.000000 0.000000 0.000000 0.000000 0.000000 0.000000 -72.847419 -18.798138 19.960535 107.152581 26.483491 19.960535 -156.703603 -4.893201 -20.536413 178.447294 15.475829 -21.869059 -157.212393 -5.249717 20.536413 1.964058 0.486701 4.648882
1313.051605 426.636125 98.826490 0.000000 0.000000 0.000000 0.000000 0.000000 0.000000 90.994869 -15.927097 19.645745 -89.005131 14.222309 19.645745 -160.515303 -4.143893 -23.115397 -153.248861 0.681089 -19.122720 -159.640525 -4.251234 23.115397 0.000000 0.000000 0.000000
1347.999344 420.772226 92.368971 0.000000 0.000000 0.000000 0.000000 0.000000 0.000000 90.154351 -0.984132 18.096541 -89.845649 4.108285 18.096541 -162.053401 -4.389013 -25.329838 -136.198880 8.332880 -16.074804 -160.991694 -6.132254 25.329838 0.000000 0.000000 0.000000
1344.315948 421.031681 92.783937 0.000000 0.000000 0.000000 0.000000 0.000000 0.000000 69.757587 -10.589971 15.410265 -110.242413 0.649494 15.410265 25.616746 2.638390 -27.144812 -157.821005 -3.199185 -12.773379 17.214985 2.829699 27.144812 -16.704706 0.309352 4.221640
1350.307617 440.309436 69.151418 0.000000 0.000000 0.000000 0.000000 0.000000 0.000000 71.124018 -9.412492 11.755705 -108.875982 6.917327 11.755705 42.739987 -5.291174 -28.531695 -142.315466 1.692991 -9.270510 16.600926 -1.035855 28.531695 -16.660102 0.139553 4.045085
1357.685051 430.688889 60.657089 0.000000 0.000000 0.000000 0.000000 0.000000 0.000000 77.656077 1.565151 7.362491 -102.343923 6.640228 7.362491 39.407151 -5.984163 -29.468618 -136.343173 -3.488147 -5.621439 22.144452 4.002429 29.468618 -16.305135 -0.009492 3.852566
1369.482193 445.909406 65.589164 0.000000 0.000000 0.000000 0.000000 0.000000 0.000000 88.051188 -2.422415 2.506665 -91.948812 1.704691 2.506665 -161.283973 -2.987468 -29.940802 -119.799169 -0.301605 -1.883716 -164.575400 -3.148741 29.940802 1.401013 0.280493 3.644843
963.875156 444.858159 74.754471 0.000000 0.000000 0.000000 0.000000 0.000000 0.000000 45.304844 31.070447 -2.506665 180.000000 -17.884747 -2.506665 37.252439 32.112337 -29.940802 142.747561 7.268340 1.883716 25.146244 8.499458 29.940802 18.000000 -1.127110 3.422736
963.971479 444.850633 60.727758 0.000000 0.000000 0.000000 0.000000 0.000000 0.000000 45.383640 42.785698 -7.362491 180.000000 -22.773206 -7.362491 36.882310 -3.137665 -29.468618 143.117690 -11.703799 5.621439 24.499789 0.190356 29.468618 18.000000 0.094325 3.187120
1336.629524 469.010178 61.280177 0.000000 0.000000 0.000000 0.000000 0.000000 0.000000 -72.390177 19.654192 -11.755705 107.609823 -15.457589 -11.755705 -158.649984 -2.296315 -28.531695 2.583425 -4.810898 9.270510 -39.658551 3.082315 28.531695 10.837181 -0.359765 2.938926
1311.966934 518.219100 80.433797 0.000000 0.000000 0.000000 0.000000 0.000000 0.000000 -63.565072 -35.591997 -15.410265 116.434928 -28.458375 -15.410265 -14.840750 4.005440 -27.144812 -158.549348 -3.073732 12.773379 17.488774 2.199975 27.144812 7.174982 -2.554136 2.679134
964.257793 444.826908 44.454214 0.000000 0.000000 0.000000 0.000000 0.000000 0.000000 45.262206 -15.959650 -18.096541 180.000000 -12.463889 -18.096541 35.497192 5.454182 -25.329838 144.502808 16.776938 16.074804 22.522929 0.038469 25.329838 18.000000 -0.450914 2.408768
1275.921364 516.836239 47.612265 0.000000 0.000000 0.000000 0.000000 0.000000 0.000000 85.186295 -2.365098 -19.645745 -94.813705 1.209237 -19.645745 52.470689 1.490244 -23.115397 -44.513683 8.811732 19.122720 50.867598 -9.130693 23.115397 -8.717188 -1.597144 2.128896
1263.254128 546.875424 43.874715 0.000000 0.000000 0.000000 0.000000 0.000000 0.000000 34.848242 0.588745 -19.960535 -145.151758 -5.659998 -19.960535 42.487561 48.096566 -20.536413 -157.415675 -2.141031 21.869059 22.420880 1.895549 20.536413 -15.757912 -0.189555 1.840623
1258.788185 528.263061 45.115609 0.000000 0.000000 0.000000 0.000000 0.000000 0.000000 118.326865 15.280444 -19.021130 -61.673135 -22.560545 -19.021130 143.214759 8.471632 -17.633558 -156.228306 -2.374209 24.270510 28.173554 2.470290 17.633558 -15.182645 -0.247029 1.545085
1231.492081 471.383836 62.327640 0.000000 0.000000 0.000000 0.000000 0.000000 0.000000 -115.049381 -5.560681 -16.886559 64.950619 7.205975 -16.886559 172.843704 1.046394 -14.452610 -157.842300 -2.211347 26.289200 32.851042 1.221828 14.452610 -14.714896 -0.122183 1.243449
1223.928795 435.993515 61.077385 0.000000 0.000000 0.000000 0.000000 0.000000 0.000000 -115.322532 -11.350056 -13.690942 64.677468 -6.212432 -13.690942 -168.597862 0.577710 -11.043737 -158.853816 -1.935909 27.893295 31.099266 2.067804 11.043737 -14.890073 -0.206780 0.936907
1223.669701 418.195664 36.938189 0.000000 0.000000 0.000000 0.000000 0.000000 0.000000 -102.084053 8.602836 -9.635073 77.915947 14.797609 -9.635073 -171.103858 0.801293 -7.460697 162.056334 -1.682864 29.057495 -153.594437 -2.310185 7.460697 2.968481 0.241035 0.626666
1216.486244 414.503002 26.716172 0.000000 0.000000 0.000000 0.000000 0.000000 0.000000 69.261091 -49.150127 -4.973798 -110.738909 30.176820 -4.973798 -158.083722 -3.280895 -3.759997 -173.244581 0.385006 29.763441 -154.635509 -3.141748 3.759997 2.928763 0.304265 0.313953
1212.090225 434.550980 51.733543 0.000000 0.000000 0.000000 0.000000 0.000000 0.000000 -112.403932 -20.710623 0.000000 67.596068 33.421077 0.000000 -157.060799 -3.187525 -0.000000 173.400765 -0.035651 30.000000 -154.473580 -2.472323 0.000000 2.734633 0.323842 0.000000
1214.024734 450.340490 45.354382 0.000000 0.000000 0.000000 0.000000 0.000000 0.000000 -110.634751 12.505326 4.973798 69.365249 -1.844446 4.973798 -137.583343 2.717622 3.759997 -158.589698 -3.237143 29.763441 20.879446 3.932374 -3.759997 -15.912055 -0.393237 0.313953
1204.271393 440.192921 32.734201 0.000000 0.000000 0.000000 0.000000 0.000000 0.000000 -99.498286 22.331645 9.635073 80.501714 -4.954549 9.635073 -156.696469 -2.247148 7.460697 -178.487725 -16.307144 29.057495 -157.318323 -1.706406 -7.460697 2.108583 0.350247 0.626666
965.269558 444.725315 68.411276 0.000000 0.000000 0.000000 0.000000 0.000000 0.000000 40.845461 39.459247 13.690942 180.000000 -1.060521 13.690942 28.615377 -0.379535 11.043737 151.384623 1.101848 27.893295 16.305092 -4.150740 -11.043737 18.000000 -0.055972 0.936907
1182.456551 475.103824 36.713954 0.000000 0.000000 0.000000 0.000000 0.000000 0.000000 -168.146016 -74.612247 16.886559 11.853984 73.781658 16.886559 -63.802645 2.556083 14.452610 -61.114510 1.482311 26.289200 -47.869281 -0.015207 -14.452610 -13.834956 7.342080 1.243449
965.446390 444.704404 75.437846 0.000000 0.000000 0.000000 0.000000 0.000000 0.000000 39.578146 -17.553456 19.021130 180.000000 2.507088 19.021130 27.338029 11.698484 17.633558 152.661971 5.037619 24.270510 15.463180 -0.771351 -17.633558 18.000000 0.505869 1.545085
965.533915 444.693669 85.639689 0.000000 0.000000 0.000000 0.000000 0.000000 0.000000 38.916706 49.470423 19.960535 180.000000 -6.420283 19.960535 26.716768 0.419442 20.536413 153.283232 -7.378390 21.869059 15.076605 1.523429 -20.536413 18.000000 -0.245259 1.840623
965.620834 444.682749 65.484742 0.000000 0.000000 0.000000 0.000000 0.000000 0.000000 38.241653 39.512228 19.645745 180.000000 -27.386852 19.645745 26.109467 12.355995 23.115397 153.890533 -0.614121 19.122720 14.712258 -6.578147 -23.115397 18.000000 0.569158 2.128896
965.707136 444.671645 63.489197 0.000000 0.000000 0.000000 0.000000 0.000000 0.000000 37.556504 18.202375 18.096541 180.000000 3.115914 18.096541 25.517536 -10.781679 25.329838 154.482464 6.990471 16.074804 14.369537 -10.680980 -25.329838 18.000000 0.570869 2.408768
965.792812 444.660356 85.801739 0.000000 0.000000 0.000000 0.000000 0.000000 0.000000 36.864608 29.986689 15.410265 180.000000 -16.083010 15.410265 24.942131 13.585927 27.144812 155.057869 -5.666742 12.773379 14.047797 7.823079 -27.144812 18.000000 -0.733835 2.679134
965.877853 444.648882 74.146218 0.000000 0.000000 0.000000 0.000000 0.000000 0.000000 36.169118 -12.377576 11.755705 180.000000 -3.605377 11.755705 24.384173 5.887977 28.531695 155.615827 -9.974144 9.270510 13.746367 1.911067 -28.531695 18.000000 0.409325 2.938926
965.962249 444.637226 101.463654 0.000000 0.000000 0.000000 0.000000 0.000000 0.000000 35.472980 11.672408 7.362491 180.000000 22.428272 7.362491 23.844373 -8.745515 29.468618 156.155627 3.763545 5.621439 13.464570 -6.076454 -29.468618 18.000000 0.291836 3.187120
966.045991 444.625386 81.360382 0.000000 0.000000 0.000000 0.000000 0.000000 0.000000 34.778913 18.806635 2.506665 180.000000 -17.761138 2.506665 23.323250 8.128352 29.940802 156.676750 -7.128002 1.883716 13.201728 1.148686 -29.940802 18.000000 -0.097486 3.422736
966.129071 444.613364 109.266885 0.000000 0.000000 0.000000 0.000000 0.000000 0.000000 34.089406 -12.857733 -2.506665 180.000000 16.321882 -2.506665 22.821158 -11.937743 29.940802 157.178842 4.800385 -1.883716 12.957175 0.923815 -29.940802 18.000000 -0.134429 3.644843
966.211478 444.601159 107.103990 0.000000 0.000000 0.000000 0.000000 0.000000 0.000000 33.406712 -40.556978 -7.362491 180.000000 3.732976 -7.362491 22.338307 7.817534 29.468618 157.661693 -0.908110 -5.621439 12.730264 4.548861 -29.468618 18.000000 0.088950 3.852566
1171.486244 534.946783 94.168722 0.000000 0.000000 0.000000 0.000000 0.000000 0.000000 70.594720 5.321263 -11.755705 -109.405280 -4.992087 -11.755705 49.953444 1.531673 28.531695 -151.467583 -5.673540 -9.270510 0.000000 0.000000 0.000000 0.000000 0.000000 0.000000
966.374240 444.576206 88.852317 0.000000 0.000000 0.000000 0.000000 0.000000 0.000000 32.069603 35.394541 -15.410265 180.000000 -13.281562 -15.410265 21.430544 -10.539866 27.144812 158.569456 -9.968048 -12.773379 12.326901 -2.716832 -27.144812 18.000000 0.655653 4.221640
1172.156410 555.047708 107.242152 0.000000 0.000000 0.000000 0.000000 0.000000 0.000000 -121.065102 19.091725 -18.096541 58.934898 -31.967686 -18.096541 -151.641456 -5.306951 25.329838 -177.360623 -1.004329 -16.074804 -149.076048 -7.261276 -25.329838 0.000000 0.000000 0.000000
1161.826630 552.360713 113.376479 0.000000 0.000000 0.000000 0.000000 0.000000 0.000000 69.958407 -38.599197 -19.645745 -110.041593 -44.805734 -19.645745 -152.437496 -4.913034 23.115397 -158.790607 2.687319 -19.122720 -150.591725 -7.221448 -23.115397 3.219062 0.760404 4.524135
1165.827255 569.832902 122.763843 0.000000 0.000000 0.000000 0.000000 0.000000 0.000000 25.594208 -15.773552 -19.960535 -154.405792 14.211266 -19.960535 11.723883 -0.525311 20.536413 -161.543160 1.468688 -21.869059 7.769582 1.433334 -20.536413 -17.248199 -0.036622 4.648882
1165.555573 565.067046 125.160413 0.000000 0.000000 0.000000 0.000000 0.000000 0.000000 43.355707 4.815368 -19.021130 -136.644293 -5.146378 -19.021130 15.984329 1.703965 17.633558 -140.773833 -0.330631 -24.270510 13.679449 1.813641 -17.633558 -16.392157 -0.032908 4.755283
1290.255775 608.533316 151.993293 0.000000 0.000000 0.000000 0.000000 0.000000 0.000000 -153.952071 -32.108149 -16.886559 26.047929 21.816665 -16.886559 -152.683807 -5.924030 14.452610 4.794196 3.149365 -26.289200 -154.287190 -5.129116 -14.452610 2.418080 0.542871 4.842916
1180.398903 551.817470 139.170208 0.000000 0.000000 0.000000 0.000000 0.000000 0.000000 51.640104 7.915277 -13.690942 -128.359896 15.103948 -13.690942 14.419400 -5.405594 11.043737 -33.521359 -16.443562 -27.893295 -34.277510 6.143878 -11.043737 5.235387 -0.098282 4.911436
1162.708626 619.419501 144.813153 0.000000 0.000000 0.000000 0.000000 0.000000 0.000000 -88.968325 -24.130271 -9.635073 91.031675 14.092793 -9.635073 -52.690088 3.546136 7.460697 25.015222 1.688561 -29.057495 -72.561734 -1.046028 -7.460697 8.557489 0.265029 4.960574
1110.899391 602.919216 149.126067 0.000000 0.000000 0.000000 0.000000 0.000000 0.000000 -86.972237 8.928678 -4.973798 93.027763 3.553202 -4.973798 -39.551144 0.673574 3.759997 34.838085 -1.607400 -29.763441 -44.185810 -0.166654 -3.759997 10.000609 0.263488 4.990134
1150.187302 553.686991 159.870580 0.000000 0.000000 0.000000 0.000000 0.000000 0.000000 -116.065142 -3.368183 -0.000000 63.934858 -4.708175 -0.000000 -151.059314 -6.257653 0.000000 -0.492058 -7.961859 -30.000000 -14.044098 12.130405 -0.000000 1.929760 1.170710 5.000000
967.144727 444.440682 141.514683 0.000000 0.000000 0.000000 0.000000 0.000000 0.000000 26.270296 -8.031986 4.973798 180.000000 2.786100 4.973798 17.996647 -7.926896 -3.759997 162.003353 -3.877340 -29.763441 11.189167 1.689627 3.759997 18.000000 -0.130954 4.990134
1213.452644 620.002785 148.603488 0.000000 0.000000 0.000000 0.000000 0.000000 0.000000 140.390379 32.201276 9.635073 -39.609621 -5.659963 9.635073 77.724607 -30.114385 -7.460697 -153.982965 -7.300331 -29.057495 24.142749 5.874543 7.460697 -0.833727 1.079569 4.960574
1124.373779 618.464527 169.592843 0.000000 0.000000 0.000000 0.000000 0.000000 0.000000 99.329635 34.919500 13.690942 -80.670365 17.587805 13.690942 85.960927 -9.377908 -11.043737 -150.875293 -7.430515 -27.893295 31.644098 5.851961 11.043737 -14.835590 -0.585196 4.911436
967.360971 444.396582 141.025233 0.000000 0.000000 0.000000 0.000000 0.000000 0.000000 24.874716 -0.606997 16.886559 180.000000 -8.879761 16.886559 17.291102 12.997760 -14.452610 162.708898 4.049284 -26.289200 11.098846 -1.637744 14.452610 18.000000 -0.068289 4.842916
1107.875175 542.453964 140.565154 0.000000 0.000000 0.000000 0.000000 0.000000 0.000000 -128.741314 13.304568 19.021130 51.258686 -6.298246 19.021130 -177.225595 -6.031461 -17.633558 19.954750 -3.496030 -24.270510 162.677362 -1.834808 17.633558 -1.443098 -0.196517 4.755283
1119.652290 522.766346 136.472510 0.000000 0.000000 0.000000 0.000000 0.000000 0.000000 -99.017754 8.933555 19.960535 80.982246 -1.303446 19.960535 -150.289603 -7.340220 -20.536413 -152.613833 -7.636833 -21.869059 0.000000 0.000000 0.000000 0.000000 0.000000 0.000000
1132.908783 538.229613 139.624073 0.000000 0.000000 0.000000 0.000000 0.000000 0.000000 -127.874185 5.811785 19.645745 52.125815 1.073853 19.645745 -165.450188 -3.584984 -23.115397 -152.521515 -7.459972 -19.122720 40.606225 8.524131 23.115397 -13.939378 -0.852413 4.524135
1146.969337 541.828065 144.955830 0.000000 0.000000 0.000000 0.000000 0.000000 0.000000 -113.631604 -9.831477 18.096541 66.368396 10.248254 18.096541 -159.067475 -5.593205 -25.329838 113.981862 7.485755 -16.074804 -145.449815 -7.458103 25.329838 0.000000 0.000000 0.000000
1165.252304 561.329677 140.209173 0.000000 0.000000 0.000000 0.000000 0.000000 0.000000 -112.861399 1.886628 15.410265 67.138601 17.379837 15.410265 -159.396543 -4.749465 -27.144812 -151.967552 -6.402400 -12.773379 38.422588 8.427655 27.144812 -14.157741 -0.842766 4.221640
1174.726181 592.839689 139.023032 0.000000 0.000000 0.000000 0.000000 0.000000 0.000000 -110.369899 -5.238873 11.755705 69.630101 -10.303937 11.755705 -148.108768 1.359051 -28.531695 -151.515612 -7.047307 -9.270510 34.277732 8.602541 28.531695 -14.572227 -0.860254 4.045085
1167.352524 605.194867 124.595119 0.000000 0.000000 0.000000 0.000000 0.000000 0.000000 -113.828445 3.030061 7.362491 66.171555 -17.014574 7.362491 -131.688453 4.413112 -29.468618 -151.045756 -7.249155 -5.621439 27.200835 8.445831 29.468618 -15.279916 -0.844583 3.852566
1139.678879 602.981014 125.731160 0.000000 0.000000 0.000000 0.000000 0.000000 0.000000 -97.599684 -2.550409 2.506665 82.400316 1.915618 2.506665 -113.965806 0.179990 -29.940802 -121.058781 -3.411531 -1.883716 -118.492407 3.173788 29.940802 10.137620 2.997460 3.644843
1165.830002 580.020189 134.717354 0.000000 0.000000 0.000000 0.000000 0.000000 0.000000 -28.085052 5.262725 -2.506665 151.914948 33.882595 -2.506665 -150.589103 -6.638819 -29.940802 -172.678414 -5.844827 1.883716 -149.717924 -5.709858 29.940802 0.000000 0.000000 0.000000
1184.501953 619.872494 133.335365 0.000000 0.000000 0.000000 0.000000 0.000000 0.000000 -113.790307 -25.984842 -7.362491 66.209693 -19.162277 -7.362491 -59.272274 1.437837 -29.468618 29.476823 -2.324524 5.621439 -88.148483 -1.693307 29.468618 7.414604 0.173525 3.187120
968.090170 444.221640 103.801848 0.000000 0.000000 0.000000 0.000000 0.000000 0.000000 21.092887 -14.559239 -11.755705 180.000000 7.126760 -11.755705 15.757771 -8.500299 -28.531695 164.242229 3.259527 9.270510 11.678908 -3.523857 28.531695 18.000000 0.413076 2.938926
968.151278 444.204723 111.068814 0.000000 0.000000 0.000000 0.000000 0.000000 0.000000 20.844337 19.356585 -15.410265 180.000000 -8.130224 -15.410265 15.691895 9.866231 -27.144812 164.308105 -6.790061 12.773379 11.804629 1.948446 27.144812 18.000000 0.272104 2.679134
968.211492 444.187640 95.131124 0.000000 0.000000 0.000000 0.000000 0.000000 0.000000 20.610265 2.061461 -18.096541 180.000000 5.177618 -18.096541 15.637361 -1.811763 -25.329838 164.362639 -4.438205 16.074804 11.943263 7.627221 25.329838 18.000000 -0.102239 2.408768
968.270806 444.170392 107.429273 0.000000 0.000000 0.000000 0.000000 0.000000 0.000000 20.390366 -13.999738 -19.645745 180.000000 13.080314 -19.645745 15.594026 -5.289554 -23.115397 164.405974 8.916793 19.122720 12.095062 1.798676 23.115397 18.000000 -0.789312 2.128896
968.329212 444.152979 111.196785 0.000000 0.000000 0.000000 0.000000 0.000000 0.000000 20.184343 -10.645448 -19.960535 180.000000 -8.422536 -19.960535 15.561766 12.762765 -20.536413 164.438234 -1.579626 21.869059 12.260289 7.556570 20.536413 18.000000 -1.057922 1.840623
968.386706 444.135403 79.301467 0.000000 0.000000 0.000000 0.000000 0.000000 0.000000 19.991916 5.477871 -19.021130 180.000000 0.193964 -19.021130 15.540476 5.840164 -17.633558 164.459524 -1.814434 24.270510 12.439222 2.507845 17.633558 18.000000 0.145110 1.545085
968.443279 444.117663 81.470708 0.000000 0.000000 0.000000 0.000000 0.000000 0.000000 19.812814 -22.393838 -16.886559 180.000000 10.166351 -16.886559 15.530069 -8.657166 -14.452610 164.469931 8.479838 26.289200 12.632146 -6.672753 14.452610 18.000000 -0.012877 1.243449
968.498927 444.099761 92.217515 0.000000 0.000000 0.000000 0.000000 0.000000 0.000000 19.646785 10.245823 -13.690942 180.000000 -1.866900 -13.690942 15.530474 1.523788 -11.043737 164.469526 -7.226733 27.893295 12.839349 4.260060 11.043737 18.000000 0.351254 0.936907
968.553643 444.081696 92.594478 0.000000 0.000000 0.000000 0.000000 0.000000 0.000000 19.493591 10.379720 -9.635073 180.000000 7.951973 -9.635073 15.541640 -0.501913 -7.460697 164.458360 7.458075 29.057495 13.061119 -5.527475 7.460697 18.000000 0.034380 0.626666
1051.772690 653.004448 58.995806 0.000000 0.000000 0.000000 0.000000 0.000000 0.000000 -79.007834 -6.913933 -4.973798 100.992166 7.589787 -4.973798 -126.715299 -5.422799 -3.759997 -149.991181 -3.856915 29.763441 31.772279 4.764813 3.759997 -14.822772 -0.476481 0.313953
1061.669197 624.716241 63.048012 0.000000 0.000000 0.000000 0.000000 0.000000 0.000000 -94.718359 -4.300802 0.000000 85.281641 1.446006 0.000000 -144.150484 -7.947237 -0.000000 60.155085 -3.063157 30.000000 -152.711462 0.059468 0.000000 1.815393 -0.137370 0.000000
1072.053337 571.032879 63.764651 0.000000 0.000000 0.000000 0.000000 0.000000 0.000000 71.424080 10.582278 4.973798 -108.575920 0.574297 4.973798 -149.042361 -4.262857 3.759997 -149.913636 -4.564686 29.763441 -145.792107 -3.870501 -3.759997 3.947623 0.419781 0.313953
1070.057373 572.884376 57.367294 0.000000 0.000000 0.000000 0.000000 0.000000 0.000000 -80.850201 -29.131994 9.635073 99.149799 37.970074 9.635073 -147.567525 -3.675265 7.460697 -164.443014 -3.230813 29.057495 -145.447997 -2.836402 -7.460697 4.032371 0.631510 0.626666
968.813035 443.988972 60.430040 0.000000 0.000000 0.000000 0.000000 0.000000 0.000000 18.912944 -20.612726 13.690942 180.000000 12.562092 13.690942 15.758200 -3.797651 11.043737 164.241800 6.247256 27.893295 14.397395 -5.228134 -11.043737 18.000000 0.362893 0.936907
968.862036 443.969952 57.145930 0.000000 0.000000 0.000000 0.000000 0.000000 0.000000 18.832684 3.728392 16.886559 180.000000 -7.802264 16.886559 15.833735 8.278313 14.452610 164.166265 10.019008 26.289200 14.711463 -7.075370 -14.452610 18.000000 0.073777 1.243449
968.910065 443.950775 42.385983 0.000000 0.000000 0.000000 0.000000 0.000000 0.000000 18.764066 -15.774823 19.021130 180.000000 -2.314015 19.021130 15.920102 1.509687 17.633558 164.079898 -1.686694 24.270510 15.041323 1.645044 -17.633558 18.000000 0.279673 1.545085
968.957118 443.931442 62.784039 0.000000 0.000000 0.000000 0.000000 0.000000 0.000000 18.706990 0.991977 19.960535 180.000000 1.213200 19.960535 16.017366 -2.983491 20.536413 163.982634 -0.781150 21.869059 15.386894 3.647115 -20.536413 18.000000 -0.735737 1.840623
969.003188 443.911954 50.740271 0.000000 0.000000 0.000000 0.000000 0.000000 0.000000 18.661377 26.078297 19.645745 180.000000 -8.024673 19.645745 16.125602 1.243898 23.115397 163.874398 5.164111 19.122720 15.747980 0.312621 -23.115397 18.000000 -1.417579 2.128896
969.048271 443.892312 47.311743 0.000000 0.000000 0.000000 0.000000 0.000000 0.000000 18.627165 6.604265 18.096541 180.000000 -8.331675 18.096541 16.244896 -0.426429 25.329838 163.755104 3.192450 16.074804 16.124252 0.635733 -25.329838 18.000000 -0.471584 2.408768
969.092361 443.872515 47.952040 0.000000 0.000000 0.000000 0.000000 0.000000 0.000000 18.604312 13.613401 15.410265 180.000000 1.211777 15.410265 16.375340 -2.399684 27.144812 163.624660 -4.824284 12.773379 16.515224 4.241778 -27.144812 18.000000 0.184946 2.679134
1055.186234 577.357593 50.689769 0.000000 0.000000 0.000000 0.000000 0.000000 0.000000 85.510211 1.841221 11.755705 -94.489789 -2.236006 11.755705 37.103410 -2.673725 28.531695 -148.111343 -2.701877 9.270510 24.294182 2.060182 -28.531695 -8.601915 -1.268721 2.938926
1122.856522 566.714029 45.800409 0.000000 0.000000 0.000000 0.000000 0.000000 0.000000 96.216240 7.085820 7.362491 -83.783760 -5.804054 7.362491 46.189625 -1.542943 29.468618 -149.396962 -2.611741 5.621439 24.670091 1.984242 -29.468618 -7.107716 -0.213897 3.187120
969.218632 443.812213 53.812992 0.000000 0.000000 0.000000 0.000000 0.000000 0.000000 18.603763 -0.704716 2.506665 180.000000 1.244413 2.506665 16.834613 2.522228 29.940802 163.165387 -2.220409 1.883716 17.768624 1.262786 -29.940802 18.000000 -0.556899 3.422736
1112.757797 605.798106 65.165913 0.000000 0.000000 0.000000 0.000000 0.000000 0.000000 110.914625 9.663202 -2.506665 -69.085375 -26.318432 -2.506665 67.769469 11.524477 29.940802 -149.822316 -3.216797 -1.883716 29.049901 2.573645 -29.940802 -3.625079 -0.521072 3.644843
1086.733246 592.557156 54.011244 0.000000 0.000000 0.000000 0.000000 0.000000 0.000000 -80.132323 -33.219049 -7.362491 99.867677 67.216321 -7.362491 36.201564 -8.223129 29.468618 -13.679556 -4.373367 -5.621439 78.049842 8.533551 -29.468618 -5.127460 -0.136536 3.852566
1081.109390 570.394492 61.526033 0.000000 0.000000 0.000000 0.000000 0.000000 0.000000 -175.864613 -22.040542 -11.755705 4.135387 31.846577 -11.755705 134.713876 -1.535482 28.531695 -10.005873 1.815459 -9.270510 135.737755 1.946423 -28.531695 -3.389365 0.008263 4.045085
1089.776802 536.594539 44.378970 0.000000 0.000000 0.000000 0.000000 0.000000 0.000000 -139.033903 -11.859035 -15.410265 40.966097 11.376458 -15.410265 161.695972 6.239410 27.144812 3.114398 8.220596 -12.773379 148.805610 -2.076855 -27.144812 -2.611636 -0.168011 4.221640
1114.282036 523.965647 55.220554 0.000000 0.000000 0.000000 0.000000 0.000000 0.000000 -156.073983 13.850147 -18.096541 23.926017 1.867748 -18.096541 174.825807 -4.756239 25.329838 5.093343 -5.282701 -16.074804 161.266817 2.718935 -25.329838 -1.814366 -0.096539 4.381533
1122.145157 503.425248 83.935903 0.000000 0.000000 0.000000 0.000000 0.000000 0.000000 -144.538174 12.306187 -19.645745 35.461826 5.321645 -19.645745 174.215003 -1.032908 23.115397 -151.750905 -3.222099 -19.122720 43.887064 3.397339 -23.115397 -13.611294 -0.339734 4.524135
1134.158249 484.688419 77.085183 0.000000 0.000000 0.000000 0.000000 0.000000 0.000000 -142.311443 -3.775107 -19.960535 37.688557 -4.772147 -19.960535 -174.407776 1.825914 20.536413 14.121014 0.814335 -21.869059 176.737053 0.497702 -20.536413 -0.386439 -0.018581 4.648882
1156.756668 500.025387 65.819898 0.000000 0.000000 0.000000 0.000000 0.000000 0.000000 -140.140767 20.638068 -19.021130 39.859233 5.031210 -19.021130 -176.866589 -3.804512 17.633558 -153.177991 -3.891574 -24.270510 40.555680 4.996846 -17.633558 -13.944432 -0.499685 4.755283
1163.818588 490.292573 76.747253 0.000000 0.000000 0.000000 0.000000 0.000000 0.000000 -126.918075 -4.795398 -16.886559 53.081925 4.328390 -16.886559 -163.374411 2.643987 14.452610 -153.952175 -3.547608 -26.289200 36.914642 4.976529 -14.452610 0.798233 0.179457 4.842916
1176.523705 490.346003 73.256313 0.000000 0.000000 0.000000 0.000000 0.000000 0.000000 -130.072590 -7.952638 -13.690942 49.927410 -6.726784 -13.690942 -150.224616 2.338166 11.043737 24.749952 2.807847 -27.893295 -162.219632 0.347233 -11.043737 1.550269 -0.005899 4.911436
1165.045052 489.521159 86.592026 0.000000 0.000000 0.000000 0.000000 0.000000 0.000000 -134.421293 0.315520 -9.635073 45.578707 -3.259907 -9.635073 -138.114962 -1.432076 7.460697 20.347125 8.076364 -29.057495 -149.675125 -1.723896 -7.460697 1.919618 -0.032784 4.960574
1186.003189 485.341580 79.272665 0.000000 0.000000 0.000000 0.000000 0.000000 0.000000 151.263424 82.508125 -4.973798 -28.736576 28.333448 -4.973798 -155.571724 -4.187431 3.759997 -114.944239 6.394237 -29.763441 -157.446860 -4.630354 -3.759997 2.096391 0.360336 4.990134
1190.285912 497.609435 107.457499 0.000000 0.000000 0.000000 0.000000 0.000000 0.000000 -104.331435 15.876344 -0.000000 75.668565 -4.423165 -0.000000 -153.934692 -4.205344 0.000000 -67.465008 7.659428 -30.000000 -71.629168 -5.434813 -0.000000 -13.965204 8.618243 5.000000
846.875610 502.341399 105.324934 0.000000 0.000000 0.000000 0.000000 0.000000 0.000000 -153.358185 23.485386 4.973798 26.641815 -27.606894 4.973798 -147.628169 -5.170044 -3.759997 -147.401289 -6.548335 -29.763441 0.000000 0.000000 0.000000 0.000000 0.000000 0.000000
969.711343 443.490827 88.986608 0.000000 0.000000 0.000000 0.000000 0.000000 0.000000 20.204512 -7.896631 9.635073 180.000000 0.569696 9.635073 20.733157 -5.636444 -7.460697 159.266843 -3.926900 -29.057495 24.065833 5.387481 7.460697 18.000000 0.985255 4.960574
969.735789 443.468267 114.257632 0.000000 0.000000 0.000000 0.000000 0.000000 0.000000 20.415894 -19.557145 13.690942 180.000000 -5.917863 13.690942 21.087741 14.648001 -11.043737 158.912259 9.140148 -27.893295 24.320336 0.990298 11.043737 18.000000 -1.563591 4.911436
969.759168 443.445569 145.285077 0.000000 0.000000 0.000000 0.000000 0.000000 0.000000 20.642061 -4.524646 16.886559 180.000000 7.035940 16.886559 21.453029 -14.994378 -14.452610 158.546971 5.739830 -26.289200 24.533304 -8.246969 14.452610 18.000000 -0.514096 4.842916
585.252171 514.469179 124.382845 0.000000 0.000000 0.000000 0.000000 0.000000 0.000000 74.723181 52.932063 19.021130 -105.276819 -33.502768 19.021130 119.807175 7.362719 -17.633558 165.825978 -2.619458 -24.270510 138.012220 -15.000327 17.633558 -12.357653 1.353728 4.755283
624.843979 517.601860 134.780968 0.000000 0.000000 0.000000 0.000000 0.000000 0.000000 103.202449 -6.660550 19.960535 -76.797551 14.340366 19.960535 114.381580 -1.691469 -20.536413 -53.015473 -59.006800 -21.869059 145.467160 12.572501 20.536413 -4.173333 -2.171395 4.648882
969.822873 443.376664 128.050744 0.000000 0.000000 0.000000 0.000000 0.000000 0.000000 21.413420 11.262845 19.645745 180.000000 2.212557 19.645745 22.607712 -4.157220 -23.115397 157.392288 0.484972 -19.122720 24.899813 -10.059175 23.115397 18.000000 1.527328 4.524135
969.841956 443.353428 127.516193 0.000000 0.000000 0.000000 0.000000 0.000000 0.000000 21.702987 -12.133425 18.096541 180.000000 0.381702 18.096541 23.009909 -7.893571 -25.329838 156.990091 2.490960 -16.074804 24.926562 -6.594421 25.329838 18.000000 0.679798 4.381533
969.859960 443.330059 149.556678 0.000000 0.000000 0.000000 0.000000 0.000000 0.000000 22.009579 41.101400 15.410265 180.000000 -15.593935 15.410265 23.419334 3.749179 -27.144812 156.580666 -12.537033 -12.773379 24.904993 9.912847 27.144812 18.000000 -0.844191 4.221640
594.905148 538.048757 133.354705 0.000000 0.000000 0.000000 0.000000 0.000000 0.000000 -57.080480 5.858628 11.755705 122.919520 -27.643770 11.755705 -12.750556 11.432026 -28.531695 149.841027 11.092431 -9.270510 -8.274090 -8.542490 28.531695 17.596979 0.039674 4.045085
969.892723 443.282929 154.919850 0.000000 0.000000 0.000000 0.000000 0.000000 0.000000 22.675903 3.665293 7.362491 180.000000 2.899094 7.362491 24.255612 -12.513766 -29.468618 155.744388 -2.567557 -5.621439 24.720303 2.474014 29.468618 18.000000 -0.321502 3.852566
1257.001877 499.708382 147.783133 0.000000 0.000000 0.000000 0.000000 0.000000 0.000000 52.818511 1.020788 2.506665 -127.181489 -1.882489 2.506665 25.369497 -4.344639 -29.940802 -143.914951 0.600342 -1.883716 14.556766 -0.667349 29.940802 -16.686776 -0.259261 3.644843
1279.050064 493.773898 149.599298 0.000000 0.000000 0.000000 0.000000 0.000000 0.000000 56.685213 -1.077641 -2.506665 -123.314787 -3.747231 -2.506665 24.065452 2.794634 -29.940802 -146.540317 -1.516782 1.883716 13.097461 2.364095 29.940802 -16.716891 0.136036 3.422736
1295.108986 477.099677 155.217151 0.000000 0.000000 0.000000 0.000000 0.000000 0.000000 65.723361 2.173288 -7.362491 -114.276639 4.149497 -7.362491 23.725299 -7.874930 -29.468618 -147.984281 2.425830 5.621439 13.187557 -1.757083 29.468618 -16.751134 -0.019912 3.187120
1289.065018 496.763316 138.827224 0.000000 0.000000 0.000000 0.000000 0.000000 0.000000 61.662232 5.958534 -11.755705 -118.337768 6.933784 -11.755705 31.397757 -4.316558 -28.531695 -148.047797 -3.508302 9.270510 12.491083 1.043102 28.531695 -16.898368 0.048774 2.938926
1285.337105 480.691112 154.496681 0.000000 0.000000 0.000000 0.000000 0.000000 0.000000 58.021980 2.705383 -15.410265 -121.978020 -7.871767 -15.410265 31.705930 1.126704 -27.144812 -157.028684 -5.239396 12.773379 11.107306 -1.655584 27.144812 -17.140016 0.247722 2.679134
1276.453171 465.093691 161.161222 0.000000 0.000000 0.000000 0.000000 0.000000 0.000000 70.157145 6.172720 -18.096541 -109.842855 -18.369018 -18.096541 40.303764 8.623451 -25.329838 -145.293609 -1.522978 16.074804 10.431204 1.600434 25.329838 -17.100572 0.079956 2.408768
1253.658714 472.768564 156.628752 0.000000 0.000000 0.000000 0.000000 0.000000 0.000000 65.087926 -22.364956 -19.645745 -114.912074 6.147821 -19.645745 -157.680356 -6.008890 -23.115397 -137.727082 1.946556 19.122720 -153.053596 -3.821378 23.115397 -16.054219 -0.729260 2.128896
1366.101608 507.691247 153.162593 0.000000 0.000000 0.000000 0.000000 0.000000 0.000000 108.715100 -18.445678 -19.960535 -71.284900 6.594405 -19.960535 156.661132 -14.467287 -20.536413 -158.224303 -5.749533 21.869059 0.000000 0.000000 0.000000 0.000000 0.000000 0.000000
969.986295 443.064535 152.762869 0.000000 0.000000 0.000000 0.000000 0.000000 0.000000 26.662144 -16.392798 -19.021130 180.000000 1.387825 -19.021130 28.015351 -8.984260 -17.633558 151.984649 -6.986355 24.270510 22.068935 10.585584 17.633558 18.000000 0.083790 1.545085
1282.107124 481.511257 147.848219 0.000000 0.000000 0.000000 0.000000 0.000000 0.000000 80.650781 14.031726 -16.886559 -99.349219 -7.551638 -16.886559 1.511604 2.847636 -14.452610 -32.896908 -4.231337 26.289200 -7.727072 5.552037 14.452610 13.531851 -6.149677 1.243449
1282.921486 484.777769 139.548059 0.000000 0.000000 0.000000 0.000000 0.000000 0.000000 -81.737646 8.638140 -13.690942 98.262354 8.081086 -13.690942 -23.867101 1.592059 -11.043737 12.655668 0.200309 27.893295 -29.454911 -1.433868 11.043737 9.861248 0.180697 0.936907
1290.933037 513.180238 145.477198 0.000000 0.000000 0.000000 0.000000 0.000000 0.000000 -91.387864 -1.386113 -9.635073 88.612136 0.139136 -9.635073 -41.685392 -3.519032 -7.460697 -161.156957 -6.505425 29.057495 15.157863 5.161501 7.460697 10.543436 -0.187072 0.626666
969.999452 442.964284 128.677484 0.000000 0.000000 0.000000 0.000000 0.000000 0.000000 29.025427 3.437064 -4.973798 180.000000 -3.059432 -4.973798 29.437993 9.262466 -3.759997 150.562007 -8.604801 29.763441 20.404746 4.323302 3.759997 18.000000 -0.231002 0.313953
970.000000 442.938926 122.810343 0.000000 0.000000 0.000000 0.000000 0.000000 0.000000 29.678605 -18.735118 0.000000 180.000000 10.040465 0.000000 29.744881 -8.621815 -0.000000 150.255119 23.395423 30.000000 19.983107 -12.856735 0.000000 18.000000 0.693788 0.000000
1354.522934 467.411410 132.625096 0.000000 0.000000 0.000000 0.000000 0.000000 0.000000 150.622570 -5.553603 4.973798 -29.377430 8.236398 4.973798 140.176400 -5.483823 3.759997 -12.221629 2.578586 29.763441 132.794256 0.068409 -3.759997 -2.626015 -0.644773 0.313953
969.997807 442.887864 120.979128 0.000000 0.000000 0.000000 0.000000 0.000000 0.000000 31.061399 -5.969328 9.635073 180.000000 14.328757 9.635073 30.285790 -9.356757 7.460697 149.714210 1.326254 29.057495 19.151579 7.211965 -7.460697 18.000000 -0.546654 0.626666
1246.736984 514.278152 112.804821 0.000000 0.000000 0.000000 0.000000 0.000000 0.000000 143.557092 3.547675 13.690942 -36.442908 -3.658595 13.690942 133.761037 1.932820 11.043737 -156.950665 -5.742382 27.893295 0.000000 0.000000 0.000000 1.928484 0.479755 0.936907
1245.221100 458.637464 112.828935 0.000000 0.000000 0.000000 0.000000 0.000000 0.000000 160.701064 14.217666 16.886559 -19.298936 -6.963893 16.886559 140.193827 0.023372 14.452610 -157.554825 -5.622519 26.289200 29.500467 5.167469 -14.452610 -15.049953 -0.516747 1.243449
1257.365570 418.514181 107.280722 0.000000 0.000000 0.000000 0.000000 0.000000 0.000000 -143.710676 -5.642052 19.021130 36.289324 2.762696 19.021130 163.220413 -2.401599 17.633558 11.688054 0.025148 24.270510 152.038385 0.180377 -17.633558 -2.339948 0.138294 1.545085
1275.099564 408.163741 97.785963 0.000000 0.000000 0.000000 0.000000 0.000000 0.000000 -132.929531 -14.050469 19.960535 47.070469 13.166527 19.960535 173.491912 -1.872535 20.536413 -160.709681 -4.707014 21.869059 33.138793 4.346617 -20.536413 -14.686121 -0.434662 1.840623
1290.611115 384.880857 92.415246 0.000000 0.000000 0.000000 0.000000 0.000000 0.000000 -132.705235 -3.848263 19.645745 47.294765 4.637434 19.645745 -173.778854 -2.057372 23.115397 20.496835 7.802944 19.122720 -161.220290 -4.460398 -23.115397 1.723235 0.363613 2.128896
1302.817154 380.305352 94.715947 0.000000 0.000000 0.000000 0.000000 0.000000 0.000000 -131.493915 1.937244 18.096541 48.506085 2.119978 18.096541 -165.393697 -0.200439 25.329838 23.154815 1.283639 16.074804 -178.200316 -1.336491 -25.329838 0.138141 0.015863 2.408768
1304.997711 379.563582 93.851286 0.000000 0.000000 0.000000 0.000000 0.000000 0.000000 -126.727972 4.180712 15.410265 53.272028 1.410905 15.410265 -160.219593 -1.085391 27.144812 28.448880 -2.531534 12.773379 -174.368770 0.871013 -27.144812 0.079526 -0.118657 2.679134
1311.668472 386.890390 68.702027 0.000000 0.000000 0.000000 0.000000 0.000000 0.000000 -122.308728 0.239425 11.755705 57.691272 16.519727 11.755705 -158.801130 0.126203 28.531695 150.942637 3.182748 9.270510 -154.878332 -4.382836 -28.531695 2.695409 0.535841 2.938926
1305.131836 395.180186 69.842280 0.000000 0.000000 0.000000 0.000000 0.000000 0.000000 -125.112810 5.805554 7.362491 54.887190 -4.285507 7.362491 -146.487292 -3.781248 29.468618 -175.167369 -5.401485 5.621439 -159.224034 -3.844236 -29.468618 1.782042 0.472328 3.187120
1296.320457 392.734526 69.000146 0.000000 0.000000 0.000000 0.000000 0.000000 0.000000 -131.035750 9.411343 2.506665 48.964250 -10.714542 2.506665 -128.969563 1.541096 29.940802 38.856147 -7.089995 1.883716 -134.776850 -0.489251 -29.940802 3.458429 0.127381 3.422736
1306.963577 386.612041 72.759303 0.000000 0.000000 0.000000 0.000000 0.000000 0.000000 -124.469622 -0.329140 -2.506665 55.530378 1.375386 -2.506665 -109.994856 0.358023 29.940802 37.691309 2.442149 -1.883716 -118.274788 1.592335 -29.940802 5.098336 -0.107903 3.644843
969.892723 442.572198 67.383678 0.000000 0.000000 0.000000 0.000000 0.000000 0.000000 41.287575 -23.983344 -7.362491 180.000000 17.651328 -7.362491 30.974696 -8.563709 29.468618 149.025304 -3.210114 -5.621439 15.072869 3.728314 -29.468618 18.000000 0.087682 3.852566
969.876883 442.545207 64.655721 0.000000 0.000000 0.000000 0.000000 0.000000 0.000000 42.241956 -27.836192 -11.755705 180.000000 3.668490 -11.755705 30.826133 -1.491409 28.531695 149.173867 0.179477 -9.270510 14.823070 4.210122 -28.531695 18.000000 0.287811 4.045085
969.859960 442.518116 55.428205 0.000000 0.000000 0.000000 0.000000 0.000000 0.000000 43.199779 -41.621145 -15.410265 180.000000 16.203287 -15.410265 30.649504 -4.617289 27.144812 149.350496 -1.121805 -12.773379 14.587557 10.816864 -27.144812 18.000000 -0.889668 4.221640
969.841956 442.490926 53.481748 0.000000 0.000000 0.000000 0.000000 0.000000 0.000000 44.157210 -19.605930 -18.096541 180.000000 15.283428 -18.096541 30.446417 -16.339517 25.329838 149.553583 -18.150180 -16.074804 14.366154 13.006960 -25.329838 18.000000 -0.006731 4.381533
969.822873 442.463637 48.853571 0.000000 0.000000 0.000000 0.000000 0.000000 0.000000 45.110117 -46.312037 -19.645745 180.000000 19.450571 -19.645745 30.218633 -13.881138 23.115397 149.781367 4.989200 -19.122720 14.158653 2.716838 -23.115397 18.000000 0.014000 4.524135
969.802712 442.436251 66.141794 0.000000 0.000000 0.000000 0.000000 0.000000 0.000000 46.054109 31.137107 -19.960535 180.000000 16.655007 -19.960535 29.968037 -1.971015 20.536413 150.031963 -6.817216 -21.869059 13.964823 -1.992614 -20.536413 18.000000 0.270213 4.648882
1187.040939 541.658249 52.216056 0.000000 0.000000 0.000000 0.000000 0.000000 0.000000 82.806623 22.053635 -19.021130 -97.193377 -21.873665 -19.021130 45.395981 -2.474753 17.633558 -156.144455 -2.931221 -24.270510 0.000000 0.000000 0.000000 0.000000 0.000000 0.000000
1182.242889 522.024286 69.565907 0.000000 0.000000 0.000000 0.000000 0.000000 0.000000 -105.721938 1.423983 -16.886559 74.278062 18.444374 -16.886559 -155.708006 -2.584086 14.452610 -157.302521 -1.950227 -26.289200 0.000000 0.000000 0.000000 2.684983 0.292535 4.842916
1180.914459 527.065626 36.139604 0.000000 0.000000 0.000000 0.000000 0.000000 0.000000 88.055617 -5.639521 -13.690942 -91.944383 4.048471 -13.690942 -158.862018 -2.581434 11.043737 -151.747289 -1.880290 -27.893295 0.000000 0.000000 0.000000 0.000000 0.000000 0.000000
1236.800194 541.387432 55.828468 0.000000 0.000000 0.000000 0.000000 0.000000 0.000000 -85.588400 -18.633770 -9.635073 94.411600 -3.380937 -9.635073 -159.297106 12.277044 7.460697 -157.915391 -1.976595 -29.057495 26.607362 2.427393 -7.460697 14.926890 -0.302622 4.960574
1161.066513 575.006626 45.611907 0.000000 0.000000 0.000000 0.000000 0.000000 0.000000 -81.021168 -5.284023 -4.973798 98.978832 0.329897 -4.973798 -102.851701 3.816567 3.759997 -157.041007 -2.269904 -29.763441 21.429890 1.545712 -3.759997 10.859432 0.525782 4.990134
1255.636253 512.645942 68.589824 0.000000 0.000000 0.000000 0.000000 0.000000 0.000000 77.832564 4.626202 -0.000000 -102.167436 0.443949 -0.000000 -158.264834 -2.644832 0.000000 -130.745502 -1.475239 -30.000000 -157.699225 -2.575196 -0.000000 0.000000 0.000000 0.000000
1265.118484 521.473864 67.710061 0.000000 0.000000 0.000000 0.000000 0.000000 0.000000 64.078276 3.862159 4.973798 -115.921724 0.652692 4.973798 41.397952 -3.211527 -3.759997 -139.329851 -1.536471 -29.763441 20.223252 -0.532150 3.759997 -16.047574 0.005049 4.990134
1228.099480 522.138258 49.327536 0.000000 0.000000 0.000000 0.000000 0.000000 0.000000 71.050901 -7.965329 9.635073 -108.949099 -5.361141 9.635073 150.099970 8.277082 -7.460697 -139.894702 -2.873955 -29.057495 -156.275691 -2.591284 7.460697 0.000000 0.000000 0.000000
1240.357246 528.695873 49.597671 0.000000 0.000000 0.000000 0.000000 0.000000 0.000000 65.413351 -9.770922 13.690942 -114.586649 -7.242662 13.690942 147.242328 2.595136 -11.043737 -154.470720 -2.311259 -27.893295 25.557225 2.385607 11.043737 -15.444278 -0.238561 4.911436
1231.815262 551.380248 57.023375 0.000000 0.000000 0.000000 0.000000 0.000000 0.000000 56.412506 3.335512 16.886559 -123.587494 -1.209184 16.886559 -153.392336 3.216365 -14.452610 -154.784582 -2.585637 -26.289200 24.191555 3.180967 14.452610 -15.580844 -0.318097 4.842916
1221.475182 508.360147 54.705268 0.000000 0.000000 0.000000 0.000000 0.000000 0.000000 77.450622 1.304611 19.021130 -102.549378 -11.541971 19.021130 -156.789784 -2.022078 -17.633558 -125.590168 -0.813194 -24.270510 -160.017240 -3.157948 17.633558 1.833434 0.372683 4.755283
969.477684 442.100429 69.450644 0.000000 0.000000 0.000000 0.000000 0.000000 0.000000 54.932575 -21.079153 19.960535 180.000000 18.855314 19.960535 25.919122 8.016984 -20.536413 154.080878 16.279688 -21.869059 12.612867 -2.359491 20.536413 18.000000 -0.403625 4.648882
1480.140495 518.878891 80.549630 0.000000 0.000000 0.000000 0.000000 0.000000 0.000000 -110.621767 85.968391 19.645745 69.378233 81.021051 19.645745 -158.235933 -2.985367 -23.115397 166.031448 3.642645 -19.122720 -155.186432 -3.358994 23.115397 2.641553 0.351147 4.524135
1271.640472 556.840560 77.706218 0.000000 0.000000 0.000000 0.000000 0.000000 0.000000 -94.404719 -8.168090 18.096541 85.595281 4.171532 18.096541 -62.417786 2.297908 -25.329838 23.992813 4.960923 -16.074804 -76.856107 -0.702225 25.329838 7.708835 -0.231341 4.381533
1258.556786 530.268441 85.484659 0.000000 0.000000 0.000000 0.000000 0.000000 0.000000 78.355945 3.851818 15.410265 -101.644055 3.810951 15.410265 35.068294 -0.245539 -27.144812 -54.090640 -1.581232 -12.773379 35.848220 2.788865 27.144812 -8.104639 -0.115618 4.221640
1250.800209 527.150567 80.751441 0.000000 0.000000 0.000000 0.000000 0.000000 0.000000 72.417769 -0.769672 11.755705 -107.582231 -0.134569 11.755705 24.571109 -3.645285 -28.531695 -39.196117 1.078003 -9.270510 10.411117 -6.082860 28.531695 -9.048616 2.236257 4.045085
1243.466148 571.776259 91.202729 0.000000 0.000000 0.000000 0.000000 0.000000 0.000000 86.301473 -1.292123 7.362491 -93.698527 -12.840675 7.362491 24.553534 -1.575599 -29.468618 -153.460385 -3.712833 -5.621439 19.510484 3.066488 29.468618 -10.109500 0.918151 3.852566
1261.883812 566.052918 90.774083 0.000000 0.000000 0.000000 0.000000 0.000000 0.000000 94.015209 10.974973 2.506665 -85.984791 -8.677425 2.506665 38.959993 -2.123861 -29.940802 -154.008305 -4.375902 -1.883716 20.870951 3.503033 29.940802 -10.872440 0.458375 3.644843
1284.436798 527.190542 79.368651 0.000000 0.000000 0.000000 0.000000 0.000000 0.000000 111.186365 10.778001 -2.506665 -68.813635 -13.457971 -2.506665 58.506163 6.603965 -29.940802 -19.138727 3.777209 1.883716 51.457372 -17.979304 29.940802 -5.203198 0.997995 3.422736
1272.860069 533.494012 100.507072 0.000000 0.000000 0.000000 0.000000 0.000000 0.000000 72.301471 16.133309 -7.362491 -107.698529 -14.556284 -7.362491 78.802573 2.540072 -29.468618 -154.772375 -4.753295 5.621439 26.927455 3.641566 29.468618 -15.307255 -0.364157 3.187120
1255.264664 498.243735 124.044647 0.000000 0.000000 0.000000 0.000000 0.000000 0.000000 164.596971 -8.501427 -11.755705 -15.403029 41.177470 -11.755705 125.849126 -0.643777 -28.531695 -156.067666 -4.803478 9.270510 33.087561 4.958781 28.531695 -14.691244 -0.495878 2.938926
1259.202232 470.407684 112.518660 0.000000 0.000000 0.000000 0.000000 0.000000 0.000000 -139.980397 -5.994689 -15.410265 40.019603 -10.517842 -15.410265 165.887722 -4.808823 -27.144812 -157.901492 -5.130536 12.773379 35.196094 5.072453 27.144812 -14.480391 -0.507245 2.679134
1236.502075 429.951335 115.031087 0.000000 0.000000 0.000000 0.000000 0.000000 0.000000 -113.295066 -7.038109 -18.096541 66.704934 9.527717 -18.096541 -174.664169 0.160688 -25.329838 -159.007335 -4.920168 16.074804 32.868990 6.523877 25.329838 -14.713101 -0.652388 2.408768
1253.359451 413.942538 121.617383 0.000000 0.000000 0.000000 0.000000 0.000000 0.000000 -123.348580 -4.425644 -19.645745 56.651420 9.789925 -19.645745 -167.815074 -1.415397 -23.115397 -159.603180 -5.498991 19.122720 32.791747 7.315382 23.115397 -14.720825 -0.731538 2.128896
1281.206589 405.664523 116.773223 0.000000 0.000000 0.000000 0.000000 0.000000 0.000000 -124.414271 1.517402 -19.960535 55.585729 -6.192432 -19.960535 -161.281803 0.334688 -20.536413 28.568449 -4.373159 21.869059 -159.052798 -4.247588 20.536413 1.849141 0.455569 1.840623
1300.238571 418.760215 129.522005 0.000000 0.000000 0.000000 0.000000 0.000000 0.000000 -126.263092 3.771912 -19.021130 53.736908 -0.152648 -19.021130 -159.739358 -2.428197 -17.633558 31.487961 -0.396772 24.270510 -170.323915 -0.165214 17.633558 0.671815 0.018637 1.545085
1321.889191 413.634385 141.629602 0.000000 0.000000 0.000000 0.000000 0.000000 0.000000 -133.874471 -14.303607 -16.886559 46.125529 2.387330 -16.886559 -159.376251 4.624633 -14.452610 30.696824 3.411310 26.289200 -164.929556 -0.539583 14.452610 1.089735 0.095280 1.243449
1336.221428 432.881820 138.085555 0.000000 0.000000 0.000000 0.000000 0.000000 0.000000 -115.020798 2.105692 -13.690942 64.979202 -1.862372 -13.690942 -135.609544 0.525382 -11.043737 -161.321630 -6.680226 27.893295 17.353502 8.903840 11.043737 -16.264650 -0.890384 0.936907
1329.124603 416.860342 141.754659 0.000000 0.000000 0.000000 0.000000 0.000000 0.000000 -134.023347 6.657630 -9.635073 45.976653 -6.776395 -9.635073 -128.030830 1.637753 -7.460697 28.249885 0.254799 29.057495 -136.447985 -0.662040 7.460697 4.038834 -0.098241 0.626666
1343.366776 427.060794 141.866685 0.000000 0.000000 0.000000 0.000000 0.000000 0.000000 -130.153347 1.154229 -4.973798 49.846653 1.154901 -4.973798 -103.564435 -1.361674 -3.759997 27.398095 0.110465 29.763441 -115.461530 1.792542 3.759997 5.470063 -0.098804 0.313953
1376.991005 465.829636 150.566943 0.000000 0.000000 0.000000 0.000000 0.000000 0.000000 -120.272352 1.618063 0.000000 59.727648 0.973681 0.000000 -62.204131 -1.422351 -0.000000 27.740602 -1.746408 30.000000 -80.461527 2.191383 0.000000 7.450891 -0.070561 0.000000
1384.978867 468.790376 133.890610 0.000000 0.000000 0.000000 0.000000 0.000000 0.000000 -93.720384 12.748044 4.973798 86.279616 -6.245041 4.973798 3.847814 2.600847 3.759997 -160.438787 -5.720762 29.763441 15.990976 5.426679 -3.759997 7.894783 -1.253966 0.313953
1345.894547 516.257268 157.038848 0.000000 0.000000 0.000000 0.000000 0.000000 0.000000 127.577640 1.375853 9.635073 -52.422360 2.642354 9.635073 53.096359 -2.526380 7.460697 -159.021748 -5.945157 29.057495 18.308456 5.213008 -7.460697 -4.062191 -0.437935 0.626666
968.498927 441.455181 142.753013 0.000000 0.000000 0.000000 0.000000 0.000000 0.000000 47.920147 -33.766474 13.690942 180.000000 -3.898194 13.690942 19.641385 3.794020 11.043737 160.358615 1.749742 27.893295 13.993219 -0.868119 -11.043737 18.000000 -0.037938 0.936907
1336.846733 493.527671 148.743213 0.000000 0.000000 0.000000 0.000000 0.000000 0.000000 102.681311 10.931433 16.886559 -77.318689 7.568734 16.886559 35.985219 -3.918834 14.452610 -159.617763 -6.616412 26.289200 19.375410 5.025391 -14.452610 -16.062459 -0.502539 1.243449
968.386706 441.394956 143.079634 0.000000 0.000000 0.000000 0.000000 0.000000 0.000000 46.120581 3.067445 19.021130 180.000000 -7.993213 19.021130 19.316787 5.631540 17.633558 160.683213 11.273709 24.270510 14.327067 -8.026908 -17.633558 18.000000 0.755765 1.545085
1263.984947 433.341283 132.860897 0.000000 0.000000 0.000000 0.000000 0.000000 0.000000 -115.578373 3.711516 19.960535 64.421627 -6.306893 19.960535 -82.396446 4.305449 20.536413 25.733383 -3.354908 21.869059 -77.477544 -4.132214 -20.536413 5.836928 0.931964 1.840623
1352.596436 477.564354 163.663595 0.000000 0.000000 0.000000 0.000000 0.000000 0.000000 -99.196741 -1.376049 19.645745 80.803259 -1.637968 19.645745 -125.272585 -2.894050 23.115397 -162.405270 -6.735703 19.122720 17.377627 6.981111 -23.115397 -16.262237 -0.698111 2.128896
1384.326782 408.174427 141.540854 0.000000 0.000000 0.000000 0.000000 0.000000 0.000000 96.868601 -8.483120 18.096541 -83.131399 6.212991 18.096541 -160.848957 -6.431570 25.329838 -137.255583 -1.223972 16.074804 -162.076720 -6.811989 -25.329838 0.000000 0.000000 0.000000
1387.580223 387.128634 141.993109 0.000000 0.000000 0.000000 0.000000 0.000000 0.000000 78.087764 -5.321526 15.410265 -101.912236 -9.443218 15.410265 -161.807915 -6.091578 27.144812 -147.504361 -1.904098 12.773379 -162.566306 -7.074848 -27.144812 1.735427 0.792704 2.679134
1345.818558 392.423122 146.737543 0.000000 0.000000 0.000000 0.000000 0.000000 0.000000 71.782984 -9.002435 11.755705 -108.217016 25.227311 11.755705 -169.469261 -5.494738 28.531695 -153.903088 6.244038 9.270510 -154.670689 -7.267581 -28.531695 15.277725 0.565416 2.938926
1331.471329 361.814139 150.369006 0.000000 0.000000 0.000000 0.000000 0.000000 0.000000 53.586100 -6.106205 7.362491 -126.413900 28.781510 7.362491 -162.290330 -6.585365 29.468618 -154.912165 1.834876 5.621439 -162.550394 -6.940539 -29.468618 1.742175 0.783896 3.187120
1354.413986 427.213873 152.902731 0.000000 0.000000 0.000000 0.000000 0.000000 0.000000 -131.358118 21.921697 2.506665 48.641882 -5.579689 2.506665 -142.488821 1.442232 29.940802 -161.977882 -6.093033 1.883716 12.673705 8.694407 -29.940802 1.397524 -0.136938 3.422736
1330.326691 347.207226 125.743959 0.000000 0.000000 0.000000 0.000000 0.000000 0.000000 52.464175 6.682933 -2.506665 -127.535825 2.533581 -2.506665 14.270918 -2.391160 29.940802 -122.057234 -1.129686 -1.883716 22.820874 0.235721 -29.940802 -15.244909 -0.072885 3.644843
1317.103271 414.475805 139.334105 0.000000 0.000000 0.000000 0.000000 0.000000 0.000000 76.170457 10.099380 -7.362491 -103.829543 -17.395699 -7.362491 -50.250674 7.694080 29.468618 -52.503744 -6.127335 -5.621439 -92.793049 2.626619 -29.468618 3.303440 -0.111097 3.852566
1331.844635 430.291482 123.099779 0.000000 0.000000 0.000000 0.000000 0.000000 0.000000 79.985160 -0.831063 -11.755705 -100.014840 7.160162 -11.755705 25.995082 -2.242775 28.531695 -75.062603 0.912565 -9.270510 38.761234 0.009534 -28.531695 -11.442229 0.009871 4.045085
1359.462433 496.472383 117.449896 0.000000 0.000000 0.000000 0.000000 0.000000 0.000000 84.268829 2.172651 -15.410265 -95.731171 -5.662798 -15.410265 30.279153 8.163250 27.144812 -63.318008 4.733258 -12.773379 39.457716 -6.605283 -27.144812 -9.485742 0.463953 4.221640
1323.514366 546.771398 130.160270 0.000000 0.000000 0.000000 0.000000 0.000000 0.000000 84.407325 11.056141 -18.096541 -95.592675 -7.134028 -18.096541 27.768249 -3.210601 25.329838 -47.660055 -4.859414 -16.074804 28.281511 0.799911 -25.329838 -7.827901 -0.287215 4.381533
1268.535347 591.567099 104.281465 0.000000 0.000000 0.000000 0.000000 0.000000 0.000000 90.890792 5.887892 -19.645745 -89.109208 -1.225151 -19.645745 44.654760 0.041627 23.115397 -48.200667 1.067134 -19.122720 43.369388 -3.062573 -23.115397 -8.974980 -0.454097 4.524135
1303.157158 602.888768 119.921752 0.000000 0.000000 0.000000 0.000000 0.000000 0.000000 90.349289 -1.327157 -19.960535 -89.650711 2.431803 -19.960535 47.707312 0.916942 20.536413 -53.918782 6.314822 -21.869059 40.070965 -5.650881 -20.536413 -9.318632 0.158744 4.648882
1314.841690 613.141973 97.268110 0.000000 0.000000 0.000000 0.000000 0.000000 0.000000 94.480501 6.576279 -19.021130 -85.519499 -3.491037 -19.021130 58.462862 7.632100 17.633558 -52.020507 1.366374 -24.270510 55.276552 -4.543902 -17.633558 -7.777523 0.532796 4.755283
1327.521400 639.394319 89.883269 0.000000 0.000000 0.000000 0.000000 0.000000 0.000000 99.879576 -4.094764 -16.886559 -80.120424 -0.833222 -16.886559 69.161359 0.547822 14.452610 -46.413613 -2.420375 -26.289200 76.680143 4.383160 -14.452610 -6.257768 0.038924 4.842916
1277.812729 671.228578 90.334554 0.000000 0.000000 0.000000 0.000000 0.000000 0.000000 99.708534 1.342333 -13.690942 -80.291466 3.674911 -13.690942 92.239140 -4.244514 11.043737 -26.764021 -0.349046 -27.893295 98.168457 -4.842939 -11.043737 -4.372074 0.238218 4.911436
1309.642181 690.479329 83.138151 0.000000 0.000000 0.000000 0.000000 0.000000 0.000000 117.292414 9.339005 -9.635073 -62.707586 -7.953247 -9.635073 137.002702 1.515328 7.460697 -32.045917 -3.005306 -29.057495 135.211322 1.398074 -7.460697 -3.212944 -0.255971 4.960574
1299.770966 664.126496 75.898546 0.000000 0.000000 0.000000 0.000000 0.000000 0.000000 158.531160 -3.511842 -4.973798 -21.468840 -6.940639 -4.973798 161.478323 -2.802902 3.759997 -12.838206 -0.639485 -29.763441 151.269584 -0.144906 -3.759997 -2.521934 -0.004122 4.990134
1313.353729 643.668108 82.058204 0.000000 0.000000 0.000000 0.000000 0.000000 0.000000 -154.315892 -1.574417 -0.000000 25.684108 -0.621163 -0.000000 173.459940 -1.174580 0.000000 1.519689 0.587047 -30.000000 164.244875 -2.087647 -0.000000 -1.552244 0.061912 5.000000
1342.841377 638.982847 52.407338 0.000000 0.000000 0.000000 0.000000 0.000000 0.000000 -138.993869 -8.987810 4.973798 41.006131 -10.174545 4.973798 175.724056 -0.979597 -3.759997 -151.723069 -3.286284 -29.763441 43.242568 3.406600 3.759997 -13.675743 -0.340660 4.990134
1350.000229 614.724133 69.362004 0.000000 0.000000 0.000000 0.000000 0.000000 0.000000 -144.248147 28.308967 9.635073 35.751853 -5.814785 9.635073 177.069273 0.914012 -7.460697 -152.227621 -3.434769 -29.057495 43.136563 3.516636 7.460697 -13.686344 -0.351664 4.960574
1328.535919 624.780936 76.291896 0.000000 0.000000 0.000000 0.000000 0.000000 0.000000 -165.447222 -4.465180 13.690942 14.552778 25.146593 13.690942 169.657511 -3.430203 -11.043737 -152.168050 -2.597592 -27.893295 41.929642 3.148183 11.043737 -13.807036 -0.314818 4.911436
1318.810501 615.688248 57.338476 0.000000 0.000000 0.000000 0.000000 0.000000 0.000000 -120.063657 -0.277753 16.886559 59.936343 -3.971315 16.886559 -165.389465 -0.153831 -14.452610 -152.866764 -2.851959 -26.289200 39.162270 2.379512 14.452610 -14.083773 -0.237951 4.842916
1321.656418 659.275410 58.019570 0.000000 0.000000 0.000000 0.000000 0.000000 0.000000 -121.435085 -13.668583 19.021130 58.564915 -0.997109 19.021130 -149.190712 2.363909 -17.633558 -151.926374 -2.223180 -24.270510 33.097066 2.664084 17.633558 -14.690293 -0.266408 4.755283
1328.445511 687.490232 58.506389 0.000000 0.000000 0.000000 0.000000 0.000000 0.000000 -104.253419 10.915954 19.960535 75.746581 -6.159739 19.960535 -110.140878 4.383904 -20.536413 -152.911692 -2.929940 -21.869059 23.882145 3.252216 20.536413 3.694979 -0.179689 4.648882
966.534206 440.564282 35.056154 0.000000 0.000000 0.000000 0.000000 0.000000 0.000000 25.865486 15.160684 19.645745 180.000000 4.322013 19.645745 18.728337 -15.306251 -23.115397 161.271663 -3.109982 -19.122720 19.024234 8.531693 23.115397 18.000000 0.291019 4.524135
966.454577 440.533056 57.735773 0.000000 0.000000 0.000000 0.000000 0.000000 0.000000 25.417507 14.330461 18.096541 180.000000 -13.752883 18.096541 18.825450 14.456740 -25.329838 161.174550 -5.676889 -16.074804 19.071566 -1.909214 25.329838 18.000000 0.736417 4.381533
966.374240 440.501809 50.871699 0.000000 0.000000 0.000000 0.000000 0.000000 0.000000 24.990320 -4.789934 15.410265 180.000000 -0.527337 15.410265 18.929718 -8.995355 -27.144812 161.070282 1.739656 -12.773379 19.102411 -7.093283 27.144812 18.000000 0.206742 4.221640
966.293204 440.470542 48.015806 0.000000 0.000000 0.000000 0.000000 0.000000 0.000000 24.583377 6.657630 11.755705 180.000000 1.973629 11.755705 19.040946 7.263018 -28.531695 160.959054 3.604008 -9.270510 19.116765 -0.201650 28.531695 18.000000 0.826610 4.045085
966.211478 440.439256 29.537384 0.000000 0.000000 0.000000 0.000000 0.000000 0.000000 24.196129 19.886655 7.362491 180.000000 -1.008515 7.362491 19.158923 -6.393604 -29.468618 160.841077 -5.729307 -5.621439 19.114778 7.799501 29.468618 18.000000 -0.737434 3.852566
644.985180 745.864069 45.177441 0.000000 0.000000 0.000000 0.000000 0.000000 0.000000 96.086415 -5.191865 2.506665 -83.913585 9.188771 2.506665 -159.662371 0.091666 -29.940802 -116.741565 5.691003 -1.883716 -176.001217 -1.687877 29.940802 -1.006627 0.334271 3.644843
1269.020119 699.025490 63.194288 0.000000 0.000000 0.000000 0.000000 0.000000 0.000000 83.810916 2.138197 -2.506665 -96.189084 -5.133197 -2.506665 51.932890 2.125017 -29.940802 -149.314466 -2.085986 1.883716 27.598511 1.364242 29.940802 -15.240149 -0.136424 3.422736
573.721218 678.450201 62.942800 0.000000 0.000000 0.000000 0.000000 0.000000 0.000000 18.756393 7.732419 -7.362491 -161.243607 12.030699 -7.362491 -174.158094 -5.108287 -29.468618 178.010322 -0.731306 5.621439 -154.394154 3.877973 29.468618 11.886524 0.248975 3.187120
1261.580200 714.897366 68.679253 0.000000 0.000000 0.000000 0.000000 0.000000 0.000000 87.191276 -0.827080 -11.755705 -92.808724 7.856424 -11.755705 23.129119 -5.021538 -28.531695 -149.376238 -1.752444 9.270510 24.545507 2.389182 28.531695 13.583501 -4.550227 2.938926
1314.655838 684.171546 57.688014 0.000000 0.000000 0.000000 0.000000 0.000000 0.000000 61.219932 -3.538038 -15.410265 -118.780068 -2.125576 -15.410265 25.476616 3.856909 -27.144812 -150.404247 -2.283403 12.773379 24.621454 1.478913 27.144812 -15.537855 -0.147891 2.679134
1319.638939 674.820013 63.020491 0.000000 0.000000 0.000000 0.000000 0.000000 0.000000 82.055377 -8.430931 -18.096541 -97.944623 -0.547978 -18.096541 17.325085 1.448742 -25.329838 -60.067277 4.235863 16.074804 23.747728 -2.115818 25.329838 -13.005173 -0.665475 2.408768
1367.852325 659.536314 73.515310 0.000000 0.000000 0.000000 0.000000 0.000000 0.000000 -150.278430 -26.352850 -19.645745 29.721570 8.623755 -19.645745 -151.222797 -2.579379 -23.115397 18.758043 -0.916489 19.122720 -152.451920 -2.055617 23.115397 2.484143 0.198129 2.128896
1392.624664 638.981302 67.572891 0.000000 0.000000 0.000000 0.000000 0.000000 0.000000 -122.704248 2.726144 -19.960535 57.295752 -8.161586 -19.960535 -134.513385 4.135745 -20.536413 30.292627 -9.787319 21.869059 -146.694539 4.093413 20.536413 2.430965 -0.095951 1.840623
1401.291389 646.422758 81.948004 0.000000 0.000000 0.000000 0.000000 0.000000 0.000000 83.316637 15.292322 -19.021130 -96.683363 -17.453214 -19.021130 29.335627 13.014030 -17.633558 -136.281416 -4.245505 24.270510 19.119183 0.286285 17.633558 -15.871560 0.100975 1.545085
1381.838951 663.410475 63.768517 0.000000 0.000000 0.000000 0.000000 0.000000 0.000000 79.215331 -0.943527 -16.886559 -100.784669 2.581644 -16.886559 30.640455 -1.307230 -14.452610 -139.113455 -3.539806 26.289200 14.302413 3.477584 14.452610 -16.408036 0.036149 1.243449
1390.185928 664.248354 81.724058 0.000000 0.000000 0.000000 0.000000 0.000000 0.000000 75.546066 3.043110 -13.690942 -104.453934 -1.038481 -13.690942 38.995097 -2.570635 -11.043737 -142.871297 -4.347641 27.893295 14.209110 2.060667 11.043737 -16.737090 -0.168083 0.936907
1393.889923 677.551103 90.392166 0.000000 0.000000 0.000000 0.000000 0.000000 0.000000 84.293627 -3.097846 -9.635073 -95.706373 -0.264886 -9.635073 -152.700272 -3.268673 -7.460697 -143.357755 -1.771935 29.057495 -148.868889 -3.437921 7.460697 3.626268 0.454192 0.626666
905.601082 693.654528 90.289163 0.000000 0.000000 0.000000 0.000000 0.000000 0.000000 -84.410869 -16.703027 -4.973798 95.589131 14.029515 -4.973798 -139.498802 -4.451784 -3.759997 -178.556713 43.512854 29.763441 -142.061844 -4.521141 3.759997 3.411456 0.404573 0.313953
1337.643929 680.318756 78.567374 0.000000 0.000000 0.000000 0.000000 0.000000 0.000000 78.192517 -4.685429 0.000000 -101.807483 0.284495 0.000000 48.289813 -1.366871 -0.000000 -140.291980 -0.529210 30.000000 13.663140 0.576000 0.000000 -17.395561 0.049481 0.000000
1322.670708 685.543334 97.638971 0.000000 0.000000 0.000000 0.000000 0.000000 0.000000 71.501063 -6.231878 4.973798 -108.498937 -9.993428 4.973798 23.648228 8.698772 3.759997 -144.586500 0.617757 29.763441 14.578018 -0.075001 -3.759997 -16.885607 -0.044139 0.313953
1305.530548 682.910864 103.383802 0.000000 0.000000 0.000000 0.000000 0.000000 0.000000 72.979287 -9.591482 9.635073 -107.020713 -7.146780 9.635073 -148.728581 -4.144187 7.460697 -74.802907 5.243361 29.057495 -151.178244 -4.523799 -7.460697 2.601049 0.368660 0.626666
1359.363556 692.650115 106.942815 0.000000 0.000000 0.000000 0.000000 0.000000 0.000000 73.244804 -5.640703 13.690942 -106.755196 -1.030202 13.690942 13.983499 9.368486 11.043737 -67.611809 -1.895156 27.893295 13.130547 1.901925 -11.043737 -11.004089 0.553640 0.936907
1299.495964 679.994059 132.663022 0.000000 0.000000 0.000000 0.000000 0.000000 0.000000 116.206779 10.013779 16.886559 -63.793221 -15.887759 16.886559 -150.858719 -4.453723 14.452610 -34.548592 -7.452677 26.289200 60.366751 10.435598 -14.452610 -4.627493 0.014613 1.243449
1306.260338 711.527116 124.590891 0.000000 0.000000 0.000000 0.000000 0.000000 0.000000 -85.758672 14.111757 19.021130 94.241328 10.004888 19.021130 -31.461750 -3.879371 17.633558 -4.237664 -1.591363 24.270510 -15.215787 0.407296 -17.633558 7.867754 0.436983 1.545085
1272.614822 704.778571 114.412546 0.000000 0.000000 0.000000 0.000000 0.000000 0.000000 -78.634637 -3.611261 19.960535 101.365363 10.379326 19.960535 -34.118569 -1.838580 20.536413 22.539652 1.856639 21.869059 -31.373170 2.313725 -20.536413 11.310693 -1.182974 1.840623
1310.345650 676.427021 133.104925 0.000000 0.000000 0.000000 0.000000 0.000000 0.000000 97.572435 -6.653491 19.645745 -82.427565 -5.238330 19.645745 50.400703 11.369378 23.115397 -39.584286 3.254123 19.122720 44.966766 -3.988562 -23.115397 -8.852712 0.202380 2.128896
1315.732956 671.025095 142.165321 0.000000 0.000000 0.000000 0.000000 0.000000 0.000000 97.797337 1.935723 18.096541 -82.202663 -2.388274 18.096541 49.825934 2.511015 25.329838 -39.162923 0.709943 16.074804 36.475631 -2.409964 -25.329838 -8.191519 -0.959892 2.408768
1329.935532 653.525419 137.586003 0.000000 0.000000 0.000000 0.000000 0.000000 0.000000 96.469555 -6.615319 15.410265 -83.530445 -2.092871 15.410265 63.882053 3.772527 27.144812 -51.972064 2.951678 12.773379 58.624362 -3.793625 -27.144812 -8.239564 0.332398 2.679134
1316.170578 674.246514 147.218216 0.000000 0.000000 0.000000 0.000000 0.000000 0.000000 -87.946330 6.669030 11.755705 92.053670 0.320356 11.755705 -29.715798 -3.782846 28.531695 54.212796 -6.198010 9.270510 -40.560774 1.880820 -28.531695 11.008015 0.293081 2.938926
1317.367287 678.027205 138.384796 0.000000 0.000000 0.000000 0.000000 0.000000 0.000000 95.152942 -7.362256 7.362491 -84.847058 13.891899 7.362491 98.792835 0.267284 29.468618 -150.515547 -5.432492 5.621439 32.983753 5.308093 -29.468618 -14.701625 -0.530809 3.187120
1318.168488 670.157025 146.845394 0.000000 0.000000 0.000000 0.000000 0.000000 0.000000 -151.252255 20.178190 2.506665 28.747745 -56.187337 2.506665 138.896993 0.921357 29.940802 -151.946620 -6.446847 1.883716 38.784684 6.602173 -29.940802 -14.121532 -0.660217 3.422736
1323.412628 644.667885 164.562246 0.000000 0.000000 0.000000 0.000000 0.000000 0.000000 -97.904066 -19.193191 -2.506665 82.095934 -0.764215 -2.506665 155.695030 8.009510 29.940802 -152.500978 -6.126130 -1.883716 44.721081 6.322273 -29.940802 -13.527892 -0.632227 3.644843
1312.776718 630.059459 169.283171 0.000000 0.000000 0.000000 0.000000 0.000000 0.000000 -116.637972 7.769873 -7.362491 63.362028 -23.314824 -7.362491 171.094570 5.193126 29.468618 -152.894064 -6.846744 -5.621439 43.947863 8.133982 -29.468618 -13.605214 -0.813398 3.852566
1316.420746 625.237019 146.543077 0.000000 0.000000 0.000000 0.000000 0.000000 0.000000 -136.254273 -0.802202 -11.755705 43.745727 -1.882442 -11.755705 -177.663204 -0.416619 28.531695 -153.006287 -6.774275 -9.270510 42.784597 8.688513 -28.531695 -13.721540 -0.868851 4.045085
1314.719925 628.818026 166.510939 0.000000 0.000000 0.000000 0.000000 0.000000 0.000000 -114.737929 -9.975442 -15.410265 65.262071 2.554146 -15.410265 -169.764314 1.755618 27.144812 -153.369487 -6.379491 -12.773379 41.498347 8.712494 -27.144812 -13.850165 -0.871249 4.221640
1334.396782 646.165652 153.421736 0.000000 0.000000 0.000000 0.000000 0.000000 0.000000 -116.903454 0.767560 -18.096541 63.096546 2.702144 -18.096541 -154.594534 -3.637507 25.329838 -153.225015 -6.454002 -16.074804 37.136182 8.114922 -25.329838 -14.286382 -0.811492 4.381533
1340.823784 648.244128 161.071592 0.000000 0.000000 0.000000 0.000000 0.000000 0.000000 -116.932323 1.476720 -19.645745 63.067677 -0.818525 -19.645745 -138.898656 -6.326806 23.115397 35.335752 -2.042754 -19.122720 -153.336856 -0.806228 -23.115397 2.206211 0.017353 4.524135
1330.023880 654.599032 154.464971 0.000000 0.000000 0.000000 0.000000 0.000000 0.000000 -112.150704 -6.684259 -19.960535 67.849296 1.826165 -19.960535 -118.798313 0.787478 20.536413 -153.636372 -5.982510 -21.869059 16.691869 8.708703 -20.536413 -16.330813 -0.870870 4.648882
1337.431641 662.410698 136.763051 0.000000 0.000000 0.000000 0.000000 0.000000 0.000000 -109.111809 -3.327555 -19.021130 70.888191 2.722358 -19.021130 -91.144379 3.015853 17.633558 -154.448144 -5.813258 -24.270510 10.298202 7.009939 -17.633558 6.642051 -0.196009 4.755283
1324.339714 676.416593 123.505386 0.000000 0.000000 0.000000 0.000000 0.000000 0.000000 -104.120178 -1.194471 -16.886559 75.879822 3.603500 -16.886559 -57.095620 1.664460 14.452610 38.799650 0.629652 -26.289200 -71.942639 1.347822 -14.452610 8.831938 -0.147307 4.842916
962.890318 439.311049 137.509623 0.000000 0.000000 0.000000 0.000000 0.000000 0.000000 19.986963 0.457697 -13.690942 180.000000 2.983902 -13.690942 24.297229 -3.534699 11.043737 155.702771 -6.834515 -27.893295 14.983342 1.830404 -11.043737 18.000000 0.432649 4.911436
962.789911 439.279946 155.005859 0.000000 0.000000 0.000000 0.000000 0.000000 0.000000 20.089586 -8.991874 -9.635073 180.000000 9.592135 -9.635073 24.330184 -5.007135 7.460697 155.669816 7.786271 -29.057495 14.926290 7.042868 -7.460697 18.000000 -0.414388 4.960574
641.318550 641.336324 140.531178 0.000000 0.000000 0.000000 0.000000 0.000000 0.000000 163.642929 27.399308 -4.973798 -16.357071 -5.213959 -4.973798 -155.926011 -6.086601 3.759997 -130.644608 -9.365663 -29.763441 68.679337 11.163622 -3.759997 -11.132066 -1.116362 4.990134
1305.385551 662.289033 141.691125 0.000000 0.000000 0.000000 0.000000 0.000000 0.000000 -81.949824 -20.889727 -0.000000 98.050176 31.028238 -0.000000 9.536664 1.333364 0.000000 -153.586691 -5.051963 -30.000000 24.402531 4.352371 -0.000000 -15.559747 -0.435237 5.000000
962.486899 439.186814 136.008903 0.000000 0.000000 0.000000 0.000000 0.000000 0.000000 20.465882 -3.270677 4.973798 180.000000 -2.888440 4.973798 24.357206 6.729297 -3.759997 155.642794 -2.060529 -29.763441 14.800425 -0.649946 3.759997 18.000000 0.045332 4.990134
1216.314240 612.580640 123.046876 0.000000 0.000000 0.000000 0.000000 0.000000 0.000000 78.221991 2.498014 9.635073 -101.778009 -1.371699 9.635073 46.689014 1.895387 -7.460697 -61.937558 4.538365 -29.057495 44.546377 -3.769109 7.460697 -10.771750 0.140673 4.960574
1273.897820 573.707514 120.385808 0.000000 0.000000 0.000000 0.000000 0.000000 0.000000 77.469628 -13.387291 13.690942 -102.530372 3.108084 13.690942 -155.691164 -4.650860 -11.043737 -120.750172 4.346091 -27.893295 -156.229293 -5.405286 11.043737 2.162203 0.561358 4.911436
1337.358742 570.303276 119.622349 0.000000 0.000000 0.000000 0.000000 0.000000 0.000000 73.705918 -3.568693 16.886559 -106.294082 7.400873 16.886559 -155.918376 -6.238572 -14.452610 -149.887909 -4.632705 -26.289200 0.000000 0.000000 0.000000 0.000000 0.000000 0.000000
1342.446442 569.623497 106.250097 0.000000 0.000000 0.000000 0.000000 0.000000 0.000000 68.898287 1.017267 19.021130 -111.101713 -0.480821 19.021130 39.314088 -3.861364 -17.633558 -140.912764 -0.743014 -24.270510 -153.216026 -5.511906 17.633558 2.759242 0.815309 4.755283
1335.759430 584.665475 111.181200 0.000000 0.000000 0.000000 0.000000 0.000000 0.000000 66.989329 -7.351154 19.960535 -113.010671 1.098474 19.960535 -154.807077 -4.356606 -20.536413 -142.328055 4.337297 -21.869059 -153.049156 -6.279128 20.536413 2.866457 0.677873 4.648882
1337.950974 598.074245 98.629873 0.000000 0.000000 0.000000 0.000000 0.000000 0.000000 62.697633 7.029328 19.645745 -117.302367 -0.706648 19.645745 19.366736 -0.408051 -23.115397 -144.826223 -1.685407 -19.122720 9.911455 0.475056 23.115397 -17.004209 -0.151295 4.524135
1352.846489 601.043322 97.796918 0.000000 0.000000 0.000000 0.000000 0.000000 0.000000 59.083577 -1.173569 18.096541 -120.916423 -4.450023 18.096541 20.876734 -3.391370 -25.329838 -142.301690 0.013772 -16.074804 13.356960 -1.774468 25.329838 -16.821524 0.123715 4.381533
1347.310982 587.475100 98.764426 0.000000 0.000000 0.000000 0.000000 0.000000 0.000000 56.169135 -6.840471 15.410265 -123.830865 6.713930 15.410265 21.172503 -5.732187 -27.144812 -139.640745 3.314580 -12.773379 14.641496 -2.302196 27.144812 -16.282575 0.077269 4.221640
1326.982155 606.886139 86.653515 0.000000 0.000000 0.000000 0.000000 0.000000 0.000000 70.119981 -1.776292 11.755705 -109.880019 -7.965144 11.755705 26.511889 4.700051 -28.531695 -111.264667 0.362561 -9.270510 31.153840 -1.337319 28.531695 -13.943905 0.053789 4.045085
1354.391098 626.185555 83.802279 0.000000 0.000000 0.000000 0.000000 0.000000 0.000000 88.154395 -5.637816 7.362491 -91.845605 2.301767 7.362491 30.442275 0.606357 -29.468618 -76.284233 2.784719 -5.621439 43.854867 -0.441086 29.468618 -10.818190 0.264055 3.852566
1370.667114 610.219567 82.355776 0.000000 0.000000 0.000000 0.000000 0.000000 0.000000 89.945118 -3.579257 2.506665 -90.054882 4.839923 2.506665 44.053326 -0.483669 -29.940802 -56.238091 0.430638 -1.883716 55.411270 1.668334 29.940802 -7.805659 -0.247178 3.644843
1372.834854 597.828534 73.286362 0.000000 0.000000 0.000000 0.000000 0.000000 0.000000 93.407992 -0.710670 -2.506665 -86.592008 2.696051 -2.506665 54.165845 1.674923 -29.940802 -47.239220 -0.652560 1.883716 56.575186 1.541934 29.940802 -6.344474 0.696023 3.422736
1336.554337 597.454848 84.895986 0.000000 0.000000 0.000000 0.000000 0.000000 0.000000 95.622643 -0.679678 -7.362491 -84.377357 0.251145 -7.362491 56.597780 4.873154 -29.468618 -45.108662 4.020643 5.621439 55.386034 -6.326826 29.468618 -7.206870 -0.075376 3.187120
1310.567093 590.844769 72.008617 0.000000 0.000000 0.000000 0.000000 0.000000 0.000000 100.193768 -1.969562 -11.755705 -79.806232 7.666963 -11.755705 61.986347 -7.201586 -28.531695 -37.593815 2.142620 9.270510 62.907615 -5.705700 28.531695 -6.637230 0.481074 2.938926
1328.574371 576.493385 70.458055 0.000000 0.000000 0.000000 0.000000 0.000000 0.000000 101.943783 -9.363659 -15.410265 -78.056217 -1.078978 -15.410265 61.902838 0.259297 -27.144812 -33.889586 1.236001 12.773379 55.760387 -0.999788 27.144812 -7.097415 0.107931 2.679134
1316.178360 595.500870 68.979021 0.000000 0.000000 0.000000 0.000000 0.000000 0.000000 103.792097 -5.874122 -18.096541 -76.207903 0.187538 -18.096541 65.535198 2.053166 -25.329838 -28.739437 2.290928 16.074804 68.415337 -3.417615 25.329838 -6.481753 0.205379 2.408768
1302.343140 568.138025 60.373415 0.000000 0.000000 0.000000 0.000000 0.000000 0.000000 101.222717 -2.527251 -19.645745 -78.777283 -0.603555 -19.645745 90.757296 3.004517 -23.115397 -18.578033 -4.170067 19.122720 97.909038 -1.179808 23.115397 -5.050134 0.425523 2.128896
1274.166183 540.660596 48.145643 0.000000 0.000000 0.000000 0.000000 0.000000 0.000000 -126.898591 22.937005 -19.960535 53.101409 -22.922553 -19.960535 127.276662 4.295259 -20.536413 8.808645 -2.507429 21.869059 119.711272 -0.120598 20.536413 -4.115393 -0.086044 1.840623
1268.557091 468.331075 52.302352 0.000000 0.000000 0.000000 0.000000 0.000000 0.000000 -124.112133 -4.449915 -19.021130 55.887867 -6.916358 -19.021130 163.344780 6.147767 -17.633558 38.476068 1.824334 24.270510 145.889074 0.781543 17.633558 -1.929933 -0.053761 1.545085
1278.673096 454.375906 55.993597 0.000000 0.000000 0.000000 0.000000 0.000000 0.000000 -126.805061 -9.890840 -16.886559 53.194939 19.649482 -16.886559 -174.009950 -6.908441 -14.452610 27.419224 3.939600 26.289200 168.192977 -0.180727 14.452610 -0.976267 0.051679 1.243449
1285.008774 434.700390 50.827632 0.000000 0.000000 0.000000 0.000000 0.000000 0.000000 -132.005120 -7.463114 -13.690942 47.994880 1.576445 -13.690942 -171.247775 3.731313 -11.043737 26.625253 3.594444 27.893295 178.805957 -1.756099 11.043737 0.023422 0.109954 0.936907
1288.157730 426.987666 76.503916 0.000000 0.000000 0.000000 0.000000 0.000000 0.000000 -123.987926 -0.594717 -9.635073 56.012074 -8.377142 -9.635073 -166.356219 1.116662 -7.460697 35.716336 -0.263374 29.057495 -172.960762 -0.618601 7.460697 0.819533 0.127582 0.626666
1291.221657 420.425448 54.039020 0.000000 0.000000 0.000000 0.000000 0.000000 0.000000 -122.265643 0.683022 -4.973798 57.734357 7.411315 -4.973798 -156.870161 -1.621228 -3.759997 38.220704 2.407974 29.763441 -165.716368 -1.518883 3.759997 1.405814 0.079541 0.313953
