HIERARCHY
ROOT Hips
{
    OFFSET 0.0 0.0 0.0
    CHANNELS 6 Xposition Yposition Zposition Zrotation Xrotation Yrotation
    JOINT Spine
    {
        OFFSET 0.0 5.0 0.0
        CHANNELS 3 Zrotation Xrotation Yrotation
        JOINT Chest
        {
            OFFSET 0.0 5.0 0.0
            CHANNELS 3 Zrotation Xrotation Yrotation
            JOINT Neck
            {
                OFFSET 0.0 8.0 0.0
                CHANNELS 3 Zrotation Xrotation Yrotation
                JOINT Head
                {
                    OFFSET 0.0 5.0 0.0
                    CHANNELS 3 Zrotation Xrotation Yrotation
                    End Site
                    {
                        OFFSET 0.0 3.0 0.0
                    }
                }
            }
            JOINT LeftShoulder
            {
                OFFSET -5.0 0.0 0.0
                CHANNELS 3 Zrotation Xrotation Yrotation
                JOINT LeftArm
                {
                    OFFSET 0.0 -10.0 0.0
                    CHANNELS 3 Zrotation Xrotation Yrotation
                    JOINT LeftForeArm
                    {
                        OFFSET 0.0 -10.0 0.0
                        CHANNELS 3 Zrotation Xrotation Yrotation
                        End Site
                        {
                            OFFSET 0.0 -3.0 0.0
                        }
                    }
                }
            }
        }
    }
}

MOTION
Frames: 300
Frame Time: 0.033333

960.000000 445.000000 95.102324 0.000000 0.000000 0.000000 0.000000 0.000000 0.000000 23.025492 23.497470 0.000000 180.000000 -19.046122 0.000000 21.801409 4.754131 -0.000000 158.198591 -5.963788 30.000000 15.945396 1.609878 0.000000 18.000000 0.035800 0.000000
1691.525230 140.756605 105.730484 0.000000 0.000000 0.000000 0.000000 0.000000 0.000000 -163.376529 2.992811 4.973798 16.623471 -6.236715 4.973798 -171.853121 -3.143709 3.759997 99.744051 -12.879240 29.763441 -171.126653 -3.483933 -3.759997 0.673538 0.420050 0.313953
1636.048050 128.802021 109.482608 0.000000 0.000000 0.000000 0.000000 0.000000 0.000000 157.904128 24.951619 9.635073 -22.095872 8.143699 9.635073 -171.936471 -4.494137 7.460697 -143.675701 -12.106826 29.057495 -173.500805 -3.743266 -7.460697 0.570999 0.457868 0.626666
1578.156967 80.474526 113.210237 0.000000 0.000000 0.000000 0.000000 0.000000 0.000000 -139.519796 10.247486 13.690942 40.480204 1.691719 13.690942 -174.507724 -3.748248 11.043737 119.111399 2.627528 27.893295 -173.607258 -4.044760 -11.043737 0.461920 0.462136 0.936907
960.418757 444.998421 129.528635 0.000000 0.000000 0.000000 0.000000 0.000000 0.000000 25.077893 -29.914961 16.886559 180.000000 -1.181028 16.886559 23.861935 14.040905 14.452610 156.138065 -3.074047 26.289200 17.903699 6.056305 -14.452610 18.000000 -0.526787 1.243449
960.523360 444.997533 123.725084 0.000000 0.000000 0.000000 0.000000 0.000000 0.000000 25.638906 -2.850214 19.021130 180.000000 5.129414 19.021130 24.425035 -15.856767 17.633558 155.574965 -10.063940 24.270510 18.452907 2.415579 -17.633558 18.000000 0.375664 1.545085
960.627905 444.996447 121.993895 0.000000 0.000000 0.000000 0.000000 0.000000 0.000000 26.219073 36.416457 19.960535 180.000000 -13.411010 19.960535 25.006291 9.914194 20.536413 154.993709 -14.181974 21.869059 19.024920 4.276394 -20.536413 18.000000 0.206758 1.840623
1126.242828 420.359820 135.549665 0.000000 0.000000 0.000000 0.000000 0.000000 0.000000 31.410514 0.720511 19.645745 -148.589486 2.000871 19.645745 32.280463 -0.425254 23.115397 -131.603972 2.108988 19.122720 45.585331 -2.128083 -23.115397 -13.449727 0.290005 2.128896
1257.895088 650.549197 148.191484 0.000000 0.000000 0.000000 0.000000 0.000000 0.000000 25.073180 -0.850350 18.096541 -154.926820 -1.677152 18.096541 46.260945 3.426926 25.329838 -154.651428 -5.477349 16.074804 27.339487 4.920014 -25.329838 -13.619892 1.663498 2.408768
960.941083 444.992008 130.081671 0.000000 0.000000 0.000000 0.000000 0.000000 0.000000 28.072001 17.400366 15.410265 180.000000 1.370983 15.410265 26.849221 -12.646118 27.144812 153.150779 12.231829 12.773379 20.864045 -2.722380 -27.144812 18.000000 -0.627870 2.679134
1163.815842 547.748709 158.873824 0.000000 0.000000 0.000000 0.000000 0.000000 0.000000 117.162728 10.122211 11.755705 -62.837272 -2.599256 11.755705 102.363764 3.876005 28.531695 -47.376450 1.341586 9.270510 104.768601 -2.719799 -28.531695 -6.003489 0.004341 2.938926
961.149372 444.988063 125.929840 0.000000 0.000000 0.000000 0.000000 0.000000 0.000000 29.395983 14.046746 7.362491 180.000000 -3.287750 7.362491 28.146217 1.031807 29.468618 151.853783 11.092817 5.621439 22.170006 -5.961727 -29.468618 18.000000 0.122883 3.187120
1136.717377 590.104480 146.088427 0.000000 0.000000 0.000000 0.000000 0.000000 0.000000 115.752126 0.080775 2.506665 -64.247874 -5.683176 2.506665 73.638146 9.513117 29.940802 -21.842452 0.545006 1.883716 75.369282 -2.403562 -29.940802 -6.767207 0.183111 3.422736
1163.079758 634.077559 162.251506 0.000000 0.000000 0.000000 0.000000 0.000000 0.000000 132.174340 -4.438225 -2.506665 -47.825660 -2.155390 -2.506665 94.255711 4.411459 29.940802 -149.364979 -7.214445 -1.883716 30.021641 6.008337 -29.940802 -5.096180 -0.952656 3.644843
961.460830 444.980668 166.117799 0.000000 0.000000 0.000000 0.000000 0.000000 0.000000 31.497152 9.582455 -7.362491 180.000000 -18.716494 -7.362491 30.152455 11.926253 29.468618 149.847545 0.989429 -5.621439 24.175589 -4.626698 -29.468618 18.000000 0.002900 3.852566
1097.449951 565.089898 154.468259 0.000000 0.000000 0.000000 0.000000 0.000000 0.000000 -119.219568 -0.106149 -11.755705 60.780432 -5.235284 -11.755705 -150.180642 -6.577741 28.531695 48.804955 -3.472743 -9.270510 -149.874178 -5.922958 -28.531695 2.713854 0.583440 4.045085
1114.140244 528.302071 147.633712 0.000000 0.000000 0.000000 0.000000 0.000000 0.000000 -142.671523 -6.386871 -15.410265 37.328477 -1.170762 -15.410265 -177.395681 0.111209 27.144812 34.687329 0.634246 -12.773379 161.894167 0.862834 -27.144812 -0.910956 0.037584 4.221640
1116.433640 479.728639 156.289622 0.000000 0.000000 0.000000 0.000000 0.000000 0.000000 -102.267481 9.222004 -18.096541 77.732519 -7.879949 -18.096541 -163.695626 8.449535 25.329838 38.575767 1.789738 -16.074804 -176.001122 -1.210540 -25.329838 0.706594 -0.155846 4.381533
1135.931282 466.493965 155.049990 0.000000 0.000000 0.000000 0.000000 0.000000 0.000000 -112.868406 11.840147 -19.645745 67.131594 -9.704435 -19.645745 -159.517862 3.723634 23.115397 36.204678 -3.754926 -19.122720 -154.426613 -5.786259 -23.115397 2.428729 0.578051 4.524135
1141.618767 467.420679 147.934992 0.000000 0.000000 0.000000 0.000000 0.000000 0.000000 -123.086385 1.317663 -19.960535 56.913615 -6.836772 -19.960535 -154.885724 -0.453459 20.536413 36.481623 0.606127 -21.869059 -153.965441 -6.532497 -20.536413 2.446728 0.511518 4.648882
1150.647926 469.370956 142.779298 0.000000 0.000000 0.000000 0.000000 0.000000 0.000000 -43.953779 20.496684 -19.021130 136.046221 -18.452466 -19.021130 -154.327268 -7.384440 17.633558 60.745168 -7.291682 -24.270510 -153.350642 -6.874252 -17.633558 2.386216 0.654291 4.755283
1151.529922 496.420240 137.547116 0.000000 0.000000 0.000000 0.000000 0.000000 0.000000 -116.362129 0.656477 -16.886559 63.637871 -11.418853 -16.886559 -149.081043 0.864881 14.452610 35.941860 -1.695073 -26.289200 -156.847177 0.544081 -14.452610 2.056513 0.066810 4.842916
1148.402367 515.713574 123.455283 0.000000 0.000000 0.000000 0.000000 0.000000 0.000000 -118.252650 -0.169573 -13.690942 61.747350 -2.748077 -13.690942 -138.082896 1.527005 11.043737 -156.312677 -7.425581 -27.893295 21.649626 9.140975 -11.043737 2.962417 0.137214 4.911436
1175.363617 533.368646 136.291330 0.000000 0.000000 0.000000 0.000000 0.000000 0.000000 -95.476638 4.933612 -9.635073 84.523362 4.060131 -9.635073 -113.907461 -3.085508 7.460697 -155.995907 -6.957751 -29.057495 12.512064 8.599344 -7.460697 -16.748794 -0.859934 4.960574
1199.533310 485.991104 122.837285 0.000000 0.000000 0.000000 0.000000 0.000000 0.000000 -100.003195 -4.282934 -4.973798 79.996805 -7.119283 -4.973798 -86.083188 5.797809 3.759997 38.843754 -1.088765 -29.763441 -106.539452 0.029677 -3.759997 6.197806 0.058396 4.990134
962.588190 444.938442 132.781607 0.000000 0.000000 0.000000 0.000000 0.000000 0.000000 39.579754 -31.035730 -0.000000 180.000000 8.760053 -0.000000 36.680773 5.390665 0.000000 143.319227 13.492925 -30.000000 29.388385 -6.968377 -0.000000 18.000000 -0.571722 5.000000
1142.094727 445.716287 117.036237 0.000000 0.000000 0.000000 0.000000 0.000000 0.000000 -140.228454 -6.291883 4.973798 39.771546 12.987322 4.973798 -156.118008 -6.239907 -3.759997 3.479189 -3.232418 -29.763441 -158.005660 -5.384095 3.759997 2.150019 0.631904 4.990134
1164.005928 424.847746 117.628327 0.000000 0.000000 0.000000 0.000000 0.000000 0.000000 -84.241076 47.847525 9.635073 95.758924 -47.300613 9.635073 -156.181584 -5.760277 -7.460697 166.928360 -14.198042 -29.057495 -154.947270 -6.391261 7.460697 2.644196 0.635762 4.960574
1124.208755 418.286655 134.787962 0.000000 0.000000 0.000000 0.000000 0.000000 0.000000 -117.427077 19.272636 13.690942 62.572923 27.096540 13.690942 -155.943063 -6.380970 -11.043737 14.023837 -1.176918 -27.893295 -157.382674 -5.377548 11.043737 2.188130 0.529226 4.911436
962.990408 444.917226 114.358977 0.000000 0.000000 0.000000 0.000000 0.000000 0.000000 42.110883 39.692511 16.886559 180.000000 4.576344 16.886559 37.946959 -8.030920 -14.452610 142.053041 21.552997 -26.289200 29.293612 -16.154859 14.452610 18.000000 -0.813240 4.842916
963.090170 444.911436 99.525341 0.000000 0.000000 0.000000 0.000000 0.000000 0.000000 42.659200 -51.870423 19.021130 180.000000 4.639960 19.021130 38.119107 11.278157 -17.633558 141.880893 -14.155781 -24.270510 29.068887 11.273009 17.633558 18.000000 0.774594 4.755283
1186.646461 396.272757 96.987470 0.000000 0.000000 0.000000 0.000000 0.000000 0.000000 -72.847419 -24.994373 19.960535 107.152581 12.969815 19.960535 -156.703603 -4.634439 -20.536413 178.447294 16.004121 -21.869059 -157.212393 -5.612920 20.536413 1.964058 0.459232 4.648882
1313.051605 426.636125 100.325553 0.000000 0.000000 0.000000 0.000000 0.000000 0.000000 90.994869 -5.897038 19.645745 -89.005131 18.561991 19.645745 -160.515303 -4.433790 -23.115397 -153.248861 2.289505 -19.122720 -159.640525 -4.633025 23.115397 0.000000 0.000000 0.000000
1347.999344 420.772226 83.075513 0.000000 0.000000 0.000000 0.000000 0.000000 0.000000 90.154351 19.492422 18.096541 -89.845649 -18.747188 18.096541 -162.053401 -3.355767 -25.329838 -136.198880 -4.914765 -16.074804 -160.991694 -4.942231 25.329838 0.000000 0.000000 0.000000
1344.315948 421.031681 92.544869 0.000000 0.000000 0.000000 0.000000 0.000000 0.000000 69.757587 1.817064 15.410265 -110.242413 11.639653 15.410265 25.616746 -4.160946 -27.144812 -157.821005 -3.319914 -12.773379 17.214985 2.905638 27.144812 -16.704706 0.132042 4.221640
1350.307617 440.309436 83.170009 0.000000 0.000000 0.000000 0.000000 0.000000 0.000000 71.124018 -2.508394 11.755705 -108.875982 -9.462237 11.755705 42.739987 2.826368 -28.531695 -142.315466 1.998368 -9.270510 16.600926 -0.271475 28.531695 -16.660102 -0.074173 4.045085
1357.685051 430.688889 84.396416 0.000000 0.000000 0.000000 0.000000 0.000000 0.000000 77.656077 -0.411462 7.362491 -102.343923 11.810289 7.362491 39.407151 -10.065064 -29.468618 -136.343173 1.395784 -5.621439 22.144452 1.235496 29.468618 -16.305135 -0.080147 3.852566
1369.482193 445.909406 89.083673 0.000000 0.000000 0.000000 0.000000 0.000000 0.000000 88.051188 -0.180104 2.506665 -91.948812 -12.426269 2.506665 -161.283973 -2.609159 -29.940802 -119.799169 0.434057 -1.883716 -164.575400 -3.710990 29.940802 1.401013 0.290108 3.644843
963.875156 444.858159 78.296541 0.000000 0.000000 0.000000 0.000000 0.000000 0.000000 45.304844 -33.592795 -2.506665 180.000000 33.914768 -2.506665 37.252439 3.200931 -29.940802 142.747561 20.273308 1.883716 25.146244 17.992872 29.940802 18.000000 -0.661092 3.422736
963.971479 444.850633 49.799838 0.000000 0.000000 0.000000 0.000000 0.000000 0.000000 45.383640 -29.691095 -7.362491 180.000000 8.772089 -7.362491 36.882310 1.605784 -29.468618 143.117690 1.059098 5.621439 24.499789 1.185596 29.468618 18.000000 -0.301052 3.187120
1336.629524 469.010178 54.459080 0.000000 0.000000 0.000000 0.000000 0.000000 0.000000 -72.390177 13.598799 -11.755705 107.609823 -12.558169 -11.755705 -158.649984 -2.423559 -28.531695 2.583425 7.108860 9.270510 -39.658551 -10.733845 28.531695 10.837181 0.487304 2.938926
1311.966934 518.219100 62.893802 0.000000 0.000000 0.000000 0.000000 0.000000 0.000000 -63.565072 53.927371 -15.410265 116.434928 -39.250524 -15.410265 -14.840750 -1.647214 -27.144812 -158.549348 -3.294513 12.773379 17.488774 2.504365 27.144812 7.174982 1.968631 2.679134
964.257793 444.826908 49.223202 0.000000 0.000000 0.000000 0.000000 0.000000 0.000000 45.262206 -37.294375 -18.096541 180.000000 16.712115 -18.096541 35.497192 -14.354207 -25.329838 144.502808 13.812945 16.074804 22.522929 -15.284146 25.329838 18.000000 1.223575 2.408768
1275.921364 516.836239 45.272869 0.000000 0.000000 0.000000 0.000000 0.000000 0.000000 85.186295 4.995252 -19.645745 -94.813705 -5.588846 -19.645745 52.470689 -2.609630 -23.115397 -44.513683 -5.537840 19.122720 50.867598 -1.071073 23.115397 -8.717188 0.264857 2.128896
1263.254128 546.875424 46.049768 0.000000 0.000000 0.000000 0.000000 0.000000 0.000000 34.848242 -1.249746 -19.960535 -145.151758 -4.705064 -19.960535 42.487561 28.522094 -20.536413 -157.415675 -2.056066 21.869059 22.420880 2.638099 20.536413 -15.757912 -0.263810 1.840623
1258.788185 528.263061 48.973315 0.000000 0.000000 0.000000 0.000000 0.000000 0.000000 118.326865 -1.807749 -19.021130 -61.673135 11.270355 -19.021130 143.214759 -0.025354 -17.633558 -156.228306 -2.032437 24.270510 28.173554 3.377636 17.633558 -15.182645 -0.337764 1.545085
1231.492081 471.383836 53.697123 0.000000 0.000000 0.000000 0.000000 0.000000 0.000000 -115.049381 -10.816704 -16.886559 64.950619 -22.886786 -16.886559 172.843704 1.822340 -14.452610 -157.842300 -2.563847 26.289200 32.851042 2.302467 14.452610 -14.714896 -0.230247 1.243449
1223.928795 435.993515 47.963813 0.000000 0.000000 0.000000 0.000000 0.000000 0.000000 -115.322532 20.148238 -13.690942 64.677468 -14.470334 -13.690942 -168.597862 0.952558 -11.043737 -158.853816 -3.232961 27.893295 31.099266 3.005153 11.043737 -14.890073 -0.300515 0.936907
1223.669701 418.195664 55.353550 0.000000 0.000000 0.000000 0.000000 0.000000 0.000000 -102.084053 -5.074896 -9.635073 77.915947 -7.250945 -9.635073 -171.103858 1.728066 -7.460697 162.056334 -3.978998 29.057495 -153.594437 -2.748835 7.460697 2.968481 0.269205 0.626666
1216.486244 414.503002 46.270744 0.000000 0.000000 0.000000 0.000000 0.000000 0.000000 69.261091 8.076198 -4.973798 -110.738909 -25.139051 -4.973798 -158.083722 -2.154936 -3.759997 -173.244581 -1.687403 29.763441 -154.635509 -2.748362 3.759997 2.928763 0.261127 0.313953
1212.090225 434.550980 70.609822 0.000000 0.000000 0.000000 0.000000 0.000000 0.000000 -112.403932 -2.463205 0.000000 67.596068 18.774738 0.000000 -157.060799 -3.231783 -0.000000 173.400765 -2.031730 30.000000 -154.473580 -2.811521 0.000000 2.734633 0.240551 0.000000
1214.024734 450.340490 62.798051 0.000000 0.000000 0.000000 0.000000 0.000000 0.000000 -110.634751 8.225296 4.973798 69.365249 -1.204179 4.973798 -137.583343 2.409469 3.759997 -158.589698 -2.912982 29.763441 20.879446 3.699720 -3.759997 -15.912055 -0.369972 0.313953
1204.271393 440.192921 67.092204 0.000000 0.000000 0.000000 0.000000 0.000000 0.000000 -99.498286 4.089415 9.635073 80.501714 -15.667838 9.635073 -156.696469 -2.291675 7.460697 -178.487725 5.607144 29.057495 -157.318323 -3.313519 -7.460697 2.108583 0.315577 0.626666
965.269558 444.725315 55.508569 0.000000 0.000000 0.000000 0.000000 0.000000 0.000000 40.845461 -18.702271 13.690942 180.000000 14.968992 13.690942 28.615377 2.266405 11.043737 151.384623 17.989853 27.893295 16.305092 -4.844603 -11.043737 18.000000 -0.259301 0.936907
1182.456551 475.103824 51.110106 0.000000 0.000000 0.000000 0.000000 0.000000 0.000000 -168.146016 -54.424183 16.886559 11.853984 24.285846 16.886559 -63.802645 -5.523918 14.452610 -61.114510 -3.502858 26.289200 -47.869281 1.114516 -14.452610 -13.834956 4.409966 1.243449
965.446390 444.704404 56.568327 0.000000 0.000000 0.000000 0.000000 0.000000 0.000000 39.578146 -32.315058 19.021130 180.000000 8.125647 19.021130 27.338029 2.764965 17.633558 152.661971 2.692185 24.270510 15.463180 -2.532069 -17.633558 18.000000 -0.325107 1.545085
965.533915 444.693669 58.561861 0.000000 0.000000 0.000000 0.000000 0.000000 0.000000 38.916706 -19.742183 19.960535 180.000000 15.196561 19.960535 26.716768 -7.878642 20.536413 153.283232 -5.678601 21.869059 15.076605 3.260412 -20.536413 18.000000 0.395858 1.840623
965.620834 444.682749 70.979426 0.000000 0.000000 0.000000 0.000000 0.000000 0.000000 38.241653 -16.526391 19.645745 180.000000 0.040931 19.645745 26.109467 -11.072883 23.115397 153.890533 1.980452 19.122720 14.712258 -1.573347 -23.115397 18.000000 -0.259371 2.128896
965.707136 444.671645 86.595814 0.000000 0.000000 0.000000 0.000000 0.000000 0.000000 37.556504 9.265770 18.096541 180.000000 15.548543 18.096541 25.517536 -12.039409 25.329838 154.482464 0.525819 16.074804 14.369537 -3.714826 -25.329838 18.000000 0.241507 2.408768
965.792812 444.660356 82.097399 0.000000 0.000000 0.000000 0.000000 0.000000 0.000000 36.864608 -22.840738 15.410265 180.000000 16.679873 15.410265 24.942131 -0.496271 27.144812 155.057869 12.429519 12.773379 14.047797 -9.646347 -27.144812 18.000000 0.725873 2.679134
965.877853 444.648882 80.707978 0.000000 0.000000 0.000000 0.000000 0.000000 0.000000 36.169118 -10.963099 11.755705 180.000000 2.714570 11.755705 24.384173 7.693187 28.531695 155.615827 6.806096 9.270510 13.746367 -1.192404 -28.531695 18.000000 0.128927 2.938926
965.962249 444.637226 86.133037 0.000000 0.000000 0.000000 0.000000 0.000000 0.000000 35.472980 -24.186283 7.362491 180.000000 2.009593 7.362491 23.844373 -11.906448 29.468618 156.155627 13.477836 5.621439 13.464570 -4.233312 -29.468618 18.000000 0.002844 3.187120
966.045991 444.625386 102.413305 0.000000 0.000000 0.000000 0.000000 0.000000 0.000000 34.778913 13.160834 2.506665 180.000000 3.523288 2.506665 23.323250 6.067012 29.940802 156.676750 10.754317 1.883716 13.201728 -4.250938 -29.940802 18.000000 0.431476 3.422736
966.129071 444.613364 125.707570 0.000000 0.000000 0.000000 0.000000 0.000000 0.000000 34.089406 -34.811470 -2.506665 180.000000 17.811334 -2.506665 22.821158 -0.556738 29.940802 157.178842 -1.518360 -1.883716 12.957175 6.464834 -29.940802 18.000000 0.107552 3.644843
966.211478 444.601159 111.444415 0.000000 0.000000 0.000000 0.000000 0.000000 0.000000 33.406712 13.846115 -7.362491 180.000000 -9.433249 -7.362491 22.338307 7.374987 29.468618 157.661693 0.070020 -5.621439 12.730264 -3.579838 -29.468618 18.000000 0.285348 3.852566
1171.486244 534.946783 107.412889 0.000000 0.000000 0.000000 0.000000 0.000000 0.000000 70.594720 -3.207904 -11.755705 -109.405280 0.937422 -11.755705 49.953444 11.121118 28.531695 -151.467583 -4.533748 -9.270510 0.000000 0.000000 0.000000 0.000000 0.000000 0.000000
966.374240 444.576206 122.999436 0.000000 0.000000 0.000000 0.000000 0.000000 0.000000 32.069603 20.649761 -15.410265 180.000000 4.975583 -15.410265 21.430544 -2.563781 27.144812 158.569456 -2.025869 -12.773379 12.326901 -2.321886 -27.144812 18.000000 0.264991 4.221640
1172.156410 555.047708 131.047786 0.000000 0.000000 0.000000 0.000000 0.000000 0.000000 -121.065102 -13.273363 -18.096541 58.934898 28.379314 -18.096541 -151.641456 -5.989825 25.329838 -177.360623 10.184562 -16.074804 -149.076048 -7.324031 -25.329838 0.000000 0.000000 0.000000
1161.826630 552.360713 127.889949 0.000000 0.000000 0.000000 0.000000 0.000000 0.000000 69.958407 -25.241359 -19.645745 -110.041593 39.324654 -19.645745 -152.437496 -6.376565 23.115397 -158.790607 -0.498366 -19.122720 -150.591725 -6.472061 -23.115397 3.219062 0.851019 4.524135
1165.827255 569.832902 120.257267 0.000000 0.000000 0.000000 0.000000 0.000000 0.000000 25.594208 -38.956227 -19.960535 -154.405792 12.102000 -19.960535 11.723883 10.331827 20.536413 -161.543160 3.104497 -21.869059 7.769582 2.032700 -20.536413 -17.248199 -0.181176 4.648882
1165.555573 565.067046 135.298171 0.000000 0.000000 0.000000 0.000000 0.000000 0.000000 43.355707 10.756924 -19.021130 -136.644293 -9.948831 -19.021130 15.984329 9.964246 17.633558 -140.773833 -1.991942 -24.270510 13.679449 2.019654 -17.633558 -16.392157 -0.278072 4.755283
1290.255775 608.533316 148.852871 0.000000 0.000000 0.000000 0.000000 0.000000 0.000000 -153.952071 0.428449 -16.886559 26.047929 13.315852 -16.886559 -152.683807 -5.824532 14.452610 4.794196 8.905778 -26.289200 -154.287190 -5.807977 -14.452610 2.418080 0.500944 4.842916
1180.398903 551.817470 149.792096 0.000000 0.000000 0.000000 0.000000 0.000000 0.000000 51.640104 10.439284 -13.690942 -128.359896 -13.422933 -13.690942 14.419400 -5.835733 11.043737 -33.521359 -37.048360 -27.893295 -34.277510 -0.265156 -11.043737 5.235387 0.270937 4.911436
1162.708626 619.419501 134.975622 0.000000 0.000000 0.000000 0.000000 0.000000 0.000000 -88.968325 15.936010 -9.635073 91.031675 -7.023235 -9.635073 -52.690088 2.101382 7.460697 25.015222 -6.032795 -29.057495 -72.561734 4.801504 -7.460697 8.557489 0.145680 4.960574
1110.899391 602.919216 145.120488 0.000000 0.000000 0.000000 0.000000 0.000000 0.000000 -86.972237 -9.877434 -4.973798 93.027763 13.734379 -4.973798 -39.551144 -1.866735 3.759997 34.838085 -0.375110 -29.763441 -44.185810 2.992862 -3.759997 10.000609 0.528198 4.990134
1150.187302 553.686991 139.012617 0.000000 0.000000 0.000000 0.000000 0.000000 0.000000 -116.065142 -8.859766 -0.000000 63.934858 -16.433984 -0.000000 -151.059314 -6.038080 0.000000 -0.492058 -1.590173 -30.000000 -14.044098 -4.877691 -0.000000 1.929760 0.831655 5.000000
967.144727 444.440682 151.627795 0.000000 0.000000 0.000000 0.000000 0.000000 0.000000 26.270296 25.794427 4.973798 180.000000 -4.065733 4.973798 17.996647 -5.873335 -3.759997 162.003353 -0.816337 -29.763441 11.189167 -3.033835 3.759997 18.000000 -0.121267 4.990134
1213.452644 620.002785 140.172790 0.000000 0.000000 0.000000 0.000000 0.000000 0.000000 140.390379 21.486844 9.635073 -39.609621 -39.316635 9.635073 77.724607 23.061706 -7.460697 -153.982965 -6.643107 -29.057495 24.142749 5.990223 7.460697 -0.833727 0.182717 4.960574
1124.373779 618.464527 140.172015 0.000000 0.000000 0.000000 0.000000 0.000000 0.000000 99.329635 -23.365364 13.690942 -80.670365 25.635380 13.690942 85.960927 -4.023016 -11.043737 -150.875293 -6.847399 -27.893295 31.644098 5.731552 11.043737 -14.835590 -0.573155 4.911436
967.360971 444.396582 164.979408 0.000000 0.000000 0.000000 0.000000 0.000000 0.000000 24.874716 6.866778 16.886559 180.000000 -5.509174 16.886559 17.291102 -5.269407 -14.452610 162.708898 -5.319615 -26.289200 11.098846 -1.419133 14.452610 18.000000 0.550991 4.842916
1107.875175 542.453964 124.274085 0.000000 0.000000 0.000000 0.000000 0.000000 0.000000 -128.741314 -6.891007 19.021130 51.258686 -3.434072 19.021130 -177.225595 -4.906235 -17.633558 19.954750 -6.768101 -24.270510 162.677362 5.638547 17.633558 -1.443098 -0.136827 4.755283
1119.652290 522.766346 157.106967 0.000000 0.000000 0.000000 0.000000 0.000000 0.000000 -99.017754 2.428431 19.960535 80.982246 3.060193 19.960535 -150.289603 -6.989363 -20.536413 -152.613833 -7.051851 -21.869059 0.000000 0.000000 0.000000 0.000000 0.000000 0.000000
1132.908783 538.229613 146.207782 0.000000 0.000000 0.000000 0.000000 0.000000 0.000000 -127.874185 -6.092482 19.645745 52.125815 0.886156 19.645745 -165.450188 3.568522 -23.115397 -152.521515 -6.924279 -19.122720 40.606225 8.193262 23.115397 -13.939378 -0.819326 4.524135
1146.969337 541.828065 134.814720 0.000000 0.000000 0.000000 0.000000 0.000000 0.000000 -113.631604 5.215563 18.096541 66.368396 -8.876283 18.096541 -159.067475 2.272856 -25.329838 113.981862 -7.401849 -16.074804 -145.449815 -6.521171 25.329838 0.000000 0.000000 0.000000
1165.252304 561.329677 140.941151 0.000000 0.000000 0.000000 0.000000 0.000000 0.000000 -112.861399 9.538030 15.410265 67.138601 -8.709424 15.410265 -159.396543 2.264106 -27.144812 -151.967552 -7.159091 -12.773379 38.422588 10.148017 27.144812 -14.157741 -1.014802 4.221640
1174.726181 592.839689 117.634999 0.000000 0.000000 0.000000 0.000000 0.000000 0.000000 -110.369899 -2.909014 11.755705 69.630101 -3.237441 11.755705 -148.108768 6.112827 -28.531695 -151.515612 -6.521258 -9.270510 34.277732 9.387960 28.531695 -14.572227 -0.938796 4.045085
1167.352524 605.194867 148.027173 0.000000 0.000000 0.000000 0.000000 0.000000 0.000000 -113.828445 -3.584158 7.362491 66.171555 -6.349066 7.362491 -131.688453 7.118188 -29.468618 -151.045756 -6.723945 -5.621439 27.200835 8.983527 29.468618 -15.279916 -0.898353 3.852566
1139.678879 602.981014 131.219304 0.000000 0.000000 0.000000 0.000000 0.000000 0.000000 -97.599684 0.517640 2.506665 82.400316 -35.779395 2.506665 -113.965806 1.855593 -29.940802 -121.058781 -7.262719 -1.883716 -118.492407 10.464813 29.940802 10.137620 -2.296042 3.644843
1165.830002 580.020189 124.682347 0.000000 0.000000 0.000000 0.000000 0.000000 0.000000 -28.085052 26.376202 -2.506665 151.914948 -47.295777 -2.506665 -150.589103 -4.963163 -29.940802 -172.678414 -3.362803 1.883716 -149.717924 -6.429653 29.940802 0.000000 0.000000 0.000000
1184.501953 619.872494 122.195591 0.000000 0.000000 0.000000 0.000000 0.000000 0.000000 -113.790307 -23.610011 -7.362491 66.209693 10.518438 -7.362491 -59.272274 0.948314 -29.468618 29.476823 1.223277 5.621439 -88.148483 2.116339 29.468618 7.414604 -0.138107 3.187120
968.090170 444.221640 122.704337 0.000000 0.000000 0.000000 0.000000 0.000000 0.000000 21.092887 8.748242 -11.755705 180.000000 -0.359085 -11.755705 15.757771 -0.350026 -28.531695 164.242229 1.714005 9.270510 11.678908 -4.889818 28.531695 18.000000 0.227826 2.938926
968.151278 444.204723 116.597521 0.000000 0.000000 0.000000 0.000000 0.000000 0.000000 20.844337 13.541969 -15.410265 180.000000 -11.103850 -15.410265 15.691895 5.239348 -27.144812 164.308105 -13.013741 12.773379 11.804629 10.362532 27.144812 18.000000 0.055735 2.679134
968.211492 444.187640 117.820565 0.000000 0.000000 0.000000 0.000000 0.000000 0.000000 20.610265 2.945230 -18.096541 180.000000 4.342602 -18.096541 15.637361 2.645292 -25.329838 164.362639 2.485625 16.074804 11.943263 -8.218252 25.329838 18.000000 -0.070065 2.408768
968.270806 444.170392 102.679261 0.000000 0.000000 0.000000 0.000000 0.000000 0.000000 20.390366 3.765711 -19.645745 180.000000 -2.908696 -19.645745 15.594026 2.748953 -23.115397 164.405974 -4.442568 19.122720 12.095062 3.414817 23.115397 18.000000 -0.178146 2.128896
968.329212 444.152979 94.991528 0.000000 0.000000 0.000000 0.000000 0.000000 0.000000 20.184343 -1.420848 -19.960535 180.000000 2.388139 -19.960535 15.561766 -4.758806 -20.536413 164.438234 -5.806040 21.869059 12.260289 6.163551 20.536413 18.000000 0.076460 1.840623
968.386706 444.135403 88.976509 0.000000 0.000000 0.000000 0.000000 0.000000 0.000000 19.991916 -13.567286 -19.021130 180.000000 4.392079 -19.021130 15.540476 -8.071439 -17.633558 164.459524 -1.460751 24.270510 12.439222 4.363461 17.633558 18.000000 -0.117481 1.545085
968.443279 444.117663 98.038932 0.000000 0.000000 0.000000 0.000000 0.000000 0.000000 19.812814 2.612230 -16.886559 180.000000 8.706653 -16.886559 15.530069 2.091013 -14.452610 164.469931 1.036989 26.289200 12.632146 -4.440644 14.452610 18.000000 1.173701 1.243449
968.498927 444.099761 83.013181 0.000000 0.000000 0.000000 0.000000 0.000000 0.000000 19.646785 20.198623 -13.690942 180.000000 -9.927029 -13.690942 15.530474 2.504281 -11.043737 164.469526 -8.462822 27.893295 12.839349 -0.911620 11.043737 18.000000 0.019087 0.936907
968.553643 444.081696 83.448694 0.000000 0.000000 0.000000 0.000000 0.000000 0.000000 19.493591 11.416067 -9.635073 180.000000 -2.852664 -9.635073 15.541640 -2.758343 -7.460697 164.458360 3.425962 29.057495 13.061119 2.627915 7.460697 18.000000 -0.820776 0.626666
1051.772690 653.004448 63.979359 0.000000 0.000000 0.000000 0.000000 0.000000 0.000000 -79.007834 13.371066 -4.973798 100.992166 1.331520 -4.973798 -126.715299 -2.387502 -3.759997 -149.991181 -4.450914 29.763441 31.772279 5.243246 3.759997 -14.822772 -0.524325 0.313953
1061.669197 624.716241 59.892412 0.000000 0.000000 0.000000 0.000000 0.000000 0.000000 -94.718359 -13.856283 0.000000 85.281641 -18.558359 0.000000 -144.150484 8.830839 -0.000000 60.155085 1.225717 30.000000 -152.711462 0.975335 0.000000 1.815393 -0.142608 0.000000
1072.053337 571.032879 81.680884 0.000000 0.000000 0.000000 0.000000 0.000000 0.000000 71.424080 -2.028528 4.973798 -108.575920 -3.063416 4.973798 -149.042361 -3.227967 3.759997 -149.913636 3.642328 29.763441 -145.792107 -4.976972 -3.759997 3.947623 0.402247 0.313953
1070.057373 572.884376 63.761785 0.000000 0.000000 0.000000 0.000000 0.000000 0.000000 -80.850201 40.703977 9.635073 99.149799 -6.748472 9.635073 -147.567525 -4.072905 7.460697 -164.443014 -7.081895 29.057495 -145.447997 -3.625894 -7.460697 4.032371 0.432548 0.626666
968.813035 443.988972 57.048038 0.000000 0.000000 0.000000 0.000000 0.000000 0.000000 18.912944 26.270338 13.690942 180.000000 -5.613539 13.690942 15.758200 6.753328 11.043737 164.241800 1.952557 27.893295 14.397395 -4.072240 -11.043737 18.000000 0.152124 0.936907
968.862036 443.969952 58.950988 0.000000 0.000000 0.000000 0.000000 0.000000 0.000000 18.832684 11.494033 16.886559 180.000000 2.981995 16.886559 15.833735 -0.281673 14.452610 164.166265 -3.691748 26.289200 14.711463 1.534205 -14.452610 18.000000 0.261413 1.243449
968.910065 443.950775 56.327385 0.000000 0.000000 0.000000 0.000000 0.000000 0.000000 18.764066 0.847180 19.021130 180.000000 7.158148 19.021130 15.920102 0.356508 17.633558 164.079898 2.816812 24.270510 15.041323 -3.986988 -17.633558 18.000000 0.212204 1.545085
968.957118 443.931442 54.722450 0.000000 0.000000 0.000000 0.000000 0.000000 0.000000 18.706990 18.773347 19.960535 180.000000 3.516645 19.960535 16.017366 -7.694768 20.536413 163.982634 4.318558 21.869059 15.386894 -3.937296 -20.536413 18.000000 -0.531110 1.840623
969.003188 443.911954 38.829776 0.000000 0.000000 0.000000 0.000000 0.000000 0.000000 18.661377 6.472411 19.645745 180.000000 -2.382537 19.645745 16.125602 -3.808853 23.115397 163.874398 2.311464 19.122720 15.747980 -6.134514 -23.115397 18.000000 0.413234 2.128896
969.048271 443.892312 52.115571 0.000000 0.000000 0.000000 0.000000 0.000000 0.000000 18.627165 18.175394 18.096541 180.000000 -2.624854 18.096541 16.244896 5.285793 25.329838 163.755104 -1.145234 16.074804 16.124252 7.388526 -25.329838 18.000000 -0.693655 2.408768
969.092361 443.872515 66.214192 0.000000 0.000000 0.000000 0.000000 0.000000 0.000000 18.604312 14.904698 15.410265 180.000000 -1.616436 15.410265 16.375340 -6.840115 27.144812 163.624660 -5.036337 12.773379 16.515224 1.360063 -27.144812 18.000000 -0.947225 2.679134
1055.186234 577.357593 46.296380 0.000000 0.000000 0.000000 0.000000 0.000000 0.000000 85.510211 10.417450 11.755705 -94.489789 -13.555275 11.755705 37.103410 6.309706 28.531695 -148.111343 -2.736636 9.270510 24.294182 2.168473 -28.531695 -8.601915 0.653364 2.938926
1122.856522 566.714029 46.358464 0.000000 0.000000 0.000000 0.000000 0.000000 0.000000 96.216240 -7.698511 7.362491 -83.783760 6.227249 7.362491 46.189625 -1.406631 29.468618 -149.396962 -1.792784 5.621439 24.670091 2.311492 -29.468618 -7.107716 -1.720738 3.187120
969.218632 443.812213 39.866208 0.000000 0.000000 0.000000 0.000000 0.000000 0.000000 18.603763 -29.629446 2.506665 180.000000 16.588329 2.506665 16.834613 -2.145960 29.940802 163.165387 6.032997 1.883716 17.768624 9.771089 -29.940802 18.000000 -0.693374 3.422736
1112.757797 605.798106 63.602319 0.000000 0.000000 0.000000 0.000000 0.000000 0.000000 110.914625 10.693036 -2.506665 -69.085375 -2.000707 -2.506665 67.769469 5.146910 29.940802 -149.822316 -2.557882 -1.883716 29.049901 1.903512 -29.940802 -3.625079 0.104348 3.644843
1086.733246 592.557156 64.719223 0.000000 0.000000 0.000000 0.000000 0.000000 0.000000 -80.132323 -57.446459 -7.362491 99.867677 20.711410 -7.362491 36.201564 2.002948 29.468618 -13.679556 5.569103 -5.621439 78.049842 -4.911131 -29.468618 -5.127460 -0.155971 3.852566
1081.109390 570.394492 71.773730 0.000000 0.000000 0.000000 0.000000 0.000000 0.000000 -175.864613 -3.448943 -11.755705 4.135387 -2.939467 -11.755705 134.713876 -6.026717 28.531695 -10.005873 -1.712011 -9.270510 135.737755 5.202524 -28.531695 -3.389365 -0.188859 4.045085
1089.776802 536.594539 62.919928 0.000000 0.000000 0.000000 0.000000 0.000000 0.000000 -139.033903 9.863214 -15.410265 40.966097 -5.136172 -15.410265 161.695972 -1.969037 27.144812 3.114398 -2.323889 -12.773379 148.805610 0.952315 -27.144812 -2.611636 0.036449 4.221640
1114.282036 523.965647 70.474115 0.000000 0.000000 0.000000 0.000000 0.000000 0.000000 -156.073983 -15.747517 -18.096541 23.926017 11.150079 -18.096541 174.825807 -0.080340 25.329838 5.093343 2.188214 -16.074804 161.266817 -0.527936 -25.329838 -1.814366 0.172011 4.381533
1122.145157 503.425248 67.136550 0.000000 0.000000 0.000000 0.000000 0.000000 0.000000 -144.538174 0.553822 -19.645745 35.461826 -11.586944 -19.645745 174.215003 2.324561 23.115397 -151.750905 -3.629868 -19.122720 43.887064 3.559097 -23.115397 -13.611294 -0.355910 4.524135
1134.158249 484.688419 92.241355 0.000000 0.000000 0.000000 0.000000 0.000000 0.000000 -142.311443 6.709306 -19.960535 37.688557 1.001104 -19.960535 -174.407776 -1.325173 20.536413 14.121014 -0.830048 -21.869059 176.737053 0.306597 -20.536413 -0.386439 -0.133782 4.648882
1156.756668 500.025387 91.646252 0.000000 0.000000 0.000000 0.000000 0.000000 0.000000 -140.140767 -1.812610 -19.021130 39.859233 4.411701 -19.021130 -176.866589 2.024693 17.633558 -153.177991 -3.453289 -24.270510 40.555680 3.852072 -17.633558 -13.944432 -0.385207 4.755283
1163.818588 490.292573 80.732983 0.000000 0.000000 0.000000 0.000000 0.000000 0.000000 -126.918075 2.749999 -16.886559 53.081925 -15.959199 -16.886559 -163.374411 2.818591 14.452610 -153.952175 -4.497311 -26.289200 36.914642 5.296698 -14.452610 0.798233 -0.021053 4.842916
1176.523705 490.346003 89.536463 0.000000 0.000000 0.000000 0.000000 0.000000 0.000000 -130.072590 -4.823513 -13.690942 49.927410 -5.049288 -13.690942 -150.224616 1.048240 11.043737 24.749952 -0.859389 -27.893295 -162.219632 1.729987 -11.043737 1.550269 -0.016649 4.911436
1165.045052 489.521159 88.950974 0.000000 0.000000 0.000000 0.000000 0.000000 0.000000 -134.421293 -14.490096 -9.635073 45.578707 6.936560 -9.635073 -138.114962 -4.087280 7.460697 20.347125 -5.209040 -29.057495 -149.675125 2.776664 -7.460697 1.919618 -0.079799 4.960574
1186.003189 485.341580 100.446310 0.000000 0.000000 0.000000 0.000000 0.000000 0.000000 151.263424 61.526915 -4.973798 -28.736576 26.991787 -4.973798 -155.571724 -4.353792 3.759997 -114.944239 -11.472252 -29.763441 -157.446860 -3.858663 -3.759997 2.096391 0.369709 4.990134
1190.285912 497.609435 96.022267 0.000000 0.000000 0.000000 0.000000 0.000000 0.000000 -104.331435 -8.245535 -0.000000 75.668565 -19.795422 -0.000000 -153.934692 -4.142465 0.000000 -67.465008 0.491914 -30.000000 -71.629168 -1.812874 -0.000000 -13.965204 -7.623347 5.000000
846.875610 502.341399 88.475553 0.000000 0.000000 0.000000 0.000000 0.000000 0.000000 -153.358185 0.552066 4.973798 26.641815 -1.151721 4.973798 -147.628169 -5.507725 -3.759997 -147.401289 -5.768844 -29.763441 0.000000 0.000000 0.000000 0.000000 0.000000 0.000000
969.711343 443.490827 97.124116 0.000000 0.000000 0.000000 0.000000 0.000000 0.000000 20.204512 3.227288 9.635073 180.000000 -8.560283 9.635073 20.733157 12.034189 -7.460697 159.266843 -2.354052 -29.057495 24.065833 -0.479866 7.460697 18.000000 -0.505714 4.960574
969.735789 443.468267 98.078028 0.000000 0.000000 0.000000 0.000000 0.000000 0.000000 20.415894 -5.172818 13.690942 180.000000 1.346197 13.690942 21.087741 -1.988340 -11.043737 158.912259 5.389488 -27.893295 24.320336 -0.357166 11.043737 18.000000 -1.235367 4.911436
969.759168 443.445569 116.400814 0.000000 0.000000 0.000000 0.000000 0.000000 0.000000 20.642061 3.920001 16.886559 180.000000 0.735692 16.886559 21.453029 0.796868 -14.452610 158.546971 2.509617 -26.289200 24.533304 3.487142 14.452610 18.000000 -0.141907 4.842916
585.252171 514.469179 118.348709 0.000000 0.000000 0.000000 0.000000 0.000000 0.000000 74.723181 -55.024608 19.021130 -105.276819 70.423402 19.021130 119.807175 -10.182449 -17.633558 165.825978 24.171393 -24.270510 138.012220 -12.691827 17.633558 -12.357653 1.688026 4.755283
624.843979 517.601860 133.244367 0.000000 0.000000 0.000000 0.000000 0.000000 0.000000 103.202449 -17.531689 19.960535 -76.797551 -10.527017 19.960535 114.381580 -7.226874 -20.536413 -53.015473 65.765649 -21.869059 145.467160 -2.852863 20.536413 -4.173333 0.266018 4.648882
969.822873 443.376664 138.051454 0.000000 0.000000 0.000000 0.000000 0.000000 0.000000 21.413420 14.774955 19.645745 180.000000 -5.585911 19.645745 22.607712 4.623534 -23.115397 157.392288 -2.363075 -19.122720 24.899813 -8.637151 23.115397 18.000000 0.245065 4.524135
969.841956 443.353428 130.258283 0.000000 0.000000 0.000000 0.000000 0.000000 0.000000 21.702987 3.753761 18.096541 180.000000 1.651285 18.096541 23.009909 -12.827382 -25.329838 156.990091 5.479731 -16.074804 24.926562 1.998721 25.329838 18.000000 -0.870845 4.381533
969.859960 443.330059 105.909717 0.000000 0.000000 0.000000 0.000000 0.000000 0.000000 22.009579 0.606232 15.410265 180.000000 6.158638 15.410265 23.419334 -7.682278 -27.144812 156.580666 -6.970625 -12.773379 24.904993 19.764950 27.144812 18.000000 0.327612 4.221640
594.905148 538.048757 145.298410 0.000000 0.000000 0.000000 0.000000 0.000000 0.000000 -57.080480 -14.380635 11.755705 122.919520 35.803830 11.755705 -12.750556 -5.383338 -28.531695 149.841027 4.267144 -9.270510 -8.274090 -0.643446 28.531695 17.596979 0.505277 4.045085
969.892723 443.282929 151.306295 0.000000 0.000000 0.000000 0.000000 0.000000 0.000000 22.675903 32.047652 7.362491 180.000000 0.228497 7.362491 24.255612 -2.897115 -29.468618 155.744388 -0.706132 -5.621439 24.720303 2.910728 29.468618 18.000000 -0.636605 3.852566
1257.001877 499.708382 128.182109 0.000000 0.000000 0.000000 0.000000 0.000000 0.000000 52.818511 1.931977 2.506665 -127.181489 -7.142744 2.506665 25.369497 3.213554 -29.940802 -143.914951 0.416991 -1.883716 14.556766 -2.180754 29.940802 -16.686776 0.089321 3.644843
1279.050064 493.773898 160.399351 0.000000 0.000000 0.000000 0.000000 0.000000 0.000000 56.685213 2.099884 -2.506665 -123.314787 2.018554 -2.506665 24.065452 0.670606 -29.940802 -146.540317 0.555020 1.883716 13.097461 0.648453 29.940802 -16.716891 0.007175 3.422736
1295.108986 477.099677 165.541119 0.000000 0.000000 0.000000 0.000000 0.000000 0.000000 65.723361 0.856675 -7.362491 -114.276639 6.416096 -7.362491 23.725299 -4.602014 -29.468618 -147.984281 2.146505 5.621439 13.187557 -0.258716 29.468618 -16.751134 -0.033335 3.187120
1289.065018 496.763316 148.852198 0.000000 0.000000 0.000000 0.000000 0.000000 0.000000 61.662232 -6.696289 -11.755705 -118.337768 2.909895 -11.755705 31.397757 -1.674017 -28.531695 -148.047797 0.123886 9.270510 12.491083 1.699912 28.531695 -16.898368 0.047004 2.938926
1285.337105 480.691112 144.804934 0.000000 0.000000 0.000000 0.000000 0.000000 0.000000 58.021980 3.284833 -15.410265 -121.978020 -5.725967 -15.410265 31.705930 0.232316 -27.144812 -157.028684 -1.474411 12.773379 11.107306 0.606680 27.144812 -17.140016 -0.072792 2.679134
1276.453171 465.093691 139.675958 0.000000 0.000000 0.000000 0.000000 0.000000 0.000000 70.157145 -2.084084 -18.096541 -109.842855 1.369496 -18.096541 40.303764 4.480972 -25.329838 -145.293609 1.434184 16.074804 10.431204 -1.572496 25.329838 -17.100572 0.217840 2.408768
1253.658714 472.768564 138.245815 0.000000 0.000000 0.000000 0.000000 0.000000 0.000000 65.087926 31.719391 -19.645745 -114.912074 -30.346595 -19.645745 -157.680356 -7.092257 -23.115397 -137.727082 -8.027776 19.122720 -153.053596 -3.784748 23.115397 -16.054219 -0.808267 2.128896
1366.101608 507.691247 141.764437 0.000000 0.000000 0.000000 0.000000 0.000000 0.000000 108.715100 37.114768 -19.960535 -71.284900 -49.805102 -19.960535 156.661132 15.847342 -20.536413 -158.224303 -6.983475 21.869059 0.000000 0.000000 0.000000 0.000000 0.000000 0.000000
969.986295 443.064535 132.165776 0.000000 0.000000 0.000000 0.000000 0.000000 0.000000 26.662144 15.369052 -19.021130 180.000000 3.651690 -19.021130 28.015351 3.587724 -17.633558 151.984649 -0.651100 24.270510 22.068935 13.865244 17.633558 18.000000 -0.778589 1.545085
1282.107124 481.511257 141.144029 0.000000 0.000000 0.000000 0.000000 0.000000 0.000000 80.650781 -14.095541 -16.886559 -99.349219 20.755792 -16.886559 1.511604 -0.841958 -14.452610 -32.896908 1.353338 26.289200 -7.727072 1.894199 14.452610 13.531851 0.897638 1.243449
1282.921486 484.777769 148.690663 0.000000 0.000000 0.000000 0.000000 0.000000 0.000000 -81.737646 10.170196 -13.690942 98.262354 23.254566 -13.690942 -23.867101 -0.340747 -11.043737 12.655668 -3.807658 27.893295 -29.454911 3.465609 11.043737 9.861248 0.518535 0.936907
1290.933037 513.180238 134.313135 0.000000 0.000000 0.000000 0.000000 0.000000 0.000000 -91.387864 4.208524 -9.635073 88.612136 -16.600214 -9.635073 -41.685392 4.360059 -7.460697 -161.156957 -6.780431 29.057495 15.157863 5.202032 7.460697 10.543436 -1.106200 0.626666
969.999452 442.964284 148.828983 0.000000 0.000000 0.000000 0.000000 0.000000 0.000000 29.025427 1.319247 -4.973798 180.000000 -7.646120 -4.973798 29.437993 10.668424 -3.759997 150.562007 6.049322 29.763441 20.404746 -2.310015 3.759997 18.000000 -0.453377 0.313953
970.000000 442.938926 137.207292 0.000000 0.000000 0.000000 0.000000 0.000000 0.000000 29.678605 21.092499 0.000000 180.000000 8.006873 0.000000 29.744881 4.485585 -0.000000 150.255119 -1.669682 30.000000 19.983107 3.080242 0.000000 18.000000 0.768623 0.000000
1354.522934 467.411410 124.094433 0.000000 0.000000 0.000000 0.000000 0.000000 0.000000 150.622570 -0.949316 4.973798 -29.377430 -2.915830 4.973798 140.176400 -1.470604 3.759997 -12.221629 -3.697863 29.763441 132.794256 -0.302263 -3.759997 -2.626015 0.073088 0.313953
969.997807 442.887864 117.238179 0.000000 0.000000 0.000000 0.000000 0.000000 0.000000 31.061399 15.763835 9.635073 180.000000 -5.884879 9.635073 30.285790 2.879278 7.460697 149.714210 -11.584941 29.057495 19.151579 -0.306629 -7.460697 18.000000 1.132308 0.626666
1246.736984 514.278152 114.590549 0.000000 0.000000 0.000000 0.000000 0.000000 0.000000 143.557092 -29.276706 13.690942 -36.442908 20.545978 13.690942 133.761037 -6.140574 11.043737 -156.950665 -4.507394 27.893295 0.000000 0.000000 0.000000 1.928484 0.407041 0.936907
1245.221100 458.637464 110.574164 0.000000 0.000000 0.000000 0.000000 0.000000 0.000000 160.701064 3.441354 16.886559 -19.298936 -7.578488 16.886559 140.193827 4.797238 14.452610 -157.554825 -5.565636 26.289200 29.500467 5.030317 -14.452610 -15.049953 -0.503032 1.243449
1257.365570 418.514181 113.980780 0.000000 0.000000 0.000000 0.000000 0.000000 0.000000 -143.710676 -9.246264 19.021130 36.289324 13.228693 19.021130 163.220413 -4.812807 17.633558 11.688054 6.474637 24.270510 152.038385 -2.376272 -17.633558 -2.339948 0.076051 1.545085
1275.099564 408.163741 112.135015 0.000000 0.000000 0.000000 0.000000 0.000000 0.000000 -132.929531 8.449662 19.960535 47.070469 -7.487604 19.960535 173.491912 5.524868 20.536413 -160.709681 -4.998846 21.869059 33.138793 6.406449 -20.536413 -14.686121 -0.640645 1.840623
1290.611115 384.880857 83.565638 0.000000 0.000000 0.000000 0.000000 0.000000 0.000000 -132.705235 0.724890 19.645745 47.294765 3.865048 19.645745 -173.778854 2.315778 23.115397 20.496835 2.412704 19.122720 -161.220290 -4.222437 -23.115397 1.723235 0.377844 2.128896
1302.817154 380.305352 94.774074 0.000000 0.000000 0.000000 0.000000 0.000000 0.000000 -131.493915 6.267665 18.096541 48.506085 3.562085 18.096541 -165.393697 -4.900310 25.329838 23.154815 -2.486088 16.074804 -178.200316 0.356687 -25.329838 0.138141 -0.017018 2.408768
1304.997711 379.563582 79.433967 0.000000 0.000000 0.000000 0.000000 0.000000 0.000000 -126.727972 10.353439 15.410265 53.272028 -11.795196 15.410265 -160.219593 0.750734 27.144812 28.448880 -4.106255 12.773379 -174.368770 -0.578470 -27.144812 0.079526 -0.211731 2.679134
1311.668472 386.890390 71.544606 0.000000 0.000000 0.000000 0.000000 0.000000 0.000000 -122.308728 -0.108117 11.755705 57.691272 10.651256 11.755705 -158.801130 -10.908789 28.531695 150.942637 -1.379480 9.270510 -154.878332 -4.336451 -28.531695 2.695409 0.516149 2.938926
1305.131836 395.180186 86.503100 0.000000 0.000000 0.000000 0.000000 0.000000 0.000000 -125.112810 11.616236 7.362491 54.887190 -16.660096 7.362491 -146.487292 2.650534 29.468618 -175.167369 0.204650 5.621439 -159.224034 -4.615999 -29.468618 1.782042 0.477533 3.187120
1296.320457 392.734526 78.150853 0.000000 0.000000 0.000000 0.000000 0.000000 0.000000 -131.035750 17.736930 2.506665 48.964250 -22.771826 2.506665 -128.969563 3.496784 29.940802 38.856147 -14.367827 1.883716 -134.776850 2.737555 -29.940802 3.458429 -0.101334 3.422736
1306.963577 386.612041 73.317798 0.000000 0.000000 0.000000 0.000000 0.000000 0.000000 -124.469622 4.583377 -2.506665 55.530378 -3.926059 -2.506665 -109.994856 1.344945 29.940802 37.691309 -2.577121 -1.883716 -118.274788 1.178554 -29.940802 5.098336 0.007966 3.644843
969.892723 442.572198 71.758652 0.000000 0.000000 0.000000 0.000000 0.000000 0.000000 41.287575 -39.828832 -7.362491 180.000000 -8.308671 -7.362491 30.974696 26.340568 29.468618 149.025304 18.704244 -5.621439 15.072869 -1.183122 -29.468618 18.000000 -0.768957 3.852566
969.876883 442.545207 60.540690 0.000000 0.000000 0.000000 0.000000 0.000000 0.000000 42.241956 1.684000 -11.755705 180.000000 -9.490345 -11.755705 30.826133 12.341701 28.531695 149.173867 -18.596912 -9.270510 14.823070 8.875756 -28.531695 18.000000 -0.051022 4.045085
969.859960 442.518116 62.732655 0.000000 0.000000 0.000000 0.000000 0.000000 0.000000 43.199779 39.214028 -15.410265 180.000000 -11.711116 -15.410265 30.649504 -6.765173 27.144812 149.350496 -13.499741 -12.773379 14.587557 -2.379689 -27.144812 18.000000 0.807569 4.221640
969.841956 442.490926 50.161555 0.000000 0.000000 0.000000 0.000000 0.000000 0.000000 44.157210 35.941780 -18.096541 180.000000 -18.488073 -18.096541 30.446417 4.096244 25.329838 149.553583 -9.454190 -16.074804 14.366154 -2.966723 -25.329838 18.000000 0.059812 4.381533
969.822873 442.463637 48.845418 0.000000 0.000000 0.000000 0.000000 0.000000 0.000000 45.110117 34.569130 -19.645745 180.000000 -6.382123 -19.645745 30.218633 10.027158 23.115397 149.781367 -3.517054 -19.122720 14.158653 -1.972489 -23.115397 18.000000 0.276660 4.524135
969.802712 442.436251 62.916594 0.000000 0.000000 0.000000 0.000000 0.000000 0.000000 46.054109 -13.786962 -19.960535 180.000000 19.943971 -19.960535 29.968037 6.627190 20.536413 150.031963 21.497691 -21.869059 13.964823 -4.146424 -20.536413 18.000000 -0.247335 4.648882
1187.040939 541.658249 46.083007 0.000000 0.000000 0.000000 0.000000 0.000000 0.000000 82.806623 3.477178 -19.021130 -97.193377 -0.776906 -19.021130 45.395981 0.887717 17.633558 -156.144455 -2.600485 -24.270510 0.000000 0.000000 0.000000 0.000000 0.000000 0.000000
1182.242889 522.024286 39.571339 0.000000 0.000000 0.000000 0.000000 0.000000 0.000000 -105.721938 22.676866 -16.886559 74.278062 -33.628577 -16.886559 -155.708006 -1.285958 14.452610 -157.302521 -2.698265 -26.289200 0.000000 0.000000 0.000000 2.684983 0.248616 4.842916
1180.914459 527.065626 36.557594 0.000000 0.000000 0.000000 0.000000 0.000000 0.000000 88.055617 -8.520458 -13.690942 -91.944383 6.918073 -13.690942 -158.862018 -2.409612 11.043737 -151.747289 -1.328997 -27.893295 0.000000 0.000000 0.000000 0.000000 0.000000 0.000000
1236.800194 541.387432 33.515022 0.000000 0.000000 0.000000 0.000000 0.000000 0.000000 -85.588400 2.481342 -9.635073 94.411600 22.482543 -9.635073 -159.297106 -19.017459 7.460697 -157.915391 -2.435640 -29.057495 26.607362 2.222626 -7.460697 14.926890 0.350145 4.960574
1161.066513 575.006626 59.348713 0.000000 0.000000 0.000000 0.000000 0.000000 0.000000 -81.021168 1.264024 -4.973798 98.978832 -1.256306 -4.973798 -102.851701 -1.462696 3.759997 -157.041007 -2.170339 -29.763441 21.429890 2.237239 -3.759997 10.859432 -0.275881 4.990134
1255.636253 512.645942 35.681134 0.000000 0.000000 0.000000 0.000000 0.000000 0.000000 77.832564 0.478385 -0.000000 -102.167436 5.005851 -0.000000 -158.264834 -2.514790 0.000000 -130.745502 -2.288955 -30.000000 -157.699225 -1.577366 -0.000000 0.000000 0.000000 0.000000
1265.118484 521.473864 58.461539 0.000000 0.000000 0.000000 0.000000 0.000000 0.000000 64.078276 4.135193 4.973798 -115.921724 -0.588365 4.973798 41.397952 -1.770624 -3.759997 -139.329851 -1.761125 -29.763441 20.223252 -0.303868 3.759997 -16.047574 0.103297 4.990134
1228.099480 522.138258 56.909244 0.000000 0.000000 0.000000 0.000000 0.000000 0.000000 71.050901 -1.456120 9.635073 -108.949099 5.346685 9.635073 150.099970 -6.475487 -7.460697 -139.894702 -0.610893 -29.057495 -156.275691 -2.484054 7.460697 0.000000 0.000000 0.000000
1240.357246 528.695873 56.135019 0.000000 0.000000 0.000000 0.000000 0.000000 0.000000 65.413351 11.154506 13.690942 -114.586649 6.507897 13.690942 147.242328 -17.145286 -11.043737 -154.470720 -2.890367 -27.893295 25.557225 2.655852 11.043737 -15.444278 -0.265585 4.911436
1231.815262 551.380248 51.401120 0.000000 0.000000 0.000000 0.000000 0.000000 0.000000 56.412506 -3.116208 16.886559 -123.587494 4.684089 16.886559 -153.392336 -8.640731 -14.452610 -154.784582 -2.922872 -26.289200 24.191555 3.831096 14.452610 -15.580844 -0.383110 4.842916
1221.475182 508.360147 67.453619 0.000000 0.000000 0.000000 0.000000 0.000000 0.000000 77.450622 7.901886 19.021130 -102.549378 -0.430951 19.021130 -156.789784 -3.098857 -17.633558 -125.590168 -2.314447 -24.270510 -160.017240 -3.056416 17.633558 1.833434 0.432433 4.755283
969.477684 442.100429 60.816218 0.000000 0.000000 0.000000 0.000000 0.000000 0.000000 54.932575 17.179873 19.960535 180.000000 -29.883961 19.960535 25.919122 14.344279 -20.536413 154.080878 -7.763839 -21.869059 12.612867 -2.225750 20.536413 18.000000 0.279524 4.648882
1480.140495 518.878891 78.073871 0.000000 0.000000 0.000000 0.000000 0.000000 0.000000 -110.621767 -82.526118 19.645745 69.378233 -87.188831 19.645745 -158.235933 -1.885432 -23.115397 166.031448 6.176923 -19.122720 -155.186432 -3.166000 23.115397 2.641553 0.243119 4.524135
1271.640472 556.840560 64.814021 0.000000 0.000000 0.000000 0.000000 0.000000 0.000000 -94.404719 9.004329 18.096541 85.595281 -13.709472 18.096541 -62.417786 0.128319 -25.329838 23.992813 -5.296082 -16.074804 -76.856107 -2.407575 25.329838 7.708835 0.048787 4.381533
1258.556786 530.268441 94.039308 0.000000 0.000000 0.000000 0.000000 0.000000 0.000000 78.355945 4.335386 15.410265 -101.644055 2.979346 15.410265 35.068294 0.955917 -27.144812 -54.090640 3.483747 -12.773379 35.848220 4.815392 27.144812 -8.104639 -0.114223 4.221640
1250.800209 527.150567 92.796815 0.000000 0.000000 0.000000 0.000000 0.000000 0.000000 72.417769 -4.261398 11.755705 -107.582231 -0.264073 11.755705 24.571109 3.342768 -28.531695 -39.196117 -3.988543 -9.270510 10.411117 1.709400 28.531695 -9.048616 0.571515 4.045085
1243.466148 571.776259 88.656711 0.000000 0.000000 0.000000 0.000000 0.000000 0.000000 86.301473 2.476107 7.362491 -93.698527 2.391012 7.362491 24.553534 0.221574 -29.468618 -153.460385 -3.838257 -5.621439 19.510484 3.152029 29.468618 -10.109500 2.784637 3.852566
1261.883812 566.052918 93.580086 0.000000 0.000000 0.000000 0.000000 0.000000 0.000000 94.015209 9.047054 2.506665 -85.984791 0.054631 2.506665 38.959993 1.473954 -29.940802 -154.008305 -3.884211 -1.883716 20.870951 3.199494 29.940802 -10.872440 0.748031 3.644843
1284.436798 527.190542 97.733038 0.000000 0.000000 0.000000 0.000000 0.000000 0.000000 111.186365 -12.808708 -2.506665 -68.813635 4.584968 -2.506665 58.506163 -11.797414 -29.940802 -19.138727 -4.909144 1.883716 51.457372 -1.956989 29.940802 -5.203198 -0.038572 3.422736
1272.860069 533.494012 111.011567 0.000000 0.000000 0.000000 0.000000 0.000000 0.000000 72.301471 4.552057 -7.362491 -107.698529 4.120122 -7.362491 78.802573 1.327234 -29.468618 -154.772375 -4.889114 5.621439 26.927455 4.365506 29.468618 -15.307255 -0.436551 3.187120
1255.264664 498.243735 107.170411 0.000000 0.000000 0.000000 0.000000 0.000000 0.000000 164.596971 -70.063871 -11.755705 -15.403029 70.503000 -11.755705 125.849126 -6.279286 -28.531695 -156.067666 -4.071208 9.270510 33.087561 4.257991 28.531695 -14.691244 -0.425799 2.938926
1259.202232 470.407684 119.288820 0.000000 0.000000 0.000000 0.000000 0.000000 0.000000 -139.980397 -7.840722 -15.410265 40.019603 -4.568129 -15.410265 165.887722 4.868041 -27.144812 -157.901492 -4.910369 12.773379 35.196094 5.922502 27.144812 -14.480391 -0.592250 2.679134
1236.502075 429.951335 107.710552 0.000000 0.000000 0.000000 0.000000 0.000000 0.000000 -113.295066 -9.765376 -18.096541 66.704934 2.771981 -18.096541 -174.664169 1.450793 -25.329838 -159.007335 -5.430398 16.074804 32.868990 6.797467 25.329838 -14.713101 -0.679747 2.408768
1253.359451 413.942538 123.833787 0.000000 0.000000 0.000000 0.000000 0.000000 0.000000 -123.348580 -6.290242 -19.645745 56.651420 10.407030 -19.645745 -167.815074 -7.404399 -23.115397 -159.603180 -4.936787 19.122720 32.791747 6.477103 23.115397 -14.720825 -0.647710 2.128896
1281.206589 405.664523 126.703475 0.000000 0.000000 0.000000 0.000000 0.000000 0.000000 -124.414271 2.108919 -19.960535 55.585729 -4.477675 -19.960535 -161.281803 -1.834419 -20.536413 28.568449 -2.432104 21.869059 -159.052798 -4.502656 20.536413 1.849141 0.365518 1.840623
1300.238571 418.760215 140.153241 0.000000 0.000000 0.000000 0.000000 0.000000 0.000000 -126.263092 0.712832 -19.021130 53.736908 -1.886888 -19.021130 -159.739358 -0.310089 -17.633558 31.487961 -5.829170 24.270510 -170.323915 2.515423 17.633558 0.671815 -0.047527 1.545085
1321.889191 413.634385 121.986182 0.000000 0.000000 0.000000 0.000000 0.000000 0.000000 -133.874471 -8.224624 -16.886559 46.125529 -5.094612 -16.886559 -159.376251 -0.828826 -14.452610 30.696824 1.623450 26.289200 -164.929556 -0.371691 14.452610 1.089735 0.023824 1.243449
1336.221428 432.881820 131.334002 0.000000 0.000000 0.000000 0.000000 0.000000 0.000000 -115.020798 0.634203 -13.690942 64.979202 -0.759525 -13.690942 -135.609544 0.413373 -11.043737 -161.321630 -6.496179 27.893295 17.353502 8.101054 11.043737 -16.264650 -0.810105 0.936907
1329.124603 416.860342 144.679489 0.000000 0.000000 0.000000 0.000000 0.000000 0.000000 -134.023347 2.470432 -9.635073 45.976653 -8.647128 -9.635073 -128.030830 -0.627938 -7.460697 28.249885 -1.493920 29.057495 -136.447985 -0.592705 7.460697 4.038834 -0.173411 0.626666
1343.366776 427.060794 142.282938 0.000000 0.000000 0.000000 0.000000 0.000000 0.000000 -130.153347 -3.080145 -4.973798 49.846653 -0.043807 -4.973798 -103.564435 2.478633 -3.759997 27.398095 1.783421 29.763441 -115.461530 -0.533300 3.759997 5.470063 0.044935 0.313953
1376.991005 465.829636 145.777321 0.000000 0.000000 0.000000 0.000000 0.000000 0.000000 -120.272352 0.868789 0.000000 59.727648 -5.361344 0.000000 -62.204131 7.202233 -0.000000 27.740602 -0.977267 30.000000 -80.461527 -0.980654 0.000000 7.450891 0.098456 0.000000
1384.978867 468.790376 164.400637 0.000000 0.000000 0.000000 0.000000 0.000000 0.000000 -93.720384 -33.425463 4.973798 86.279616 28.224996 4.973798 3.847814 -0.051144 3.759997 -160.438787 -6.099172 29.763441 15.990976 4.934676 -3.759997 7.894783 0.270653 0.313953
1345.894547 516.257268 142.616787 0.000000 0.000000 0.000000 0.000000 0.000000 0.000000 127.577640 -18.647560 9.635073 -52.422360 14.600189 9.635073 53.096359 -1.057292 7.460697 -159.021748 -5.851524 29.057495 18.308456 5.230011 -7.460697 -4.062191 1.181892 0.626666
968.498927 441.455181 127.588873 0.000000 0.000000 0.000000 0.000000 0.000000 0.000000 47.920147 -23.232080 13.690942 180.000000 14.963191 13.690942 19.641385 6.109921 11.043737 160.358615 7.501762 27.893295 13.993219 0.306634 -11.043737 18.000000 -0.390535 0.936907
1336.846733 493.527671 148.866750 0.000000 0.000000 0.000000 0.000000 0.000000 0.000000 102.681311 16.935442 16.886559 -77.318689 -20.640110 16.886559 35.985219 -0.671024 14.452610 -159.617763 -6.893126 26.289200 19.375410 5.833887 -14.452610 -16.062459 -0.583389 1.243449
968.386706 441.394956 164.950195 0.000000 0.000000 0.000000 0.000000 0.000000 0.000000 46.120581 27.908966 19.021130 180.000000 13.299901 19.021130 19.316787 -10.486444 17.633558 160.683213 -8.013509 24.270510 14.327067 1.151306 -17.633558 18.000000 0.474248 1.545085
1263.984947 433.341283 152.762655 0.000000 0.000000 0.000000 0.000000 0.000000 0.000000 -115.578373 -7.979538 19.960535 64.421627 4.330685 19.960535 -82.396446 -6.748404 20.536413 25.733383 3.397162 21.869059 -77.477544 7.780811 -20.536413 5.836928 -0.455549 1.840623
1352.596436 477.564354 166.491402 0.000000 0.000000 0.000000 0.000000 0.000000 0.000000 -99.196741 -0.716115 19.645745 80.803259 -2.151889 19.645745 -125.272585 2.178752 23.115397 -162.405270 -6.071708 19.122720 17.377627 6.581182 -23.115397 -16.262237 -0.658118 2.128896
1384.326782 408.174427 139.615044 0.000000 0.000000 0.000000 0.000000 0.000000 0.000000 96.868601 7.913701 18.096541 -83.131399 2.283631 18.096541 -160.848957 -6.219461 25.329838 -137.255583 3.240054 16.074804 -162.076720 -7.326532 -25.329838 0.000000 0.000000 0.000000
1387.580223 387.128634 151.046969 0.000000 0.000000 0.000000 0.000000 0.000000 0.000000 78.087764 1.094393 15.410265 -101.912236 4.153146 15.410265 -161.807915 -6.160584 27.144812 -147.504361 0.930451 12.773379 -162.566306 -7.163335 -27.144812 1.735427 0.734147 2.679134
1345.818558 392.423122 140.317294 0.000000 0.000000 0.000000 0.000000 0.000000 0.000000 71.782984 3.471570 11.755705 -108.217016 -13.239104 11.755705 -169.469261 2.790149 28.531695 -153.903088 -5.987012 9.270510 -154.670689 4.556750 -28.531695 15.277725 0.507782 2.938926
1331.471329 361.814139 127.411273 0.000000 0.000000 0.000000 0.000000 0.000000 0.000000 53.586100 21.933381 7.362491 -126.413900 -25.088150 7.362491 -162.290330 -5.676811 29.468618 -154.912165 -2.238493 5.621439 -162.550394 -7.397302 -29.468618 1.742175 0.761736 3.187120
1354.413986 427.213873 127.932453 0.000000 0.000000 0.000000 0.000000 0.000000 0.000000 -131.358118 -12.357109 2.506665 48.641882 -3.415815 2.506665 -142.488821 0.235974 29.940802 -161.977882 -5.931402 1.883716 12.673705 8.231169 -29.940802 1.397524 -0.014228 3.422736
1330.326691 347.207226 132.451226 0.000000 0.000000 0.000000 0.000000 0.000000 0.000000 52.464175 -9.122130 -2.506665 -127.535825 1.397605 -2.506665 14.270918 4.184015 29.940802 -122.057234 1.780666 -1.883716 22.820874 0.610682 -29.940802 -15.244909 -0.093824 3.644843
1317.103271 414.475805 129.353978 0.000000 0.000000 0.000000 0.000000 0.000000 0.000000 76.170457 11.775036 -7.362491 -103.829543 -2.711083 -7.362491 -50.250674 -3.374532 29.468618 -52.503744 7.596163 -5.621439 -92.793049 -9.639991 -29.468618 3.303440 -0.068485 3.852566
1331.844635 430.291482 112.488643 0.000000 0.000000 0.000000 0.000000 0.000000 0.000000 79.985160 12.854986 -11.755705 -100.014840 4.046267 -11.755705 25.995082 -7.237993 28.531695 -75.062603 -4.630907 -9.270510 38.761234 2.610818 -28.531695 -11.442229 -0.057841 4.045085
1359.462433 496.472383 129.914828 0.000000 0.000000 0.000000 0.000000 0.000000 0.000000 84.268829 5.432243 -15.410265 -95.731171 -8.165896 -15.410265 30.279153 1.677387 27.144812 -63.318008 -4.449677 -12.773379 39.457716 2.740275 -27.144812 -9.485742 0.045373 4.221640
1323.514366 546.771398 114.455465 0.000000 0.000000 0.000000 0.000000 0.000000 0.000000 84.407325 -5.500411 -18.096541 -95.592675 1.208754 -18.096541 27.768249 2.536339 25.329838 -47.660055 -0.547787 -16.074804 28.281511 3.328243 -25.329838 -7.827901 -0.851218 4.381533
1268.535347 591.567099 85.785872 0.000000 0.000000 0.000000 0.000000 0.000000 0.000000 90.890792 -9.171670 -19.645745 -89.109208 5.013017 -19.645745 44.654760 -6.659473 23.115397 -48.200667 2.564430 -19.122720 43.369388 -2.340703 -23.115397 -8.974980 0.586828 4.524135
1303.157158 602.888768 92.323765 0.000000 0.000000 0.000000 0.000000 0.000000 0.000000 90.349289 0.362465 -19.960535 -89.650711 -6.172336 -19.960535 47.707312 -2.026019 20.536413 -53.918782 -4.808127 -21.869059 40.070965 3.186561 -20.536413 -9.318632 -0.473418 4.648882
1314.841690 613.141973 99.074060 0.000000 0.000000 0.000000 0.000000 0.000000 0.000000 94.480501 -2.464358 -19.021130 -85.519499 4.911387 -19.021130 58.462862 -0.349300 17.633558 -52.020507 0.844816 -24.270510 55.276552 0.416653 -17.633558 -7.777523 0.518263 4.755283
1327.521400 639.394319 83.818786 0.000000 0.000000 0.000000 0.000000 0.000000 0.000000 99.879576 -5.129124 -16.886559 -80.120424 -0.629001 -16.886559 69.161359 5.330044 14.452610 -46.413613 0.025900 -26.289200 76.680143 1.403681 -14.452610 -6.257768 0.008251 4.842916
1277.812729 671.228578 88.339286 0.000000 0.000000 0.000000 0.000000 0.000000 0.000000 99.708534 -16.794226 -13.690942 -80.291466 12.992414 -13.690942 92.239140 0.318481 11.043737 -26.764021 7.051981 -27.893295 98.168457 0.906819 -11.043737 -4.372074 -0.107268 4.911436
1309.642181 690.479329 69.130524 0.000000 0.000000 0.000000 0.000000 0.000000 0.000000 117.292414 -12.388028 -9.635073 -62.707586 1.419854 -9.635073 137.002702 -1.700560 7.460697 -32.045917 0.292493 -29.057495 135.211322 -0.324283 -7.460697 -3.212944 0.075903 4.960574
1299.770966 664.126496 91.565953 0.000000 0.000000 0.000000 0.000000 0.000000 0.000000 158.531160 -18.897960 -4.973798 -21.468840 12.869732 -4.973798 161.478323 -1.983102 3.759997 -12.838206 1.482928 -29.763441 151.269584 -0.241931 -3.759997 -2.521934 -0.078987 4.990134
1313.353729 643.668108 63.732842 0.000000 0.000000 0.000000 0.000000 0.000000 0.000000 -154.315892 6.274819 -0.000000 25.684108 3.965664 -0.000000 173.459940 -0.582941 0.000000 1.519689 -4.368152 -30.000000 164.244875 1.059182 -0.000000 -1.552244 0.214833 5.000000
1342.841377 638.982847 63.646738 0.000000 0.000000 0.000000 0.000000 0.000000 0.000000 -138.993869 -8.770341 4.973798 41.006131 4.598883 4.973798 175.724056 -4.745408 -3.759997 -151.723069 -3.235290 -29.763441 43.242568 3.666069 3.759997 -13.675743 -0.366607 4.990134
1350.000229 614.724133 61.382574 0.000000 0.000000 0.000000 0.000000 0.000000 0.000000 -144.248147 17.677630 9.635073 35.751853 1.775094 9.635073 177.069273 -3.756876 -7.460697 -152.227621 -3.578012 -29.057495 43.136563 3.357440 7.460697 -13.686344 -0.335744 4.960574
1328.535919 624.780936 73.078712 0.000000 0.000000 0.000000 0.000000 0.000000 0.000000 -165.447222 13.293221 13.690942 14.552778 5.458309 13.690942 169.657511 -2.608890 -11.043737 -152.168050 -3.024212 -27.893295 41.929642 3.791652 11.043737 -13.807036 -0.379165 4.911436
1318.810501 615.688248 75.403617 0.000000 0.000000 0.000000 0.000000 0.000000 0.000000 -120.063657 -13.677886 16.886559 59.936343 20.044321 16.886559 -165.389465 -1.509904 -14.452610 -152.866764 -1.576304 -26.289200 39.162270 3.028360 14.452610 -14.083773 -0.302836 4.842916
1321.656418 659.275410 68.774118 0.000000 0.000000 0.000000 0.000000 0.000000 0.000000 -121.435085 -4.838062 19.021130 58.564915 2.422417 19.021130 -149.190712 1.554393 -17.633558 -151.926374 -2.226875 -24.270510 33.097066 2.960030 17.633558 -14.690293 -0.296003 4.755283
1328.445511 687.490232 59.049982 0.000000 0.000000 0.000000 0.000000 0.000000 0.000000 -104.253419 -5.314117 19.960535 75.746581 2.478566 19.960535 -110.140878 -3.048835 -20.536413 -152.911692 -1.829311 -21.869059 23.882145 3.055518 20.536413 3.694979 -0.372186 4.648882
966.534206 440.564282 51.349243 0.000000 0.000000 0.000000 0.000000 0.000000 0.000000 25.865486 -12.567766 19.645745 180.000000 18.598341 19.645745 18.728337 -6.934500 -23.115397 161.271663 2.556924 -19.122720 19.024234 -0.139633 23.115397 18.000000 0.192491 4.524135
966.454577 440.533056 50.347199 0.000000 0.000000 0.000000 0.000000 0.000000 0.000000 25.417507 2.700102 18.096541 180.000000 -6.494928 18.096541 18.825450 7.102289 -25.329838 161.174550 -4.647067 -16.074804 19.071566 2.230464 25.329838 18.000000 0.151158 4.381533
966.374240 440.501809 65.213141 0.000000 0.000000 0.000000 0.000000 0.000000 0.000000 24.990320 22.391749 15.410265 180.000000 -9.249834 15.410265 18.929718 2.448072 -27.144812 161.070282 -4.901578 -12.773379 19.102411 1.483454 27.144812 18.000000 -0.023757 4.221640
966.293204 440.470542 74.844946 0.000000 0.000000 0.000000 0.000000 0.000000 0.000000 24.583377 28.788880 11.755705 180.000000 -12.185768 11.755705 19.040946 2.601203 -28.531695 160.959054 -13.656059 -9.270510 19.116765 6.819199 28.531695 18.000000 0.465041 4.045085
966.211478 440.439256 51.967074 0.000000 0.000000 0.000000 0.000000 0.000000 0.000000 24.196129 8.182333 7.362491 180.000000 -4.876775 7.362491 19.158923 3.836623 -29.468618 160.841077 -3.574184 -5.621439 19.114778 0.439918 29.468618 18.000000 -0.184693 3.852566
644.985180 745.864069 36.870356 0.000000 0.000000 0.000000 0.000000 0.000000 0.000000 96.086415 -24.950259 2.506665 -83.913585 21.239987 2.506665 -159.662371 -1.082879 -29.940802 -116.741565 6.870118 -1.883716 -176.001217 3.904372 29.940802 -1.006627 0.226078 3.644843
1269.020119 699.025490 57.424933 0.000000 0.000000 0.000000 0.000000 0.000000 0.000000 83.810916 3.834530 -2.506665 -96.189084 1.681538 -2.506665 51.932890 0.903391 -29.940802 -149.314466 -1.953357 1.883716 27.598511 1.769498 29.940802 -15.240149 -0.176950 3.422736
573.721218 678.450201 57.134661 0.000000 0.000000 0.000000 0.000000 0.000000 0.000000 18.756393 6.597182 -7.362491 -161.243607 28.933749 -7.362491 -174.158094 -22.507964 -29.468618 178.010322 -8.806481 5.621439 -154.394154 0.267820 29.468618 11.886524 0.452778 3.187120
1261.580200 714.897366 78.100085 0.000000 0.000000 0.000000 0.000000 0.000000 0.000000 87.191276 -11.150726 -11.755705 -92.808724 -2.834160 -11.755705 23.129119 -0.284269 -28.531695 -149.376238 -2.200014 9.270510 24.545507 2.090044 28.531695 13.583501 1.082801 2.938926
1314.655838 684.171546 73.866440 0.000000 0.000000 0.000000 0.000000 0.000000 0.000000 61.219932 11.883386 -15.410265 -118.780068 -3.042143 -15.410265 25.476616 1.950046 -27.144812 -150.404247 -2.606019 12.773379 24.621454 1.256000 27.144812 -15.537855 -0.125600 2.679134
1319.638939 674.820013 70.908527 0.000000 0.000000 0.000000 0.000000 0.000000 0.000000 82.055377 -14.749791 -18.096541 -97.944623 -8.218169 -18.096541 17.325085 8.153370 -25.329838 -60.067277 -1.683169 16.074804 23.747728 -2.822461 25.329838 -13.005173 0.590188 2.408768
1367.852325 659.536314 63.952137 0.000000 0.000000 0.000000 0.000000 0.000000 0.000000 -150.278430 -7.471041 -19.645745 29.721570 31.118117 -19.645745 -151.222797 -2.750281 -23.115397 18.758043 0.621767 19.122720 -152.451920 -1.959156 23.115397 2.484143 0.125569 2.128896
1392.624664 638.981302 57.219939 0.000000 0.000000 0.000000 0.000000 0.000000 0.000000 -122.704248 11.800138 -19.960535 57.295752 -9.017855 -19.960535 -134.513385 -1.409102 -20.536413 30.292627 -6.590311 21.869059 -146.694539 1.108948 20.536413 2.430965 -0.129112 1.840623
1401.291389 646.422758 75.234582 0.000000 0.000000 0.000000 0.000000 0.000000 0.000000 83.316637 -1.184678 -19.021130 -96.683363 13.184853 -19.021130 29.335627 -16.667898 -17.633558 -136.281416 5.526999 24.270510 19.119183 -1.939876 17.633558 -15.871560 0.044431 1.545085
1381.838951 663.410475 79.810551 0.000000 0.000000 0.000000 0.000000 0.000000 0.000000 79.215331 9.006118 -16.886559 -100.784669 -5.689354 -16.886559 30.640455 -4.463143 -14.452610 -139.113455 -2.599047 26.289200 14.302413 0.897652 14.452610 -16.408036 -0.129468 1.243449
1390.185928 664.248354 82.086511 0.000000 0.000000 0.000000 0.000000 0.000000 0.000000 75.546066 9.240597 -13.690942 -104.453934 -10.196549 -13.690942 38.995097 5.636468 -11.043737 -142.871297 -2.809242 27.893295 14.209110 -0.046878 11.043737 -16.737090 -0.064110 0.936907
1393.889923 677.551103 62.722999 0.000000 0.000000 0.000000 0.000000 0.000000 0.000000 84.293627 1.769059 -9.635073 -95.706373 -7.513039 -9.635073 -152.700272 -2.641753 -7.460697 -143.357755 -0.532193 29.057495 -148.868889 -3.954682 7.460697 3.626268 0.408824 0.626666
905.601082 693.654528 90.983938 0.000000 0.000000 0.000000 0.000000 0.000000 0.000000 -84.410869 12.849571 -4.973798 95.589131 -7.186003 -4.973798 -139.498802 -4.551090 -3.759997 -178.556713 24.548619 29.763441 -142.061844 -5.620686 3.759997 3.411456 0.505663 0.313953
1337.643929 680.318756 96.238225 0.000000 0.000000 0.000000 0.000000 0.000000 0.000000 78.192517 -4.262001 0.000000 -101.807483 8.354997 0.000000 48.289813 -7.743390 -0.000000 -140.291980 -1.342230 30.000000 13.663140 3.186215 0.000000 -17.395561 0.134809 0.000000
1322.670708 685.543334 75.384838 0.000000 0.000000 0.000000 0.000000 0.000000 0.000000 71.501063 4.274477 4.973798 -108.498937 -12.396237 4.973798 23.648228 -2.792020 3.759997 -144.586500 0.437508 29.763441 14.578018 -1.724747 -3.759997 -16.885607 0.151275 0.313953
1305.530548 682.910864 91.992127 0.000000 0.000000 0.000000 0.000000 0.000000 0.000000 72.979287 -15.284005 9.635073 -107.020713 -8.057351 9.635073 -148.728581 -4.270883 7.460697 -74.802907 2.040782 29.057495 -151.178244 -4.493572 -7.460697 2.601049 0.369645 0.626666
1359.363556 692.650115 109.986530 0.000000 0.000000 0.000000 0.000000 0.000000 0.000000 73.244804 0.338544 13.690942 -106.755196 3.485782 13.690942 13.983499 -6.192010 11.043737 -67.611809 1.740854 27.893295 13.130547 -2.186752 -11.043737 -11.004089 0.521896 0.936907
1299.495964 679.994059 111.681931 0.000000 0.000000 0.000000 0.000000 0.000000 0.000000 116.206779 1.128974 16.886559 -63.793221 -10.670503 16.886559 -150.858719 -4.305405 14.452610 -34.548592 -0.443884 26.289200 60.366751 -4.347329 -14.452610 -4.627493 -0.144956 1.243449
1306.260338 711.527116 118.787570 0.000000 0.000000 0.000000 0.000000 0.000000 0.000000 -85.758672 -2.864216 19.021130 94.241328 -6.217155 19.021130 -31.461750 -0.379879 17.633558 -4.237664 -3.388372 24.270510 -15.215787 0.738491 -17.633558 7.867754 0.658155 1.545085
1272.614822 704.778571 128.448316 0.000000 0.000000 0.000000 0.000000 0.000000 0.000000 -78.634637 -11.906899 19.960535 101.365363 13.456092 19.960535 -34.118569 4.273906 20.536413 22.539652 7.636269 21.869059 -31.373170 3.673333 -20.536413 11.310693 -2.188276 1.840623
1310.345650 676.427021 114.239488 0.000000 0.000000 0.000000 0.000000 0.000000 0.000000 97.572435 0.412702 19.645745 -82.427565 3.695890 19.645745 50.400703 -3.403935 23.115397 -39.584286 2.923849 19.122720 44.966766 -7.962662 -23.115397 -8.852712 1.636484 2.128896
1315.732956 671.025095 141.100337 0.000000 0.000000 0.000000 0.000000 0.000000 0.000000 97.797337 -1.745614 18.096541 -82.202663 -7.095569 18.096541 49.825934 2.187624 25.329838 -39.162923 -0.830349 16.074804 36.475631 -4.369274 -25.329838 -8.191519 1.931934 2.408768
1329.935532 653.525419 131.758258 0.000000 0.000000 0.000000 0.000000 0.000000 0.000000 96.469555 -0.667972 15.410265 -83.530445 7.021000 15.410265 63.882053 -4.572513 27.144812 -51.972064 3.241032 12.773379 58.624362 0.638565 -27.144812 -8.239564 -0.499200 2.679134
1316.170578 674.246514 140.080592 0.000000 0.000000 0.000000 0.000000 0.000000 0.000000 -87.946330 -3.794391 11.755705 92.053670 -3.720581 11.755705 -29.715798 7.706349 28.531695 54.212796 1.251275 9.270510 -40.560774 -1.925968 -28.531695 11.008015 0.184539 2.938926
1317.367287 678.027205 142.194634 0.000000 0.000000 0.000000 0.000000 0.000000 0.000000 95.152942 7.110134 7.362491 -84.847058 -6.567019 7.362491 98.792835 3.606430 29.468618 -150.515547 -5.987338 5.621439 32.983753 5.487713 -29.468618 -14.701625 -0.548771 3.187120
1318.168488 670.157025 119.830781 0.000000 0.000000 0.000000 0.000000 0.000000 0.000000 -151.252255 8.411998 2.506665 28.747745 -72.272503 2.506665 138.896993 8.070195 29.940802 -151.946620 -6.831591 1.883716 38.784684 5.904436 -29.940802 -14.121532 -0.590444 3.422736
1323.412628 644.667885 146.042488 0.000000 0.000000 0.000000 0.000000 0.000000 0.000000 -97.904066 -16.084562 -2.506665 82.095934 -4.194315 -2.506665 155.695030 2.386774 29.940802 -152.500978 -6.327613 -1.883716 44.721081 6.380975 -29.940802 -13.527892 -0.638098 3.644843
1312.776718 630.059459 152.596632 0.000000 0.000000 0.000000 0.000000 0.000000 0.000000 -116.637972 -5.664236 -7.362491 63.362028 -15.386193 -7.362491 171.094570 5.193159 29.468618 -152.894064 -6.302786 -5.621439 43.947863 7.208711 -29.468618 -13.605214 -0.720871 3.852566
1316.420746 625.237019 145.664768 0.000000 0.000000 0.000000 0.000000 0.000000 0.000000 -136.254273 -7.047906 -11.755705 43.745727 6.783941 -11.755705 -177.663204 1.308355 28.531695 -153.006287 -5.873619 -9.270510 42.784597 7.732085 -28.531695 -13.721540 -0.773209 4.045085
1314.719925 628.818026 124.803039 0.000000 0.000000 0.000000 0.000000 0.000000 0.000000 -114.737929 -5.592595 -15.410265 65.262071 -2.312771 -15.410265 -169.764314 1.153371 27.144812 -153.369487 -6.298609 -12.773379 41.498347 8.929304 -27.144812 -13.850165 -0.892930 4.221640
1334.396782 646.165652 148.662950 0.000000 0.000000 0.000000 0.000000 0.000000 0.000000 -116.903454 3.510504 -18.096541 63.096546 -4.238012 -18.096541 -154.594534 -1.052589 25.329838 -153.225015 -6.798985 -16.074804 37.136182 8.362385 -25.329838 -14.286382 -0.836238 4.381533
1340.823784 648.244128 138.299002 0.000000 0.000000 0.000000 0.000000 0.000000 0.000000 -116.932323 8.582842 -19.645745 63.067677 -6.477848 -19.645745 -138.898656 -0.236037 23.115397 35.335752 -5.560627 -19.122720 -153.336856 0.958329 -23.115397 2.206211 0.053055 4.524135
1330.023880 654.599032 143.414727 0.000000 0.000000 0.000000 0.000000 0.000000 0.000000 -112.150704 9.011967 -19.960535 67.849296 -2.206960 -19.960535 -118.798313 -2.866840 20.536413 -153.636372 -6.627267 -21.869059 16.691869 7.369476 -20.536413 -16.330813 -0.736948 4.648882
1337.431641 662.410698 148.837045 0.000000 0.000000 0.000000 0.000000 0.000000 0.000000 -109.111809 4.180886 -19.021130 70.888191 4.658153 -19.021130 -91.144379 -6.293454 17.633558 -154.448144 -6.644312 -24.270510 10.298202 7.437747 -17.633558 6.642051 -0.234139 4.755283
1324.339714 676.416593 143.058124 0.000000 0.000000 0.000000 0.000000 0.000000 0.000000 -104.120178 -0.426500 -16.886559 75.879822 4.091504 -16.886559 -57.095620 -2.272643 14.452610 38.799650 -0.176071 -26.289200 -71.942639 0.700115 -14.452610 8.831938 0.108547 4.842916
962.890318 439.311049 132.770995 0.000000 0.000000 0.000000 0.000000 0.000000 0.000000 19.986963 -20.716574 -13.690942 180.000000 3.256495 -13.690942 24.297229 1.520196 11.043737 155.702771 15.166740 -27.893295 14.983342 -9.665255 -11.043737 18.000000 -0.207212 4.911436
962.789911 439.279946 143.864131 0.000000 0.000000 0.000000 0.000000 0.000000 0.000000 20.089586 22.926616 -9.635073 180.000000 1.960916 -9.635073 24.330184 -5.781964 7.460697 155.669816 -1.241282 -29.057495 14.926290 -3.745478 -7.460697 18.000000 -0.325248 4.960574
641.318550 641.336324 122.316435 0.000000 0.000000 0.000000 0.000000 0.000000 0.000000 163.642929 15.148506 -4.973798 -16.357071 -7.421783 -4.973798 -155.926011 -4.768543 3.759997 -130.644608 -8.733689 -29.763441 68.679337 11.801545 -3.759997 -11.132066 -1.180154 4.990134
1305.385551 662.289033 123.493021 0.000000 0.000000 0.000000 0.000000 0.000000 0.000000 -81.949824 -3.739826 -0.000000 98.050176 -15.697228 -0.000000 9.536664 5.757483 0.000000 -153.586691 -6.257351 -30.000000 24.402531 4.681247 -0.000000 -15.559747 -0.468125 5.000000
962.486899 439.186814 124.492851 0.000000 0.000000 0.000000 0.000000 0.000000 0.000000 20.465882 11.614539 4.973798 180.000000 -8.330239 4.973798 24.357206 3.233938 -3.759997 155.642794 9.904619 -29.763441 14.800425 -11.923060 3.759997 18.000000 0.275344 4.990134
1216.314240 612.580640 101.615265 0.000000 0.000000 0.000000 0.000000 0.000000 0.000000 78.221991 -3.607872 9.635073 -101.778009 3.008050 9.635073 46.689014 0.475733 -7.460697 -61.937558 1.462701 -29.057495 44.546377 -0.495712 7.460697 -10.771750 -0.916850 4.960574
1273.897820 573.707514 124.390804 0.000000 0.000000 0.000000 0.000000 0.000000 0.000000 77.469628 1.815843 13.690942 -102.530372 -2.606858 13.690942 -155.691164 -4.971053 -11.043737 -120.750172 3.584253 -27.893295 -156.229293 -6.258453 11.043737 2.162203 0.566451 4.911436
1337.358742 570.303276 112.758498 0.000000 0.000000 0.000000 0.000000 0.000000 0.000000 73.705918 2.219428 16.886559 -106.294082 -6.493966 16.886559 -155.918376 -4.777044 -14.452610 -149.887909 -5.218823 -26.289200 0.000000 0.000000 0.000000 0.000000 0.000000 0.000000
1342.446442 569.623497 95.358096 0.000000 0.000000 0.000000 0.000000 0.000000 0.000000 68.898287 -2.357578 19.021130 -111.101713 6.423249 19.021130 39.314088 -10.362511 -17.633558 -140.912764 1.310231 -24.270510 -153.216026 -5.828142 17.633558 2.759242 0.746255 4.755283
1335.759430 584.665475 111.397001 0.000000 0.000000 0.000000 0.000000 0.000000 0.000000 66.989329 5.795960 19.960535 -113.010671 -7.238009 19.960535 -154.807077 -4.748086 -20.536413 -142.328055 -3.802028 -21.869059 -153.049156 -5.520718 20.536413 2.866457 0.595952 4.648882
1337.950974 598.074245 84.050809 0.000000 0.000000 0.000000 0.000000 0.000000 0.000000 62.697633 -1.297353 19.645745 -117.302367 -4.805712 19.645745 19.366736 -1.023310 -23.115397 -144.826223 -2.295973 -19.122720 9.911455 0.263748 23.115397 -17.004209 0.036280 4.524135
1352.846489 601.043322 113.934661 0.000000 0.000000 0.000000 0.000000 0.000000 0.000000 59.083577 3.134742 18.096541 -120.916423 -4.457158 18.096541 20.876734 1.041290 -25.329838 -142.301690 -3.677735 -16.074804 13.356960 1.723108 25.329838 -16.821524 -0.111151 4.381533
1347.310982 587.475100 87.183424 0.000000 0.000000 0.000000 0.000000 0.000000 0.000000 56.169135 -3.044065 15.410265 -123.830865 1.458304 15.410265 21.172503 4.680344 -27.144812 -139.640745 3.888542 -12.773379 14.641496 0.719734 27.144812 -16.282575 -0.078821 4.221640
1326.982155 606.886139 80.923040 0.000000 0.000000 0.000000 0.000000 0.000000 0.000000 70.119981 -4.439723 11.755705 -109.880019 4.439604 11.755705 26.511889 2.212686 -28.531695 -111.264667 2.163400 -9.270510 31.153840 -0.624261 28.531695 -13.943905 -0.244604 4.045085
1354.391098 626.185555 68.120093 0.000000 0.000000 0.000000 0.000000 0.000000 0.000000 88.154395 14.092798 7.362491 -91.845605 -3.001375 7.362491 30.442275 -1.813471 -29.468618 -76.284233 -5.622841 -5.621439 43.854867 5.304060 29.468618 -10.818190 -0.466591 3.852566
1370.667114 610.219567 75.724054 0.000000 0.000000 0.000000 0.000000 0.000000 0.000000 89.945118 0.676827 2.506665 -90.054882 2.655077 2.506665 44.053326 2.604856 -29.940802 -56.238091 1.964010 -1.883716 55.411270 -1.402747 29.940802 -7.805659 0.099490 3.644843
1372.834854 597.828534 74.192578 0.000000 0.000000 0.000000 0.000000 0.000000 0.000000 93.407992 -4.159630 -2.506665 -86.592008 0.180037 -2.506665 54.165845 1.387869 -29.940802 -47.239220 3.527207 1.883716 56.575186 1.432713 29.940802 -6.344474 -0.209487 3.422736
1336.554337 597.454848 68.894961 0.000000 0.000000 0.000000 0.000000 0.000000 0.000000 95.622643 2.568529 -7.362491 -84.377357 -6.922250 -7.362491 56.597780 0.974554 -29.468618 -45.108662 -3.552595 5.621439 55.386034 3.944819 29.468618 -7.206870 -0.436777 3.187120
1310.567093 590.844769 79.079356 0.000000 0.000000 0.000000 0.000000 0.000000 0.000000 100.193768 5.493132 -11.755705 -79.806232 -0.877466 -11.755705 61.986347 3.426381 -28.531695 -37.593815 -0.414042 9.270510 62.907615 1.118949 28.531695 -6.637230 -0.855338 2.938926
1328.574371 576.493385 57.579485 0.000000 0.000000 0.000000 0.000000 0.000000 0.000000 101.943783 -2.424157 -15.410265 -78.056217 0.927841 -15.410265 61.902838 -0.020873 -27.144812 -33.889586 -0.621693 12.773379 55.760387 1.783177 27.144812 -7.097415 0.029026 2.679134
1316.178360 595.500870 60.498110 0.000000 0.000000 0.000000 0.000000 0.000000 0.000000 103.792097 3.468434 -18.096541 -76.207903 6.978902 -18.096541 65.535198 -3.079581 -25.329838 -28.739437 7.568134 16.074804 68.415337 -7.498205 25.329838 -6.481753 0.068717 2.408768
1302.343140 568.138025 56.346538 0.000000 0.000000 0.000000 0.000000 0.000000 0.000000 101.222717 3.164937 -19.645745 -78.777283 -7.184226 -19.645745 90.757296 1.313517 -23.115397 -18.578033 -1.099988 19.122720 97.909038 0.298415 23.115397 -5.050134 -0.054633 2.128896
1274.166183 540.660596 67.171038 0.000000 0.000000 0.000000 0.000000 0.000000 0.000000 -126.898591 16.791198 -19.960535 53.101409 -16.848386 -19.960535 127.276662 1.219364 -20.536413 8.808645 -0.292374 21.869059 119.711272 -5.436523 20.536413 -4.115393 0.164509 1.840623
1268.557091 468.331075 64.558679 0.000000 0.000000 0.000000 0.000000 0.000000 0.000000 -124.112133 -7.534499 -19.021130 55.887867 -10.545002 -19.021130 163.344780 3.887392 -17.633558 38.476068 -1.356616 24.270510 145.889074 0.374866 17.633558 -1.929933 -0.037547 1.545085
1278.673096 454.375906 55.981599 0.000000 0.000000 0.000000 0.000000 0.000000 0.000000 -126.805061 7.082715 -16.886559 53.194939 -6.321335 -16.886559 -174.009950 -3.710105 -14.452610 27.419224 -4.644269 26.289200 168.192977 0.831060 14.452610 -0.976267 0.055360 1.243449
1285.008774 434.700390 40.418186 0.000000 0.000000 0.000000 0.000000 0.000000 0.000000 -132.005120 9.668679 -13.690942 47.994880 -9.249135 -13.690942 -171.247775 -1.090601 -11.043737 26.625253 -0.216635 27.893295 178.805957 -1.245999 11.043737 0.023422 0.043499 0.936907
1288.157730 426.987666 48.461600 0.000000 0.000000 0.000000 0.000000 0.000000 0.000000 -123.987926 -4.020842 -9.635073 56.012074 9.913809 -9.635073 -166.356219 -1.973693 -7.460697 35.716336 1.879279 29.057495 -172.960762 -0.110797 7.460697 0.819533 -0.006777 0.626666
1291.221657 420.425448 50.918904 0.000000 0.000000 0.000000 0.000000 0.000000 0.000000 -122.265643 -8.476766 -4.973798 57.734357 3.860953 -4.973798 -156.870161 -0.936626 -3.759997 38.220704 1.697037 29.763441 -165.716368 0.656453 3.759997 1.405814 -0.057239 0.313953
