HIERARCHY
ROOT Hips
{
    OFFSET 0.0 0.0 0.0
    CHANNELS 6 Xposition Yposition Zposition Zrotation Xrotation Yrotation
    JOINT Spine
    {
        OFFSET 0.0 5.0 0.0
        CHANNELS 3 Zrotation Xrotation Yrotation
        JOINT Chest
        {
            OFFSET 0.0 5.0 0.0
            CHANNELS 3 Zrotation Xrotation Yrotation
            JOINT Neck
            {
                OFFSET 0.0 8.0 0.0
                CHANNELS 3 Zrotation Xrotation Yrotation
                JOINT Head
                {
                    OFFSET 0.0 5.0 0.0
                    CHANNELS 3 Zrotation Xrotation Yrotation
                    End Site
                    {
                        OFFSET 0.0 3.0 0.0
                    }
                }
            }
            JOINT LeftShoulder
            {
                OFFSET -5.0 0.0 0.0
                CHANNELS 3 Zrotation Xrotation Yrotation
                JOINT LeftArm
                {
                    OFFSET 0.0 -10.0 0.0
                    CHANNELS 3 Zrotation Xrotation Yrotation
                    JOINT LeftForeArm
                    {
                        OFFSET 0.0 -10.0 0.0
                        CHANNELS 3 Zrotation Xrotation Yrotation
                        End Site
                        {
                            OFFSET 0.0 -3.0 0.0
                        }
                    }
                }
            }
        }
    }
}

MOTION
Frames: 300
Frame Time: 0.033333

960.000000 445.000000 100.790160 0.000000 0.000000 0.000000 0.000000 0.000000 0.000000 23.025492 -25.295622 0.000000 180.000000 3.302411 0.000000 21.801409 -1.657414 -0.000000 158.198591 -0.327271 30.000000 15.945396 -2.026203 0.000000 18.000000 0.451830 0.000000
1691.525230 140.756605 103.584937 0.000000 0.000000 0.000000 0.000000 0.000000 0.000000 -163.376529 -4.837527 4.973798 16.623471 10.159044 4.973798 -171.853121 -3.801579 3.759997 99.744051 12.125198 29.763441 -171.126653 -3.642005 -3.759997 0.673538 0.343256 0.313953
1636.048050 128.802021 110.383470 0.000000 0.000000 0.000000 0.000000 0.000000 0.000000 157.904128 29.343178 9.635073 -22.095872 2.954402 9.635073 -171.936471 -4.018178 7.460697 -143.675701 -5.110885 29.057495 -173.500805 -3.902193 -7.460697 0.570999 0.452938 0.626666
1578.156967 80.474526 115.408841 0.000000 0.000000 0.000000 0.000000 0.000000 0.000000 -139.519796 -0.911191 13.690942 40.480204 3.329729 13.690942 -174.507724 -3.923769 11.043737 119.111399 7.781805 27.893295 -173.607258 -4.412706 -11.043737 0.461920 0.461520 0.936907
960.418757 444.998421 122.875096 0.000000 0.000000 0.000000 0.000000 0.000000 0.000000 25.077893 4.642001 16.886559 180.000000 12.255029 16.886559 23.861935 -0.587729 14.452610 156.138065 11.062777 26.289200 17.903699 -8.142497 -14.452610 18.000000 0.420569 1.243449
960.523360 444.997533 118.364597 0.000000 0.000000 0.000000 0.000000 0.000000 0.000000 25.638906 -28.493609 19.021130 180.000000 12.998579 19.021130 24.425035 -4.016674 17.633558 155.574965 14.346248 24.270510 18.452907 -6.696893 -17.633558 18.000000 0.042326 1.545085
960.627905 444.996447 124.731760 0.000000 0.000000 0.000000 0.000000 0.000000 0.000000 26.219073 -4.942410 19.960535 180.000000 -0.772731 19.960535 25.006291 -2.880983 20.536413 154.993709 2.984521 21.869059 19.024920 0.037593 -20.536413 18.000000 -0.621526 1.840623
1126.242828 420.359820 131.471304 0.000000 0.000000 0.000000 0.000000 0.000000 0.000000 31.410514 8.829492 19.645745 -148.589486 -0.150969 19.645745 32.280463 -0.834664 23.115397 -131.603972 -6.379350 19.122720 45.585331 0.897860 -23.115397 -13.449727 0.050799 2.128896
1257.895088 650.549197 129.618914 0.000000 0.000000 0.000000 0.000000 0.000000 0.000000 25.073180 -25.041051 18.096541 -154.926820 7.855614 18.096541 46.260945 -7.289132 25.329838 -154.651428 -5.456037 16.074804 27.339487 4.748183 -25.329838 -13.619892 2.308024 2.408768
960.941083 444.992008 125.175105 0.000000 0.000000 0.000000 0.000000 0.000000 0.000000 28.072001 -2.917614 15.410265 180.000000 -3.995579 15.410265 26.849221 0.629534 27.144812 153.150779 3.467927 12.773379 20.864045 -3.954847 -27.144812 18.000000 -0.169507 2.679134
1163.815842 547.748709 167.327827 0.000000 0.000000 0.000000 0.000000 0.000000 0.000000 117.162728 8.568441 11.755705 -62.837272 -12.506899 11.755705 102.363764 -1.735466 28.531695 -47.376450 -5.374173 9.270510 104.768601 -0.764353 -28.531695 -6.003489 -0.046508 2.938926
961.149372 444.988063 141.950967 0.000000 0.000000 0.000000 0.000000 0.000000 0.000000 29.395983 0.104146 7.362491 180.000000 -15.048577 7.362491 28.146217 -0.226165 29.468618 151.853783 4.303027 5.621439 22.170006 -12.299108 -29.468618 18.000000 0.624080 3.187120
1136.717377 590.104480 126.447009 0.000000 0.000000 0.000000 0.000000 0.000000 0.000000 115.752126 0.226047 2.506665 -64.247874 -1.805753 2.506665 73.638146 0.462808 29.940802 -21.842452 2.168173 1.883716 75.369282 -3.543277 -29.940802 -6.767207 0.338685 3.422736
1163.079758 634.077559 137.803036 0.000000 0.000000 0.000000 0.000000 0.000000 0.000000 132.174340 -1.762153 -2.506665 -47.825660 -3.729757 -2.506665 94.255711 7.075513 29.940802 -149.364979 -6.691972 -1.883716 30.021641 5.695401 -29.940802 -5.096180 -0.332234 3.644843
961.460830 444.980668 123.237402 0.000000 0.000000 0.000000 0.000000 0.000000 0.000000 31.497152 7.725954 -7.362491 180.000000 10.767406 -7.362491 30.152455 -13.521183 29.468618 149.847545 2.232719 -5.621439 24.175589 -1.679135 -29.468618 18.000000 -0.280673 3.852566
1097.449951 565.089898 148.491882 0.000000 0.000000 0.000000 0.000000 0.000000 0.000000 -119.219568 7.453988 -11.755705 60.780432 0.011221 -11.755705 -150.180642 -7.735712 28.531695 48.804955 -4.612767 -9.270510 -149.874178 -6.177925 -28.531695 2.713854 0.642806 4.045085
1114.140244 528.302071 154.973979 0.000000 0.000000 0.000000 0.000000 0.000000 0.000000 -142.671523 -9.991665 -15.410265 37.328477 2.905369 -15.410265 -177.395681 0.937523 27.144812 34.687329 7.939743 -12.773379 161.894167 -2.741625 -27.144812 -0.910956 -0.301541 4.221640
1116.433640 479.728639 173.571557 0.000000 0.000000 0.000000 0.000000 0.000000 0.000000 -102.267481 1.951059 -18.096541 77.732519 0.639146 -18.096541 -163.695626 -4.267477 25.329838 38.575767 2.889528 -16.074804 -176.001122 0.094896 -25.329838 0.706594 -0.069444 4.381533
1135.931282 466.493965 156.215991 0.000000 0.000000 0.000000 0.000000 0.000000 0.000000 -112.868406 15.661320 -19.645745 67.131594 -0.488552 -19.645745 -159.517862 -1.059743 23.115397 36.204678 -1.602458 -19.122720 -154.426613 -6.002914 -23.115397 2.428729 0.521446 4.524135
1141.618767 467.420679 149.084950 0.000000 0.000000 0.000000 0.000000 0.000000 0.000000 -123.086385 13.655185 -19.960535 56.913615 -5.510343 -19.960535 -154.885724 2.758230 20.536413 36.481623 -2.550589 -21.869059 -153.965441 -5.564249 -20.536413 2.446728 0.516359 4.648882
1150.647926 469.370956 147.569456 0.000000 0.000000 0.000000 0.000000 0.000000 0.000000 -43.953779 17.948926 -19.021130 136.046221 -29.039260 -19.021130 -154.327268 -6.400065 17.633558 60.745168 -4.699648 -24.270510 -153.350642 -6.400707 -17.633558 2.386216 0.677145 4.755283
1151.529922 496.420240 147.298868 0.000000 0.000000 0.000000 0.000000 0.000000 0.000000 -116.362129 2.624397 -16.886559 63.637871 1.282349 -16.886559 -149.081043 -2.746369 14.452610 35.941860 -3.578112 -26.289200 -156.847177 0.993483 -14.452610 2.056513 0.012106 4.842916
1148.402367 515.713574 154.801222 0.000000 0.000000 0.000000 0.000000 0.000000 0.000000 -118.252650 11.975553 -13.690942 61.747350 -6.681480 -13.690942 -138.082896 -1.524169 11.043737 -156.312677 -7.356718 -27.893295 21.649626 9.519449 -11.043737 2.962417 0.087000 4.911436
1175.363617 533.368646 143.560571 0.000000 0.000000 0.000000 0.000000 0.000000 0.000000 -95.476638 -8.350503 -9.635073 84.523362 0.657523 -9.635073 -113.907461 -0.234115 7.460697 -155.995907 -6.452789 -29.057495 12.512064 7.918114 -7.460697 -16.748794 -0.791811 4.960574
1199.533310 485.991104 124.657235 0.000000 0.000000 0.000000 0.000000 0.000000 0.000000 -100.003195 -15.721011 -4.973798 79.996805 10.913170 -4.973798 -86.083188 -1.521965 3.759997 38.843754 4.884437 -29.763441 -106.539452 0.327487 -3.759997 6.197806 -0.456307 4.990134
962.588190 444.938442 154.337476 0.000000 0.000000 0.000000 0.000000 0.000000 0.000000 39.579754 27.229978 -0.000000 180.000000 -29.397742 -0.000000 36.680773 22.702556 0.000000 143.319227 -14.039870 -30.000000 29.388385 6.816782 -0.000000 18.000000 0.032621 5.000000
1142.094727 445.716287 142.064767 0.000000 0.000000 0.000000 0.000000 0.000000 0.000000 -140.228454 -3.301068 4.973798 39.771546 -31.557908 4.973798 -156.118008 -5.164243 -3.759997 3.479189 -6.401261 -29.763441 -158.005660 -5.108346 3.759997 2.150019 0.575415 4.990134
1164.005928 424.847746 133.432275 0.000000 0.000000 0.000000 0.000000 0.000000 0.000000 -84.241076 -29.969901 9.635073 95.758924 28.840764 9.635073 -156.181584 -6.603329 -7.460697 166.928360 -8.118470 -29.057495 -154.947270 -5.807143 7.460697 2.644196 0.676889 4.960574
1124.208755 418.286655 132.462819 0.000000 0.000000 0.000000 0.000000 0.000000 0.000000 -117.427077 21.940209 13.690942 62.572923 10.992484 13.690942 -155.943063 -5.888011 -11.043737 14.023837 12.896217 -27.893295 -157.382674 -6.041498 11.043737 2.188130 0.533226 4.911436
962.990408 444.917226 110.930932 0.000000 0.000000 0.000000 0.000000 0.000000 0.000000 42.110883 -30.737435 16.886559 180.000000 18.147883 16.886559 37.946959 -16.915772 -14.452610 142.053041 -16.527869 -26.289200 29.293612 19.486262 14.452610 18.000000 -1.239793 4.842916
963.090170 444.911436 97.077049 0.000000 0.000000 0.000000 0.000000 0.000000 0.000000 42.659200 -25.282774 19.021130 180.000000 -4.492326 19.021130 38.119107 -0.736905 -17.633558 141.880893 17.532826 -24.270510 29.068887 -10.994921 17.633558 18.000000 0.064674 4.755283
1186.646461 396.272757 102.908992 0.000000 0.000000 0.000000 0.000000 0.000000 0.000000 -72.847419 2.898089 19.960535 107.152581 28.851576 19.960535 -156.703603 -6.177662 -20.536413 178.447294 -11.461649 -21.869059 -157.212393 -4.544613 20.536413 1.964058 0.376987 4.648882
1313.051605 426.636125 96.781029 0.000000 0.000000 0.000000 0.000000 0.000000 0.000000 90.994869 -9.703078 19.645745 -89.005131 14.101585 19.645745 -160.515303 -4.762916 -23.115397 -153.248861 -2.475317 -19.122720 -159.640525 -4.526396 23.115397 0.000000 0.000000 0.000000
1347.999344 420.772226 79.551936 0.000000 0.000000 0.000000 0.000000 0.000000 0.000000 90.154351 -0.638496 18.096541 -89.845649 -5.828704 18.096541 -162.053401 -3.720312 -25.329838 -136.198880 -1.690009 -16.074804 -160.991694 -4.530404 25.329838 0.000000 0.000000 0.000000
1344.315948 421.031681 106.922377 0.000000 0.000000 0.000000 0.000000 0.000000 0.000000 69.757587 -0.365091 15.410265 -110.242413 -5.785098 15.410265 25.616746 -1.342134 -27.144812 -157.821005 -3.946463 -12.773379 17.214985 2.706501 27.144812 -16.704706 0.258037 4.221640
1350.307617 440.309436 82.920632 0.000000 0.000000 0.000000 0.000000 0.000000 0.000000 71.124018 -5.621805 11.755705 -108.875982 -0.659884 11.755705 42.739987 5.213851 -28.531695 -142.315466 0.836363 -9.270510 16.600926 -1.955599 28.531695 -16.660102 0.261162 4.045085
1357.685051 430.688889 61.958283 0.000000 0.000000 0.000000 0.000000 0.000000 0.000000 77.656077 1.253296 7.362491 -102.343923 -9.145104 7.362491 39.407151 0.127178 -29.468618 -136.343173 -0.474736 -5.621439 22.144452 -2.000987 29.468618 -16.305135 0.108001 3.852566
1369.482193 445.909406 74.112757 0.000000 0.000000 0.000000 0.000000 0.000000 0.000000 88.051188 5.046187 2.506665 -91.948812 0.836974 2.506665 -161.283973 -3.004733 -29.940802 -119.799169 0.797964 -1.883716 -164.575400 -3.407240 29.940802 1.401013 0.359838 3.644843
963.875156 444.858159 81.791278 0.000000 0.000000 0.000000 0.000000 0.000000 0.000000 45.304844 44.004916 -2.506665 180.000000 19.895284 -2.506665 37.252439 -5.156489 -29.940802 142.747561 -1.316492 1.883716 25.146244 8.164768 29.940802 18.000000 -0.642091 3.422736
963.971479 444.850633 51.914905 0.000000 0.000000 0.000000 0.000000 0.000000 0.000000 45.383640 4.666669 -7.362491 180.000000 22.877252 -7.362491 36.882310 -19.474305 -29.468618 143.117690 4.487544 5.621439 24.499789 -13.206894 29.468618 18.000000 0.552789 3.187120
1336.629524 469.010178 62.519026 0.000000 0.000000 0.000000 0.000000 0.000000 0.000000 -72.390177 11.277316 -11.755705 107.609823 -4.642189 -11.755705 -158.649984 -2.299677 -28.531695 2.583425 3.972700 9.270510 -39.658551 0.500240 28.531695 10.837181 -1.215083 2.938926
1311.966934 518.219100 48.661610 0.000000 0.000000 0.000000 0.000000 0.000000 0.000000 -63.565072 51.409736 -15.410265 116.434928 33.515799 -15.410265 -14.840750 -5.849774 -27.144812 -158.549348 -2.636223 12.773379 17.488774 1.455586 27.144812 7.174982 5.662668 2.679134
964.257793 444.826908 62.997913 0.000000 0.000000 0.000000 0.000000 0.000000 0.000000 45.262206 -13.946743 -18.096541 180.000000 6.355956 -18.096541 35.497192 -2.632469 -25.329838 144.502808 0.417545 16.074804 22.522929 0.213699 25.329838 18.000000 0.082115 2.408768
1275.921364 516.836239 61.485706 0.000000 0.000000 0.000000 0.000000 0.000000 0.000000 85.186295 8.337396 -19.645745 -94.813705 -6.709381 -19.645745 52.470689 3.280111 -23.115397 -44.513683 -7.242255 19.122720 50.867598 6.496594 23.115397 -8.717188 -0.062848 2.128896
1263.254128 546.875424 58.707734 0.000000 0.000000 0.000000 0.000000 0.000000 0.000000 34.848242 18.649704 -19.960535 -145.151758 -21.964143 -19.960535 42.487561 39.356293 -20.536413 -157.415675 -2.518588 21.869059 22.420880 2.870847 20.536413 -15.757912 -0.287085 1.840623
1258.788185 528.263061 46.233479 0.000000 0.000000 0.000000 0.000000 0.000000 0.000000 118.326865 -16.497421 -19.021130 -61.673135 25.675992 -19.021130 143.214759 -7.259207 -17.633558 -156.228306 -2.066766 24.270510 28.173554 2.433201 17.633558 -15.182645 -0.243320 1.545085
1231.492081 471.383836 40.676581 0.000000 0.000000 0.000000 0.000000 0.000000 0.000000 -115.049381 17.128494 -16.886559 64.950619 17.104273 -16.886559 172.843704 -0.741966 -14.452610 -157.842300 -2.098121 26.289200 32.851042 2.344830 14.452610 -14.714896 -0.234483 1.243449
1223.928795 435.993515 38.088112 0.000000 0.000000 0.000000 0.000000 0.000000 0.000000 -115.322532 1.106065 -13.690942 64.677468 14.627204 -13.690942 -168.597862 -4.093017 -11.043737 -158.853816 -2.382468 27.893295 31.099266 2.627403 11.043737 -14.890073 -0.262740 0.936907
1223.669701 418.195664 52.426014 0.000000 0.000000 0.000000 0.000000 0.000000 0.000000 -102.084053 3.814787 -9.635073 77.915947 -3.105515 -9.635073 -171.103858 -0.989676 -7.460697 162.056334 -2.370982 29.057495 -153.594437 -2.374676 7.460697 2.968481 0.279409 0.626666
1216.486244 414.503002 52.114873 0.000000 0.000000 0.000000 0.000000 0.000000 0.000000 69.261091 0.505653 -4.973798 -110.738909 -10.743885 -4.973798 -158.083722 -2.110030 -3.759997 -173.244581 -3.357090 29.763441 -154.635509 -2.076849 3.759997 2.928763 0.330067 0.313953
1212.090225 434.550980 50.349221 0.000000 0.000000 0.000000 0.000000 0.000000 0.000000 -112.403932 12.220057 0.000000 67.596068 41.958690 0.000000 -157.060799 -3.817397 -0.000000 173.400765 0.285010 30.000000 -154.473580 -2.816562 0.000000 2.734633 0.346076 0.000000
1214.024734 450.340490 48.683524 0.000000 0.000000 0.000000 0.000000 0.000000 0.000000 -110.634751 -8.189692 4.973798 69.365249 2.633155 4.973798 -137.583343 -3.062059 3.759997 -158.589698 -2.495442 29.763441 20.879446 3.363219 -3.759997 -15.912055 -0.336322 0.313953
1204.271393 440.192921 45.758868 0.000000 0.000000 0.000000 0.000000 0.000000 0.000000 -99.498286 -24.285221 9.635073 80.501714 42.943449 9.635073 -156.696469 -3.167531 7.460697 -178.487725 8.900696 29.057495 -157.318323 -1.937958 -7.460697 2.108583 0.227377 0.626666
965.269558 444.725315 64.443812 0.000000 0.000000 0.000000 0.000000 0.000000 0.000000 40.845461 -13.919821 13.690942 180.000000 21.484684 13.690942 28.615377 -2.139370 11.043737 151.384623 9.909808 27.893295 16.305092 5.666379 -11.043737 18.000000 -0.470192 0.936907
1182.456551 475.103824 58.351322 0.000000 0.000000 0.000000 0.000000 0.000000 0.000000 -168.146016 17.270022 16.886559 11.853984 67.409440 16.886559 -63.802645 -0.538864 14.452610 -61.114510 4.832262 26.289200 -47.869281 3.285308 -14.452610 -13.834956 -7.316458 1.243449
965.446390 444.704404 62.343363 0.000000 0.000000 0.000000 0.000000 0.000000 0.000000 39.578146 -6.112831 19.021130 180.000000 -18.553996 19.021130 27.338029 -1.451908 17.633558 152.661971 -6.626993 24.270510 15.463180 -5.769004 -17.633558 18.000000 0.799181 1.545085
965.533915 444.693669 62.930222 0.000000 0.000000 0.000000 0.000000 0.000000 0.000000 38.916706 43.047896 19.960535 180.000000 -19.256711 19.960535 26.716768 4.291272 20.536413 153.283232 -7.195777 21.869059 15.076605 -3.217477 -20.536413 18.000000 -0.009388 1.840623
965.620834 444.682749 75.671403 0.000000 0.000000 0.000000 0.000000 0.000000 0.000000 38.241653 9.508303 19.645745 180.000000 -7.691625 19.645745 26.109467 9.084177 23.115397 153.890533 4.248308 19.122720 14.712258 -8.617843 -23.115397 18.000000 0.555422 2.128896
965.707136 444.671645 69.782507 0.000000 0.000000 0.000000 0.000000 0.000000 0.000000 37.556504 16.512584 18.096541 180.000000 -11.529293 18.096541 25.517536 6.303836 25.329838 154.482464 7.469280 16.074804 14.369537 -3.475784 -25.329838 18.000000 0.281391 2.408768
965.792812 444.660356 77.931909 0.000000 0.000000 0.000000 0.000000 0.000000 0.000000 36.864608 -19.807157 15.410265 180.000000 -10.059210 15.410265 24.942131 3.482378 27.144812 155.057869 3.932459 12.773379 14.047797 -0.422333 -27.144812 18.000000 -0.335224 2.679134
965.877853 444.648882 83.930739 0.000000 0.000000 0.000000 0.000000 0.000000 0.000000 36.169118 -35.856926 11.755705 180.000000 2.546619 11.755705 24.384173 4.848945 28.531695 155.615827 10.820270 9.270510 13.746367 -5.710801 -28.531695 18.000000 0.413214 2.938926
965.962249 444.637226 93.457170 0.000000 0.000000 0.000000 0.000000 0.000000 0.000000 35.472980 15.048740 7.362491 180.000000 9.993093 7.362491 23.844373 -9.892052 29.468618 156.155627 -7.336298 5.621439 13.464570 5.036388 -29.468618 18.000000 0.023112 3.187120
966.045991 444.625386 92.825989 0.000000 0.000000 0.000000 0.000000 0.000000 0.000000 34.778913 1.019931 2.506665 180.000000 -12.009055 2.506665 23.323250 1.458305 29.940802 156.676750 -4.896807 1.883716 13.201728 -4.141271 -29.940802 18.000000 -0.215763 3.422736
966.129071 444.613364 109.423479 0.000000 0.000000 0.000000 0.000000 0.000000 0.000000 34.089406 7.182032 -2.506665 180.000000 -1.743546 -2.506665 22.821158 13.344324 29.940802 157.178842 -1.344393 -1.883716 12.957175 -1.329803 -29.940802 18.000000 0.605653 3.644843
966.211478 444.601159 91.978786 0.000000 0.000000 0.000000 0.000000 0.000000 0.000000 33.406712 -19.325385 -7.362491 180.000000 -5.261470 -7.362491 22.338307 -4.321606 29.468618 157.661693 -0.260985 -5.621439 12.730264 -1.729057 -29.468618 18.000000 1.076801 3.852566
1171.486244 534.946783 126.570875 0.000000 0.000000 0.000000 0.000000 0.000000 0.000000 70.594720 -8.436230 -11.755705 -109.405280 2.318747 -11.755705 49.953444 5.455012 28.531695 -151.467583 -4.754470 -9.270510 0.000000 0.000000 0.000000 0.000000 0.000000 0.000000
966.374240 444.576206 127.126024 0.000000 0.000000 0.000000 0.000000 0.000000 0.000000 32.069603 5.888425 -15.410265 180.000000 -5.234738 -15.410265 21.430544 4.360988 27.144812 158.569456 7.982544 -12.773379 12.326901 -9.760717 -27.144812 18.000000 0.200974 4.221640
1172.156410 555.047708 140.155751 0.000000 0.000000 0.000000 0.000000 0.000000 0.000000 -121.065102 -19.154365 -18.096541 58.934898 -17.891298 -18.096541 -151.641456 -5.478354 25.329838 -177.360623 -5.593117 -16.074804 -149.076048 -6.195748 -25.329838 0.000000 0.000000 0.000000
1161.826630 552.360713 124.238947 0.000000 0.000000 0.000000 0.000000 0.000000 0.000000 69.958407 -3.165450 -19.645745 -110.041593 1.269089 -19.645745 -152.437496 -5.732500 23.115397 -158.790607 -0.456605 -19.122720 -150.591725 -6.560122 -23.115397 3.219062 0.863434 4.524135
1165.827255 569.832902 134.370017 0.000000 0.000000 0.000000 0.000000 0.000000 0.000000 25.594208 -24.527015 -19.960535 -154.405792 16.284087 -19.960535 11.723883 5.291246 20.536413 -161.543160 2.311143 -21.869059 7.769582 -0.310406 -20.536413 -17.248199 0.090472 4.648882
1165.555573 565.067046 139.779467 0.000000 0.000000 0.000000 0.000000 0.000000 0.000000 43.355707 -6.501544 -19.021130 -136.644293 8.197622 -19.021130 15.984329 1.445641 17.633558 -140.773833 1.652201 -24.270510 13.679449 2.053302 -17.633558 -16.392157 -0.007310 4.755283
1290.255775 608.533316 113.616200 0.000000 0.000000 0.000000 0.000000 0.000000 0.000000 -153.952071 16.372593 -16.886559 26.047929 5.719886 -16.886559 -152.683807 -5.806424 14.452610 4.794196 3.138811 -26.289200 -154.287190 -5.640577 -14.452610 2.418080 0.502647 4.842916
1180.398903 551.817470 127.073834 0.000000 0.000000 0.000000 0.000000 0.000000 0.000000 51.640104 1.308592 -13.690942 -128.359896 -5.012585 -13.690942 14.419400 3.119653 11.043737 -33.521359 8.138549 -27.893295 -34.277510 -0.218312 -11.043737 5.235387 -1.994667 4.911436
1162.708626 619.419501 147.516460 0.000000 0.000000 0.000000 0.000000 0.000000 0.000000 -88.968325 1.380269 -9.635073 91.031675 -20.186300 -9.635073 -52.690088 -2.335331 7.460697 25.015222 -0.991044 -29.057495 -72.561734 0.166297 -7.460697 8.557489 0.406304 4.960574
1110.899391 602.919216 143.715150 0.000000 0.000000 0.000000 0.000000 0.000000 0.000000 -86.972237 4.755180 -4.973798 93.027763 18.479313 -4.973798 -39.551144 -3.555781 3.759997 34.838085 -2.490199 -29.763441 -44.185810 5.839721 -3.759997 10.000609 -0.348742 4.990134
1150.187302 553.686991 147.372764 0.000000 0.000000 0.000000 0.000000 0.000000 0.000000 -116.065142 -4.519390 -0.000000 63.934858 -4.862332 -0.000000 -151.059314 -6.426259 0.000000 -0.492058 1.224231 -30.000000 -14.044098 8.616769 -0.000000 1.929760 -1.704946 5.000000
967.144727 444.440682 151.010366 0.000000 0.000000 0.000000 0.000000 0.000000 0.000000 26.270296 -18.763011 4.973798 180.000000 3.764821 4.973798 17.996647 -10.121883 -3.759997 162.003353 3.793395 -29.763441 11.189167 -1.675080 3.759997 18.000000 0.323253 4.990134
1213.452644 620.002785 143.333096 0.000000 0.000000 0.000000 0.000000 0.000000 0.000000 140.390379 -10.362396 9.635073 -39.609621 -8.997632 9.635073 77.724607 4.346521 -7.460697 -153.982965 -6.703354 -29.057495 24.142749 6.513892 7.460697 -0.833727 -2.366347 4.960574
1124.373779 618.464527 148.293427 0.000000 0.000000 0.000000 0.000000 0.000000 0.000000 99.329635 20.881539 13.690942 -80.670365 -11.176518 13.690942 85.960927 -0.821032 -11.043737 -150.875293 -7.543860 -27.893295 31.644098 6.672167 11.043737 -14.835590 -0.667217 4.911436
967.360971 444.396582 158.751216 0.000000 0.000000 0.000000 0.000000 0.000000 0.000000 24.874716 42.343544 16.886559 180.000000 -16.839607 16.886559 17.291102 -2.952812 -14.452610 162.708898 -15.770266 -26.289200 11.098846 2.114251 14.452610 18.000000 0.067289 4.842916
1107.875175 542.453964 141.590336 0.000000 0.000000 0.000000 0.000000 0.000000 0.000000 -128.741314 -9.734033 19.021130 51.258686 -0.077133 19.021130 -177.225595 6.615764 -17.633558 19.954750 8.003364 -24.270510 162.677362 -3.947033 17.633558 -1.443098 -0.014885 4.755283
1119.652290 522.766346 162.894442 0.000000 0.000000 0.000000 0.000000 0.000000 0.000000 -99.017754 -4.783421 19.960535 80.982246 3.326253 19.960535 -150.289603 -7.614564 -20.536413 -152.613833 -7.683035 -21.869059 0.000000 0.000000 0.000000 0.000000 0.000000 0.000000
1132.908783 538.229613 151.886591 0.000000 0.000000 0.000000 0.000000 0.000000 0.000000 -127.874185 -4.522373 19.645745 52.125815 4.578243 19.645745 -165.450188 2.968765 -23.115397 -152.521515 -6.619109 -19.122720 40.606225 9.878544 23.115397 -13.939378 -0.987854 4.524135
1146.969337 541.828065 135.986215 0.000000 0.000000 0.000000 0.000000 0.000000 0.000000 -113.631604 5.980075 18.096541 66.368396 -4.316011 18.096541 -159.067475 -2.812757 -25.329838 113.981862 -1.819324 -16.074804 -145.449815 -7.091442 25.329838 0.000000 0.000000 0.000000
1165.252304 561.329677 155.313849 0.000000 0.000000 0.000000 0.000000 0.000000 0.000000 -112.861399 -6.961917 15.410265 67.138601 -2.293287 15.410265 -159.396543 0.299065 -27.144812 -151.967552 -6.529599 -12.773379 38.422588 8.856055 27.144812 -14.157741 -0.885606 4.221640
1174.726181 592.839689 139.283239 0.000000 0.000000 0.000000 0.000000 0.000000 0.000000 -110.369899 -1.337917 11.755705 69.630101 11.936848 11.755705 -148.108768 -0.554059 -28.531695 -151.515612 -6.292809 -9.270510 34.277732 8.540901 28.531695 -14.572227 -0.854090 4.045085
1167.352524 605.194867 136.019563 0.000000 0.000000 0.000000 0.000000 0.000000 0.000000 -113.828445 7.267203 7.362491 66.171555 -8.495305 7.362491 -131.688453 2.485461 -29.468618 -151.045756 -7.117262 -5.621439 27.200835 8.941174 29.468618 -15.279916 -0.894117 3.852566
1139.678879 602.981014 132.040361 0.000000 0.000000 0.000000 0.000000 0.000000 0.000000 -97.599684 13.543901 2.506665 82.400316 -12.339725 2.506665 -113.965806 2.976046 -29.940802 -121.058781 -2.968239 -1.883716 -118.492407 1.468844 29.940802 10.137620 -6.730576 3.644843
1165.830002 580.020189 124.339103 0.000000 0.000000 0.000000 0.000000 0.000000 0.000000 -28.085052 -23.265868 -2.506665 151.914948 0.304481 -2.506665 -150.589103 -5.448302 -29.940802 -172.678414 16.550624 1.883716 -149.717924 -7.381784 29.940802 0.000000 0.000000 0.000000
1184.501953 619.872494 124.233949 0.000000 0.000000 0.000000 0.000000 0.000000 0.000000 -113.790307 -1.364230 -7.362491 66.209693 -18.568449 -7.362491 -59.272274 2.635162 -29.468618 29.476823 -0.581146 5.621439 -88.148483 -1.501799 29.468618 7.414604 0.155653 3.187120
968.090170 444.221640 127.371705 0.000000 0.000000 0.000000 0.000000 0.000000 0.000000 21.092887 -13.021106 -11.755705 180.000000 4.483342 -11.755705 15.757771 -2.726322 -28.531695 164.242229 3.370861 9.270510 11.678908 -0.965303 28.531695 18.000000 -0.798154 2.938926
968.151278 444.204723 133.966031 0.000000 0.000000 0.000000 0.000000 0.000000 0.000000 20.844337 20.461976 -15.410265 180.000000 -1.193430 -15.410265 15.691895 -2.257438 -27.144812 164.308105 2.559786 12.773379 11.804629 -1.686499 27.144812 18.000000 -0.603228 2.679134
968.211492 444.187640 104.633048 0.000000 0.000000 0.000000 0.000000 0.000000 0.000000 20.610265 -3.644013 -18.096541 180.000000 5.182861 -18.096541 15.637361 0.028765 -25.329838 164.362639 -1.844096 16.074804 11.943263 3.444252 25.329838 18.000000 0.229149 2.408768
968.270806 444.170392 120.305027 0.000000 0.000000 0.000000 0.000000 0.000000 0.000000 20.390366 -5.767204 -19.645745 180.000000 -7.241455 -19.645745 15.594026 1.413078 -23.115397 164.405974 -3.428393 19.122720 12.095062 -1.132138 23.115397 18.000000 0.557285 2.128896
968.329212 444.152979 100.564066 0.000000 0.000000 0.000000 0.000000 0.000000 0.000000 20.184343 -26.317983 -19.960535 180.000000 23.238543 -19.960535 15.561766 -14.403042 -20.536413 164.438234 5.152023 21.869059 12.260289 -2.465355 20.536413 18.000000 0.209114 1.840623
968.386706 444.135403 69.082125 0.000000 0.000000 0.000000 0.000000 0.000000 0.000000 19.991916 1.640136 -19.021130 180.000000 -0.015098 -19.021130 15.540476 -3.936094 -17.633558 164.459524 -8.689396 24.270510 12.439222 3.000705 17.633558 18.000000 0.296448 1.545085
968.443279 444.117663 87.556154 0.000000 0.000000 0.000000 0.000000 0.000000 0.000000 19.812814 6.176782 -16.886559 180.000000 -2.573501 -16.886559 15.530069 4.112188 -14.452610 164.469931 0.434471 26.289200 12.632146 0.957969 14.452610 18.000000 -0.034982 1.243449
968.498927 444.099761 78.749049 0.000000 0.000000 0.000000 0.000000 0.000000 0.000000 19.646785 -24.001285 -13.690942 180.000000 6.084085 -13.690942 15.530474 -6.904140 -11.043737 164.469526 4.988223 27.893295 12.839349 -0.628805 11.043737 18.000000 -0.723856 0.936907
968.553643 444.081696 95.133318 0.000000 0.000000 0.000000 0.000000 0.000000 0.000000 19.493591 5.044062 -9.635073 180.000000 -0.187480 -9.635073 15.541640 -8.108491 -7.460697 164.458360 1.278972 29.057495 13.061119 -4.666942 7.460697 18.000000 0.477498 0.626666
1051.772690 653.004448 69.313491 0.000000 0.000000 0.000000 0.000000 0.000000 0.000000 -79.007834 7.070871 -4.973798 100.992166 7.364274 -4.973798 -126.715299 6.188220 -3.759997 -149.991181 -2.916368 29.763441 31.772279 5.155682 3.759997 -14.822772 -0.515568 0.313953
1061.669197 624.716241 71.051367 0.000000 0.000000 0.000000 0.000000 0.000000 0.000000 -94.718359 -4.845229 0.000000 85.281641 15.025124 0.000000 -144.150484 -4.804248 -0.000000 60.155085 -6.897149 30.000000 -152.711462 3.391044 0.000000 1.815393 -0.423329 0.000000
1072.053337 571.032879 74.538358 0.000000 0.000000 0.000000 0.000000 0.000000 0.000000 71.424080 13.012258 4.973798 -108.575920 -4.459860 4.973798 -149.042361 -3.686395 3.759997 -149.913636 -3.376784 29.763441 -145.792107 -3.892249 -3.759997 3.947623 0.417465 0.313953
1070.057373 572.884376 69.963423 0.000000 0.000000 0.000000 0.000000 0.000000 0.000000 -80.850201 -23.483057 9.635073 99.149799 -23.005735 9.635073 -147.567525 -2.679793 7.460697 -164.443014 -0.847480 29.057495 -145.447997 -3.531803 -7.460697 4.032371 0.417665 0.626666
968.813035 443.988972 66.510080 0.000000 0.000000 0.000000 0.000000 0.000000 0.000000 18.912944 15.373867 13.690942 180.000000 4.448058 13.690942 15.758200 -0.290146 11.043737 164.241800 6.516453 27.893295 14.397395 -6.488477 -11.043737 18.000000 0.454162 0.936907
968.862036 443.969952 71.928943 0.000000 0.000000 0.000000 0.000000 0.000000 0.000000 18.832684 2.449982 16.886559 180.000000 -11.141638 16.886559 15.833735 1.773666 14.452610 164.166265 -2.684280 26.289200 14.711463 2.069530 -14.452610 18.000000 -0.727243 1.243449
968.910065 443.950775 47.017594 0.000000 0.000000 0.000000 0.000000 0.000000 0.000000 18.764066 -19.540384 19.021130 180.000000 4.088453 19.021130 15.920102 -2.816079 17.633558 164.079898 4.522995 24.270510 15.041323 2.630493 -17.633558 18.000000 0.225614 1.545085
968.957118 443.931442 55.194596 0.000000 0.000000 0.000000 0.000000 0.000000 0.000000 18.706990 -4.889260 19.960535 180.000000 -4.865945 19.960535 16.017366 4.824965 20.536413 163.982634 -2.117159 21.869059 15.386894 2.238363 -20.536413 18.000000 0.277266 1.840623
969.003188 443.911954 40.721053 0.000000 0.000000 0.000000 0.000000 0.000000 0.000000 18.661377 -1.527190 19.645745 180.000000 -7.541032 19.645745 16.125602 3.597947 23.115397 163.874398 -0.967370 19.122720 15.747980 -2.468107 -23.115397 18.000000 -0.254624 2.128896
969.048271 443.892312 42.480901 0.000000 0.000000 0.000000 0.000000 0.000000 0.000000 18.627165 5.098939 18.096541 180.000000 4.309497 18.096541 16.244896 1.943731 25.329838 163.755104 3.465919 16.074804 16.124252 -2.177771 -25.329838 18.000000 -0.272346 2.408768
969.092361 443.872515 44.530021 0.000000 0.000000 0.000000 0.000000 0.000000 0.000000 18.604312 7.864896 15.410265 180.000000 3.384539 15.410265 16.375340 -1.621855 27.144812 163.624660 2.209977 12.773379 16.515224 -8.193462 -27.144812 18.000000 0.689416 2.679134
1055.186234 577.357593 46.268054 0.000000 0.000000 0.000000 0.000000 0.000000 0.000000 85.510211 0.361059 11.755705 -94.489789 3.298196 11.755705 37.103410 1.484626 28.531695 -148.111343 -2.405330 9.270510 24.294182 2.532297 -28.531695 -8.601915 0.474168 2.938926
1122.856522 566.714029 40.869040 0.000000 0.000000 0.000000 0.000000 0.000000 0.000000 96.216240 -0.018633 7.362491 -83.783760 4.595139 7.362491 46.189625 1.968711 29.468618 -149.396962 -1.845209 5.621439 24.670091 2.668110 -29.468618 -7.107716 -1.569805 3.187120
969.218632 443.812213 39.880770 0.000000 0.000000 0.000000 0.000000 0.000000 0.000000 18.603763 19.842323 2.506665 180.000000 -8.327547 2.506665 16.834613 -0.551105 29.940802 163.165387 -13.800369 1.883716 17.768624 2.725556 -29.940802 18.000000 0.205064 3.422736
1112.757797 605.798106 40.229638 0.000000 0.000000 0.000000 0.000000 0.000000 0.000000 110.914625 14.802600 -2.506665 -69.085375 -7.452134 -2.506665 67.769469 -2.624825 29.940802 -149.822316 -2.913319 -1.883716 29.049901 2.240027 -29.940802 -3.625079 0.219417 3.644843
1086.733246 592.557156 51.069558 0.000000 0.000000 0.000000 0.000000 0.000000 0.000000 -80.132323 -60.045604 -7.362491 99.867677 74.922909 -7.362491 36.201564 -3.786884 29.468618 -13.679556 9.608048 -5.621439 78.049842 4.510734 -29.468618 -5.127460 -0.655776 3.852566
1081.109390 570.394492 69.880399 0.000000 0.000000 0.000000 0.000000 0.000000 0.000000 -175.864613 0.462361 -11.755705 4.135387 -7.953835 -11.755705 134.713876 5.616049 28.531695 -10.005873 2.119289 -9.270510 135.737755 -2.178843 -28.531695 -3.389365 0.144256 4.045085
1089.776802 536.594539 82.161018 0.000000 0.000000 0.000000 0.000000 0.000000 0.000000 -139.033903 28.080298 -15.410265 40.966097 5.782023 -15.410265 161.695972 -5.569404 27.144812 3.114398 -2.518670 -12.773379 148.805610 1.662763 -27.144812 -2.611636 -0.121222 4.221640
1114.282036 523.965647 78.185622 0.000000 0.000000 0.000000 0.000000 0.000000 0.000000 -156.073983 -2.762077 -18.096541 23.926017 1.312520 -18.096541 174.825807 1.477069 25.329838 5.093343 0.886003 -16.074804 161.266817 -0.642662 -25.329838 -1.814366 0.051940 4.381533
1122.145157 503.425248 57.565149 0.000000 0.000000 0.000000 0.000000 0.000000 0.000000 -144.538174 -32.761481 -19.645745 35.461826 10.307471 -19.645745 174.215003 2.065300 23.115397 -151.750905 -2.444449 -19.122720 43.887064 4.102488 -23.115397 -13.611294 -0.410249 4.524135
1134.158249 484.688419 65.770993 0.000000 0.000000 0.000000 0.000000 0.000000 0.000000 -142.311443 -4.911804 -19.960535 37.688557 1.077967 -19.960535 -174.407776 0.853954 20.536413 14.121014 -3.744957 -21.869059 176.737053 0.218840 -20.536413 -0.386439 0.077224 4.648882
1156.756668 500.025387 78.389179 0.000000 0.000000 0.000000 0.000000 0.000000 0.000000 -140.140767 -20.710860 -19.021130 39.859233 9.313427 -19.021130 -176.866589 2.620165 17.633558 -153.177991 -2.964311 -24.270510 40.555680 4.842172 -17.633558 -13.944432 -0.484217 4.755283
1163.818588 490.292573 60.682750 0.000000 0.000000 0.000000 0.000000 0.000000 0.000000 -126.918075 -12.078517 -16.886559 53.081925 9.824335 -16.886559 -163.374411 -3.024944 14.452610 -153.952175 -3.753167 -26.289200 36.914642 4.466891 -14.452610 0.798233 -0.224310 4.842916
1176.523705 490.346003 86.925001 0.000000 0.000000 0.000000 0.000000 0.000000 0.000000 -130.072590 3.575076 -13.690942 49.927410 -8.377798 -13.690942 -150.224616 1.219322 11.043737 24.749952 -1.971085 -27.893295 -162.219632 -1.993208 -11.043737 1.550269 0.017560 4.911436
1165.045052 489.521159 83.298660 0.000000 0.000000 0.000000 0.000000 0.000000 0.000000 -134.421293 -4.502109 -9.635073 45.578707 -7.532731 -9.635073 -138.114962 -2.528883 7.460697 20.347125 2.601675 -29.057495 -149.675125 -1.244742 -7.460697 1.919618 -0.061704 4.960574
1186.003189 485.341580 76.055474 0.000000 0.000000 0.000000 0.000000 0.000000 0.000000 151.263424 50.368182 -4.973798 -28.736576 -71.263006 -4.973798 -155.571724 -4.185791 3.759997 -114.944239 -9.743478 -29.763441 -157.446860 -4.192365 -3.759997 2.096391 0.401580 4.990134
1190.285912 497.609435 89.047619 0.000000 0.000000 0.000000 0.000000 0.000000 0.000000 -104.331435 4.811053 -0.000000 75.668565 3.079792 -0.000000 -153.934692 -4.769563 0.000000 -67.465008 -0.421890 -30.000000 -71.629168 -2.095096 -0.000000 -13.965204 -8.310303 5.000000
846.875610 502.341399 96.904532 0.000000 0.000000 0.000000 0.000000 0.000000 0.000000 -153.358185 15.436623 4.973798 26.641815 -2.367777 4.973798 -147.628169 -5.611867 -3.759997 -147.401289 -5.924763 -29.763441 0.000000 0.000000 0.000000 0.000000 0.000000 0.000000
969.711343 443.490827 109.929540 0.000000 0.000000 0.000000 0.000000 0.000000 0.000000 20.204512 -12.466667 9.635073 180.000000 11.684346 9.635073 20.733157 -7.127282 -7.460697 159.266843 1.412755 -29.057495 24.065833 2.668691 7.460697 18.000000 0.863330 4.960574
969.735789 443.468267 123.705547 0.000000 0.000000 0.000000 0.000000 0.000000 0.000000 20.415894 18.620668 13.690942 180.000000 -6.902468 13.690942 21.087741 -9.221415 -11.043737 158.912259 -5.617196 -27.893295 24.320336 -7.532451 11.043737 18.000000 -0.683895 4.911436
969.759168 443.445569 110.531935 0.000000 0.000000 0.000000 0.000000 0.000000 0.000000 20.642061 -25.730453 16.886559 180.000000 3.966899 16.886559 21.453029 -4.414597 -14.452610 158.546971 -3.093137 -26.289200 24.533304 4.255851 14.452610 18.000000 0.213326 4.842916
585.252171 514.469179 115.455546 0.000000 0.000000 0.000000 0.000000 0.000000 0.000000 74.723181 1.005405 19.021130 -105.276819 4.045903 19.021130 119.807175 -6.125336 -17.633558 165.825978 9.039851 -24.270510 138.012220 -15.849316 17.633558 -12.357653 0.902121 4.755283
624.843979 517.601860 136.112599 0.000000 0.000000 0.000000 0.000000 0.000000 0.000000 103.202449 20.039853 19.960535 -76.797551 -12.115959 19.960535 114.381580 3.909489 -20.536413 -53.015473 72.286631 -21.869059 145.467160 -4.362105 20.536413 -4.173333 -1.887187 4.648882
969.822873 443.376664 125.700675 0.000000 0.000000 0.000000 0.000000 0.000000 0.000000 21.413420 -4.134247 19.645745 180.000000 -3.984832 19.645745 22.607712 4.596276 -23.115397 157.392288 -1.453041 -19.122720 24.899813 15.351993 23.115397 18.000000 -1.712104 4.524135
969.841956 443.353428 141.905043 0.000000 0.000000 0.000000 0.000000 0.000000 0.000000 21.702987 -8.605292 18.096541 180.000000 0.583995 18.096541 23.009909 -0.695484 -25.329838 156.990091 7.313911 -16.074804 24.926562 -8.925945 25.329838 18.000000 -0.441476 4.381533
969.859960 443.330059 124.806607 0.000000 0.000000 0.000000 0.000000 0.000000 0.000000 22.009579 15.840213 15.410265 180.000000 -15.840904 15.410265 23.419334 14.656713 -27.144812 156.580666 -4.943945 -12.773379 24.904993 1.358211 27.144812 18.000000 -0.074983 4.221640
594.905148 538.048757 141.828520 0.000000 0.000000 0.000000 0.000000 0.000000 0.000000 -57.080480 6.287079 11.755705 122.919520 -14.607565 11.755705 -12.750556 10.236904 -28.531695 149.841027 -15.982007 -9.270510 -8.274090 7.692671 28.531695 17.596979 -0.632055 4.045085
969.892723 443.282929 155.572066 0.000000 0.000000 0.000000 0.000000 0.000000 0.000000 22.675903 -16.078569 7.362491 180.000000 -4.717914 7.362491 24.255612 6.308872 -29.468618 155.744388 -11.080559 -5.621439 24.720303 -0.192926 29.468618 18.000000 1.535047 3.852566
1257.001877 499.708382 153.047350 0.000000 0.000000 0.000000 0.000000 0.000000 0.000000 52.818511 4.680571 2.506665 -127.181489 1.144443 2.506665 25.369497 -4.724422 -29.940802 -143.914951 0.981484 -1.883716 14.556766 -2.586972 29.940802 -16.686776 0.217684 3.644843
1279.050064 493.773898 158.740865 0.000000 0.000000 0.000000 0.000000 0.000000 0.000000 56.685213 0.243049 -2.506665 -123.314787 3.211808 -2.506665 24.065452 -7.521004 -29.940802 -146.540317 -0.326145 1.883716 13.097461 0.945000 29.940802 -16.716891 -0.202541 3.422736
1295.108986 477.099677 151.357447 0.000000 0.000000 0.000000 0.000000 0.000000 0.000000 65.723361 -10.716418 -7.362491 -114.276639 12.542059 -7.362491 23.725299 -5.401871 -29.468618 -147.984281 3.171607 5.621439 13.187557 -1.303143 29.468618 -16.751134 0.105938 3.187120
1289.065018 496.763316 150.290047 0.000000 0.000000 0.000000 0.000000 0.000000 0.000000 61.662232 3.562906 -11.755705 -118.337768 1.828203 -11.755705 31.397757 -0.186237 -28.531695 -148.047797 3.889240 9.270510 12.491083 -1.679782 28.531695 -16.898368 0.020188 2.938926
1285.337105 480.691112 157.499033 0.000000 0.000000 0.000000 0.000000 0.000000 0.000000 58.021980 4.066449 -15.410265 -121.978020 -6.378353 -15.410265 31.705930 8.243802 -27.144812 -157.028684 -2.897201 12.773379 11.107306 0.945102 27.144812 -17.140016 0.095000 2.679134
1276.453171 465.093691 155.624431 0.000000 0.000000 0.000000 0.000000 0.000000 0.000000 70.157145 17.259411 -18.096541 -109.842855 -12.578801 -18.096541 40.303764 5.896733 -25.329838 -145.293609 -6.525217 16.074804 10.431204 -1.412992 25.329838 -17.100572 0.153986 2.408768
1253.658714 472.768564 156.011373 0.000000 0.000000 0.000000 0.000000 0.000000 0.000000 65.087926 35.896956 -19.645745 -114.912074 -39.987255 -19.645745 -157.680356 -6.004310 -23.115397 -137.727082 -2.775916 19.122720 -153.053596 0.718267 23.115397 -16.054219 -0.864384 2.128896
1366.101608 507.691247 143.458641 0.000000 0.000000 0.000000 0.000000 0.000000 0.000000 108.715100 12.301025 -19.960535 -71.284900 -12.577084 -19.960535 156.661132 3.375084 -20.536413 -158.224303 -6.184277 21.869059 0.000000 0.000000 0.000000 0.000000 0.000000 0.000000
969.986295 443.064535 142.312701 0.000000 0.000000 0.000000 0.000000 0.000000 0.000000 26.662144 6.479508 -19.021130 180.000000 -4.213961 -19.021130 28.015351 -3.902631 -17.633558 151.984649 -15.411490 24.270510 22.068935 7.200373 17.633558 18.000000 -0.973541 1.545085
1282.107124 481.511257 144.235199 0.000000 0.000000 0.000000 0.000000 0.000000 0.000000 80.650781 -4.165582 -16.886559 -99.349219 -13.246093 -16.886559 1.511604 2.121856 -14.452610 -32.896908 -1.213556 26.289200 -7.727072 4.017849 14.452610 13.531851 -2.375857 1.243449
1282.921486 484.777769 156.569134 0.000000 0.000000 0.000000 0.000000 0.000000 0.000000 -81.737646 -3.152393 -13.690942 98.262354 -5.853971 -13.690942 -23.867101 -2.369452 -11.043737 12.655668 -2.706281 27.893295 -29.454911 -6.547900 11.043737 9.861248 1.444354 0.936907
1290.933037 513.180238 140.994406 0.000000 0.000000 0.000000 0.000000 0.000000 0.000000 -91.387864 1.833952 -9.635073 88.612136 4.320824 -9.635073 -41.685392 -3.117942 -7.460697 -161.156957 -5.920572 29.057495 15.157863 4.938589 7.460697 10.543436 0.012767 0.626666
969.999452 442.964284 130.534834 0.000000 0.000000 0.000000 0.000000 0.000000 0.000000 29.025427 17.340087 -4.973798 180.000000 0.376481 -4.973798 29.437993 -6.513265 -3.759997 150.562007 4.601267 29.763441 20.404746 -1.681512 3.759997 18.000000 0.022557 0.313953
970.000000 442.938926 119.021188 0.000000 0.000000 0.000000 0.000000 0.000000 0.000000 29.678605 -23.695781 0.000000 180.000000 17.060299 0.000000 29.744881 -1.580542 -0.000000 150.255119 1.210214 30.000000 19.983107 12.221484 0.000000 18.000000 -0.516878 0.000000
1354.522934 467.411410 124.496315 0.000000 0.000000 0.000000 0.000000 0.000000 0.000000 150.622570 1.392514 4.973798 -29.377430 3.740509 4.973798 140.176400 -5.094531 3.759997 -12.221629 1.888605 29.763441 132.794256 1.110161 -3.759997 -2.626015 0.018197 0.313953
969.997807 442.887864 111.683849 0.000000 0.000000 0.000000 0.000000 0.000000 0.000000 31.061399 23.036292 9.635073 180.000000 -17.603699 9.635073 30.285790 8.325500 7.460697 149.714210 -3.753510 29.057495 19.151579 -6.047676 -7.460697 18.000000 0.625701 0.626666
1246.736984 514.278152 100.684550 0.000000 0.000000 0.000000 0.000000 0.000000 0.000000 143.557092 6.533058 13.690942 -36.442908 2.021337 13.690942 133.761037 -5.144092 11.043737 -156.950665 -6.312784 27.893295 0.000000 0.000000 0.000000 1.928484 0.423945 0.936907
1245.221100 458.637464 107.055432 0.000000 0.000000 0.000000 0.000000 0.000000 0.000000 160.701064 -13.838564 16.886559 -19.298936 -17.351305 16.886559 140.193827 2.675748 14.452610 -157.554825 -5.637032 26.289200 29.500467 5.111551 -14.452610 -15.049953 -0.511155 1.243449
1257.365570 418.514181 107.655478 0.000000 0.000000 0.000000 0.000000 0.000000 0.000000 -143.710676 -12.270760 19.021130 36.289324 15.664145 19.021130 163.220413 -6.389234 17.633558 11.688054 1.210170 24.270510 152.038385 1.576766 -17.633558 -2.339948 -0.054695 1.545085
1275.099564 408.163741 95.470465 0.000000 0.000000 0.000000 0.000000 0.000000 0.000000 -132.929531 -0.918305 19.960535 47.070469 19.848578 19.960535 173.491912 -3.342275 20.536413 -160.709681 -4.687639 21.869059 33.138793 5.516631 -20.536413 -14.686121 -0.551663 1.840623
1290.611115 384.880857 91.113541 0.000000 0.000000 0.000000 0.000000 0.000000 0.000000 -132.705235 -2.617943 19.645745 47.294765 1.843850 19.645745 -173.778854 -5.332164 23.115397 20.496835 -2.252200 19.122720 -161.220290 -3.936549 -23.115397 1.723235 0.337767 2.128896
1302.817154 380.305352 94.612578 0.000000 0.000000 0.000000 0.000000 0.000000 0.000000 -131.493915 -0.271820 18.096541 48.506085 -0.241364 18.096541 -165.393697 -4.022962 25.329838 23.154815 -0.214459 16.074804 -178.200316 -0.213844 -25.329838 0.138141 -0.063907 2.408768
1304.997711 379.563582 98.183874 0.000000 0.000000 0.000000 0.000000 0.000000 0.000000 -126.727972 3.496201 15.410265 53.272028 4.868569 15.410265 -160.219593 -5.134744 27.144812 28.448880 1.372217 12.773379 -174.368770 -0.759414 -27.144812 0.079526 0.081766 2.679134
1311.668472 386.890390 98.879661 0.000000 0.000000 0.000000 0.000000 0.000000 0.000000 -122.308728 -4.781356 11.755705 57.691272 -5.328374 11.755705 -158.801130 -2.812560 28.531695 150.942637 -7.737127 9.270510 -154.878332 -3.297687 -28.531695 2.695409 0.458616 2.938926
1305.131836 395.180186 75.704906 0.000000 0.000000 0.000000 0.000000 0.000000 0.000000 -125.112810 13.508935 7.362491 54.887190 -6.680899 7.362491 -146.487292 -1.536097 29.468618 -175.167369 -6.503567 5.621439 -159.224034 -3.920593 -29.468618 1.782042 0.597398 3.187120
1296.320457 392.734526 93.477106 0.000000 0.000000 0.000000 0.000000 0.000000 0.000000 -131.035750 4.772520 2.506665 48.964250 -11.210443 2.506665 -128.969563 0.595125 29.940802 38.856147 -8.347127 1.883716 -134.776850 3.185715 -29.940802 3.458429 -0.087607 3.422736
1306.963577 386.612041 82.680195 0.000000 0.000000 0.000000 0.000000 0.000000 0.000000 -124.469622 -15.063702 -2.506665 55.530378 4.281579 -2.506665 -109.994856 -1.473515 29.940802 37.691309 5.428656 -1.883716 -118.274788 1.672124 -29.940802 5.098336 -0.241802 3.644843
969.892723 442.572198 86.348371 0.000000 0.000000 0.000000 0.000000 0.000000 0.000000 41.287575 32.602939 -7.362491 180.000000 9.435172 -7.362491 30.974696 -10.128507 29.468618 149.025304 -11.571887 -5.621439 15.072869 2.125118 -29.468618 18.000000 -0.015937 3.852566
969.876883 442.545207 44.210630 0.000000 0.000000 0.000000 0.000000 0.000000 0.000000 42.241956 37.892681 -11.755705 180.000000 -5.084747 -11.755705 30.826133 -0.806419 28.531695 149.173867 -8.945641 -9.270510 14.823070 -0.083703 -28.531695 18.000000 0.186884 4.045085
969.859960 442.518116 68.556227 0.000000 0.000000 0.000000 0.000000 0.000000 0.000000 43.199779 -18.694128 -15.410265 180.000000 18.358938 -15.410265 30.649504 -5.219969 27.144812 149.350496 1.816031 -12.773379 14.587557 -3.612009 -27.144812 18.000000 0.304302 4.221640
969.841956 442.490926 60.464381 0.000000 0.000000 0.000000 0.000000 0.000000 0.000000 44.157210 -3.180759 -18.096541 180.000000 8.703600 -18.096541 30.446417 -12.488178 25.329838 149.553583 10.351506 -16.074804 14.366154 -3.498279 -25.329838 18.000000 0.165139 4.381533
969.822873 442.463637 33.755994 0.000000 0.000000 0.000000 0.000000 0.000000 0.000000 45.110117 6.860567 -19.645745 180.000000 4.958230 -19.645745 30.218633 5.864726 23.115397 149.781367 -1.913823 -19.122720 14.158653 1.877966 -23.115397 18.000000 0.218922 4.524135
969.802712 442.436251 50.872885 0.000000 0.000000 0.000000 0.000000 0.000000 0.000000 46.054109 -11.586748 -19.960535 180.000000 -2.169587 -19.960535 29.968037 -2.675885 20.536413 150.031963 -4.021271 -21.869059 13.964823 2.994874 -20.536413 18.000000 0.490890 4.648882
1187.040939 541.658249 60.746909 0.000000 0.000000 0.000000 0.000000 0.000000 0.000000 82.806623 0.741104 -19.021130 -97.193377 -28.479244 -19.021130 45.395981 7.180765 17.633558 -156.144455 -2.984526 -24.270510 0.000000 0.000000 0.000000 0.000000 0.000000 0.000000
1182.242889 522.024286 54.909350 0.000000 0.000000 0.000000 0.000000 0.000000 0.000000 -105.721938 -7.894130 -16.886559 74.278062 -8.685216 -16.886559 -155.708006 -2.000288 14.452610 -157.302521 -2.363718 -26.289200 0.000000 0.000000 0.000000 2.684983 0.217327 4.842916
1180.914459 527.065626 60.299064 0.000000 0.000000 0.000000 0.000000 0.000000 0.000000 88.055617 2.037769 -13.690942 -91.944383 -1.293641 -13.690942 -158.862018 -2.359437 11.043737 -151.747289 -2.390793 -27.893295 0.000000 0.000000 0.000000 0.000000 0.000000 0.000000
1236.800194 541.387432 51.577358 0.000000 0.000000 0.000000 0.000000 0.000000 0.000000 -85.588400 18.410863 -9.635073 94.411600 -8.966359 -9.635073 -159.297106 -5.154404 7.460697 -157.915391 -3.011445 -29.057495 26.607362 1.699905 -7.460697 14.926890 0.330420 4.960574
1161.066513 575.006626 62.797424 0.000000 0.000000 0.000000 0.000000 0.000000 0.000000 -81.021168 11.144331 -4.973798 98.978832 2.295776 -4.973798 -102.851701 -5.042033 3.759997 -157.041007 -2.551600 -29.763441 21.429890 0.740739 -3.759997 10.859432 1.397623 4.990134
1255.636253 512.645942 36.716053 0.000000 0.000000 0.000000 0.000000 0.000000 0.000000 77.832564 8.914225 -0.000000 -102.167436 -12.742675 -0.000000 -158.264834 -1.855493 0.000000 -130.745502 -7.121326 -30.000000 -157.699225 -2.263495 -0.000000 0.000000 0.000000 0.000000
1265.118484 521.473864 38.698538 0.000000 0.000000 0.000000 0.000000 0.000000 0.000000 64.078276 0.781903 4.973798 -115.921724 5.190647 4.973798 41.397952 -5.497380 -3.759997 -139.329851 1.774333 -29.763441 20.223252 -1.042256 3.759997 -16.047574 -0.038390 4.990134
1228.099480 522.138258 79.950500 0.000000 0.000000 0.000000 0.000000 0.000000 0.000000 71.050901 -3.436889 9.635073 -108.949099 -4.140132 9.635073 150.099970 0.625917 -7.460697 -139.894702 -0.312937 -29.057495 -156.275691 -3.588618 7.460697 0.000000 0.000000 0.000000
1240.357246 528.695873 55.627125 0.000000 0.000000 0.000000 0.000000 0.000000 0.000000 65.413351 -1.597198 13.690942 -114.586649 -6.981146 13.690942 147.242328 -1.508765 -11.043737 -154.470720 -2.915132 -27.893295 25.557225 3.771952 11.043737 -15.444278 -0.377195 4.911436
1231.815262 551.380248 49.291793 0.000000 0.000000 0.000000 0.000000 0.000000 0.000000 56.412506 -11.317869 16.886559 -123.587494 18.385037 16.886559 -153.392336 0.905288 -14.452610 -154.784582 -2.267839 -26.289200 24.191555 3.457446 14.452610 -15.580844 -0.345745 4.842916
1221.475182 508.360147 64.951582 0.000000 0.000000 0.000000 0.000000 0.000000 0.000000 77.450622 1.351388 19.021130 -102.549378 -0.236154 19.021130 -156.789784 -3.251397 -17.633558 -125.590168 -0.933437 -24.270510 -160.017240 -3.553739 17.633558 1.833434 0.345711 4.755283
969.477684 442.100429 61.506380 0.000000 0.000000 0.000000 0.000000 0.000000 0.000000 54.932575 -26.141976 19.960535 180.000000 -10.628282 19.960535 25.919122 4.959170 -20.536413 154.080878 4.372599 -21.869059 12.612867 -0.189675 20.536413 18.000000 0.146018 4.648882
1480.140495 518.878891 61.307387 0.000000 0.000000 0.000000 0.000000 0.000000 0.000000 -110.621767 74.932431 19.645745 69.378233 80.098372 19.645745 -158.235933 -2.854981 -23.115397 166.031448 -6.305913 -19.122720 -155.186432 -2.322973 23.115397 2.641553 0.326727 4.524135
1271.640472 556.840560 75.111758 0.000000 0.000000 0.000000 0.000000 0.000000 0.000000 -94.404719 6.391295 18.096541 85.595281 -4.500936 18.096541 -62.417786 2.013068 -25.329838 23.992813 -6.773781 -16.074804 -76.856107 4.985801 25.329838 7.708835 0.008512 4.381533
1258.556786 530.268441 98.953026 0.000000 0.000000 0.000000 0.000000 0.000000 0.000000 78.355945 0.459904 15.410265 -101.644055 4.069536 15.410265 35.068294 -0.088220 -27.144812 -54.090640 3.823893 -12.773379 35.848220 -0.950325 27.144812 -8.104639 -1.168253 4.221640
1250.800209 527.150567 92.081828 0.000000 0.000000 0.000000 0.000000 0.000000 0.000000 72.417769 4.338965 11.755705 -107.582231 15.653694 11.755705 24.571109 -11.091131 -28.531695 -39.196117 -0.164841 -9.270510 10.411117 3.537943 28.531695 -9.048616 -3.629666 4.045085
1243.466148 571.776259 92.830325 0.000000 0.000000 0.000000 0.000000 0.000000 0.000000 86.301473 2.526878 7.362491 -93.698527 -13.493595 7.362491 24.553534 -1.885293 -29.468618 -153.460385 -4.617239 -5.621439 19.510484 3.326084 29.468618 -10.109500 0.382276 3.852566
1261.883812 566.052918 95.629422 0.000000 0.000000 0.000000 0.000000 0.000000 0.000000 94.015209 1.131408 2.506665 -85.984791 -1.236100 2.506665 38.959993 2.318824 -29.940802 -154.008305 -4.026397 -1.883716 20.870951 3.419630 29.940802 -10.872440 -2.716730 3.644843
1284.436798 527.190542 99.800854 0.000000 0.000000 0.000000 0.000000 0.000000 0.000000 111.186365 2.220255 -2.506665 -68.813635 -2.629451 -2.506665 58.506163 -1.399506 -29.940802 -19.138727 -4.066005 1.883716 51.457372 -11.053756 29.940802 -5.203198 0.098362 3.422736
1272.860069 533.494012 78.567729 0.000000 0.000000 0.000000 0.000000 0.000000 0.000000 72.301471 21.957228 -7.362491 -107.698529 -7.601395 -7.362491 78.802573 3.838964 -29.468618 -154.772375 -4.619630 5.621439 26.927455 3.746444 29.468618 -15.307255 -0.374644 3.187120
1255.264664 498.243735 106.412914 0.000000 0.000000 0.000000 0.000000 0.000000 0.000000 164.596971 -41.681190 -11.755705 -15.403029 57.942793 -11.755705 125.849126 -9.781092 -28.531695 -156.067666 -4.547775 9.270510 33.087561 4.763676 28.531695 -14.691244 -0.476368 2.938926
1259.202232 470.407684 108.482214 0.000000 0.000000 0.000000 0.000000 0.000000 0.000000 -139.980397 -23.252833 -15.410265 40.019603 7.058395 -15.410265 165.887722 0.401426 -27.144812 -157.901492 -4.806231 12.773379 35.196094 5.412826 27.144812 -14.480391 -0.541283 2.679134
1236.502075 429.951335 111.335090 0.000000 0.000000 0.000000 0.000000 0.000000 0.000000 -113.295066 -0.434632 -18.096541 66.704934 -5.386612 -18.096541 -174.664169 2.347273 -25.329838 -159.007335 -5.759050 16.074804 32.868990 6.303446 25.329838 -14.713101 -0.630345 2.408768
1253.359451 413.942538 135.433486 0.000000 0.000000 0.000000 0.000000 0.000000 0.000000 -123.348580 4.877827 -19.645745 56.651420 -0.597571 -19.645745 -167.815074 -0.221536 -23.115397 -159.603180 -5.743982 19.122720 32.791747 6.580199 23.115397 -14.720825 -0.658020 2.128896
1281.206589 405.664523 113.493570 0.000000 0.000000 0.000000 0.000000 0.000000 0.000000 -124.414271 -1.879739 -19.960535 55.585729 -3.977707 -19.960535 -161.281803 4.321291 -20.536413 28.568449 0.435030 21.869059 -159.052798 -4.887959 20.536413 1.849141 0.368105 1.840623
1300.238571 418.760215 122.534444 0.000000 0.000000 0.000000 0.000000 0.000000 0.000000 -126.263092 -11.868246 -19.021130 53.736908 13.733219 -19.021130 -159.739358 -6.965098 -17.633558 31.487961 4.918301 24.270510 -170.323915 -2.129712 17.633558 0.671815 0.141052 1.545085
1321.889191 413.634385 146.516919 0.000000 0.000000 0.000000 0.000000 0.000000 0.000000 -133.874471 3.553760 -16.886559 46.125529 -9.936364 -16.886559 -159.376251 4.455693 -14.452610 30.696824 -5.002268 26.289200 -164.929556 -0.238159 14.452610 1.089735 -0.039561 1.243449
1336.221428 432.881820 155.654343 0.000000 0.000000 0.000000 0.000000 0.000000 0.000000 -115.020798 2.108720 -13.690942 64.979202 -1.975125 -13.690942 -135.609544 0.004456 -11.043737 -161.321630 -6.376175 27.893295 17.353502 8.492218 11.043737 -16.264650 -0.849222 0.936907
1329.124603 416.860342 143.511497 0.000000 0.000000 0.000000 0.000000 0.000000 0.000000 -134.023347 -12.881869 -9.635073 45.976653 1.566665 -9.635073 -128.030830 -0.388806 -7.460697 28.249885 4.596904 29.057495 -136.447985 -2.579951 7.460697 4.038834 -0.011216 0.626666
1343.366776 427.060794 142.536618 0.000000 0.000000 0.000000 0.000000 0.000000 0.000000 -130.153347 -8.595068 -4.973798 49.846653 7.304834 -4.973798 -103.564435 -4.394653 -3.759997 27.398095 1.620175 29.763441 -115.461530 0.184510 3.759997 5.470063 -0.095083 0.313953
1376.991005 465.829636 151.130256 0.000000 0.000000 0.000000 0.000000 0.000000 0.000000 -120.272352 12.583447 0.000000 59.727648 -1.720454 0.000000 -62.204131 -4.624600 -0.000000 27.740602 -1.340567 30.000000 -80.461527 -0.730995 0.000000 7.450891 0.085920 0.000000
1384.978867 468.790376 144.895651 0.000000 0.000000 0.000000 0.000000 0.000000 0.000000 -93.720384 6.410997 4.973798 86.279616 22.899623 4.973798 3.847814 1.082684 3.759997 -160.438787 -6.156866 29.763441 15.990976 4.984164 -3.759997 7.894783 0.396906 0.313953
1345.894547 516.257268 159.676619 0.000000 0.000000 0.000000 0.000000 0.000000 0.000000 127.577640 5.769320 9.635073 -52.422360 3.596670 9.635073 53.096359 0.594040 7.460697 -159.021748 -6.819866 29.057495 18.308456 4.985306 -7.460697 -4.062191 1.164909 0.626666
968.498927 441.455181 143.704752 0.000000 0.000000 0.000000 0.000000 0.000000 0.000000 47.920147 -9.964489 13.690942 180.000000 18.150727 13.690942 19.641385 -0.038803 11.043737 160.358615 5.112474 27.893295 13.993219 -3.676827 -11.043737 18.000000 0.210376 0.936907
1336.846733 493.527671 160.069513 0.000000 0.000000 0.000000 0.000000 0.000000 0.000000 102.681311 45.340941 16.886559 -77.318689 -29.427135 16.886559 35.985219 -5.056536 14.452610 -159.617763 -7.585861 26.289200 19.375410 5.436745 -14.452610 -16.062459 -0.543674 1.243449
968.386706 441.394956 143.675939 0.000000 0.000000 0.000000 0.000000 0.000000 0.000000 46.120581 -31.466691 19.021130 180.000000 20.764616 19.021130 19.316787 -0.910482 17.633558 160.683213 -3.076979 24.270510 14.327067 2.192430 -17.633558 18.000000 0.412313 1.545085
1263.984947 433.341283 166.460499 0.000000 0.000000 0.000000 0.000000 0.000000 0.000000 -115.578373 -7.117679 19.960535 64.421627 10.154005 19.960535 -82.396446 -13.393834 20.536413 25.733383 -0.110840 21.869059 -77.477544 2.927279 -20.536413 5.836928 -0.639108 1.840623
1352.596436 477.564354 151.356560 0.000000 0.000000 0.000000 0.000000 0.000000 0.000000 -99.196741 -5.135885 19.645745 80.803259 -1.373797 19.645745 -125.272585 5.720064 23.115397 -162.405270 -6.245018 19.122720 17.377627 6.956068 -23.115397 -16.262237 -0.695607 2.128896
1384.326782 408.174427 133.479742 0.000000 0.000000 0.000000 0.000000 0.000000 0.000000 96.868601 -8.622342 18.096541 -83.131399 24.974715 18.096541 -160.848957 -6.709334 25.329838 -137.255583 -1.915735 16.074804 -162.076720 -6.316347 -25.329838 0.000000 0.000000 0.000000
1387.580223 387.128634 138.064649 0.000000 0.000000 0.000000 0.000000 0.000000 0.000000 78.087764 5.397238 15.410265 -101.912236 -17.871993 15.410265 -161.807915 -5.965815 27.144812 -147.504361 -4.070731 12.773379 -162.566306 -6.864711 -27.144812 1.735427 0.822726 2.679134
1345.818558 392.423122 143.929914 0.000000 0.000000 0.000000 0.000000 0.000000 0.000000 71.782984 -1.497706 11.755705 -108.217016 -1.437589 11.755705 -169.469261 4.834100 28.531695 -153.903088 3.280587 9.270510 -154.670689 5.050940 -28.531695 15.277725 -0.929107 2.938926
1331.471329 361.814139 150.975358 0.000000 0.000000 0.000000 0.000000 0.000000 0.000000 53.586100 -10.775825 7.362491 -126.413900 29.375687 7.362491 -162.290330 -6.678170 29.468618 -154.912165 3.700096 5.621439 -162.550394 -7.444196 -29.468618 1.742175 0.803316 3.187120
1354.413986 427.213873 154.545842 0.000000 0.000000 0.000000 0.000000 0.000000 0.000000 -131.358118 -13.277067 2.506665 48.641882 7.321991 2.506665 -142.488821 -1.136204 29.940802 -161.977882 -5.834834 1.883716 12.673705 7.599602 -29.940802 1.397524 0.212982 3.422736
1330.326691 347.207226 125.981571 0.000000 0.000000 0.000000 0.000000 0.000000 0.000000 52.464175 6.814295 -2.506665 -127.535825 -14.361980 -2.506665 14.270918 -1.458416 29.940802 -122.057234 -6.255339 -1.883716 22.820874 -0.403389 -29.940802 -15.244909 0.345948 3.644843
1317.103271 414.475805 138.640249 0.000000 0.000000 0.000000 0.000000 0.000000 0.000000 76.170457 -11.341744 -7.362491 -103.829543 18.022733 -7.362491 -50.250674 -8.474751 29.468618 -52.503744 0.271648 -5.621439 -92.793049 0.816056 -29.468618 3.303440 0.417658 3.852566
1331.844635 430.291482 121.638342 0.000000 0.000000 0.000000 0.000000 0.000000 0.000000 79.985160 8.039064 -11.755705 -100.014840 -7.896268 -11.755705 25.995082 4.779183 28.531695 -75.062603 1.121613 -9.270510 38.761234 -1.766649 -28.531695 -11.442229 0.015205 4.045085
1359.462433 496.472383 107.367807 0.000000 0.000000 0.000000 0.000000 0.000000 0.000000 84.268829 -11.160866 -15.410265 -95.731171 3.745681 -15.410265 30.279153 7.472835 27.144812 -63.318008 6.352210 -12.773379 39.457716 1.562616 -27.144812 -9.485742 -0.264794 4.221640
1323.514366 546.771398 103.465064 0.000000 0.000000 0.000000 0.000000 0.000000 0.000000 84.407325 3.410284 -18.096541 -95.592675 -7.952233 -18.096541 27.768249 -2.159474 25.329838 -47.660055 -0.344223 -16.074804 28.281511 -4.346855 -25.329838 -7.827901 0.575581 4.381533
1268.535347 591.567099 102.644155 0.000000 0.000000 0.000000 0.000000 0.000000 0.000000 90.890792 -9.942612 -19.645745 -89.109208 -2.694408 -19.645745 44.654760 7.434700 23.115397 -48.200667 -0.755085 -19.122720 43.369388 4.226962 -23.115397 -8.974980 0.127433 4.524135
1303.157158 602.888768 90.357409 0.000000 0.000000 0.000000 0.000000 0.000000 0.000000 90.349289 3.790154 -19.960535 -89.650711 3.681183 -19.960535 47.707312 -4.933221 20.536413 -53.918782 -2.983856 -21.869059 40.070965 5.947835 -20.536413 -9.318632 -0.411017 4.648882
1314.841690 613.141973 96.483929 0.000000 0.000000 0.000000 0.000000 0.000000 0.000000 94.480501 -5.583000 -19.021130 -85.519499 5.317720 -19.021130 58.462862 0.598621 17.633558 -52.020507 3.571414 -24.270510 55.276552 -3.595562 -17.633558 -7.777523 0.124147 4.755283
1327.521400 639.394319 109.311112 0.000000 0.000000 0.000000 0.000000 0.000000 0.000000 99.879576 -3.693257 -16.886559 -80.120424 4.035691 -16.886559 69.161359 -0.117498 14.452610 -46.413613 2.832322 -26.289200 76.680143 -0.734572 -14.452610 -6.257768 -0.119531 4.842916
1277.812729 671.228578 93.450483 0.000000 0.000000 0.000000 0.000000 0.000000 0.000000 99.708534 2.632361 -13.690942 -80.291466 6.246608 -13.690942 92.239140 0.871532 11.043737 -26.764021 7.580540 -27.893295 98.168457 -1.521616 -11.043737 -4.372074 -0.406998 4.911436
1309.642181 690.479329 70.669621 0.000000 0.000000 0.000000 0.000000 0.000000 0.000000 117.292414 -2.661095 -9.635073 -62.707586 -2.026894 -9.635073 137.002702 -2.541973 7.460697 -32.045917 -1.798997 -29.057495 135.211322 -0.444708 -7.460697 -3.212944 -0.102296 4.960574
1299.770966 664.126496 87.334920 0.000000 0.000000 0.000000 0.000000 0.000000 0.000000 158.531160 8.631083 -4.973798 -21.468840 0.051635 -4.973798 161.478323 -2.804766 3.759997 -12.838206 0.452837 -29.763441 151.269584 -0.840291 -3.759997 -2.521934 -0.015914 4.990134
1313.353729 643.668108 77.065673 0.000000 0.000000 0.000000 0.000000 0.000000 0.000000 -154.315892 -1.217301 -0.000000 25.684108 10.741521 -0.000000 173.459940 2.183038 0.000000 1.519689 6.548272 -30.000000 164.244875 -1.275728 -0.000000 -1.552244 -0.097017 5.000000
1342.841377 638.982847 79.113742 0.000000 0.000000 0.000000 0.000000 0.000000 0.000000 -138.993869 7.551316 4.973798 41.006131 16.732702 4.973798 175.724056 1.190060 -3.759997 -151.723069 -3.142689 -29.763441 43.242568 3.964049 3.759997 -13.675743 -0.396405 4.990134
1350.000229 614.724133 66.059809 0.000000 0.000000 0.000000 0.000000 0.000000 0.000000 -144.248147 -5.348629 9.635073 35.751853 1.807949 9.635073 177.069273 -2.642367 -7.460697 -152.227621 -2.918108 -29.057495 43.136563 4.012138 7.460697 -13.686344 -0.401214 4.960574
1328.535919 624.780936 55.783364 0.000000 0.000000 0.000000 0.000000 0.000000 0.000000 -165.447222 -2.470396 13.690942 14.552778 -14.630569 13.690942 169.657511 0.717553 -11.043737 -152.168050 -2.917462 -27.893295 41.929642 3.829996 11.043737 -13.807036 -0.383000 4.911436
1318.810501 615.688248 71.810590 0.000000 0.000000 0.000000 0.000000 0.000000 0.000000 -120.063657 8.288044 16.886559 59.936343 7.114304 16.886559 -165.389465 0.493641 -14.452610 -152.866764 -2.551405 -26.289200 39.162270 1.920239 14.452610 -14.083773 -0.192024 4.842916
1321.656418 659.275410 62.344196 0.000000 0.000000 0.000000 0.000000 0.000000 0.000000 -121.435085 12.175977 19.021130 58.564915 -0.078465 19.021130 -149.190712 -4.217678 -17.633558 -151.926374 -2.827859 -24.270510 33.097066 3.349282 17.633558 -14.690293 -0.334928 4.755283
1328.445511 687.490232 44.522306 0.000000 0.000000 0.000000 0.000000 0.000000 0.000000 -104.253419 0.942668 19.960535 75.746581 1.327880 19.960535 -110.140878 -4.035428 -20.536413 -152.911692 -2.784188 -21.869059 23.882145 2.745811 20.536413 3.694979 -0.086316 4.648882
966.534206 440.564282 50.861450 0.000000 0.000000 0.000000 0.000000 0.000000 0.000000 25.865486 4.102853 19.645745 180.000000 12.381257 19.645745 18.728337 -5.294041 -23.115397 161.271663 2.228404 -19.122720 19.024234 0.971388 23.115397 18.000000 -0.068519 4.524135
966.454577 440.533056 38.135371 0.000000 0.000000 0.000000 0.000000 0.000000 0.000000 25.417507 26.331075 18.096541 180.000000 5.234248 18.096541 18.825450 -8.806743 -25.329838 161.174550 6.341505 -16.074804 19.071566 -7.262447 25.329838 18.000000 -1.033490 4.381533
966.374240 440.501809 41.910104 0.000000 0.000000 0.000000 0.000000 0.000000 0.000000 24.990320 7.660662 15.410265 180.000000 -9.883482 15.410265 18.929718 4.385383 -27.144812 161.070282 -1.484412 -12.773379 19.102411 1.442446 27.144812 18.000000 -0.258738 4.221640
966.293204 440.470542 50.657424 0.000000 0.000000 0.000000 0.000000 0.000000 0.000000 24.583377 -4.013757 11.755705 180.000000 -8.021551 11.755705 19.040946 12.374859 -28.531695 160.959054 -5.195876 -9.270510 19.116765 -1.236862 28.531695 18.000000 1.688654 4.045085
966.211478 440.439256 47.784199 0.000000 0.000000 0.000000 0.000000 0.000000 0.000000 24.196129 12.213090 7.362491 180.000000 -1.928209 7.362491 19.158923 4.574330 -29.468618 160.841077 -3.414813 -5.621439 19.114778 4.723019 29.468618 18.000000 -0.201468 3.852566
644.985180 745.864069 38.335969 0.000000 0.000000 0.000000 0.000000 0.000000 0.000000 96.086415 -37.923604 2.506665 -83.913585 21.421976 2.506665 -159.662371 3.282343 -29.940802 -116.741565 9.530302 -1.883716 -176.001217 0.579989 29.940802 -1.006627 -2.170555 3.644843
1269.020119 699.025490 43.602399 0.000000 0.000000 0.000000 0.000000 0.000000 0.000000 83.810916 1.387063 -2.506665 -96.189084 -6.244621 -2.506665 51.932890 3.663493 -29.940802 -149.314466 -2.042917 1.883716 27.598511 2.285369 29.940802 -15.240149 -0.228537 3.422736
573.721218 678.450201 61.414928 0.000000 0.000000 0.000000 0.000000 0.000000 0.000000 18.756393 9.576288 -7.362491 -161.243607 -22.337726 -7.362491 -174.158094 -2.429774 -29.468618 178.010322 -3.991307 5.621439 -154.394154 -5.907805 29.468618 11.886524 2.631359 3.187120
1261.580200 714.897366 55.277131 0.000000 0.000000 0.000000 0.000000 0.000000 0.000000 87.191276 -17.070232 -11.755705 -92.808724 -1.102794 -11.755705 23.129119 0.563126 -28.531695 -149.376238 -2.169860 9.270510 24.545507 2.287842 28.531695 13.583501 0.351168 2.938926
1314.655838 684.171546 79.358294 0.000000 0.000000 0.000000 0.000000 0.000000 0.000000 61.219932 0.571677 -15.410265 -118.780068 -3.754302 -15.410265 25.476616 2.866425 -27.144812 -150.404247 -2.381696 12.773379 24.621454 1.861150 27.144812 -15.537855 -0.186115 2.679134
1319.638939 674.820013 73.367211 0.000000 0.000000 0.000000 0.000000 0.000000 0.000000 82.055377 0.669884 -18.096541 -97.944623 4.754460 -18.096541 17.325085 3.447970 -25.329838 -60.067277 5.113444 16.074804 23.747728 -4.966729 25.329838 -13.005173 0.299830 2.408768
1367.852325 659.536314 66.884123 0.000000 0.000000 0.000000 0.000000 0.000000 0.000000 -150.278430 18.683990 -19.645745 29.721570 -19.764264 -19.645745 -151.222797 -2.346352 -23.115397 18.758043 -2.738224 19.122720 -152.451920 -2.118672 23.115397 2.484143 0.223116 2.128896
1392.624664 638.981302 57.808580 0.000000 0.000000 0.000000 0.000000 0.000000 0.000000 -122.704248 11.507446 -19.960535 57.295752 -14.775374 -19.960535 -134.513385 2.859935 -20.536413 30.292627 -2.923139 21.869059 -146.694539 0.050919 20.536413 2.430965 -0.089264 1.840623
1401.291389 646.422758 81.575281 0.000000 0.000000 0.000000 0.000000 0.000000 0.000000 83.316637 6.294010 -19.021130 -96.683363 2.019719 -19.021130 29.335627 -3.983178 -17.633558 -136.281416 0.921248 24.270510 19.119183 -0.250043 17.633558 -15.871560 -0.122569 1.545085
1381.838951 663.410475 84.863201 0.000000 0.000000 0.000000 0.000000 0.000000 0.000000 79.215331 -2.758376 -16.886559 -100.784669 8.093566 -16.886559 30.640455 -3.634513 -14.452610 -139.113455 2.059439 26.289200 14.302413 -0.948974 14.452610 -16.408036 0.097549 1.243449
1390.185928 664.248354 84.348884 0.000000 0.000000 0.000000 0.000000 0.000000 0.000000 75.546066 -1.920273 -13.690942 -104.453934 5.336084 -13.690942 38.995097 0.430684 -11.043737 -142.871297 0.793064 27.893295 14.209110 1.711701 11.043737 -16.737090 -0.175442 0.936907
1393.889923 677.551103 88.115990 0.000000 0.000000 0.000000 0.000000 0.000000 0.000000 84.293627 -4.457276 -9.635073 -95.706373 -0.707530 -9.635073 -152.700272 -3.104877 -7.460697 -143.357755 1.957646 29.057495 -148.868889 -4.254088 7.460697 3.626268 0.471748 0.626666
905.601082 693.654528 87.008682 0.000000 0.000000 0.000000 0.000000 0.000000 0.000000 -84.410869 3.123178 -4.973798 95.589131 10.758052 -4.973798 -139.498802 -4.410734 -3.759997 -178.556713 7.737865 29.763441 -142.061844 -4.023003 3.759997 3.411456 0.325995 0.313953
1337.643929 680.318756 99.572997 0.000000 0.000000 0.000000 0.000000 0.000000 0.000000 78.192517 -4.450544 0.000000 -101.807483 4.811559 0.000000 48.289813 -1.758059 -0.000000 -140.291980 2.290981 30.000000 13.663140 1.197781 0.000000 -17.395561 -0.100084 0.000000
1322.670708 685.543334 97.296552 0.000000 0.000000 0.000000 0.000000 0.000000 0.000000 71.501063 16.811199 4.973798 -108.498937 -12.610695 4.973798 23.648228 -1.460365 3.759997 -144.586500 -9.016262 29.763441 14.578018 1.884980 -3.759997 -16.885607 0.014332 0.313953
1305.530548 682.910864 90.216408 0.000000 0.000000 0.000000 0.000000 0.000000 0.000000 72.979287 46.431122 9.635073 -107.020713 13.624633 9.635073 -148.728581 -4.499406 7.460697 -74.802907 5.240501 29.057495 -151.178244 -4.633226 -7.460697 2.601049 0.437821 0.626666
1359.363556 692.650115 92.872614 0.000000 0.000000 0.000000 0.000000 0.000000 0.000000 73.244804 2.645276 13.690942 -106.755196 -8.755387 13.690942 13.983499 6.118254 11.043737 -67.611809 -9.571082 27.893295 13.130547 5.187035 -11.043737 -11.004089 0.005866 0.936907
1299.495964 679.994059 110.188299 0.000000 0.000000 0.000000 0.000000 0.000000 0.000000 116.206779 10.459589 16.886559 -63.793221 -10.630012 16.886559 -150.858719 -4.132219 14.452610 -34.548592 -0.249795 26.289200 60.366751 0.471679 -14.452610 -4.627493 0.059737 1.243449
1306.260338 711.527116 119.774894 0.000000 0.000000 0.000000 0.000000 0.000000 0.000000 -85.758672 9.670110 19.021130 94.241328 -5.591138 19.021130 -31.461750 -0.952021 17.633558 -4.237664 0.003213 24.270510 -15.215787 -4.961116 -17.633558 7.867754 2.232351 1.545085
1272.614822 704.778571 112.499988 0.000000 0.000000 0.000000 0.000000 0.000000 0.000000 -78.634637 -14.144785 19.960535 101.365363 11.623455 19.960535 -34.118569 -1.901005 20.536413 22.539652 3.521030 21.869059 -31.373170 -2.029615 -20.536413 11.310693 -0.849489 1.840623
1310.345650 676.427021 112.205989 0.000000 0.000000 0.000000 0.000000 0.000000 0.000000 97.572435 -1.455417 19.645745 -82.427565 1.037394 19.645745 50.400703 -4.821352 23.115397 -39.584286 2.324707 19.122720 44.966766 -2.782568 -23.115397 -8.852712 -0.558250 2.128896
1315.732956 671.025095 137.547391 0.000000 0.000000 0.000000 0.000000 0.000000 0.000000 97.797337 3.421911 18.096541 -82.202663 -7.146907 18.096541 49.825934 -0.302237 25.329838 -39.162923 -1.757919 16.074804 36.475631 -1.494827 -25.329838 -8.191519 -1.283938 2.408768
1329.935532 653.525419 120.865336 0.000000 0.000000 0.000000 0.000000 0.000000 0.000000 96.469555 1.592619 15.410265 -83.530445 -4.607733 15.410265 63.882053 -2.409466 27.144812 -51.972064 -3.558272 12.773379 58.624362 -2.358812 -27.144812 -8.239564 0.559629 2.679134
1316.170578 674.246514 132.304075 0.000000 0.000000 0.000000 0.000000 0.000000 0.000000 -87.946330 12.234829 11.755705 92.053670 -17.353548 11.755705 -29.715798 9.909239 28.531695 54.212796 -10.178442 9.270510 -40.560774 3.944643 -28.531695 11.008015 0.241140 2.938926
1317.367287 678.027205 138.424647 0.000000 0.000000 0.000000 0.000000 0.000000 0.000000 95.152942 -6.903206 7.362491 -84.847058 1.970627 7.362491 98.792835 -1.149532 29.468618 -150.515547 -5.908768 5.621439 32.983753 5.230803 -29.468618 -14.701625 -0.523080 3.187120
1318.168488 670.157025 134.899253 0.000000 0.000000 0.000000 0.000000 0.000000 0.000000 -151.252255 -2.776723 2.506665 28.747745 40.816010 2.506665 138.896993 1.996465 29.940802 -151.946620 -5.857214 1.883716 38.784684 6.312824 -29.940802 -14.121532 -0.631282 3.422736
1323.412628 644.667885 147.835162 0.000000 0.000000 0.000000 0.000000 0.000000 0.000000 -97.904066 -17.727183 -2.506665 82.095934 -3.634669 -2.506665 155.695030 0.180403 29.940802 -152.500978 -6.510688 -1.883716 44.721081 6.472405 -29.940802 -13.527892 -0.647240 3.644843
1312.776718 630.059459 142.959391 0.000000 0.000000 0.000000 0.000000 0.000000 0.000000 -116.637972 -18.930632 -7.362491 63.362028 20.728107 -7.362491 171.094570 -7.989902 29.468618 -152.894064 -6.195330 -5.621439 43.947863 8.011594 -29.468618 -13.605214 -0.801159 3.852566
1316.420746 625.237019 129.314689 0.000000 0.000000 0.000000 0.000000 0.000000 0.000000 -136.254273 13.707157 -11.755705 43.745727 -19.596080 -11.755705 -177.663204 4.851422 28.531695 -153.006287 -6.649241 -9.270510 42.784597 7.380128 -28.531695 -13.721540 -0.738013 4.045085
1314.719925 628.818026 163.672648 0.000000 0.000000 0.000000 0.000000 0.000000 0.000000 -114.737929 5.726072 -15.410265 65.262071 -3.492870 -15.410265 -169.764314 -0.022246 27.144812 -153.369487 -6.651375 -12.773379 41.498347 7.752403 -27.144812 -13.850165 -0.775240 4.221640
1334.396782 646.165652 140.673595 0.000000 0.000000 0.000000 0.000000 0.000000 0.000000 -116.903454 7.953032 -18.096541 63.096546 1.053319 -18.096541 -154.594534 -4.421566 25.329838 -153.225015 -6.918748 -16.074804 37.136182 8.267944 -25.329838 -14.286382 -0.826794 4.381533
1340.823784 648.244128 150.792221 0.000000 0.000000 0.000000 0.000000 0.000000 0.000000 -116.932323 12.875434 -19.645745 63.067677 -11.090806 -19.645745 -138.898656 4.375641 23.115397 35.335752 -3.819603 -19.122720 -153.336856 0.905876 -23.115397 2.206211 -0.041866 4.524135
1330.023880 654.599032 159.808434 0.000000 0.000000 0.000000 0.000000 0.000000 0.000000 -112.150704 6.409002 -19.960535 67.849296 0.427460 -19.960535 -118.798313 0.684520 20.536413 -153.636372 -6.500507 -21.869059 16.691869 8.209610 -20.536413 -16.330813 -0.820961 4.648882
1337.431641 662.410698 129.878496 0.000000 0.000000 0.000000 0.000000 0.000000 0.000000 -109.111809 -0.268729 -19.021130 70.888191 -7.013384 -19.021130 -91.144379 3.648763 17.633558 -154.448144 -6.264422 -24.270510 10.298202 6.116426 -17.633558 6.642051 0.176107 4.755283
1324.339714 676.416593 148.468764 0.000000 0.000000 0.000000 0.000000 0.000000 0.000000 -104.120178 1.449553 -16.886559 75.879822 -1.062839 -16.886559 -57.095620 -2.936470 14.452610 38.799650 -2.065782 -26.289200 -71.942639 1.573092 -14.452610 8.831938 -0.035901 4.842916
962.890318 439.311049 152.817361 0.000000 0.000000 0.000000 0.000000 0.000000 0.000000 19.986963 -11.379167 -13.690942 180.000000 -0.443474 -13.690942 24.297229 1.768801 11.043737 155.702771 11.239736 -27.893295 14.983342 -5.545962 -11.043737 18.000000 0.102286 4.911436
962.789911 439.279946 118.027007 0.000000 0.000000 0.000000 0.000000 0.000000 0.000000 20.089586 -5.004892 -9.635073 180.000000 -8.325162 -9.635073 24.330184 5.422025 7.460697 155.669816 -4.424065 -29.057495 14.926290 3.825458 -7.460697 18.000000 0.057699 4.960574
641.318550 641.336324 149.227199 0.000000 0.000000 0.000000 0.000000 0.000000 0.000000 163.642929 -4.422638 -4.973798 -16.357071 2.341177 -4.973798 -155.926011 -0.131693 3.759997 -130.644608 -8.329308 -29.763441 68.679337 11.951334 -3.759997 -11.132066 -1.195133 4.990134
1305.385551 662.289033 105.684685 0.000000 0.000000 0.000000 0.000000 0.000000 0.000000 -81.949824 -3.380668 -0.000000 98.050176 -1.378761 -0.000000 9.536664 -6.244505 0.000000 -153.586691 -6.074215 -30.000000 24.402531 4.850356 -0.000000 -15.559747 -0.485036 5.000000
962.486899 439.186814 122.589553 0.000000 0.000000 0.000000 0.000000 0.000000 0.000000 20.465882 -12.669876 4.973798 180.000000 -0.412295 4.973798 24.357206 -13.601861 -3.759997 155.642794 -8.951822 -29.763441 14.800425 12.789415 3.759997 18.000000 -0.577505 4.990134
1216.314240 612.580640 139.619968 0.000000 0.000000 0.000000 0.000000 0.000000 0.000000 78.221991 1.003142 9.635073 -101.778009 -4.246789 9.635073 46.689014 2.649178 -7.460697 -61.937558 -2.352002 -29.057495 44.546377 -2.818635 7.460697 -10.771750 0.038775 4.960574
1273.897820 573.707514 122.637253 0.000000 0.000000 0.000000 0.000000 0.000000 0.000000 77.469628 -7.869724 13.690942 -102.530372 3.525641 13.690942 -155.691164 -5.385656 -11.043737 -120.750172 6.336544 -27.893295 -156.229293 -6.493617 11.043737 2.162203 0.562069 4.911436
1337.358742 570.303276 103.370580 0.000000 0.000000 0.000000 0.000000 0.000000 0.000000 73.705918 0.029188 16.886559 -106.294082 2.205034 16.886559 -155.918376 -5.102263 -14.452610 -149.887909 -4.318042 -26.289200 0.000000 0.000000 0.000000 0.000000 0.000000 0.000000
1342.446442 569.623497 105.895489 0.000000 0.000000 0.000000 0.000000 0.000000 0.000000 68.898287 -5.833367 19.021130 -111.101713 3.201179 19.021130 39.314088 -6.839842 -17.633558 -140.912764 3.123748 -24.270510 -153.216026 -6.470495 17.633558 2.759242 0.643343 4.755283
1335.759430 584.665475 116.320847 0.000000 0.000000 0.000000 0.000000 0.000000 0.000000 66.989329 -1.491205 19.960535 -113.010671 -2.052213 19.960535 -154.807077 -4.329196 -20.536413 -142.328055 1.868524 -21.869059 -153.049156 -5.962280 20.536413 2.866457 0.591112 4.648882
1337.950974 598.074245 107.992612 0.000000 0.000000 0.000000 0.000000 0.000000 0.000000 62.697633 5.255268 19.645745 -117.302367 -2.380184 19.645745 19.366736 -3.118081 -23.115397 -144.826223 0.410573 -19.122720 9.911455 0.662970 23.115397 -17.004209 -0.192682 4.524135
1352.846489 601.043322 105.736185 0.000000 0.000000 0.000000 0.000000 0.000000 0.000000 59.083577 1.174243 18.096541 -120.916423 6.154174 18.096541 20.876734 0.892262 -25.329838 -142.301690 -1.794597 -16.074804 13.356960 0.152077 25.329838 -16.821524 0.099975 4.381533
1347.310982 587.475100 82.718213 0.000000 0.000000 0.000000 0.000000 0.000000 0.000000 56.169135 12.725402 15.410265 -123.830865 -0.191653 15.410265 21.172503 -1.263072 -27.144812 -139.640745 -0.496267 -12.773379 14.641496 -0.890463 27.144812 -16.282575 0.078083 4.221640
1326.982155 606.886139 92.656316 0.000000 0.000000 0.000000 0.000000 0.000000 0.000000 70.119981 -0.260468 11.755705 -109.880019 -11.548751 11.755705 26.511889 3.514185 -28.531695 -111.264667 -0.611621 -9.270510 31.153840 -0.957559 28.531695 -13.943905 -0.027366 4.045085
1354.391098 626.185555 74.614554 0.000000 0.000000 0.000000 0.000000 0.000000 0.000000 88.154395 7.633710 7.362491 -91.845605 -10.919182 7.362491 30.442275 5.433998 -29.468618 -76.284233 3.663458 -5.621439 43.854867 -5.444857 29.468618 -10.818190 -0.055380 3.852566
1370.667114 610.219567 58.179840 0.000000 0.000000 0.000000 0.000000 0.000000 0.000000 89.945118 -1.161377 2.506665 -90.054882 1.986053 2.506665 44.053326 1.788316 -29.940802 -56.238091 3.977423 -1.883716 55.411270 -5.312767 29.940802 -7.805659 0.323271 3.644843
1372.834854 597.828534 62.282355 0.000000 0.000000 0.000000 0.000000 0.000000 0.000000 93.407992 2.505282 -2.506665 -86.592008 1.973043 -2.506665 54.165845 -0.512468 -29.940802 -47.239220 -2.512473 1.883716 56.575186 4.137075 29.940802 -6.344474 0.255190 3.422736
1336.554337 597.454848 57.869570 0.000000 0.000000 0.000000 0.000000 0.000000 0.000000 95.622643 -3.905231 -7.362491 -84.377357 7.834280 -7.362491 56.597780 -4.821799 -29.468618 -45.108662 2.590111 5.621439 55.386034 0.620650 29.468618 -7.206870 -0.296065 3.187120
1310.567093 590.844769 67.652426 0.000000 0.000000 0.000000 0.000000 0.000000 0.000000 100.193768 0.277388 -11.755705 -79.806232 -2.958860 -11.755705 61.986347 0.711304 -28.531695 -37.593815 -1.911851 9.270510 62.907615 -0.410684 28.531695 -6.637230 0.395383 2.938926
1328.574371 576.493385 68.469409 0.000000 0.000000 0.000000 0.000000 0.000000 0.000000 101.943783 -0.968938 -15.410265 -78.056217 -2.940075 -15.410265 61.902838 1.484878 -27.144812 -33.889586 1.877767 12.773379 55.760387 -1.995731 27.144812 -7.097415 -0.460028 2.679134
1316.178360 595.500870 69.163899 0.000000 0.000000 0.000000 0.000000 0.000000 0.000000 103.792097 6.345826 -18.096541 -76.207903 0.804872 -18.096541 65.535198 2.229695 -25.329838 -28.739437 1.087669 16.074804 68.415337 -3.270045 25.329838 -6.481753 -0.101155 2.408768
1302.343140 568.138025 55.566159 0.000000 0.000000 0.000000 0.000000 0.000000 0.000000 101.222717 -14.365320 -19.645745 -78.777283 -2.734839 -19.645745 90.757296 2.534184 -23.115397 -18.578033 1.304634 19.122720 97.909038 -0.299728 23.115397 -5.050134 0.016747 2.128896
1274.166183 540.660596 61.108402 0.000000 0.000000 0.000000 0.000000 0.000000 0.000000 -126.898591 0.574313 -19.960535 53.101409 -11.520592 -19.960535 127.276662 -7.138186 -20.536413 8.808645 -2.075321 21.869059 119.711272 0.713970 20.536413 -4.115393 -0.412310 1.840623
1268.557091 468.331075 46.585881 0.000000 0.000000 0.000000 0.000000 0.000000 0.000000 -124.112133 -15.069460 -19.021130 55.887867 -3.392292 -19.021130 163.344780 4.192732 -17.633558 38.476068 1.345561 24.270510 145.889074 -0.491205 17.633558 -1.929933 0.139018 1.545085
1278.673096 454.375906 48.557629 0.000000 0.000000 0.000000 0.000000 0.000000 0.000000 -126.805061 18.403925 -16.886559 53.194939 -6.555550 -16.886559 -174.009950 1.423173 -14.452610 27.419224 -1.581103 26.289200 168.192977 -1.221667 14.452610 -0.976267 -0.062860 1.243449
1285.008774 434.700390 49.427066 0.000000 0.000000 0.000000 0.000000 0.000000 0.000000 -132.005120 7.742679 -13.690942 47.994880 8.651393 -13.690942 -171.247775 -6.194831 -11.043737 26.625253 -2.762175 27.893295 178.805957 1.527812 11.043737 0.023422 -0.196896 0.936907
1288.157730 426.987666 59.809681 0.000000 0.000000 0.000000 0.000000 0.000000 0.000000 -123.987926 -1.728841 -9.635073 56.012074 -12.877304 -9.635073 -166.356219 5.694342 -7.460697 35.716336 0.501349 29.057495 -172.960762 -0.431897 7.460697 0.819533 -0.068468 0.626666
1291.221657 420.425448 58.983692 0.000000 0.000000 0.000000 0.000000 0.000000 0.000000 -122.265643 -8.266159 -4.973798 57.734357 5.588522 -4.973798 -156.870161 2.786304 -3.759997 38.220704 -0.383825 29.763441 -165.716368 0.346787 3.759997 1.405814 -0.072121 0.313953
