HIERARCHY
ROOT root.x
{
    OFFSET 0.0 0.0 0.0
    CHANNELS 6 Xposition Yposition Zposition Zrotation Xrotation Yrotation
    JOINT spine_01.x
    {
        OFFSET 0.0 5.0 0.0
        CHANNELS 3 Zrotation Xrotation Yrotation
        JOINT spine_02.x
        {
            OFFSET 0.0 5.0 0.0
            CHANNELS 3 Zrotation Xrotation Yrotation
            JOINT spine_03.x
            {
                OFFSET 0.0 5.0 0.0
                CHANNELS 3 Zrotation Xrotation Yrotation
                JOINT neck.x
                {
                    OFFSET 0.0 8.0 0.0
                    CHANNELS 3 Zrotation Xrotation Yrotation
                    JOINT head.x
                    {
                        OFFSET 0.0 5.0 0.0
                        CHANNELS 3 Zrotation Xrotation Yrotation
                        End Site
                        {
                            OFFSET 0.0 3.0 0.0
                        }
                    }
                }
                JOINT shoulder.l
                {
                    OFFSET -5.0 0.0 0.0
                    CHANNELS 3 Zrotation Xrotation Yrotation
                    JOINT arm_stretch.l
                    {
                        OFFSET 0.0 -10.0 0.0
                        CHANNELS 3 Zrotation Xrotation Yrotation
                        JOINT forearm_stretch.l
                        {
                            OFFSET 0.0 -10.0 0.0
                            CHANNELS 3 Zrotation Xrotation Yrotation
                            End Site
                            {
                                OFFSET 0.0 -3.0 0.0
                            }
                        }
                    }
                }
                JOINT shoulder.r
                {
                    OFFSET 5.0 0.0 0.0
                    CHANNELS 3 Zrotation Xrotation Yrotation
                    JOINT arm_stretch.r
                    {
                        OFFSET 0.0 -10.0 0.0
                        CHANNELS 3 Zrotation Xrotation Yrotation
                        JOINT forearm_stretch.r
                        {
                            OFFSET 0.0 -10.0 0.0
                            CHANNELS 3 Zrotation Xrotation Yrotation
                            End Site
                            {
                                OFFSET 0.0 -3.0 0.0
                            }
                        }
                    }
                }
            }
        }
    }
    JOINT thigh_stretch.l
    {
        OFFSET -2.0 0.0 0.0
        CHANNELS 3 Zrotation Xrotation Yrotation
        JOINT leg_stretch.l
        {
            OFFSET 0.0 -10.0 0.0
            CHANNELS 3 Zrotation Xrotation Yrotation
            End Site
            {
                OFFSET 0.0 -3.0 0.0
            }
        }
    }
    JOINT thigh_stretch.r
    {
        OFFSET 2.0 0.0 0.0
        CHANNELS 3 Zrotation Xrotation Yrotation
        JOINT leg_stretch.r
        {
            OFFSET 0.0 -10.0 0.0
            CHANNELS 3 Zrotation Xrotation Yrotation
            End Site
            {
                OFFSET 0.0 -3.0 0.0
            }
        }
    }
}

MOTION
Frames: 100
Frame Time: 0.033333

0.000000 0.000000 5.000000 0.000000 0.000000 0.000000 0.000000 2.500000 0.000000 0.596008 1.483157 0.265968 0.778837 0.955336 0.338785 0.564642 0.450224 0.234998 0.717356 0.412668 0.279612 0.000000 15.000000 0.000000 8.940120 22.247349 3.989523 23.365101 28.660095 10.163565 -0.000000 -0.000000 0.000000 8.940120 3.362358 -3.989523 23.365101 8.865606 -10.163565 0.000000 10.000000 0.000000 7.946773 19.775422 3.546242 -0.000000 -0.000000 0.000000 7.946773 2.988763 -3.546242
0.314108 0.000000 4.999112 0.000000 0.000000 0.000000 0.626666 2.488905 0.281072 0.959813 1.455479 0.422368 1.003574 0.923286 0.425576 0.663632 0.427759 0.265779 0.799020 0.384268 0.295029 3.759997 14.933429 1.686432 14.397195 21.832189 6.335522 30.107233 27.698573 12.767284 3.759997 1.411625 -1.686432 14.397195 5.441096 -6.335522 30.107233 11.523413 -12.767284 2.506665 9.955620 1.124288 12.797507 19.406390 5.631575 2.506665 0.941083 -1.124288 12.797507 4.836530 -5.631575
0.627905 0.000000 4.996447 0.000000 0.000000 0.000000 1.243449 2.455718 0.552187 1.308481 1.414883 0.563806 1.212485 0.883040 0.497291 0.752156 0.401497 0.287145 0.868083 0.352457 0.299994 7.460697 14.734309 3.313121 19.627219 21.223244 8.457083 36.374556 26.491197 14.918717 7.460697 2.810720 -3.313121 19.627219 7.471539 -8.457083 36.374556 14.078938 -14.918717 4.973798 9.822873 2.208747 17.446417 18.865106 7.517407 4.973798 1.873813 -2.208747 17.446417 6.641368 -7.517407
0.941083 0.000000 4.992008 0.000000 0.000000 0.000000 1.840623 2.400734 0.803740 1.636514 1.361728 0.685270 1.402274 0.834956 0.551388 0.828818 0.371671 0.298338 0.923456 0.317517 0.294332 11.043737 14.404405 4.822441 24.547709 20.425921 10.279047 42.068231 25.048683 16.541646 11.043737 4.184867 -4.822441 24.547709 9.435664 -10.279047 42.068231 16.509497 -16.541646 7.362491 9.602937 3.214961 21.820186 18.156374 9.136930 7.362491 2.789911 -3.214961 21.820186 8.387257 -9.136930
1.253332 0.000000 4.985795 0.000000 0.000000 0.000000 2.408768 2.324441 1.026821 1.938738 1.296486 0.782458 1.569949 0.779461 0.585953 0.892408 0.338547 0.298963 0.964265 0.279759 0.278243 14.452610 13.946647 6.160924 29.081067 19.447296 11.736870 47.098465 23.383835 17.578580 14.452610 5.521868 -6.160924 29.081067 11.316037 -11.736870 47.098465 18.793517 -17.578580 9.635073 9.297765 4.107283 25.849837 17.286485 10.432773 9.635073 3.681246 -4.107283 25.849837 10.058699 -10.432773
1.564345 0.000000 4.977810 0.000000 0.000000 0.000000 2.938926 2.227516 1.213525 2.210387 1.219737 0.851927 1.712864 0.717048 0.599759 0.941925 0.302417 0.288996 0.989867 0.239519 0.252298 17.633558 13.365098 7.281153 33.155800 18.296055 12.778909 51.385928 21.511430 17.992783 17.633558 6.809857 -7.281153 33.155800 13.095968 -12.778909 51.385928 20.910724 -17.992783 11.755705 8.910065 4.854102 29.471822 16.263160 11.359030 11.755705 4.539905 -4.854102 29.471822 11.640861 -11.359030
1.873813 0.000000 4.968057 0.000000 0.000000 0.000000 3.422736 2.110820 1.357241 2.447176 1.132161 0.891217 1.828767 0.648270 0.592319 0.976588 0.263603 0.268792 0.999859 0.197152 0.217414 20.536413 12.664919 8.143443 36.707645 16.982417 13.368249 54.863004 19.448089 17.769583 20.536413 8.037402 -8.143443 36.707645 14.759659 -13.368249 54.863004 22.842326 -17.769583 13.690942 8.443279 5.428962 32.629018 15.095482 11.882888 13.690942 5.358268 -5.428962 32.629018 13.119697 -11.882888
2.181432 0.000000 4.956538 0.000000 0.000000 0.000000 3.852566 1.975388 1.452875 2.645373 1.034536 0.898934 1.915829 0.573737 0.563896 0.995849 0.222450 0.239066 0.994082 0.153035 0.174829 23.115397 11.852325 8.717248 39.680589 15.518042 13.484012 57.474857 17.212125 16.916887 23.115397 9.193606 -8.717248 39.680589 16.292341 -13.484012 57.474857 24.571177 -16.916887 15.410265 7.901550 5.811499 35.271635 13.793815 11.985789 15.410265 6.129071 -5.811499 35.271635 14.482081 -11.985789
2.486899 0.000000 4.943259 0.000000 0.000000 0.000000 4.221640 1.822422 1.497040 2.801850 0.927728 0.874806 1.972677 0.494113 0.515497 0.999404 0.179322 0.200871 0.972628 0.107560 0.126050 25.329838 10.934529 8.982241 42.027747 13.915927 13.122097 59.180298 14.823385 15.464902 25.329838 10.268207 -8.982241 42.027747 17.680412 -13.122097 59.180298 26.081934 -15.464902 16.886559 7.289686 5.988160 37.357997 12.369713 11.664087 16.886559 6.845471 -5.988160 37.357997 15.715922 -11.664087
2.789911 0.000000 4.928223 0.000000 0.000000 0.000000 4.524135 1.653280 1.488172 2.914140 0.812686 0.819688 1.998414 0.410102 0.448835 0.987199 0.134602 0.155559 0.935834 0.061130 0.072805 27.144812 9.919678 8.929032 43.712102 12.190294 12.295326 59.952430 12.303071 13.465064 27.144812 11.251666 -8.929032 43.712102 18.911550 -12.295326 59.952430 27.361185 -13.465064 18.096541 6.613119 5.952688 38.855202 10.835817 10.929178 18.096541 7.501111 -5.952688 38.855202 16.810267 -10.929178
3.090170 0.000000 4.911436 0.000000 0.000000 0.000000 4.755283 1.469463 1.426585 2.980473 0.690431 0.735532 1.992636 0.322452 0.366274 0.959425 0.088688 0.104737 0.884283 0.014157 0.016982 28.531695 8.816779 8.559509 44.707091 10.356459 11.032986 59.779077 9.673555 10.988221 28.531695 12.135255 -8.559509 44.707091 19.974828 -11.032986 59.779077 28.397576 -10.988221 19.021130 5.877853 5.706339 39.739636 9.205741 9.807099 19.021130 8.090170 -5.706339 39.739636 17.755403 -9.807099
3.387379 0.000000 4.892905 0.000000 0.000000 0.000000 4.911436 1.272604 1.314460 2.999801 0.562047 0.625320 1.955432 0.231939 0.270737 0.916520 0.041986 0.050205 0.818785 -0.032941 -0.039443 29.468618 7.635621 7.886760 44.997022 8.430699 9.379797 58.662972 6.958175 8.122113 29.468618 12.911130 -7.886760 44.997022 20.860808 -9.379797 58.662972 29.181909 -8.122113 19.645745 5.090414 5.257840 39.997353 7.493955 8.337598 19.645745 8.607420 -5.257840 39.997353 18.542940 -8.337598
3.681246 0.000000 4.872634 0.000000 0.000000 0.000000 4.990134 1.064448 1.155770 2.971822 0.428674 0.492955 1.887391 0.139368 0.165609 0.859161 -0.005088 -0.006106 0.740375 -0.079746 -0.094471 29.940802 6.386689 6.934619 44.577324 6.430108 7.394325 56.621716 4.181034 4.968277 29.940802 13.572406 -6.934619 44.577324 21.561626 -7.394325 56.621716 29.707221 -4.968277 19.960535 4.257793 4.623079 39.624288 5.715652 6.572733 19.960535 9.048271 -4.623079 39.624288 19.165890 -6.572733
3.971479 0.000000 4.850633 0.000000 0.000000 0.000000 4.990134 0.846845 0.956136 2.896974 0.291496 0.343127 1.789583 0.045559 0.054615 0.788253 -0.052118 -0.062200 0.650289 -0.125844 -0.146152 29.940802 5.081069 5.736816 43.454614 4.372443 5.146904 53.687503 1.366782 1.638436 29.940802 14.113212 -5.736816 43.454614 22.071061 -5.146904 53.687503 29.968849 -1.638436 19.960535 3.387379 3.824544 38.626324 3.886616 4.575026 19.960535 9.408808 -3.824544 38.626324 19.618721 -4.575026
4.257793 0.000000 4.826908 0.000000 0.000000 0.000000 4.911436 0.621725 0.722631 2.776440 0.151731 0.181143 1.663554 -0.048653 -0.058315 0.704913 -0.098684 -0.116092 0.549947 -0.170825 -0.192655 29.468618 3.730348 4.335783 41.646599 2.275967 2.717152 49.906605 -1.459601 -1.749447 29.468618 14.528747 -4.335783 41.646599 22.384592 -2.717152 49.906605 29.964472 1.749447 19.645745 2.486899 2.890522 37.019199 2.023082 2.415246 19.645745 9.685832 -2.890522 37.019199 19.897415 -2.415246
4.539905 0.000000 4.801468 0.000000 0.000000 0.000000 4.755283 0.391086 0.463525 2.612120 0.010619 0.012743 1.511288 -0.142434 -0.169179 0.610457 -0.144375 -0.165870 0.440932 -0.214290 -0.232334 28.531695 2.346517 2.781153 39.181793 0.159290 0.191144 45.338650 -4.273029 -5.075355 28.531695 14.815325 -2.781153 39.181793 22.499436 -0.191144 45.338650 29.694128 5.075355 19.021130 1.564345 1.854102 34.828260 0.141591 0.169906 19.021130 9.876883 -1.854102 34.828260 19.999499 -0.169906
4.817537 0.000000 4.774323 0.000000 0.000000 0.000000 4.524135 0.156976 0.188000 2.406604 -0.130587 -0.156109 1.335189 -0.234951 -0.274049 0.506373 -0.188784 -0.209773 0.324964 -0.255853 -0.263782 27.144812 0.941858 1.127999 36.099066 -1.958801 -2.341636 40.055678 -7.048530 -8.221466 27.144812 14.970401 -1.127999 36.099066 22.414573 2.341636 40.055678 29.160217 8.221466 18.096541 0.627905 0.751999 32.088059 -1.741156 -2.081454 18.096541 9.980267 -0.751999 32.088059 19.924065 2.081454
5.090414 0.000000 4.745481 0.000000 0.000000 0.000000 4.221640 -0.078527 -0.094186 2.163136 -0.270634 -0.319431 1.138033 -0.325382 -0.369211 0.394303 -0.231517 -0.246244 0.203870 -0.295144 -0.285886 25.329838 -0.471161 -0.565115 32.447035 -4.059505 -4.791462 34.141004 -9.761467 -11.076328 25.329838 14.992598 0.565115 32.447035 22.130757 4.791462 34.141004 28.367477 11.076328 16.886559 -0.314108 -0.376743 28.841809 -3.608449 -4.259078 16.886559 9.995066 0.376743 28.841809 19.671784 4.259078
5.358268 0.000000 4.714953 0.000000 0.000000 0.000000 3.852566 -0.313333 -0.373035 1.885553 -0.408278 -0.471437 0.922930 -0.412925 -0.451293 0.276015 -0.272196 -0.273992 0.079562 -0.331816 -0.297862 23.115397 -1.879999 -2.238209 28.283296 -6.124177 -7.071549 27.687906 -12.387761 -13.538805 23.115397 14.881721 2.238209 28.283296 21.650507 7.071549 27.687906 27.322946 13.538805 15.410265 -1.253332 -1.492139 25.140707 -5.443713 -6.285821 15.410265 9.921147 1.492139 25.140707 19.244895 6.285821
5.620834 0.000000 4.682749 0.000000 0.000000 0.000000 3.422736 -0.545358 -0.638669 1.578234 -0.542299 -0.606741 0.693272 -0.496803 -0.517389 0.153374 -0.310458 -0.292033 -0.046002 -0.365543 -0.299286 20.536413 -3.272149 -3.832014 23.673511 -8.134490 -9.101122 20.798153 -14.904100 -15.521663 20.536413 14.638751 3.832014 23.673511 20.978085 9.101122 20.798153 26.035895 15.521663 13.690942 -2.181432 -2.554676 21.043121 -7.230658 -8.089886 13.690942 9.759168 2.554676 21.043121 18.647187 8.089886
5.877853 0.000000 4.648882 0.000000 0.000000 0.000000 2.938926 -0.772542 -0.881678 1.246025 -0.671507 -0.720552 0.452680 -0.576272 -0.565155 0.028315 -0.345965 -0.299729 -0.170839 -0.396025 -0.290107 17.633558 -4.635255 -5.290067 18.690382 -10.072601 -10.808283 13.580401 -17.288149 -16.954658 17.633558 14.265848 5.290067 18.690382 20.119461 10.808283 13.580401 24.517747 16.954658 11.755705 -3.090170 -3.526712 16.613673 -8.953424 -9.607363 11.755705 9.510565 3.526712 16.613673 17.883965 9.607363
6.129071 0.000000 4.613364 0.000000 0.000000 0.000000 2.408768 -0.992870 -1.093453 0.894166 -0.794754 -0.808837 0.204949 -0.650625 -0.592901 -0.097192 -0.378401 -0.296808 -0.292983 -0.422992 -0.270652 14.452610 -5.957218 -6.560718 13.412494 -11.921307 -12.132556 6.148477 -19.518747 -17.787027 14.452610 13.766319 6.560718 13.412494 19.082254 12.132556 6.148477 22.781978 17.787027 9.635073 -3.971479 -4.373812 11.922217 -10.596718 -10.784494 9.635073 9.177546 4.373812 11.922217 16.962004 10.784494
6.374240 0.000000 4.576206 0.000000 0.000000 0.000000 1.840623 -1.204384 -1.266492 0.528205 -0.910947 -0.868468 -0.046014 -0.719203 -0.599643 -0.221165 -0.407478 -0.283371 -0.410506 -0.446204 -0.241608 11.043737 -7.226305 -7.598951 7.923082 -13.664199 -13.027026 -1.380411 -21.576096 -17.989281 11.043737 13.144600 7.598951 7.923082 17.875672 13.027026 -1.380411 20.843994 17.989281 7.362491 -4.817537 -5.065968 7.042740 -12.145955 -11.579579 7.362491 8.763067 5.065968 7.042740 15.889487 11.579579
6.613119 0.000000 4.537422 0.000000 0.000000 0.000000 1.243449 -1.405208 -1.394665 0.153915 -1.019054 -0.897334 -0.296251 -0.781398 -0.585142 -0.341651 -0.432939 -0.259896 -0.521555 -0.465456 -0.204005 7.460697 -8.431251 -8.367988 2.308720 -15.285806 -13.460008 -8.887530 -23.441933 -17.554255 7.460697 12.406209 8.367988 2.308720 16.510425 13.460008 -8.887530 18.720998 17.554255 4.973798 -5.620834 -5.578659 2.052195 -13.587383 -11.964452 4.973798 8.270806 5.578659 2.052195 14.675933 11.964452
6.845471 0.000000 4.497026 0.000000 0.000000 0.000000 0.626666 -1.593560 -1.473431 -0.222804 -1.118116 -0.894411 -0.541816 -0.836657 -0.549912 -0.456748 -0.454557 -0.227214 -0.624379 -0.480577 -0.159176 3.759997 -9.561360 -8.840585 -3.342053 -16.771735 -13.416163 -16.254487 -25.099699 -16.497362 3.759997 11.557699 8.840585 -3.342053 14.998630 13.416163 -16.254487 16.431832 16.497362 2.506665 -6.374240 -5.893724 -2.970714 -14.908209 -11.925478 2.506665 7.705132 5.893724 -2.970714 13.332115 11.925478
7.071068 0.000000 4.455033 0.000000 0.000000 0.000000 0.000000 -1.767767 -1.500000 -0.596008 -1.207253 -0.859803 -0.778837 -0.884489 -0.495201 -0.564642 -0.472140 -0.186483 -0.717356 -0.491431 -0.108707 0.000000 -10.606602 -9.000000 -8.940120 -18.108798 -12.897043 -23.365101 -26.534678 -14.856041 0.000000 10.606602 9.000000 -8.940120 13.353705 12.897043 -23.365101 13.996817 14.856041 0.000000 -7.071068 -6.000000 -7.946773 -16.096709 -11.464038 0.000000 7.071068 6.000000 -7.946773 11.869960 11.464038
7.289686 0.000000 4.411456 0.000000 0.000000 0.000000 -0.626666 -1.926283 -1.473431 -0.959813 -1.285675 -0.794736 -1.003574 -0.924471 -0.422948 -0.663632 -0.485532 -0.139146 -0.799020 -0.497924 -0.054388 -3.759997 -11.557699 -8.840585 -14.397195 -19.285125 -11.921038 -30.107233 -27.734133 -12.688438 -3.759997 9.561360 8.840585 -14.397195 11.590253 11.921038 -30.107233 11.437565 12.688438 -2.506665 -7.705132 -5.893724 -12.797507 -17.142333 -10.596479 -2.506665 6.374240 5.893724 -12.797507 10.302447 10.596479
7.501111 0.000000 4.366312 0.000000 0.000000 0.000000 -1.243449 -2.067701 -1.394665 -1.308481 -1.352685 -0.701515 -1.212485 -0.956247 -0.335711 -0.752156 -0.494615 -0.086879 -0.868083 -0.499998 0.001858 -7.460697 -12.406209 -8.367988 -19.627219 -20.290276 -10.522726 -36.374556 -28.687417 -10.071340 -7.460697 8.431251 8.367988 -19.627219 9.723924 10.522726 -36.374556 8.776792 10.071340 -4.973798 -8.270806 -5.578659 -17.446417 -18.035801 -9.353534 -4.973798 5.620834 5.578659 -17.446417 8.643488 9.353534
7.705132 0.000000 4.319617 0.000000 0.000000 0.000000 -1.840623 -2.190767 -1.266492 -1.636514 -1.407689 -0.583443 -1.402274 -0.979536 -0.236582 -0.828818 -0.499307 -0.031535 -0.923456 -0.497633 0.058039 -11.043737 -13.144600 -7.598951 -24.547709 -21.115329 -8.751640 -42.068231 -29.386071 -7.097460 -11.043737 7.226305 7.598951 -24.547709 7.771285 8.751640 -42.068231 6.038116 7.097460 -7.362491 -8.763067 -5.065968 -21.820186 -18.769181 -7.779236 -7.362491 4.817537 5.065968 -21.820186 6.907809 7.779236
7.901550 0.000000 4.271387 0.000000 0.000000 0.000000 -2.408768 -2.294387 -1.093453 -1.938738 -1.450197 -0.444702 -1.569949 -0.994130 -0.129072 -0.892408 -0.499568 0.024927 -0.964265 -0.490851 0.112163 -14.452610 -13.766319 -6.560718 -29.081067 -21.752961 -6.670523 -47.098465 -29.823891 -3.872149 -14.452610 5.957218 6.560718 -29.081067 5.749668 6.670523 -47.098465 3.245845 3.872149 -9.635073 -9.177546 -4.373812 -25.849837 -19.335965 -5.929354 -9.635073 3.971479 4.373812 -25.849837 5.110816 5.929354
8.090170 0.000000 4.221640 0.000000 0.000000 0.000000 -2.938926 -2.377641 -0.881678 -2.210387 -1.479834 -0.290207 -1.712864 -0.999900 -0.016989 -0.941925 -0.495394 0.080505 -0.989867 -0.479712 0.162314 -17.633558 -14.265848 -5.290067 -33.155800 -22.197512 -4.353100 -51.385928 -29.996993 -0.509665 -17.633558 4.635255 5.290067 -33.155800 3.677017 4.353100 -51.385928 0.424764 0.509665 -11.755705 -9.510565 -3.526712 -29.471822 -19.731122 -3.869422 -11.755705 3.090170 3.526712 -29.471822 3.268459 3.869422
8.270806 0.000000 4.170392 0.000000 0.000000 0.000000 -3.422736 -2.439792 -0.638669 -2.447176 -1.496336 -0.125431 -1.828767 -0.996795 0.095696 -0.976588 -0.486823 0.133232 -0.999859 -0.464316 0.206715 -20.536413 -14.638751 -3.832014 -36.707645 -22.445037 -1.881466 -54.863004 -29.903839 2.870873 -20.536413 3.272149 3.832014 -36.707645 1.571727 1.881466 -54.863004 -2.400088 -2.870873 -13.690942 -9.759168 -2.554676 -32.629018 -19.951144 -1.672414 -13.690942 2.181432 2.554676 -32.629018 1.397091 1.672414
8.443279 0.000000 4.117663 0.000000 0.000000 0.000000 -3.852566 -2.480287 -0.373035 -2.645373 -1.499556 0.043788 -1.915829 -0.984842 0.204990 -0.995849 -0.473931 0.181239 -0.994082 -0.444798 0.243793 -23.115397 -14.881721 -2.238209 -39.680589 -22.493337 0.656821 -57.474857 -29.545256 6.149710 -23.115397 1.879999 2.238209 -39.680589 -0.547513 -0.656821 -57.474857 -5.203636 -6.149710 -15.410265 -9.921147 -1.492139 -35.271635 -19.994078 0.583840 -15.410265 1.253332 1.492139 -35.271635 -0.486678 -0.583840
8.607420 0.000000 4.063471 0.000000 0.000000 0.000000 -4.221640 -2.498766 -0.094186 -2.801850 -1.489466 0.211456 -1.972677 -0.964148 0.307023 -0.999404 -0.456833 0.222825 -0.972628 -0.421332 0.272234 -25.329838 -14.992598 -0.565115 -42.027747 -22.341986 3.171838 -59.180298 -28.924428 9.210691 -25.329838 0.471161 0.565115 -42.027747 -2.661893 -3.171838 -59.180298 -7.960996 -9.210691 -16.886559 -9.995066 -0.376743 -37.357997 -19.859543 2.819412 -16.886559 0.314108 0.376743 -37.357997 -2.366127 -2.819412
8.763067 0.000000 4.007835 0.000000 0.000000 0.000000 -4.524135 -2.495067 0.188000 -2.914140 -1.466155 0.371633 -1.998414 -0.934895 0.398179 -0.987199 -0.435679 0.256518 -0.935834 -0.394126 0.291032 -27.144812 -14.970401 1.127999 -43.712102 -21.992325 5.574492 -59.952430 -28.046865 11.945377 -27.144812 -0.941858 -1.127999 -43.712102 -4.752646 -5.574492 -59.952430 -10.647694 -11.945377 -18.096541 -9.980267 0.751999 -38.855202 -19.548733 4.955104 -18.096541 -0.627905 -0.751999 -38.855202 -4.224574 -4.955104
8.910065 0.000000 3.950775 0.000000 0.000000 0.000000 -4.755283 -2.469221 0.463525 -2.980473 -1.429831 0.518644 -1.992636 -0.897345 0.475230 -0.959425 -0.410659 0.281123 -0.884283 -0.363422 0.299519 -28.531695 -14.815325 2.781153 -44.707091 -21.447459 7.779667 -59.779077 -26.920355 14.256893 -28.531695 -2.346517 -2.781153 -44.707091 -6.801214 -7.779667 -59.779077 -13.239882 -14.256893 -19.021130 -9.876883 1.854102 -39.739636 -19.064408 6.915260 -19.021130 -1.564345 -1.854102 -39.739636 -6.045524 -6.915260
9.048271 0.000000 3.892312 0.000000 0.000000 0.000000 -4.911436 -2.421458 0.722631 -2.999801 -1.380815 0.647283 -1.955432 -0.851830 0.535445 -0.916520 -0.381993 0.295769 -0.818785 -0.329493 0.297396 -29.468618 -14.528747 4.335783 -44.997022 -20.712223 9.709243 -58.662972 -25.554898 16.063352 -29.468618 -3.730348 -4.335783 -44.997022 -8.789414 -9.709243 -58.662972 -15.714553 -16.063352 -19.645745 -9.685832 2.890522 -39.997353 -18.410865 8.630438 -19.645745 -2.486899 -2.890522 -39.997353 -7.812813 -8.630438
9.177546 0.000000 3.832465 0.000000 0.000000 0.000000 -4.990134 -2.352202 0.956136 -2.971822 -1.319543 0.752991 -1.887391 -0.798754 0.576692 -0.859161 -0.349937 0.299938 -0.740375 -0.292638 0.284737 -29.940802 -14.113212 5.736816 -44.577324 -19.793145 11.294864 -56.621716 -23.962615 17.300758 -29.940802 -5.081069 -5.736816 -44.577324 -10.699599 -11.294864 -56.621716 -18.049739 -17.300758 -19.960535 -9.408808 3.824544 -39.624288 -17.593907 10.039880 -19.960535 -3.387379 -3.824544 -39.624288 -9.510754 -10.039880
9.297765 0.000000 3.771257 0.000000 0.000000 0.000000 -4.990134 -2.262068 1.155770 -2.896974 -1.246559 0.832024 -1.789583 -0.738588 0.597509 -0.788253 -0.314775 0.293481 -0.650289 -0.253186 0.261992 -29.940802 -13.572406 6.934619 -43.454614 -18.698381 12.480360 -53.687503 -22.157637 17.925276 -29.940802 -6.386689 -6.934619 -43.454614 -12.514813 -12.480360 -53.687503 -20.224715 -17.925276 -19.960535 -9.048271 4.623079 -38.626324 -16.620783 11.093653 -19.960535 -4.257793 -4.623079 -38.626324 -11.124278 -11.093653
9.408808 0.000000 3.708709 0.000000 0.000000 0.000000 -4.911436 -2.151855 1.314460 -2.776440 -1.162510 0.881582 -1.663554 -0.671866 0.597159 -0.704913 -0.276819 0.276627 -0.549947 -0.211487 0.229965 -29.468618 -12.911130 7.886760 -41.646599 -17.437649 13.223732 -49.906605 -20.155987 17.914783 -29.468618 -7.635621 -7.886760 -41.646599 -14.218945 -13.223732 -49.906605 -22.220175 -17.914783 -19.645745 -8.607420 5.257840 -37.019199 -15.500132 11.754428 -19.645745 -5.090414 -5.257840 -37.019199 -12.639062 -11.754428
9.510565 0.000000 3.644843 0.000000 0.000000 0.000000 -4.755283 -2.022542 1.426585 -2.612120 -1.068143 0.899910 -1.511288 -0.599181 0.575655 -0.610457 -0.236405 0.249974 -0.440932 -0.167911 0.189792 -28.531695 -12.135255 8.559509 -39.181793 -16.022139 13.498647 -45.338650 -17.975431 17.269649 -28.531695 -8.816779 -8.559509 -39.181793 -15.796869 -13.498647 -45.338650 -24.018407 -17.269649 -19.021130 -8.090170 5.706339 -34.828260 -14.241902 11.998797 -19.021130 -5.877853 -5.706339 -34.828260 -14.041661 -11.998797
9.602937 0.000000 3.579682 0.000000 0.000000 0.000000 -4.524135 -1.875278 1.488172 -2.406604 -0.964294 0.886358 -1.335189 -0.521177 0.533758 -0.506373 -0.193894 0.214466 -0.324964 -0.122844 0.142895 -27.144812 -11.251666 8.929032 -36.099066 -14.464416 13.295365 -40.055678 -15.635324 16.012729 -27.144812 -9.919678 -8.929032 -36.099066 -17.234578 -13.295365 -40.055678 -25.603450 -16.012729 -18.096541 -7.501111 5.952688 -32.088059 -12.857258 11.818103 -18.096541 -6.613119 -5.952688 -32.088059 -15.319625 -11.818103
9.685832 0.000000 3.513250 0.000000 0.000000 0.000000 -4.221640 -1.711368 1.497040 -2.163136 -0.851887 0.841406 -1.138033 -0.438548 0.472952 -0.394303 -0.149661 0.171359 -0.203870 -0.076687 0.090936 -25.329838 -10.268207 8.982241 -32.447035 -12.778305 12.621089 -34.141004 -13.156436 14.188551 -25.329838 -10.934529 -8.982241 -32.447035 -18.519312 -12.621089 -34.141004 -26.961235 -14.188551 -16.886559 -6.845471 5.988160 -28.841809 -11.358493 11.218746 -16.886559 -7.289686 -5.988160 -28.841809 -16.461611 -11.218746
9.759168 0.000000 3.445569 0.000000 0.000000 0.000000 -3.852566 -1.532268 1.452875 -1.885553 -0.731918 0.766647 -0.922930 -0.352026 0.395391 -0.276015 -0.104100 0.122183 -0.079562 -0.029849 0.035755 -23.115397 -9.193606 8.717248 -28.283296 -10.978773 11.499704 -27.687906 -10.560771 11.861736 -23.115397 -11.852325 -8.717248 -28.283296 -19.639667 -11.499704 -27.687906 -28.079710 -11.861736 -15.410265 -6.129071 5.811499 -25.140707 -9.758910 10.221959 -15.410265 -7.901550 -5.811499 -25.140707 -17.457482 -10.221959
9.822873 0.000000 3.376664 0.000000 0.000000 0.000000 -3.422736 -1.339567 1.357241 -1.578234 -0.605453 0.664729 -0.693272 -0.262379 0.303824 -0.153374 -0.057615 0.068678 0.046002 0.017253 -0.020692 -20.536413 -8.037402 8.143443 -23.673511 -9.081793 9.970937 -20.798153 -7.871368 9.114713 -20.536413 -12.664919 -8.143443 -23.673511 -20.585700 -9.970937 -20.798153 -28.948948 -9.114713 -13.690942 -5.358268 5.428962 -21.043121 -8.072705 8.863055 -13.690942 -8.443279 -5.428962 -21.043121 -18.298400 -8.863055
9.876883 0.000000 3.306559 0.000000 0.000000 0.000000 -2.938926 -1.134976 1.213525 -1.246025 -0.473613 0.539263 -0.452680 -0.170403 0.201493 -0.028315 -0.010619 0.012740 0.170839 0.064203 -0.076406 -17.633558 -6.809857 7.281153 -18.690382 -7.104202 8.088944 -13.580401 -5.112098 6.044796 -17.633558 -13.365098 -7.281153 -18.690382 -21.349012 -8.088944 -13.580401 -29.561232 -6.044796 -11.755705 -4.539905 4.854102 -16.613673 -6.314846 7.190172 -11.755705 -8.910065 -4.854102 -16.613673 -18.976899 -7.190172
9.921147 0.000000 3.235280 0.000000 0.000000 0.000000 -2.408768 -0.920311 1.026821 -0.894166 -0.337570 0.394693 -0.204949 -0.076915 0.092025 0.097192 0.036472 -0.043650 0.292983 0.110582 -0.129413 -14.452610 -5.521868 6.160924 -13.412494 -5.063554 5.920396 -6.148477 -2.307452 2.760740 -14.452610 -13.946647 -6.160924 -13.412494 -21.922829 -5.920396 -6.148477 -29.911129 -2.760740 -9.635073 -3.681246 4.107283 -11.922217 -4.500937 5.262574 -9.635073 -9.297765 -4.107283 -11.922217 -19.486959 -5.262574
9.955620 0.000000 3.162851 0.000000 0.000000 0.000000 -1.840623 -0.697478 0.803740 -0.528205 -0.198531 0.236141 0.046014 0.017256 -0.020704 0.221165 0.083239 -0.098493 0.410506 0.155981 -0.177836 -11.043737 -4.184867 4.822441 -7.923082 -2.977961 3.542116 1.380411 0.517674 -0.621116 -11.043737 -14.404405 -4.822441 -7.923082 -22.302057 -3.542116 1.380411 -29.995533 0.621116 -7.362491 -2.789911 3.214961 -7.042740 -2.647077 3.148547 -7.362491 -9.602937 -3.214961 -7.042740 -19.824051 -3.148547
9.980267 0.000000 3.089298 0.000000 0.000000 0.000000 -1.243449 -0.468453 0.552187 -0.153915 -0.057729 0.069224 0.296251 0.111274 -0.132699 0.341651 0.129267 -0.149847 0.521555 0.199994 -0.219959 -7.460697 -2.810720 3.313121 -2.308720 -0.865936 1.038354 8.887530 3.338206 -3.980970 -7.460697 -14.734309 -3.313121 -2.308720 -22.483331 -1.038354 8.887530 -29.813695 3.980970 -4.973798 -1.873813 2.208747 -2.052195 -0.769721 0.922981 -4.973798 -9.822873 -2.208747 -2.052195 -19.985183 -0.922981
9.995066 0.000000 3.014648 0.000000 0.000000 0.000000 -0.626666 -0.235271 0.281072 0.222804 0.083585 -0.100146 0.541816 0.204304 -0.239993 0.456748 0.174148 -0.195892 0.624379 0.242233 -0.254289 -3.759997 -1.411625 1.686432 3.342053 1.253775 -1.502193 16.254487 6.129107 -7.199795 -3.759997 -14.933429 -1.686432 3.342053 -22.465041 1.502193 16.254487 -29.367227 7.199795 -2.506665 -0.941083 1.124288 2.970714 1.114467 -1.335282 -2.506665 -9.955620 -1.124288 2.970714 -19.968925 1.335282
10.000000 0.000000 2.938926 0.000000 0.000000 0.000000 -0.000000 -0.000000 0.000000 0.596008 0.224157 -0.265968 0.778837 0.295520 -0.338785 0.564642 0.217483 -0.234998 0.717356 0.282321 -0.279612 -0.000000 -0.000000 0.000000 8.940120 3.362358 -3.989523 23.365101 8.865606 -10.163565 -0.000000 -15.000000 -0.000000 8.940120 -22.247349 3.989523 23.365101 -28.660095 10.163565 -0.000000 -0.000000 0.000000 7.946773 2.988763 -3.546242 -0.000000 -10.000000 -0.000000 7.946773 -19.775422 3.546242
9.995066 0.000000 2.862161 0.000000 0.000000 0.000000 0.626666 0.235271 -0.281072 0.959813 0.362740 -0.422368 1.003574 0.384114 -0.425576 0.663632 0.258887 -0.265779 0.799020 0.319904 -0.295029 3.759997 1.411625 -1.686432 14.397195 5.441096 -6.335522 30.107233 11.523413 -12.767284 3.759997 -14.933429 1.686432 14.397195 -21.832189 6.335522 30.107233 -27.698573 12.767284 2.506665 0.941083 -1.124288 12.797507 4.836530 -5.631575 2.506665 -9.955620 1.124288 12.797507 -19.406390 5.631575
9.980267 0.000000 2.784378 0.000000 0.000000 0.000000 1.243449 0.468453 -0.552187 1.308481 0.498103 -0.563806 1.212485 0.469298 -0.497291 0.752156 0.297994 -0.287145 0.868083 0.354647 -0.299994 7.460697 2.810720 -3.313121 19.627219 7.471539 -8.457083 36.374556 14.078938 -14.918717 7.460697 -14.734309 3.313121 19.627219 -21.223244 8.457083 36.374556 -26.491197 14.918717 4.973798 1.873813 -2.208747 17.446417 6.641368 -7.517407 4.973798 -9.822873 2.208747 17.446417 -18.865106 7.517407
9.955620 0.000000 2.705606 0.000000 0.000000 0.000000 1.840623 0.697478 -0.803740 1.636514 0.629044 -0.685270 1.402274 0.550317 -0.551388 0.828818 0.334456 -0.298338 0.923456 0.386242 -0.294332 11.043737 4.184867 -4.822441 24.547709 9.435664 -10.279047 42.068231 16.509497 -16.541646 11.043737 -14.404405 4.822441 24.547709 -20.425921 10.279047 42.068231 -25.048683 16.541646 7.362491 2.789911 -3.214961 21.820186 8.387257 -9.136930 7.362491 -9.602937 3.214961 21.820186 -18.156374 9.136930
9.921147 0.000000 2.625873 0.000000 0.000000 0.000000 2.408768 0.920311 -1.026821 1.938738 0.754402 -0.782458 1.569949 0.626451 -0.585953 0.892408 0.367949 -0.298963 0.964265 0.414409 -0.278243 14.452610 5.521868 -6.160924 29.081067 11.316037 -11.736870 47.098465 18.793517 -17.578580 14.452610 -13.946647 6.160924 29.081067 -19.447296 11.736870 47.098465 -23.383835 17.578580 9.635073 3.681246 -4.107283 25.849837 10.058699 -10.432773 9.635073 -9.297765 4.107283 25.849837 -17.286485 10.432773
9.876883 0.000000 2.545207 0.000000 0.000000 0.000000 2.938926 1.134976 -1.213525 2.210387 0.873065 -0.851927 1.712864 0.697024 -0.599759 0.941925 0.398176 -0.288996 0.989867 0.438897 -0.252298 17.633558 6.809857 -7.281153 33.155800 13.095968 -12.778909 51.385928 20.910724 -17.992783 17.633558 -13.365098 7.281153 33.155800 -18.296055 12.778909 51.385928 -21.511430 17.992783 11.755705 4.539905 -4.854102 29.471822 11.640861 -11.359030 11.755705 -8.910065 4.854102 29.471822 -16.263160 11.359030
9.822873 0.000000 2.463637 0.000000 0.000000 0.000000 3.422736 1.339567 -1.357241 2.447176 0.983977 -0.891217 1.828767 0.761411 -0.592319 0.976588 0.424869 -0.268792 0.999859 0.459490 -0.217414 20.536413 8.037402 -8.143443 36.707645 14.759659 -13.368249 54.863004 22.842326 -17.769583 20.536413 -12.664919 8.143443 36.707645 -16.982417 13.368249 54.863004 -19.448089 17.769583 13.690942 5.358268 -5.428962 32.629018 13.119697 -11.882888 13.690942 -8.443279 5.428962 32.629018 -15.095482 11.882888
9.759168 0.000000 2.381191 0.000000 0.000000 0.000000 3.852566 1.532268 -1.452875 2.645373 1.086156 -0.898934 1.915829 0.819039 -0.563896 0.995849 0.447790 -0.239066 0.994082 0.476005 -0.174829 23.115397 9.193606 -8.717248 39.680589 16.292341 -13.484012 57.474857 24.571177 -16.916887 23.115397 -11.852325 8.717248 39.680589 -15.518042 13.484012 57.474857 -17.212125 16.916887 15.410265 6.129071 -5.811499 35.271635 14.482081 -11.985789 15.410265 -7.901550 5.811499 35.271635 -13.793815 11.985789
9.685832 0.000000 2.297899 0.000000 0.000000 0.000000 4.221640 1.711368 -1.497040 2.801850 1.178694 -0.874806 1.972677 0.869398 -0.515497 0.999404 0.466737 -0.200871 0.972628 0.488294 -0.126050 25.329838 10.268207 -8.982241 42.027747 17.680412 -13.122097 59.180298 26.081934 -15.464902 25.329838 -10.934529 8.982241 42.027747 -13.915927 13.122097 59.180298 -14.823385 15.464902 16.886559 6.845471 -5.988160 37.357997 15.715922 -11.664087 16.886559 -7.289686 5.988160 37.357997 -12.369713 11.664087
9.602937 0.000000 2.213791 0.000000 0.000000 0.000000 4.524135 1.875278 -1.488172 2.914140 1.260770 -0.819688 1.998414 0.912039 -0.448835 0.987199 0.481542 -0.155559 0.935834 0.496249 -0.072805 27.144812 11.251666 -8.929032 43.712102 18.911550 -12.295326 59.952430 27.361185 -13.465064 27.144812 -9.919678 8.929032 43.712102 -12.190294 12.295326 59.952430 -12.303071 13.465064 18.096541 7.501111 -5.952688 38.855202 16.810267 -10.929178 18.096541 -6.613119 5.952688 38.855202 -10.835817 10.929178
9.510565 0.000000 2.128896 0.000000 0.000000 0.000000 4.755283 2.022542 -1.426585 2.980473 1.331655 -0.735532 1.992636 0.946586 -0.366274 0.959425 0.492072 -0.104737 0.884283 0.499800 -0.016982 28.531695 12.135255 -8.559509 44.707091 19.974828 -11.032986 59.779077 28.397576 -10.988221 28.531695 -8.816779 8.559509 44.707091 -10.356459 11.032986 59.779077 -9.673555 10.988221 19.021130 8.090170 -5.706339 39.739636 17.755403 -9.807099 19.021130 -5.877853 5.706339 39.739636 -9.205741 9.807099
9.408808 0.000000 2.043245 0.000000 0.000000 0.000000 4.911436 2.151855 -1.314460 2.999801 1.390721 -0.625320 1.955432 0.972730 -0.270737 0.916520 0.498234 -0.050205 0.818785 0.498914 0.039443 29.468618 12.911130 -7.886760 44.997022 20.860808 -9.379797 58.662972 29.181909 -8.122113 29.468618 -7.635621 7.886760 44.997022 -8.430699 9.379797 58.662972 -6.958175 8.122113 19.645745 8.607420 -5.257840 39.997353 18.542940 -8.337598 19.645745 -5.090414 5.257840 39.997353 -7.493955 8.337598
9.297765 0.000000 1.956868 0.000000 0.000000 0.000000 4.990134 2.262068 -1.155770 2.971822 1.437442 -0.492955 1.887391 0.990241 -0.165609 0.859161 0.499974 0.006106 0.740375 0.493600 0.094471 29.940802 13.572406 -6.934619 44.577324 21.561626 -7.394325 56.621716 29.707221 -4.968277 29.940802 -6.386689 6.934619 44.577324 -6.430108 7.394325 56.621716 -4.181034 4.968277 19.960535 9.048271 -4.623079 39.624288 19.165890 -6.572733 19.960535 -4.257793 4.623079 39.624288 -5.715652 6.572733
9.177546 0.000000 1.869796 0.000000 0.000000 0.000000 4.990134 2.352202 -0.956136 2.896974 1.471404 -0.343127 1.789583 0.998962 -0.054615 0.788253 0.497276 0.062200 0.650289 0.483904 0.146152 29.940802 14.113212 -5.736816 43.454614 22.071061 -5.146904 53.687503 29.968849 -1.638436 29.940802 -5.081069 5.736816 43.454614 -4.372443 5.146904 53.687503 -1.366782 1.638436 19.960535 9.408808 -3.824544 38.626324 19.618721 -4.575026 19.960535 -3.387379 3.824544 38.626324 -3.886616 4.575026
9.048271 0.000000 1.782059 0.000000 0.000000 0.000000 4.911436 2.421458 -0.722631 2.776440 1.492306 -0.181143 1.663554 0.998816 0.058315 0.704913 0.490165 0.116092 0.549947 0.469914 0.192655 29.468618 14.528747 -4.335783 41.646599 22.384592 -2.717152 49.906605 29.964472 1.749447 29.468618 -3.730348 4.335783 41.646599 -2.275967 2.717152 49.906605 1.459601 -1.749447 19.645745 9.685832 -2.890522 37.019199 19.897415 -2.415246 19.645745 -2.486899 2.890522 37.019199 -2.023082 2.415246
8.910065 0.000000 1.693690 0.000000 0.000000 0.000000 4.755283 2.469221 -0.463525 2.612120 1.499962 -0.012743 1.511288 0.989804 0.169179 0.610457 0.478702 0.165870 0.440932 0.451752 0.232334 28.531695 14.815325 -2.781153 39.181793 22.499436 -0.191144 45.338650 29.694128 5.075355 28.531695 -2.346517 2.781153 39.181793 -0.159290 0.191144 45.338650 4.273029 -5.075355 19.021130 9.876883 -1.854102 34.828260 19.999499 -0.169906 19.021130 -1.564345 1.854102 34.828260 -0.141591 0.169906
8.763067 0.000000 1.604718 0.000000 0.000000 0.000000 4.524135 2.495067 -0.188000 2.406604 1.494305 0.156109 1.335189 0.972007 0.274049 0.506373 0.462991 0.209773 0.324964 0.429581 0.263782 27.144812 14.970401 -1.127999 36.099066 22.414573 2.341636 40.055678 29.160217 8.221466 27.144812 -0.941858 1.127999 36.099066 1.958801 -2.341636 40.055678 7.048530 -8.221466 18.096541 9.980267 -0.751999 32.088059 19.924065 2.081454 18.096541 -0.627905 0.751999 32.088059 1.741156 -2.081454
8.607420 0.000000 1.515176 0.000000 0.000000 0.000000 4.221640 2.498766 0.094186 2.163136 1.475384 0.319431 1.138033 0.945583 0.369211 0.394303 0.443170 0.246244 0.203870 0.403596 0.285886 25.329838 14.992598 0.565115 32.447035 22.130757 4.791462 34.141004 28.367477 11.076328 25.329838 0.471161 -0.565115 32.447035 4.059505 -4.791462 34.141004 9.761467 -11.076328 16.886559 9.995066 0.376743 28.841809 19.671784 4.259078 16.886559 0.314108 -0.376743 28.841809 3.608449 -4.259078
8.443279 0.000000 1.425096 0.000000 0.000000 0.000000 3.852566 2.480287 0.373035 1.885553 1.443367 0.471437 0.922930 0.910765 0.451293 0.276015 0.419416 0.273992 0.079562 0.374030 0.297862 23.115397 14.881721 2.238209 28.283296 21.650507 7.071549 27.687906 27.322946 13.538805 23.115397 1.879999 -2.238209 28.283296 6.124177 -7.071549 27.687906 12.387761 -13.538805 15.410265 9.921147 1.492139 25.140707 19.244895 6.285821 15.410265 1.253332 -1.492139 25.140707 5.443713 -6.285821
8.270806 0.000000 1.334510 0.000000 0.000000 0.000000 3.422736 2.439792 0.638669 1.578234 1.398539 0.606741 0.693272 0.867863 0.517389 0.153374 0.391938 0.292033 -0.046002 0.341143 0.299286 20.536413 14.638751 3.832014 23.673511 20.978085 9.101122 20.798153 26.035895 15.521663 20.536413 3.272149 -3.832014 23.673511 8.134490 -9.101122 20.798153 14.904100 -15.521663 13.690942 9.759168 2.554676 21.043121 18.647187 8.089886 13.690942 2.181432 -2.554676 21.043121 7.230658 -8.089886
8.090170 0.000000 1.243449 0.000000 0.000000 0.000000 2.938926 2.377641 0.881678 1.246025 1.341297 0.720552 0.452680 0.817258 0.565155 0.028315 0.360982 0.299729 -0.170839 0.305228 0.290107 17.633558 14.265848 5.290067 18.690382 20.119461 10.808283 13.580401 24.517747 16.954658 17.633558 4.635255 -5.290067 18.690382 10.072601 -10.808283 13.580401 17.288149 -16.954658 11.755705 9.510565 3.526712 16.613673 17.883965 9.607363 11.755705 3.090170 -3.526712 16.613673 8.953424 -9.607363
7.901550 0.000000 1.151947 0.000000 0.000000 0.000000 2.408768 2.294387 1.093453 0.894166 1.272150 0.808837 0.204949 0.759399 0.592901 -0.097192 0.326822 0.296808 -0.292983 0.266605 0.270652 14.452610 13.766319 6.560718 13.412494 19.082254 12.132556 6.148477 22.781978 17.787027 14.452610 5.957218 -6.560718 13.412494 11.921307 -12.132556 6.148477 19.518747 -17.787027 9.635073 9.177546 4.373812 11.922217 16.962004 10.784494 9.635073 3.971479 -4.373812 11.922217 10.596718 -10.784494
7.705132 0.000000 1.060036 0.000000 0.000000 0.000000 1.840623 2.190767 1.266492 0.528205 1.191711 0.868468 -0.046014 0.694800 0.599643 -0.221165 0.289761 0.283371 -0.410506 0.225614 0.241608 11.043737 13.144600 7.598951 7.923082 17.875672 13.027026 -1.380411 20.843994 17.989281 11.043737 7.226305 -7.598951 7.923082 13.664199 -13.027026 -1.380411 21.576096 -17.989281 7.362491 8.763067 5.065968 7.042740 15.889487 11.579579 7.362491 4.817537 -5.065968 7.042740 12.145955 -11.579579
7.501111 0.000000 0.967747 0.000000 0.000000 0.000000 1.243449 2.067701 1.394665 0.153915 1.100695 0.897334 -0.296251 0.624033 0.585142 -0.341651 0.250128 0.259896 -0.521555 0.182621 0.204005 7.460697 12.406209 8.367988 2.308720 16.510425 13.460008 -8.887530 18.720998 17.554255 7.460697 8.431251 -8.367988 2.308720 15.285806 -13.460008 -8.887530 23.441933 -17.554255 4.973798 8.270806 5.578659 2.052195 14.675933 11.964452 4.973798 5.620834 -5.578659 2.052195 13.587383 -11.964452
7.289686 0.000000 0.875115 0.000000 0.000000 0.000000 0.626666 1.926283 1.473431 -0.222804 0.999909 0.894411 -0.541816 0.547728 0.549912 -0.456748 0.208274 0.227214 -0.624379 0.138008 0.159176 3.759997 11.557699 8.840585 -3.342053 14.998630 13.416163 -16.254487 16.431832 16.497362 3.759997 9.561360 -8.840585 -3.342053 16.771735 -13.416163 -16.254487 25.099699 -16.497362 2.506665 7.705132 5.893724 -2.970714 13.332115 11.925478 2.506665 6.374240 -5.893724 -2.970714 14.908209 -11.925478
7.071068 0.000000 0.782172 0.000000 0.000000 0.000000 0.000000 1.767767 1.500000 -0.596008 0.890247 0.859803 -0.778837 0.466561 0.495201 -0.564642 0.164573 0.186483 -0.717356 0.092169 0.108707 0.000000 10.606602 9.000000 -8.940120 13.353705 12.897043 -23.365101 13.996817 14.856041 0.000000 10.606602 -9.000000 -8.940120 18.108798 -12.897043 -23.365101 26.534678 -14.856041 0.000000 7.071068 6.000000 -7.946773 11.869960 11.464038 0.000000 7.071068 -6.000000 -7.946773 16.096709 -11.464038
6.845471 0.000000 0.688951 0.000000 0.000000 0.000000 -0.626666 1.593560 1.473431 -0.959813 0.772684 0.794736 -1.003574 0.381252 0.422948 -0.663632 0.119410 0.139146 -0.799020 0.045512 0.054388 -3.759997 9.561360 8.840585 -14.397195 11.590253 11.921038 -30.107233 11.437565 12.688438 -3.759997 11.557699 -8.840585 -14.397195 19.285125 -11.921038 -30.107233 27.734133 -12.688438 -2.506665 6.374240 5.893724 -12.797507 10.302447 10.596479 -2.506665 7.705132 -5.893724 -12.797507 17.142333 -10.596479
6.613119 0.000000 0.595486 0.000000 0.000000 0.000000 -1.243449 1.405208 1.394665 -1.308481 0.648262 0.701515 -1.212485 0.292560 0.335711 -0.752156 0.073187 0.086879 -0.868083 -0.001549 -0.001858 -7.460697 8.431251 8.367988 -19.627219 9.723924 10.522726 -36.374556 8.776792 10.071340 -7.460697 12.406209 -8.367988 -19.627219 20.290276 -10.522726 -36.374556 28.687417 -10.071340 -4.973798 5.620834 5.578659 -17.446417 8.643488 9.353534 -4.973798 8.270806 -5.578659 -17.446417 18.035801 -9.353534
6.374240 0.000000 0.501809 0.000000 0.000000 0.000000 -1.840623 1.204384 1.266492 -1.636514 0.518086 0.583443 -1.402274 0.201271 0.236582 -0.828818 0.026315 0.031535 -0.923456 -0.048596 -0.058039 -11.043737 7.226305 7.598951 -24.547709 7.771285 8.751640 -42.068231 6.038116 7.097460 -11.043737 13.144600 -7.598951 -24.547709 21.115329 -8.751640 -42.068231 29.386071 -7.097460 -7.362491 4.817537 5.065968 -21.820186 6.907809 7.779236 -7.362491 8.763067 -5.065968 -21.820186 18.769181 -7.779236
6.129071 0.000000 0.407953 0.000000 0.000000 0.000000 -2.408768 0.992870 1.093453 -1.938738 0.383311 0.444702 -1.569949 0.108195 0.129072 -0.892408 -0.020790 -0.024927 -0.964265 -0.095211 -0.112163 -14.452610 5.957218 6.560718 -29.081067 5.749668 6.670523 -47.098465 3.245845 3.872149 -14.452610 13.766319 -6.560718 -29.081067 21.752961 -6.670523 -47.098465 29.823891 -3.872149 -9.635073 3.971479 4.373812 -25.849837 5.110816 5.929354 -9.635073 9.177546 -4.373812 -25.849837 19.335965 -5.929354
5.877853 0.000000 0.313953 0.000000 0.000000 0.000000 -2.938926 0.772542 0.881678 -2.210387 0.245134 0.290207 -1.712864 0.014159 0.016989 -0.941925 -0.067712 -0.080505 -0.989867 -0.140982 -0.162314 -17.633558 4.635255 5.290067 -33.155800 3.677017 4.353100 -51.385928 0.424764 0.509665 -17.633558 14.265848 -5.290067 -33.155800 22.197512 -4.353100 -51.385928 29.996993 -0.509665 -11.755705 3.090170 3.526712 -29.471822 3.268459 3.869422 -11.755705 9.510565 -3.526712 -29.471822 19.731122 -3.869422
5.620834 0.000000 0.219841 0.000000 0.000000 0.000000 -3.422736 0.545358 0.638669 -2.447176 0.104782 0.125431 -1.828767 -0.080003 -0.095696 -0.976588 -0.114032 -0.133232 -0.999859 -0.185501 -0.206715 -20.536413 3.272149 3.832014 -36.707645 1.571727 1.881466 -54.863004 -2.400088 -2.870873 -20.536413 14.638751 -3.832014 -36.707645 22.445037 -1.881466 -54.863004 29.903839 2.870873 -13.690942 2.181432 2.554676 -32.629018 1.397091 1.672414 -13.690942 9.759168 -2.554676 -32.629018 19.951144 -1.672414
5.358268 0.000000 0.125650 0.000000 0.000000 0.000000 -3.852566 0.313333 0.373035 -2.645373 -0.036501 -0.043788 -1.915829 -0.173455 -0.204990 -0.995849 -0.159340 -0.181239 -0.994082 -0.228374 -0.243793 -23.115397 1.879999 2.238209 -39.680589 -0.547513 -0.656821 -57.474857 -5.203636 -6.149710 -23.115397 14.881721 -2.238209 -39.680589 22.493337 0.656821 -57.474857 29.545256 6.149710 -15.410265 1.253332 1.492139 -35.271635 -0.486678 -0.583840 -15.410265 9.921147 -1.492139 -35.271635 19.994078 0.583840
5.090414 0.000000 0.031416 0.000000 0.000000 0.000000 -4.221640 0.078527 0.094186 -2.801850 -0.177460 -0.211456 -1.972677 -0.265367 -0.307023 -0.999404 -0.203234 -0.222825 -0.972628 -0.269220 -0.272234 -25.329838 0.471161 0.565115 -42.027747 -2.661893 -3.171838 -59.180298 -7.960996 -9.210691 -25.329838 14.992598 -0.565115 -42.027747 22.341986 3.171838 -59.180298 28.924428 9.210691 -16.886559 0.314108 0.376743 -37.357997 -2.366127 -2.819412 -16.886559 9.995066 -0.376743 -37.357997 19.859543 2.819412
4.817537 0.000000 -0.062830 0.000000 0.000000 0.000000 -4.524135 -0.156976 -0.188000 -2.914140 -0.316843 -0.371633 -1.998414 -0.354923 -0.398179 -0.987199 -0.245323 -0.256518 -0.935834 -0.307676 -0.291032 -27.144812 -0.941858 -1.127999 -43.712102 -4.752646 -5.574492 -59.952430 -10.647694 -11.945377 -27.144812 14.970401 1.127999 -43.712102 21.992325 5.574492 -59.952430 28.046865 11.945377 -18.096541 -0.627905 -0.751999 -38.855202 -4.224574 -4.955104 -18.096541 9.980267 0.751999 -38.855202 19.548733 4.955104
4.539905 0.000000 -0.157054 0.000000 0.000000 0.000000 -4.755283 -0.391086 -0.463525 -2.980473 -0.453414 -0.518644 -1.992636 -0.441329 -0.475230 -0.959425 -0.285236 -0.281123 -0.884283 -0.343401 -0.299519 -28.531695 -2.346517 -2.781153 -44.707091 -6.801214 -7.779667 -59.779077 -13.239882 -14.256893 -28.531695 14.815325 2.781153 -44.707091 21.447459 7.779667 -59.779077 26.920355 14.256893 -19.021130 -1.564345 -1.854102 -39.739636 -6.045524 -6.915260 -19.021130 9.876883 1.854102 -39.739636 19.064408 6.915260
4.257793 0.000000 -0.251222 0.000000 0.000000 0.000000 -4.911436 -0.621725 -0.722631 -2.999801 -0.585961 -0.647283 -1.955432 -0.523818 -0.535445 -0.916520 -0.322616 -0.295769 -0.818785 -0.376078 -0.297396 -29.468618 -3.730348 -4.335783 -44.997022 -8.789414 -9.709243 -58.662972 -15.714553 -16.063352 -29.468618 14.528747 4.335783 -44.997022 20.712223 9.709243 -58.662972 25.554898 16.063352 -19.645745 -2.486899 -2.890522 -39.997353 -7.812813 -8.630438 -19.645745 9.685832 2.890522 -39.997353 18.410865 8.630438
3.971479 0.000000 -0.345300 0.000000 0.000000 0.000000 -4.990134 -0.846845 -0.956136 -2.971822 -0.713307 -0.752991 -1.887391 -0.601658 -0.576692 -0.859161 -0.357133 -0.299938 -0.740375 -0.405417 -0.284737 -29.940802 -5.081069 -5.736816 -44.577324 -10.699599 -11.294864 -56.621716 -18.049739 -17.300758 -29.940802 14.113212 5.736816 -44.577324 19.793145 11.294864 -56.621716 23.962615 17.300758 -19.960535 -3.387379 -3.824544 -39.624288 -9.510754 -10.039880 -19.960535 9.408808 3.824544 -39.624288 17.593907 10.039880
3.681246 0.000000 -0.439256 0.000000 0.000000 0.000000 -4.990134 -1.064448 -1.155770 -2.896974 -0.834321 -0.832024 -1.789583 -0.674157 -0.597509 -0.788253 -0.388480 -0.293481 -0.650289 -0.431157 -0.261992 -29.940802 -6.386689 -6.934619 -43.454614 -12.514813 -12.480360 -53.687503 -20.224715 -17.925276 -29.940802 13.572406 6.934619 -43.454614 18.698381 12.480360 -53.687503 22.157637 17.925276 -19.960535 -4.257793 -4.623079 -38.626324 -11.124278 -11.093653 -19.960535 9.048271 4.623079 -38.626324 16.620783 11.093653
3.387379 0.000000 -0.533056 0.000000 0.000000 0.000000 -4.911436 -1.272604 -1.314460 -2.776440 -0.947930 -0.881582 -1.663554 -0.740673 -0.597159 -0.704913 -0.416379 -0.276627 -0.549947 -0.453071 -0.229965 -29.468618 -7.635621 -7.886760 -41.646599 -14.218945 -13.223732 -49.906605 -22.220175 -17.914783 -29.468618 12.911130 7.886760 -41.646599 17.437649 13.223732 -49.906605 20.155987 17.914783 -19.645745 -5.090414 -5.257840 -37.019199 -12.639062 -11.754428 -19.645745 8.607420 5.257840 -37.019199 15.500132 11.754428
3.090170 0.000000 -0.626666 0.000000 0.000000 0.000000 -4.755283 -1.469463 -1.426585 -2.612120 -1.053125 -0.899910 -1.511288 -0.800614 -0.575655 -0.610457 -0.440582 -0.249974 -0.440932 -0.470963 -0.189792 -28.531695 -8.816779 -8.559509 -39.181793 -15.796869 -13.498647 -45.338650 -24.018407 -17.269649 -28.531695 12.135255 8.559509 -39.181793 16.022139 13.498647 -45.338650 17.975431 17.269649 -19.021130 -5.877853 -5.706339 -34.828260 -14.041661 -11.998797 -19.021130 8.090170 5.706339 -34.828260 14.241902 11.998797
2.789911 0.000000 -0.720054 0.000000 0.000000 0.000000 -4.524135 -1.653280 -1.488172 -2.406604 -1.148972 -0.886358 -1.335189 -0.853448 -0.533758 -0.506373 -0.460874 -0.214466 -0.324964 -0.484674 -0.142895 -27.144812 -9.919678 -8.929032 -36.099066 -17.234578 -13.295365 -40.055678 -25.603450 -16.012729 -27.144812 11.251666 8.929032 -36.099066 14.464416 13.295365 -40.055678 15.635324 16.012729 -18.096541 -6.613119 -5.952688 -32.088059 -15.319625 -11.818103 -18.096541 7.501111 5.952688 -32.088059 12.857258 11.818103
2.486899 0.000000 -0.813186 0.000000 0.000000 0.000000 -4.221640 -1.822422 -1.497040 -2.163136 -1.234621 -0.841406 -1.138033 -0.898708 -0.472952 -0.394303 -0.477076 -0.171359 -0.203870 -0.494084 -0.090936 -25.329838 -10.934529 -8.982241 -32.447035 -18.519312 -12.621089 -34.141004 -26.961235 -14.188551 -25.329838 10.268207 8.982241 -32.447035 12.778305 12.621089 -34.141004 13.156436 14.188551 -16.886559 -7.289686 -5.988160 -28.841809 -16.461611 -11.218746 -16.886559 6.845471 5.988160 -28.841809 11.358493 11.218746
2.181432 0.000000 -0.906029 0.000000 0.000000 0.000000 -3.852566 -1.975388 -1.452875 -1.885553 -1.309311 -0.766647 -0.922930 -0.935990 -0.395391 -0.276015 -0.489043 -0.122183 -0.079562 -0.499108 -0.035755 -23.115397 -11.852325 -8.717248 -28.283296 -19.639667 -11.499704 -27.687906 -28.079710 -11.861736 -23.115397 9.193606 8.717248 -28.283296 10.978773 11.499704 -27.687906 10.560771 11.861736 -15.410265 -7.901550 -5.811499 -25.140707 -17.457482 -10.221959 -15.410265 6.129071 5.811499 -25.140707 9.758910 10.221959
1.873813 0.000000 -0.998550 0.000000 0.000000 0.000000 -3.422736 -2.110820 -1.357241 -1.578234 -1.372380 -0.664729 -0.693272 -0.964965 -0.303824 -0.153374 -0.496669 -0.068678 0.046002 -0.499702 0.020692 -20.536413 -12.664919 -8.143443 -23.673511 -20.585700 -9.970937 -20.798153 -28.948948 -9.114713 -20.536413 8.037402 8.143443 -23.673511 9.081793 9.970937 -20.798153 7.871368 9.114713 -13.690942 -8.443279 -5.428962 -21.043121 -18.298400 -8.863055 -13.690942 5.358268 5.428962 -21.043121 8.072705 8.863055
1.564345 0.000000 -1.090716 0.000000 0.000000 0.000000 -2.938926 -2.227516 -1.213525 -1.246025 -1.423267 -0.539263 -0.452680 -0.985374 -0.201493 -0.028315 -0.499887 -0.012740 0.170839 -0.495861 0.076406 -17.633558 -13.365098 -7.281153 -18.690382 -21.349012 -8.088944 -13.580401 -29.561232 -6.044796 -17.633558 6.809857 7.281153 -18.690382 7.104202 8.088944 -13.580401 5.112098 6.044796 -11.755705 -8.910065 -4.854102 -16.613673 -18.976899 -7.190172 -11.755705 4.539905 4.854102 -16.613673 6.314846 7.190172
1.253332 0.000000 -1.182495 0.000000 0.000000 0.000000 -2.408768 -2.324441 -1.026821 -0.894166 -1.461522 -0.394693 -0.204949 -0.997038 -0.092025 0.097192 -0.498668 0.043650 0.292983 -0.487618 0.129413 -14.452610 -13.946647 -6.160924 -13.412494 -21.922829 -5.920396 -6.148477 -29.911129 -2.760740 -14.452610 5.521868 6.160924 -13.412494 5.063554 5.920396 -6.148477 2.307452 2.760740 -9.635073 -9.297765 -4.107283 -11.922217 -19.486959 -5.262574 -9.635073 3.681246 4.107283 -11.922217 4.500937 5.262574
0.941083 0.000000 -1.273854 0.000000 0.000000 0.000000 -1.840623 -2.400734 -0.803740 -0.528205 -1.486804 -0.236141 0.046014 -0.999851 0.020704 0.221165 -0.493023 0.098493 0.410506 -0.475047 0.177836 -11.043737 -14.404405 -4.822441 -7.923082 -22.302057 -3.542116 1.380411 -29.995533 0.621116 -11.043737 4.184867 4.822441 -7.923082 2.977961 3.542116 1.380411 -0.517674 -0.621116 -7.362491 -9.602937 -3.214961 -7.042740 -19.824051 -3.148547 -7.362491 2.789911 3.214961 -7.042740 2.647077 3.148547
0.627905 0.000000 -1.364760 0.000000 0.000000 0.000000 -1.243449 -2.455718 -0.552187 -0.153915 -1.498889 -0.069224 0.296251 -0.993790 0.132699 0.341651 -0.483001 0.149847 0.521555 -0.458260 0.219959 -7.460697 -14.734309 -3.313121 -2.308720 -22.483331 -1.038354 8.887530 -29.813695 3.980970 -7.460697 2.810720 3.313121 -2.308720 0.865936 1.038354 8.887530 -3.338206 -3.980970 -4.973798 -9.822873 -2.208747 -2.052195 -19.985183 -0.922981 -4.973798 1.873813 2.208747 -2.052195 0.769721 0.922981
0.314108 0.000000 -1.455181 0.000000 0.000000 0.000000 -0.626666 -2.488905 -0.281072 0.222804 -1.497669 0.100146 0.541816 -0.978908 0.239993 0.456748 -0.468692 0.195892 0.624379 -0.437405 0.254289 -3.759997 -14.933429 -1.686432 3.342053 -22.465041 1.502193 16.254487 -29.367227 7.199795 -3.759997 1.411625 1.686432 3.342053 -1.253775 -1.502193 16.254487 -6.129107 -7.199795 -2.506665 -9.955620 -1.124288 2.970714 -19.968925 1.335282 -2.506665 0.941083 1.124288 2.970714 -1.114467 -1.335282
