HIERARCHY
ROOT rootx
{
    OFFSET 0.0 0.0 0.0
    CHANNELS 6 Xposition Yposition Zposition Zrotation Xrotation Yrotation
    JOINT spine_01x
    {
        OFFSET 0.0 5.0 0.0
        CHANNELS 3 Zrotation Xrotation Yrotation
        JOINT spine_02x
        {
            OFFSET 0.0 5.0 0.0
            CHANNELS 3 Zrotation Xrotation Yrotation
            JOINT spine_03x
            {
                OFFSET 0.0 5.0 0.0
                CHANNELS 3 Zrotation Xrotation Yrotation
                JOINT neckx
                {
                    OFFSET 0.0 8.0 0.0
                    CHANNELS 3 Zrotation Xrotation Yrotation
                    JOINT headx
                    {
                        OFFSET 0.0 5.0 0.0
                        CHANNELS 3 Zrotation Xrotation Yrotation
                        End Site
                        {
                            OFFSET 0.0 3.0 0.0
                        }
                    }
                }
                JOINT shoulderr
                {
                    OFFSET 5.0 0.0 0.0
                    CHANNELS 3 Zrotation Xrotation Yrotation
                    JOINT arm_stretchr
                    {
                        OFFSET 0.0 -10.0 0.0
                        CHANNELS 3 Zrotation Xrotation Yrotation
                        JOINT forearm_stretchr
                        {
                            OFFSET 0.0 -10.0 0.0
                            CHANNELS 3 Zrotation Xrotation Yrotation
                            End Site
                            {
                                OFFSET 0.0 -3.0 0.0
                            }
                        }
                    }
                }
                JOINT shoulderl
                {
                    OFFSET -5.0 0.0 0.0
                    CHANNELS 3 Zrotation Xrotation Yrotation
                    JOINT arm_stretchl
                    {
                        OFFSET 0.0 -10.0 0.0
                        CHANNELS 3 Zrotation Xrotation Yrotation
                        JOINT forearm_stretchl
                        {
                            OFFSET 0.0 -10.0 0.0
                            CHANNELS 3 Zrotation Xrotation Yrotation
                            End Site
                            {
                                OFFSET 0.0 -3.0 0.0
                            }
                        }
                    }
                }
            }
        }
    }
    JOINT thigh_stretchl
    {
        OFFSET -2.0 0.0 0.0
        CHANNELS 3 Zrotation Xrotation Yrotation
        JOINT leg_stretchl
        {
            OFFSET 0.0 -10.0 0.0
            CHANNELS 3 Zrotation Xrotation Yrotation
            End Site
            {
                OFFSET 0.0 -3.0 0.0
            }
        }
    }
    JOINT thigh_stretchr
    {
        OFFSET 2.0 0.0 0.0
        CHANNELS 3 Zrotation Xrotation Yrotation
        JOINT leg_stretchr
        {
            OFFSET 0.0 -10.0 0.0
            CHANNELS 3 Zrotation Xrotation Yrotation
            End Site
            {
                OFFSET 0.0 -3.0 0.0
            }
        }
    }
}

MOTION
Frames: 100
Frame Time: 0.033333

0.000000 0.000000 3.000000 0.000000 0.000000 0.000000 0.000000 0.900000 0.000000 0.298876 0.595685 0.098962 0.443280 0.437102 0.143828 0.434966 0.280769 0.136328 0.451714 0.212879 0.134635 0.000000 6.000000 0.000000 4.483144 8.935278 1.484424 11.820808 11.656056 3.835404 -20.000000 -4.854102 4.000000 -29.663132 -6.595506 5.813475 -38.213460 -7.753330 7.020660 0.000000 4.500000 0.000000 3.735953 7.446065 1.237020 -15.000000 -3.640576 3.000000 -24.719277 -5.496255 4.844562
0.157054 0.000000 2.999467 0.000000 0.000000 0.000000 0.282325 0.897443 0.093861 0.483653 0.588582 0.158372 0.576171 0.427803 0.183242 0.517775 0.272011 0.157542 0.511846 0.203926 0.146501 1.882166 5.982953 0.625738 7.254795 8.828734 2.375576 15.364551 11.408075 4.886457 -19.911239 -4.574655 3.950753 -29.109585 -6.115491 5.509686 -36.931431 -7.041390 6.334235 1.411625 4.487215 0.469303 6.045662 7.357278 1.979647 -14.933429 -3.430991 2.963065 -24.257988 -5.096243 4.591405
0.313953 0.000000 2.997868 0.000000 0.000000 0.000000 0.562144 0.889787 0.185410 0.664137 0.578135 0.213882 0.703947 0.416073 0.218145 0.595988 0.261707 0.174876 0.567435 0.193814 0.154760 3.747626 5.931910 1.236068 9.962052 8.672023 3.208233 18.771918 11.095272 5.817190 -19.645745 -4.269214 3.804226 -28.297659 -5.600727 5.070231 -35.321596 -6.289439 5.491840 2.810720 4.448933 0.927051 8.301710 7.226686 2.673528 -14.734309 -3.201911 2.853170 -23.581383 -4.667272 4.225192
0.470542 0.000000 2.995205 0.000000 0.000000 0.000000 0.836973 0.877074 0.272394 0.838726 0.564402 0.264126 0.825475 0.401978 0.247676 0.668911 0.249916 0.187905 0.617987 0.182601 0.159208 5.579822 5.847161 1.815962 12.580885 8.466037 3.961893 22.012663 10.719423 6.604683 -19.205874 -3.939515 3.564026 -27.234561 -5.054138 4.505929 -33.398244 -5.501750 4.514217 4.184867 4.385371 1.361971 10.484071 7.055031 3.301578 -14.404405 -2.954636 2.673020 -22.695468 -4.211782 3.754941
0.626666 0.000000 2.991477 0.000000 0.000000 0.000000 1.104374 0.859378 0.352671 1.005870 0.547463 0.307867 0.939676 0.385600 0.271108 0.735897 0.236704 0.196307 0.663054 0.170350 0.159735 7.362491 5.729187 2.351141 15.088049 8.211944 4.617999 25.058022 10.282664 7.229548 -18.595530 -3.587430 3.236068 -25.929728 -4.478831 3.830677 -31.178446 -4.682799 3.425440 5.521868 4.296890 1.763356 12.573374 6.843287 3.848332 -13.946647 -2.690572 2.427051 -21.608106 -3.732359 3.192231
0.782172 0.000000 2.986686 0.000000 0.000000 0.000000 1.361971 0.836799 0.424264 1.164086 0.527413 0.344026 1.045536 0.367030 0.287865 0.796352 0.222148 0.199875 0.702236 0.157132 0.156330 9.079810 5.578659 2.828427 17.461291 7.911190 5.160393 27.880965 9.787476 7.676397 -17.820130 -3.214961 2.828427 -24.394740 -3.878074 3.061101 -28.681907 -3.837239 2.252316 6.809857 4.183994 2.121320 14.551076 6.592658 4.300328 -13.365098 -2.411221 2.121320 -20.328950 -3.231728 2.550918
0.936907 0.000000 2.980834 0.000000 0.000000 0.000000 1.607480 0.809465 0.485410 1.311970 0.504366 0.371715 1.142116 0.346375 0.297534 0.849737 0.206330 0.198521 0.735184 0.143020 0.149075 10.716536 5.396432 3.236068 19.679545 7.565483 5.575722 30.456434 9.236675 7.934228 -16.886559 -2.824224 2.351141 -22.643222 -3.255281 2.216151 -25.930785 -2.969876 1.023733 8.037402 4.047324 2.427051 16.399621 6.304569 4.646435 -12.664919 -2.118168 1.763356 -18.869352 -2.712734 1.846792
1.090716 0.000000 2.973923 0.000000 0.000000 0.000000 1.838721 0.777531 0.534604 1.448208 0.478452 0.390251 1.228559 0.323752 0.299876 0.895581 0.189339 0.192279 0.761607 0.128096 0.138149 12.258141 5.183541 3.564026 21.723122 7.176787 5.853758 32.761570 8.633389 7.996691 -15.803100 -2.417439 1.815962 -20.690722 -2.613991 1.316631 -22.949500 -2.085637 -0.230057 9.193606 3.887655 2.673020 18.102601 5.980656 4.878132 -11.852325 -1.813079 1.361971 -17.242268 -2.178326 1.097192
1.243449 0.000000 2.965955 0.000000 0.000000 0.000000 2.053641 0.741179 0.570634 1.571592 0.449821 0.399177 1.304097 0.299289 0.294834 0.933475 0.171272 0.181303 0.781270 0.112444 0.123822 13.690942 4.941196 3.804226 23.573883 6.747311 5.987655 34.775912 7.981046 7.862250 -14.579373 -1.996917 1.236068 -18.554570 -1.957848 0.384692 -19.764513 -1.189547 -1.478183 10.268207 3.705897 2.853170 19.644902 5.622759 4.989713 -10.934529 -1.497688 0.927051 -15.462141 -1.631540 0.320576
1.394956 0.000000 2.956934 0.000000 0.000000 0.000000 2.250333 0.700616 0.592613 1.681027 0.418633 0.398274 1.368059 0.273126 0.282533 0.963083 0.152232 0.165862 0.793999 0.096153 0.106446 15.002221 4.670774 3.950753 25.215400 6.279496 5.974116 36.481580 7.283353 7.534214 -13.226237 -1.565049 0.625738 -16.253725 -1.290580 -0.556720 -16.404095 -0.286698 -2.689911 11.251666 3.503080 2.963065 21.012834 5.232913 4.978430 -9.919678 -1.173787 0.469303 -13.544771 -1.075483 -0.463934
1.545085 0.000000 2.946862 0.000000 0.000000 0.000000 2.427051 0.656072 0.600000 1.775540 0.385067 0.387565 1.419879 0.245410 0.263275 0.984143 0.132327 0.146338 0.799679 0.079316 0.086448 16.180340 4.373812 4.000000 26.633104 5.775999 5.813475 37.863435 6.544275 7.020660 -11.755705 -1.124288 0.000000 -13.808612 -0.615978 -1.484424 -12.898073 0.617780 -3.835404 12.135255 3.280359 3.000000 22.194253 4.813333 4.844562 -8.816779 -0.843216 0.000000 -11.507177 -0.513315 -1.237020
1.693690 0.000000 2.935743 0.000000 0.000000 0.000000 2.582226 0.607800 0.592613 1.854294 0.349312 0.367312 1.459095 0.216300 0.237534 0.996468 0.111670 0.123210 0.798262 0.062028 0.064322 17.214841 4.051997 3.950753 27.814411 5.239682 5.509686 38.909212 5.768011 6.334235 -10.180828 -0.677138 -0.625738 -11.240932 0.062123 -2.375576 -9.277567 1.518748 -4.886457 12.911130 3.038998 2.963065 23.178676 4.366402 4.591405 -7.635621 -0.507854 -0.469303 -9.367444 0.051770 -1.979647
1.840623 0.000000 2.923581 0.000000 0.000000 0.000000 2.714481 0.556074 0.570634 1.916589 0.311573 0.338015 1.485361 0.185961 0.205944 0.999948 0.090379 0.097048 0.789759 0.044387 0.040613 18.096541 3.707158 3.804226 28.748834 4.673592 5.070231 39.609627 4.958972 5.491840 -8.515586 -0.226141 -1.236068 -8.573478 0.739872 -3.208233 -5.574713 2.411086 -5.817190 13.572406 2.780368 2.853170 23.957362 3.894660 4.225192 -6.386689 -0.169606 -0.927051 -7.144565 0.616560 -2.673528
1.985739 0.000000 2.910380 0.000000 0.000000 0.000000 2.822642 0.501188 0.534604 1.961872 0.272063 0.300395 1.498442 0.154566 0.169283 0.994553 0.068574 0.068496 0.774247 0.026495 0.015903 18.817615 3.341254 3.564026 29.428082 4.080946 4.505929 39.958465 4.121755 4.514217 -6.774758 0.226141 -1.815962 -5.829924 1.413417 -3.961893 -1.822377 3.289724 -6.604683 14.113212 2.505940 2.673020 24.523401 3.400788 3.754941 -5.081069 0.169606 -1.361971 -4.858270 1.177847 -3.301578
2.128896 0.000000 2.896145 0.000000 0.000000 0.000000 2.905749 0.443455 0.485410 1.989742 0.231007 0.255378 1.498224 0.122292 0.128454 0.980329 0.046380 0.038258 0.751862 0.008451 -0.009198 19.371663 2.956364 3.236068 29.846123 3.465111 3.830677 39.952629 3.261118 3.425440 -4.973798 0.677138 -2.351141 -3.034623 2.078930 -4.617999 1.946135 4.149669 -7.229548 14.528747 2.217273 2.427051 24.871769 2.887593 3.192231 -3.730348 0.507854 -1.763356 -2.528853 1.732441 -3.848332
2.269952 0.000000 2.880881 0.000000 0.000000 0.000000 2.963065 0.383201 0.424264 1.999950 0.188639 0.204073 1.484706 0.089323 0.084462 0.957405 0.023921 0.007078 0.722803 -0.009640 -0.034073 19.753767 2.554676 2.828427 29.999248 2.829587 3.061101 39.592170 2.381950 2.252316 -3.128689 1.124288 -2.828427 -0.212387 2.732630 -5.160393 5.697372 4.986034 -7.676397 14.815325 1.916007 2.121320 24.999373 2.357989 2.550918 -2.346517 0.843216 -2.121320 -0.176989 2.277192 -4.300328
2.408768 0.000000 2.864594 0.000000 0.000000 0.000000 2.994080 0.320771 0.352671 1.992407 0.145199 0.147743 1.458011 0.055847 0.038390 0.925982 0.001327 -0.024276 0.687329 -0.027676 -0.058109 19.960535 2.138471 2.351141 29.886098 2.177984 2.216151 38.880289 1.489247 1.023733 -1.255810 1.565049 -3.236068 2.611734 3.370803 -5.575722 9.398040 5.794068 -7.934228 14.970401 1.603853 1.763356 24.905082 1.814987 1.846792 -0.941858 1.173787 -2.427051 2.176445 2.809003 -4.646435
2.545207 0.000000 2.847288 0.000000 0.000000 0.000000 2.998520 0.256517 0.272394 1.967178 0.100934 0.087775 1.418374 0.022053 -0.008627 0.886340 -0.021274 -0.055033 0.645754 -0.045556 -0.080714 19.990131 1.710116 1.815962 29.507676 1.514005 1.316631 37.823303 0.588083 -0.230057 0.628215 1.996917 -3.564026 5.412673 3.989822 -5.853758 13.015289 6.569179 -7.996691 14.992598 1.282587 1.361971 24.589730 1.261671 1.097192 0.471161 1.497688 -2.673020 4.510561 3.324852 -4.878132
2.679134 0.000000 2.828972 0.000000 0.000000 0.000000 2.976344 0.190806 0.185410 1.924490 0.056095 0.025646 1.366147 -0.011866 -0.055432 0.838831 -0.043755 -0.084435 0.598447 -0.063176 -0.101332 19.842294 1.272043 1.236068 28.867343 0.841424 0.384692 36.430595 -0.316424 -1.478183 2.506665 2.417439 -3.804226 8.165569 4.586171 -5.987655 16.517014 7.306963 -7.862250 14.881721 0.954032 0.927051 24.056119 0.701187 0.320576 1.879999 1.813079 -2.853170 6.804641 3.821809 -4.989713
2.810417 0.000000 2.809650 0.000000 0.000000 0.000000 2.927750 0.124011 0.093861 1.864719 0.010937 -0.037115 1.301795 -0.045717 -0.100872 0.783877 -0.065987 -0.111757 0.545829 -0.080437 -0.119454 19.518335 0.826742 0.625738 27.970781 0.164062 -0.556720 34.714526 -1.219132 -2.689911 4.362865 2.824224 -3.950753 10.845987 5.156460 -5.974116 19.872133 8.003227 -7.534214 14.638751 0.620056 0.469303 23.308984 0.136718 -0.463934 3.272149 2.118168 -2.963065 9.038323 4.297050 -4.978430
2.938926 0.000000 2.789329 0.000000 0.000000 0.000000 2.853170 0.056511 0.000000 1.788397 -0.034282 -0.098962 1.225887 -0.079309 -0.143828 0.721964 -0.087844 -0.136328 0.488365 -0.097242 -0.134635 19.021130 0.376743 0.000000 26.825948 -0.514233 -1.484424 32.690329 -2.114913 -3.835404 6.180340 3.214961 -4.000000 13.430135 5.697448 -5.813475 23.050865 8.654015 -7.020660 14.265848 0.282557 0.000000 22.354956 -0.428528 -1.237020 4.635255 2.411221 -3.000000 11.191779 4.747874 -4.844562
3.064535 0.000000 2.768018 0.000000 0.000000 0.000000 2.753264 -0.011309 -0.093861 1.696200 -0.079307 -0.158372 1.139099 -0.112450 -0.183242 0.653644 -0.109202 -0.157542 0.426567 -0.113493 -0.146501 18.355093 -0.075396 -0.625738 25.443006 -1.189606 -2.375576 30.375970 -2.998677 -4.886457 7.942958 3.587430 -3.950753 15.895077 6.206063 -5.509686 26.024996 9.255629 -6.334235 13.766319 -0.056547 -0.469303 21.202505 -0.991338 -1.979647 5.957218 2.690572 -2.963065 13.245897 5.171719 -4.591405
3.187120 0.000000 2.745724 0.000000 0.000000 0.000000 2.628920 -0.079066 -0.185410 1.588949 -0.123881 -0.213882 1.042200 -0.144953 -0.218145 0.579522 -0.129940 -0.174876 0.360983 -0.129100 -0.154760 17.526134 -0.527107 -1.236068 23.834230 -1.858219 -3.208233 27.791992 -3.865401 -5.817190 9.635073 3.939515 -3.804226 18.218932 6.679414 -5.070231 28.768128 9.804651 -5.491840 13.144600 -0.395330 -0.927051 19.861858 -1.548516 -2.673528 7.226305 2.954636 -2.853170 15.182443 5.566178 -4.225192
3.306559 0.000000 2.722453 0.000000 0.000000 0.000000 2.481242 -0.146373 -0.272394 1.467593 -0.167752 -0.264126 0.936050 -0.176631 -0.247676 0.500255 -0.149939 -0.187905 0.292194 -0.143973 -0.159208 16.541611 -0.975823 -1.815962 22.013900 -2.516273 -3.961893 24.961330 -4.710162 -6.604683 11.241668 4.269214 -3.564026 20.381075 7.114811 -4.505929 31.255911 10.297960 -4.514217 12.406209 -0.731867 -1.361971 18.344917 -2.096895 -3.301578 8.431251 3.201911 -2.673020 16.984229 5.929009 -3.754941
3.422736 0.000000 2.698216 0.000000 0.000000 0.000000 2.311540 -0.212849 -0.352671 1.333212 -0.210669 -0.307867 0.821592 -0.207306 -0.271108 0.416549 -0.169086 -0.196307 0.220812 -0.158029 -0.159735 15.410265 -1.418994 -2.351141 19.998173 -3.160030 -4.617999 21.909110 -5.528158 -7.229548 12.748480 4.574655 -3.236068 22.362314 7.509780 -3.830677 33.466265 10.732755 -3.425440 11.557699 -1.064245 -1.763356 16.665144 -2.633358 -3.848332 9.561360 3.430991 -2.427051 18.635262 6.258150 -3.192231
3.535534 0.000000 2.673020 0.000000 0.000000 0.000000 2.121320 -0.278115 -0.424264 1.186996 -0.252389 -0.344026 0.699841 -0.236803 -0.287865 0.329145 -0.187272 -0.199875 0.147470 -0.171186 -0.156330 14.142136 -1.854102 -2.828427 17.804941 -3.785830 -5.160393 18.662423 -6.314743 -7.676397 14.142136 4.854102 -2.828427 24.145064 7.862077 -3.061101 35.379570 11.106564 -2.252316 10.606602 -1.390576 -2.121320 14.837450 -3.154859 -4.300328 10.606602 3.640576 -2.121320 20.120886 6.551731 -2.550918
3.644843 0.000000 2.646874 0.000000 0.000000 0.000000 1.912272 -0.341801 -0.485410 1.030245 -0.292675 -0.371715 0.571878 -0.264954 -0.297534 0.238820 -0.204394 -0.198521 0.072819 -0.183370 -0.149075 12.748480 -2.278675 -3.236068 15.453670 -4.390119 -5.575722 15.250087 -7.065446 -7.934228 15.410265 5.105967 -2.351141 25.713500 8.169700 -2.216151 36.978843 11.417264 -1.023733 9.561360 -1.709006 -2.427051 12.878059 -3.658433 -4.646435 11.557699 3.829475 -1.763356 21.427917 6.808084 -1.846792
3.750555 0.000000 2.619787 0.000000 0.000000 0.000000 1.686250 -0.403545 -0.534604 0.864349 -0.331297 -0.390251 0.438840 -0.291600 -0.299876 0.146375 -0.220355 -0.192279 -0.002478 -0.194513 -0.138149 11.241668 -2.690299 -3.564026 12.965232 -4.969462 -5.853758 11.702390 -7.776001 -7.996691 16.541611 5.328819 -1.815962 27.053701 8.430902 -1.316631 38.249890 11.663088 0.230057 8.431251 -2.017724 -2.673020 10.804360 -4.141218 -4.878132 12.406209 3.996614 -1.361971 22.544751 7.025751 -1.097192
3.852566 0.000000 2.591770 0.000000 0.000000 0.000000 1.445261 -0.462996 -0.570634 0.690781 -0.368038 -0.399177 0.301906 -0.316589 -0.294834 0.052630 -0.235064 -0.181303 -0.077753 -0.204550 -0.123822 9.635073 -3.086637 -3.804226 10.361714 -5.520568 -5.987655 8.050821 -8.442372 -7.862250 17.526134 5.521391 -1.236068 28.153772 8.644197 -0.384692 39.181428 11.842640 1.478183 7.226305 -2.314978 -2.853170 8.634762 -4.600473 -4.989713 13.144600 4.141043 -0.927051 23.461477 7.203497 -0.320576
3.950775 0.000000 2.562832 0.000000 0.000000 0.000000 1.191444 -0.519815 -0.592613 0.511082 -0.402687 -0.398274 0.162292 -0.339779 -0.282533 -0.041581 -0.248437 -0.165862 -0.152338 -0.213425 -0.106446 7.942958 -3.465436 -3.950753 7.666224 -6.040304 -5.974116 4.327793 -9.060771 -7.534214 18.355093 5.682590 -0.625738 29.003948 8.808374 0.556720 39.765188 11.954900 2.689911 5.957218 -2.599077 -2.963065 6.388520 -5.033587 -4.978430 13.766319 4.261942 -0.469303 24.169957 7.340312 0.463934
4.045085 0.000000 2.532984 0.000000 0.000000 0.000000 0.927051 -0.573682 -0.600000 0.326846 -0.435048 -0.387565 0.021238 -0.361038 -0.263275 -0.135423 -0.260399 -0.146338 -0.225571 -0.221088 -0.086448 6.180340 -3.824544 -4.000000 4.902689 -6.525719 -5.813475 0.566352 -9.627686 -7.020660 19.021130 5.811499 -0.000000 29.596683 8.922500 1.484424 39.995990 11.999230 3.835404 4.635255 -2.868408 -3.000000 4.085574 -5.438099 -4.844562 14.265848 4.358624 -0.000000 24.663902 7.435417 1.237020
4.135403 0.000000 2.502235 0.000000 0.000000 0.000000 0.654430 -0.624288 -0.592613 0.139709 -0.464937 -0.367312 -0.120004 -0.380246 -0.237534 -0.228064 -0.270880 -0.123210 -0.296802 -0.227494 -0.064322 4.362865 -4.161920 -3.950753 2.095636 -6.974053 -5.509686 -3.200117 -10.139894 -6.334235 19.518335 5.907386 0.625738 29.926716 8.985927 2.375576 39.871785 11.975378 4.886457 3.272149 -3.121440 -2.963065 1.746364 -5.811711 -4.591405 14.638751 4.430540 0.469303 24.938930 7.488273 1.979647
4.221640 0.000000 2.470598 0.000000 0.000000 0.000000 0.376000 -0.671347 -0.570634 -0.048668 -0.492184 -0.338015 -0.260182 -0.397293 -0.205944 -0.318680 -0.279823 -0.097048 -0.365398 -0.232607 -0.040613 2.506665 -4.475647 -3.804226 -0.730017 -7.382759 -5.070231 -6.938181 -10.594485 -5.491840 19.842294 5.969706 1.236068 29.991117 8.998294 3.208233 39.393675 11.883479 5.817190 1.879999 -3.356735 -2.853170 -0.608347 -6.152299 -4.225192 14.881721 4.477280 0.927051 24.992597 7.498579 2.673528
4.303710 0.000000 2.438082 0.000000 0.000000 0.000000 0.094232 -0.714591 -0.534604 -0.236613 -0.516634 -0.300395 -0.398050 -0.412083 -0.169283 -0.406467 -0.287175 -0.068496 -0.430752 -0.236399 -0.015903 0.628215 -4.763942 -3.564026 -3.549190 -7.749515 -4.505929 -10.614662 -10.988876 -4.514217 19.990131 5.998105 1.815962 29.789314 8.959531 3.961893 38.565904 11.724056 6.604683 0.471161 -3.572957 -2.673020 -2.957659 -6.457929 -3.754941 14.992598 4.498579 1.361971 24.824429 7.466276 3.301578
4.381533 0.000000 2.404701 0.000000 0.000000 0.000000 -0.188372 -0.753775 -0.485410 -0.422457 -0.538149 -0.255378 -0.532385 -0.424531 -0.128454 -0.490647 -0.292896 -0.038258 -0.492281 -0.238847 0.009198 -1.255810 -5.025168 -3.236068 -6.336861 -8.072236 -3.830677 -14.196926 -11.320826 -3.425440 19.960535 5.992422 2.351141 29.323100 8.869858 4.617999 37.395819 11.498015 7.229548 -0.941858 -3.768876 -2.427051 -5.280718 -6.726864 -3.192231 14.970401 4.494316 1.763356 24.435917 7.391549 3.848332
4.455033 0.000000 2.370465 0.000000 0.000000 0.000000 -0.469303 -0.788676 -0.424264 -0.604552 -0.556606 -0.204073 -0.661994 -0.434567 -0.084462 -0.570471 -0.296953 -0.007078 -0.549441 -0.239938 0.034073 -3.128689 -5.257840 -2.828427 -9.068285 -8.349090 -3.061101 -17.653177 -11.588449 -2.252316 19.753767 5.952688 2.828427 28.596612 8.729785 5.160393 35.893807 11.206640 7.676397 -2.346517 -3.943380 -2.121320 -7.556904 -6.957575 -2.550918 14.815325 4.464516 2.121320 23.830510 7.274821 4.300328
4.524135 0.000000 2.335387 0.000000 0.000000 0.000000 -0.746070 -0.819095 -0.352671 -0.781281 -0.571900 -0.147743 -0.785728 -0.442133 -0.038390 -0.645232 -0.299322 0.024276 -0.601725 -0.239666 0.058109 -4.973798 -5.460636 -2.351141 -11.719219 -8.578502 -2.216151 -20.952737 -11.790224 -1.023733 19.371663 5.879130 3.236068 27.616298 8.540108 5.575722 34.073198 10.851586 7.934228 -3.730348 -4.095477 -1.763356 -9.766016 -7.148752 -1.846792 14.528747 4.409348 2.427051 23.013582 7.116756 4.646435
4.588773 0.000000 2.299479 0.000000 0.000000 0.000000 -1.016214 -0.844860 -0.272394 -0.951075 -0.583945 -0.087775 -0.902487 -0.447188 0.008627 -0.714266 -0.299990 0.055033 -0.648667 -0.238032 0.080714 -6.774758 -5.632403 -1.815962 -14.266132 -8.759169 -1.316631 -24.066319 -11.925004 0.230057 18.817615 5.772166 3.564026 26.390860 8.301903 5.853758 31.950153 10.434871 7.996691 -5.081069 -4.224302 -1.361971 -11.888443 -7.299308 -1.097192 14.113212 4.329125 2.673020 21.992383 6.918253 4.878132
4.648882 0.000000 2.262754 0.000000 0.000000 0.000000 -1.277338 -0.865825 -0.185410 -1.112428 -0.592671 -0.025646 -1.011236 -0.449701 0.055432 -0.776960 -0.298954 0.084435 -0.689852 -0.235046 0.101332 -8.515586 -5.772166 -1.236068 -16.686417 -8.890066 -0.384692 -26.966287 -11.992025 1.478183 18.096541 5.632403 3.804226 24.931175 8.016526 5.987655 29.543517 9.958864 7.862250 -6.386689 -4.329125 -0.927051 -13.905348 -7.408388 -0.320576 13.572406 4.224302 2.853170 20.775979 6.680438 4.989713
4.704404 0.000000 2.225225 0.000000 0.000000 0.000000 -1.527124 -0.881870 -0.093861 -1.263906 -0.598030 0.037115 -1.111009 -0.449659 0.100872 -0.832758 -0.296219 0.111757 -0.724913 -0.230724 0.119454 -10.180828 -5.879130 -0.625738 -18.958593 -8.970447 0.556720 -29.626900 -11.990904 2.689911 17.214841 5.460636 3.950753 23.250199 7.685597 5.974116 26.874650 9.426268 7.534214 -7.635621 -4.409348 -0.469303 -15.798828 -7.475372 0.463934 12.911130 4.095477 2.963065 19.375166 6.404664 4.978430
4.755283 0.000000 2.186906 0.000000 0.000000 0.000000 -1.763356 -0.892903 -0.000000 -1.404166 -0.599990 0.098962 -1.200920 -0.447062 0.143828 -0.881164 -0.291801 0.136328 -0.753540 -0.225090 0.134635 -11.755705 -5.952688 -0.000000 -21.062491 -8.999856 1.484424 -32.024543 -11.921649 3.835404 16.180340 5.257840 4.000000 21.362852 7.310997 5.813475 23.967241 8.840110 7.020660 -8.816779 -4.464516 -0.000000 -17.552076 -7.499880 1.237020 12.135255 3.943380 3.000000 17.802377 6.092498 4.844562
4.801468 0.000000 2.147809 0.000000 0.000000 0.000000 -1.983936 -0.898863 0.093861 -1.531962 -0.598542 0.158372 -1.280173 -0.441924 0.183242 -0.921749 -0.285724 0.157542 -0.775479 -0.218178 0.146501 -13.226237 -5.992422 0.625738 -22.979437 -8.978126 2.375576 -34.137933 -11.784652 4.886457 15.002221 5.025168 3.950753 19.285888 6.894855 5.509686 20.847098 8.203721 6.334235 -9.919678 -4.494316 0.469303 -19.149531 -7.481772 1.979647 11.251666 3.768876 2.963065 16.071573 5.745712 4.591405
4.842916 0.000000 2.107950 0.000000 0.000000 0.000000 -2.186906 -0.899716 0.185410 -1.646161 -0.593692 0.213882 -1.348062 -0.434276 0.218145 -0.954152 -0.278025 0.174876 -0.790535 -0.210026 0.154760 -14.579373 -5.998105 1.236068 -24.692416 -8.905380 3.208233 -35.948313 -11.580693 5.817190 13.690942 4.763942 3.804226 17.037740 6.439535 5.070231 17.541915 7.520717 5.491840 -10.934529 -4.498579 0.927051 -20.577013 -7.421150 2.673528 10.268207 3.572957 2.853170 14.198117 5.366279 4.225192
4.879584 0.000000 2.067341 0.000000 0.000000 0.000000 -2.370465 -0.895456 0.272394 -1.745748 -0.585469 0.264126 -1.403986 -0.424160 0.247676 -0.978086 -0.268745 0.187905 -0.798573 -0.200681 0.159208 -15.803100 -5.969706 1.815962 -26.186223 -8.782033 3.961893 -37.439613 -11.310930 6.604683 12.258141 4.475647 3.564026 14.638364 5.947624 4.505929 14.081028 6.794978 4.514217 -11.852325 -4.477280 1.361971 -21.821853 -7.318361 3.301578 9.193606 3.356735 2.673020 12.198637 4.956353 3.754941
4.911436 0.000000 2.025998 0.000000 0.000000 0.000000 -2.532984 -0.886108 0.352671 -1.829840 -0.573919 0.307867 -1.447447 -0.411634 0.271108 -0.993339 -0.257938 0.196307 -0.799524 -0.190196 0.159735 -16.886559 -5.907386 2.351141 -27.447600 -8.608784 4.617999 -38.598597 -10.976895 7.229548 10.716536 4.161920 3.236068 12.109057 5.421917 3.830677 10.495157 6.030629 3.425440 -12.664919 -4.430540 1.763356 -22.873000 -7.173987 3.848332 8.037402 3.121440 2.427051 10.090881 4.518264 3.192231
4.938442 0.000000 1.983936 0.000000 0.000000 0.000000 -2.673020 -0.871725 0.424264 -1.897690 -0.559108 0.344026 -1.478062 -0.396768 0.287865 -0.999774 -0.245666 0.199875 -0.793377 -0.178629 0.156330 -17.820130 -5.811499 2.828427 -28.465349 -8.386619 5.160393 -39.414976 -10.580488 7.676397 9.079810 3.824544 2.828427 9.472270 4.865402 3.061101 6.816130 5.232013 2.252316 -13.365098 -4.358624 2.121320 -23.721124 -6.988849 4.300328 6.809857 2.868408 2.121320 7.893558 4.054502 2.550918
4.960574 0.000000 1.941168 0.000000 0.000000 0.000000 -2.789329 -0.852388 0.485410 -1.948696 -0.541120 0.371715 -1.495556 -0.379649 0.297534 -0.997336 -0.231998 0.198521 -0.780189 -0.166048 0.149075 -18.595530 -5.682590 3.236068 -29.230438 -8.116799 5.575722 -39.881506 -10.123961 7.934228 7.362491 3.465436 2.351141 6.751405 4.281241 2.216151 3.076603 4.403668 1.023733 -13.946647 -4.261942 2.427051 -24.358699 -6.763999 4.646435 5.521868 2.599077 1.763356 5.626171 3.567700 1.846792
4.977810 0.000000 1.897710 0.000000 0.000000 0.000000 -2.880881 -0.828209 0.534604 -1.982405 -0.520057 0.390251 -1.499777 -0.360372 0.299876 -0.986045 -0.217011 0.192279 -0.760076 -0.152523 0.138149 -19.205874 -5.521391 3.564026 -29.736076 -7.800857 5.853758 -39.994044 -9.609907 7.996691 5.579822 3.086637 1.815962 3.970615 3.672752 1.316631 -0.690232 3.550300 -0.230057 -14.404405 -4.141043 2.673020 -24.780063 -6.500714 4.878132 4.184867 2.314978 1.361971 3.308846 3.060627 1.097192
4.990134 0.000000 1.853579 0.000000 0.000000 0.000000 -2.946862 -0.799323 0.570634 -1.998518 -0.496039 0.399177 -1.490685 -0.339047 0.294834 -0.966002 -0.200792 0.181303 -0.733216 -0.138132 0.123822 -19.645745 -5.328819 3.804226 -29.977774 -7.440590 5.987655 -39.751593 -9.041248 7.862250 3.747626 2.690299 1.236068 1.154582 3.043395 0.384692 -4.450941 2.676758 -1.478183 -14.734309 -3.996614 2.853170 -24.981478 -6.200492 4.989713 2.810720 2.017724 0.927051 0.962151 2.536162 0.320576
4.997533 0.000000 1.808789 0.000000 0.000000 0.000000 -2.986686 -0.765895 0.592613 -1.996892 -0.469203 0.398274 -1.468361 -0.315796 0.282533 -0.937385 -0.183431 0.165862 -0.699848 -0.122955 0.106446 -19.911239 -5.105967 3.950753 -29.953387 -7.038044 5.974116 -39.156303 -8.421214 7.534214 1.882166 2.278675 0.625738 -1.671700 2.396744 -0.556720 -8.172143 1.788007 -2.689911 -14.933429 -3.829475 2.963065 -24.961156 -5.865036 4.978430 1.411625 1.709006 0.469303 -1.393084 1.997287 -0.463934
5.000000 0.000000 1.763356 0.000000 0.000000 0.000000 -3.000000 -0.728115 0.600000 -1.977542 -0.439700 0.387565 -1.433005 -0.290750 0.263275 -0.900447 -0.165028 0.146338 -0.660268 -0.107080 0.086448 -20.000000 -4.854102 4.000000 -29.663132 -6.595506 5.813475 -38.213460 -7.753330 7.020660 0.000000 1.854102 0.000000 -4.483144 1.736475 -1.484424 -11.820808 0.889096 -3.835404 -15.000000 -3.640576 3.000000 -24.719277 -5.496255 4.844562 0.000000 1.390576 0.000000 -3.735953 1.447062 -1.237020
4.997533 0.000000 1.717296 0.000000 0.000000 0.000000 -2.986686 -0.686198 0.592613 -1.940639 -0.407699 0.367312 -1.384929 -0.264052 0.237534 -0.855517 -0.145688 0.123210 -0.614828 -0.090597 0.064322 -19.911239 -4.574655 3.950753 -29.109585 -6.115491 5.509686 -36.931431 -7.041390 6.334235 -1.882166 1.418994 -0.625738 -7.254795 1.066339 -2.375576 -15.364551 -0.014867 -4.886457 -14.933429 -3.430991 2.963065 -24.257988 -5.096243 4.591405 -1.411625 1.064245 -0.469303 -6.045662 0.888616 -1.979647
4.990134 0.000000 1.670627 0.000000 0.000000 0.000000 -2.946862 -0.640382 0.570634 -1.886511 -0.373382 0.338015 -1.324560 -0.235854 0.205944 -0.802993 -0.125520 0.097048 -0.563931 -0.073598 0.040613 -19.645745 -4.269214 3.804226 -28.297659 -5.600727 5.070231 -35.321596 -6.289439 5.491840 -3.747626 0.975823 -1.236068 -9.962052 0.390143 -3.208233 -18.771918 -0.918746 -5.817190 -14.734309 -3.201911 2.853170 -23.581383 -4.667272 4.225192 -2.810720 0.731867 -0.927051 -8.301710 0.325119 -2.673528
4.977810 0.000000 1.623364 0.000000 0.000000 0.000000 -2.880881 -0.590927 0.534604 -1.815637 -0.336943 0.300395 -1.252434 -0.206316 0.169283 -0.743342 -0.104638 0.068496 -0.508027 -0.056182 0.015903 -19.205874 -3.939515 3.564026 -27.234561 -5.054138 4.505929 -33.398244 -5.501750 4.514217 -5.579822 0.527107 -1.815962 -12.580885 -0.288269 -3.961893 -22.012663 -1.817404 -6.604683 -14.404405 -2.954636 2.673020 -22.695468 -4.211782 3.754941 -4.184867 0.395330 -1.361971 -10.484071 -0.240224 -3.301578
4.960574 0.000000 1.575524 0.000000 0.000000 0.000000 -2.789329 -0.538114 0.485410 -1.728649 -0.298589 0.255378 -1.169192 -0.175605 0.128454 -0.677093 -0.083162 0.038258 -0.447615 -0.038446 -0.009198 -18.595530 -3.587430 3.236068 -25.929728 -4.478831 3.830677 -31.178446 -4.682799 3.425440 -7.362491 0.075396 -2.351141 -15.088049 -0.965044 -4.617999 -25.058022 -2.705736 -7.229548 -13.946647 -2.690572 2.427051 -21.608106 -3.732359 3.192231 -5.521868 0.056547 -1.763356 -12.573374 -0.804203 -3.848332
4.938442 0.000000 1.527124 0.000000 0.000000 0.000000 -2.673020 -0.482244 0.424264 -1.626316 -0.258538 0.204073 -1.075572 -0.143896 0.084462 -0.604834 -0.061213 0.007078 -0.383230 -0.020492 -0.034073 -17.820130 -3.214961 2.828427 -24.394740 -3.878074 3.061101 -28.681907 -3.837239 2.252316 -9.079810 -0.376743 -2.828427 -17.461291 -1.636335 -5.160393 -27.880965 -3.578693 -7.676397 -13.365098 -2.411221 2.121320 -20.328950 -3.231728 2.550918 -6.809857 -0.282557 -2.121320 -14.551076 -1.363612 -4.300328
4.911436 0.000000 1.478182 0.000000 0.000000 0.000000 -2.532984 -0.423634 0.352671 -1.509548 -0.217019 0.147743 -0.972404 -0.111370 0.038390 -0.527206 -0.038917 -0.024276 -0.315443 -0.002421 -0.058109 -16.886559 -2.824224 2.351141 -22.643222 -3.255281 2.216151 -25.930785 -2.969876 1.023733 -10.716536 -0.826742 -3.236068 -19.679545 -2.298327 -5.575722 -30.456434 -4.431315 -7.934228 -12.664919 -2.118168 1.763356 -18.869352 -2.712734 1.846792 -8.037402 -0.620056 -2.427051 -16.399621 -1.915273 -4.646435
4.879584 0.000000 1.428715 0.000000 0.000000 0.000000 -2.370465 -0.362616 0.272394 -1.379381 -0.174266 0.087775 -0.860606 -0.078211 -0.008627 -0.444899 -0.016399 -0.055033 -0.244856 0.015663 -0.080714 -15.803100 -2.417439 1.815962 -20.690722 -2.613991 1.316631 -22.949500 -2.085637 -0.230057 -12.258141 -1.272043 -3.564026 -21.723122 -2.947261 -5.853758 -32.761570 -5.258757 -7.996691 -11.852325 -1.813079 1.361971 -17.242268 -2.178326 1.097192 -9.193606 -0.954032 -2.673020 -18.102601 -2.456051 -4.878132
4.842916 0.000000 1.378740 0.000000 0.000000 0.000000 -2.186906 -0.299538 0.185410 -1.236971 -0.130523 0.025646 -0.741169 -0.044608 -0.055432 -0.358643 0.006212 -0.084435 -0.172096 0.033659 -0.101332 -14.579373 -1.996917 1.236068 -18.554570 -1.957848 0.384692 -19.764513 -1.189547 -1.478183 -13.690942 -1.710116 -3.804226 -23.573883 -3.579447 -5.987655 -34.775912 -6.056318 -7.862250 -10.934529 -1.497688 0.927051 -15.462141 -1.631540 0.320576 -10.268207 -1.282587 -2.853170 -19.644902 -2.982873 -4.989713
4.801468 0.000000 1.328275 0.000000 0.000000 0.000000 -1.983936 -0.234757 0.093861 -1.083582 -0.086039 -0.037115 -0.615154 -0.010751 -0.100872 -0.269204 0.028788 -0.111757 -0.097808 0.051463 -0.119454 -13.226237 -1.565049 0.625738 -16.253725 -1.290580 -0.556720 -16.404095 -0.286698 -2.689911 -15.002221 -2.138471 -3.950753 -25.215400 -4.191294 -5.974116 -36.481580 -6.819466 -7.534214 -9.919678 -1.173787 0.469303 -13.544771 -1.075483 -0.463934 -11.251666 -1.603853 -2.963065 -21.012834 -3.492745 -4.978430
4.755283 0.000000 1.277338 0.000000 0.000000 0.000000 -1.763356 -0.168643 0.000000 -0.920574 -0.041065 -0.098962 -0.483678 0.023167 -0.143828 -0.177375 0.051199 -0.136328 -0.022652 0.068974 -0.134635 -11.755705 -1.124288 0.000000 -13.808612 -0.615978 -1.484424 -12.898073 0.617780 -3.835404 -16.180340 -2.554676 -4.000000 -26.633104 -4.779326 -5.813475 -37.863435 -7.543864 -7.020660 -8.816779 -0.843216 0.000000 -11.507177 -0.513315 -1.237020 -12.135255 -1.916007 -3.000000 -22.194253 -3.982772 -4.844562
4.704404 0.000000 1.225947 0.000000 0.000000 0.000000 -1.527124 -0.101571 -0.093861 -0.749395 0.004142 -0.158372 -0.347909 0.056953 -0.183242 -0.083972 0.073321 -0.157542 0.052705 0.086094 -0.146501 -10.180828 -0.677138 -0.625738 -11.240932 0.062123 -2.375576 -9.277567 1.518748 -4.886457 -17.214841 -2.956364 -3.950753 -27.814411 -5.340200 -5.509686 -38.909212 -8.225397 -6.334235 -7.635621 -0.507854 -0.469303 -9.367444 0.051770 -1.979647 -12.911130 -2.217273 -2.963065 -23.178676 -4.450167 -4.591405
4.648882 0.000000 1.174121 0.000000 0.000000 0.000000 -1.277338 -0.033921 -0.185410 -0.571565 0.049325 -0.213882 -0.209052 0.090416 -0.218145 0.010177 0.095025 -0.174876 0.127594 0.102725 -0.154760 -8.515586 -0.226141 -1.236068 -8.573478 0.739872 -3.208233 -5.574713 2.411086 -5.817190 -18.096541 -3.341254 -3.804226 -28.748834 -5.870731 -5.070231 -39.609627 -8.860191 -5.491840 -6.386689 -0.169606 -0.927051 -7.144565 0.616560 -2.673528 -13.572406 -2.505940 -2.853170 -23.957362 -4.892275 -4.225192
4.588773 0.000000 1.121878 0.000000 0.000000 0.000000 -1.016214 0.033921 -0.272394 -0.388662 0.094228 -0.264126 -0.068339 0.123365 -0.247676 0.104235 0.116189 -0.187905 0.201351 0.118772 -0.159208 -6.774758 0.226141 -1.815962 -5.829924 1.413417 -3.961893 -1.822377 3.289724 -6.604683 -18.817615 -3.707158 -3.564026 -29.428082 -6.367902 -4.505929 -39.958465 -9.444640 -4.514217 -5.081069 0.169606 -1.361971 -4.858270 1.177847 -3.301578 -14.113212 -2.780368 -2.673020 -24.523401 -5.306585 -3.754941
4.524135 0.000000 1.069236 0.000000 0.000000 0.000000 -0.746070 0.101571 -0.352671 -0.202308 0.138595 -0.307867 0.072980 0.155613 -0.271108 0.197368 0.136694 -0.196307 0.273320 0.134144 -0.159735 -4.973798 0.677138 -2.351141 -3.034623 2.078930 -4.617999 1.946135 4.149669 -7.229548 -19.371663 -4.051997 -3.236068 -29.846123 -6.828890 -3.830677 -39.952629 -9.975422 -3.425440 -3.730348 0.507854 -1.763356 -2.528853 1.732441 -3.848332 -14.528747 -3.038998 -2.427051 -24.871769 -5.690742 -3.192231
4.455033 0.000000 1.016214 0.000000 0.000000 0.000000 -0.469303 0.168643 -0.424264 -0.014159 0.182175 -0.344026 0.213651 0.186976 -0.287865 0.288749 0.156421 -0.199875 0.342864 0.148753 -0.156330 -3.128689 1.124288 -2.828427 -0.212387 2.732630 -5.160393 5.697372 4.986034 -7.676397 -19.753767 -4.373812 -2.828427 -29.999248 -7.251075 -3.061101 -39.592170 -10.449523 -2.252316 -2.346517 0.843216 -2.121320 -0.176989 2.277192 -4.300328 -14.815325 -3.280359 -2.121320 -24.999373 -6.042562 -2.550918
4.381533 0.000000 0.962831 0.000000 0.000000 0.000000 -0.188372 0.234757 -0.485410 0.174116 0.224720 -0.371715 0.352426 0.217278 -0.297534 0.377568 0.175260 -0.198521 0.409364 0.162518 -0.149075 -1.255810 1.565049 -3.236068 2.611734 3.370803 -5.575722 9.398040 5.794068 -7.934228 -19.960535 -4.670774 -2.351141 -29.886098 -7.632058 -2.216151 -38.880289 -10.864247 -1.023733 -0.941858 1.173787 -2.427051 2.176445 2.809003 -4.646435 -14.970401 -3.503080 -1.763356 -24.905082 -6.360048 -1.846792
4.303710 0.000000 0.909106 0.000000 0.000000 0.000000 0.094232 0.299538 -0.534604 0.360845 0.265988 -0.390251 0.488073 0.246344 -0.299876 0.463035 0.193103 -0.192279 0.472231 0.175359 -0.138149 0.628215 1.996917 -3.564026 5.412673 3.989822 -5.853758 13.015289 6.569179 -7.996691 -19.990131 -4.941196 -1.815962 -29.507676 -7.969674 -1.316631 -37.823303 -11.217238 0.230057 0.471161 1.497688 -2.673020 4.510561 3.324852 -4.878132 -14.992598 -3.705897 -1.361971 -24.589730 -6.641395 -1.097192
4.221640 0.000000 0.855058 0.000000 0.000000 0.000000 0.376000 0.362616 -0.570634 0.544371 0.305745 -0.399177 0.619388 0.274011 -0.294834 0.544392 0.209848 -0.181303 0.530906 0.187204 -0.123822 2.506665 2.417439 -3.804226 8.165569 4.586171 -5.987655 16.517014 7.306963 -7.862250 -19.842294 -5.183541 -1.236068 -28.867343 -8.262004 -0.384692 -36.430595 -11.506490 1.478183 1.879999 1.813079 -2.853170 6.804641 3.821809 -4.989713 -14.881721 -3.887655 -0.927051 -24.056119 -6.885004 -0.320576
4.135403 0.000000 0.800706 0.000000 0.000000 0.000000 0.654430 0.423634 -0.592613 0.723066 0.343764 -0.398274 0.745205 0.300121 -0.282533 0.620917 0.225402 -0.165862 0.584868 0.197985 -0.106446 4.362865 2.824224 -3.950753 10.845987 5.156460 -5.974116 19.872133 8.003227 -7.534214 -19.518335 -5.396432 -0.625738 -27.970781 -8.507389 0.556720 -34.714526 -11.730360 2.689911 3.272149 2.118168 -2.963065 9.038323 4.297050 -4.978430 -14.638751 -4.047324 -0.469303 -23.308984 -7.089490 0.463934
4.045085 0.000000 0.746070 0.000000 0.000000 0.000000 0.927051 0.482244 -0.600000 0.895342 0.379830 -0.387565 0.864407 0.324526 -0.263275 0.691930 0.239674 -0.146338 0.633640 0.207640 -0.086448 6.180340 3.214961 -4.000000 13.430135 5.697448 -5.813475 23.050865 8.654015 -7.020660 -19.021130 -5.578659 -0.000000 -26.825948 -8.704432 1.484424 -32.690329 -11.887577 3.835404 4.635255 2.411221 -3.000000 11.191779 4.747874 -4.844562 -14.265848 -4.183994 -0.000000 -22.354956 -7.253693 1.237020
3.950775 0.000000 0.691168 0.000000 0.000000 0.000000 1.191444 0.538114 -0.592613 1.059672 0.413738 -0.367312 0.975937 0.347086 -0.237534 0.756802 0.252585 -0.123210 0.676787 0.216117 -0.064322 7.942958 3.587430 -3.950753 15.895077 6.206063 -5.509686 26.024996 9.255629 -6.334235 -18.355093 -5.729187 0.625738 -25.443006 -8.852015 2.375576 -30.375970 -11.977245 4.886457 5.957218 2.690572 -2.963065 13.245897 5.171719 -4.591405 -13.766319 -4.296890 0.469303 -21.202505 -7.376680 1.979647
3.852566 0.000000 0.636021 0.000000 0.000000 0.000000 1.445261 0.590927 -0.570634 1.214595 0.445294 -0.338015 1.078805 0.367674 -0.205944 0.814957 0.264060 -0.097048 0.713927 0.223365 -0.040613 9.635073 3.939515 -3.804226 18.218932 6.679414 -5.070231 28.768128 9.804651 -5.491840 -17.526134 -5.847161 1.236068 -23.834230 -8.949300 3.208233 -27.791992 -11.998856 5.817190 7.226305 2.954636 -2.853170 15.182443 5.566178 -4.225192 -13.144600 -4.385371 0.927051 -19.861858 -7.457750 2.673528
3.750555 0.000000 0.580648 0.000000 0.000000 0.000000 1.686250 0.640382 -0.534604 1.358738 0.474321 -0.300395 1.172097 0.386174 -0.169283 0.865878 0.274035 -0.068496 0.744730 0.229343 -0.015903 11.241668 4.269214 -3.564026 20.381075 7.114811 -4.505929 31.255911 10.297960 -4.514217 -16.541611 -5.931910 1.815962 -22.013900 -8.995732 3.961893 -24.961330 -11.952288 6.604683 8.431251 3.201911 -2.673020 16.984229 5.929009 -3.754941 -12.406209 -4.448933 1.361971 -18.344917 -7.496444 3.301578
3.644843 0.000000 0.525069 0.000000 0.000000 0.000000 1.912272 0.686198 -0.485410 1.490821 0.500652 -0.255378 1.254985 0.402478 -0.128454 0.909113 0.282453 -0.038258 0.768923 0.234019 0.009198 12.748480 4.574655 -3.236068 22.362314 7.509780 -3.830677 33.466265 10.732755 -3.425440 -15.410265 -5.982953 2.351141 -19.998173 -8.991050 4.617999 -21.909110 -11.837804 7.229548 9.561360 3.430991 -2.427051 18.635262 6.258150 -3.192231 -11.557699 -4.487215 1.763356 -16.665144 -7.492541 3.848332
3.535534 0.000000 0.469303 0.000000 0.000000 0.000000 2.121320 0.728115 -0.424264 1.609671 0.524138 -0.204073 1.326734 0.416496 -0.084462 0.944279 0.289265 -0.007078 0.786290 0.237365 0.034073 14.142136 4.854102 -2.828427 24.145064 7.862077 -3.061101 35.379570 11.106564 -2.252316 -14.142136 -6.000000 2.828427 -17.804941 -8.935278 5.160393 -18.662423 -11.656056 7.676397 10.606602 3.640576 -2.121320 20.120886 6.551731 -2.550918 -10.606602 -4.500000 2.121320 -14.837450 -7.446065 4.300328
3.422736 0.000000 0.413371 0.000000 0.000000 0.000000 2.311540 0.765895 -0.352671 1.714233 0.544647 -0.147743 1.386707 0.428147 -0.038390 0.971064 0.294435 0.024276 0.796679 0.239362 0.058109 15.410265 5.105967 -2.351141 25.713500 8.169700 -2.216151 36.978843 11.417264 -1.023733 -12.748480 -5.982953 3.236068 -15.453670 -8.828734 5.575722 -15.250087 -11.408075 7.934228 11.557699 3.829475 -1.763356 21.427917 6.808084 -1.846792 -9.561360 -4.487215 2.427051 -12.878059 -7.357278 4.646435
3.306559 0.000000 0.357291 0.000000 0.000000 0.000000 2.481242 0.799323 -0.272394 1.803580 0.562060 -0.087775 1.434371 0.437366 0.008627 0.989229 0.297931 0.055033 0.799996 0.239999 0.080714 16.541611 5.328819 -1.815962 27.053701 8.430902 -1.316631 38.249890 11.663088 0.230057 -11.241668 -5.931910 3.564026 -12.965232 -8.672023 5.853758 -11.702390 -11.095272 7.996691 12.406209 3.996614 -1.361971 22.544751 7.025751 -1.097192 -8.431251 -4.448933 2.673020 -10.804360 -7.226686 4.878132
3.187120 0.000000 0.301085 0.000000 0.000000 0.000000 2.628920 0.828209 -0.185410 1.876918 0.576280 -0.025646 1.469304 0.444099 0.055432 0.998614 0.299734 0.084435 0.796213 0.239273 0.101332 17.526134 5.521391 -1.236068 28.153772 8.644197 -0.384692 39.181428 11.842640 1.478183 -9.635073 -5.847161 3.804226 -10.361714 -8.466037 5.987655 -8.050821 -10.719423 7.862250 13.144600 4.141043 -0.927051 23.461477 7.203497 -0.320576 -7.226305 -4.385371 2.853170 -8.634762 -7.055031 4.989713
3.064535 0.000000 0.244772 0.000000 0.000000 0.000000 2.753264 0.852388 -0.093861 1.933597 0.587225 0.037115 1.491195 0.448309 0.100872 0.999135 0.299834 0.111757 0.785362 0.237186 0.119454 18.355093 5.682590 -0.625738 29.003948 8.808374 0.556720 39.765188 11.954900 2.689911 -7.942958 -5.729187 3.950753 -7.666224 -8.211944 5.974116 -4.327793 -10.282664 7.534214 13.766319 4.261942 -0.469303 24.169957 7.340312 0.463934 -5.957218 -4.296890 2.963065 -6.388520 -6.843287 4.978430
2.938926 0.000000 0.188372 0.000000 0.000000 0.000000 2.853170 0.871725 -0.000000 1.973112 0.594833 0.098962 1.499850 0.449971 0.143828 0.990788 0.298230 0.136328 0.767540 0.233752 0.134635 19.021130 5.811499 -0.000000 29.596683 8.922500 1.484424 39.995990 11.999230 3.835404 -6.180340 -5.578659 4.000000 -4.902689 -7.911190 5.813475 -0.566352 -9.787476 7.020660 14.265848 4.358624 -0.000000 24.663902 7.435417 1.237020 -4.635255 -4.183994 3.000000 -4.085574 -6.592658 4.844562
2.810417 0.000000 0.131904 0.000000 0.000000 0.000000 2.927750 0.886108 0.093861 1.995114 0.599062 0.158372 1.495192 0.449077 0.183242 0.973646 0.294932 0.157542 0.742905 0.228990 0.146501 19.518335 5.907386 0.625738 29.926716 8.985927 2.375576 39.871785 11.975378 4.886457 -4.362865 -5.396432 3.950753 -2.095636 -7.565483 5.509686 3.200117 -9.236675 6.334235 14.638751 4.430540 0.469303 24.938930 7.488273 1.979647 -3.272149 -4.047324 2.963065 -1.746364 -6.304569 4.591405
2.679134 0.000000 0.075390 0.000000 0.000000 0.000000 2.976344 0.895456 0.185410 1.999408 0.599886 0.213882 1.477263 0.445630 0.218145 0.947862 0.289958 0.174876 0.711677 0.222927 0.154760 19.842294 5.969706 1.236068 29.991117 8.998294 3.208233 39.393675 11.883479 5.817190 -2.506665 -5.183541 3.804226 0.730017 -7.176787 5.070231 6.938181 -8.633389 5.491840 14.881721 4.477280 0.927051 24.992597 7.498579 2.673528 -1.879999 -3.887655 2.853170 0.608347 -5.980656 4.225192
2.545207 0.000000 0.018849 0.000000 0.000000 0.000000 2.998520 0.899716 0.272394 1.985954 0.597302 0.264126 1.446221 0.439652 0.247676 0.913665 0.283336 0.187905 0.674131 0.215597 0.159208 19.990131 5.998105 1.815962 29.789314 8.959531 3.961893 38.565904 11.724056 6.604683 -0.628215 -4.941196 3.564026 3.549190 -6.747311 4.505929 10.614662 -7.981046 4.514217 14.992598 4.498579 1.361971 24.824429 7.466276 3.301578 -0.471161 -3.705897 2.673020 2.957659 -5.622759 3.754941
2.408768 0.000000 -0.037698 0.000000 0.000000 0.000000 2.994080 0.898863 0.352671 1.954873 0.591324 0.307867 1.402343 0.431176 0.271108 0.871359 0.275104 0.196307 0.630602 0.207041 0.159735 19.960535 5.992422 2.351141 29.323100 8.869858 4.617999 37.395819 11.498015 7.229548 1.255810 -4.670774 3.236068 6.336861 -6.279496 3.830677 14.196926 -7.283353 3.425440 14.970401 4.494316 1.763356 24.435917 7.391549 3.848332 0.941858 -3.503080 2.427051 5.280718 -5.232913 3.192231
2.269952 0.000000 -0.094232 0.000000 0.000000 0.000000 2.963065 0.892903 0.424264 1.906441 0.581986 0.344026 1.346018 0.420249 0.287865 0.821318 0.265310 0.199875 0.581476 0.197310 0.156330 19.753767 5.952688 2.828427 28.596612 8.729785 5.160393 35.893807 11.206640 7.676397 3.128689 -4.373812 2.828427 9.068285 -5.775999 3.061101 17.653177 -6.544275 2.252316 14.815325 4.464516 2.121320 23.830510 7.274821 4.300328 2.346517 -3.280359 2.121320 7.556904 -4.813333 2.550918
2.128896 0.000000 -0.150733 0.000000 0.000000 0.000000 2.905749 0.881870 0.485410 1.841087 0.569341 0.371715 1.277745 0.406934 0.297534 0.763986 0.254007 0.198521 0.527188 0.186457 0.149075 19.371663 5.879130 3.236068 27.616298 8.540108 5.575722 34.073198 10.851586 7.934228 4.973798 -4.051997 2.351141 11.719219 -5.239682 2.216151 20.952737 -5.768011 1.023733 14.528747 4.409348 2.427051 23.013582 7.116756 4.646435 3.730348 -3.038998 1.763356 9.766016 -4.366402 1.846792
1.985739 0.000000 -0.207180 0.000000 0.000000 0.000000 2.822642 0.865825 0.534604 1.759391 0.553460 0.390251 1.198131 0.391308 0.299876 0.699874 0.241261 0.192279 0.468221 0.174545 0.138149 18.817615 5.772166 3.564026 26.390860 8.301903 5.853758 31.950153 10.434871 7.996691 6.774758 -3.707158 1.815962 14.266132 -4.673592 1.316631 24.066319 -4.958972 -0.230057 14.113212 4.329125 2.673020 21.992383 6.918253 4.878132 5.081069 -2.780368 1.361971 11.888443 -3.894660 1.097192
1.840623 0.000000 -0.263554 0.000000 0.000000 0.000000 2.714481 0.844860 0.570634 1.662078 0.534435 0.399177 1.107882 0.373457 0.294834 0.629550 0.227145 0.181303 0.405098 0.161641 0.123822 18.096541 5.632403 3.804226 24.931175 8.016526 5.987655 29.543517 9.958864 7.862250 8.515586 -3.341254 1.236068 16.686417 -4.080946 0.384692 26.966287 -4.121755 -1.478183 13.572406 4.224302 2.853170 20.775979 6.680438 4.989713 6.386689 -2.505940 0.927051 13.905348 -3.400788 0.320576
1.693690 0.000000 -0.319833 0.000000 0.000000 0.000000 2.582226 0.819095 0.592613 1.550013 0.512373 0.398274 1.007799 0.353485 0.282533 0.553637 0.211737 0.165862 0.338380 0.147818 0.106446 17.214841 5.460636 3.950753 23.250199 7.685597 5.974116 26.874650 9.426268 7.534214 10.180828 -2.956364 0.625738 18.958593 -3.465111 -0.556720 29.626900 -3.261118 -2.689911 12.911130 4.095477 2.963065 19.375166 6.404664 4.978430 7.635621 -2.217273 0.469303 15.798828 -2.887593 -0.463934
1.545085 0.000000 -0.376000 0.000000 0.000000 0.000000 2.427051 0.788676 0.600000 1.424190 0.487400 0.387565 0.898772 0.331504 0.263275 0.472811 0.195127 0.146338 0.268658 0.133156 0.086448 16.180340 5.257840 4.000000 21.362852 7.310997 5.813475 23.967241 8.840110 7.020660 11.755705 -2.554676 0.000000 21.062491 -2.829587 -1.484424 32.024543 -2.381950 -3.835404 12.135255 3.943380 3.000000 17.802377 6.092498 4.844562 8.816779 -1.916007 0.000000 17.552076 -2.357989 -1.237020
1.394956 0.000000 -0.432032 0.000000 0.000000 0.000000 2.250333 0.753775 0.592613 1.285726 0.459657 0.367312 0.781766 0.307640 0.237534 0.387787 0.177408 0.123210 0.196551 0.117737 0.064322 15.002221 5.025168 3.950753 19.285888 6.894855 5.509686 20.847098 8.203721 6.334235 13.226237 -2.138471 -0.625738 22.979437 -2.177984 -2.375576 34.137933 -1.489247 -4.886457 11.251666 3.768876 2.963065 16.071573 5.745712 4.591405 9.919678 -1.603853 -0.469303 19.149531 -1.814987 -1.979647
1.243449 0.000000 -0.487911 0.000000 0.000000 0.000000 2.053641 0.714591 0.570634 1.135849 0.429302 0.338015 0.657822 0.282027 0.205944 0.299322 0.158680 0.097048 0.122700 0.101649 0.040613 13.690942 4.763942 3.804226 17.037740 6.439535 5.070231 17.541915 7.520717 5.491840 14.579373 -1.710116 -1.236068 24.692416 -1.514005 -3.208233 35.948313 -0.588083 -5.817190 10.268207 3.572957 2.853170 14.198117 5.366279 4.225192 10.934529 -1.282587 -0.927051 20.577013 -1.261671 -2.673528
1.090716 0.000000 -0.543617 0.000000 0.000000 0.000000 1.838721 0.671347 0.534604 0.975891 0.396508 0.300395 0.528039 0.254812 0.169283 0.208200 0.139052 0.068496 0.047759 0.084983 0.015903 12.258141 4.475647 3.564026 14.638364 5.947624 4.505929 14.081028 6.794978 4.514217 15.803100 -1.272043 -1.815962 26.186223 -0.841424 -3.961893 37.439613 0.316424 -6.604683 9.193606 3.356735 2.673020 12.198637 4.956353 3.754941 11.852325 -0.954032 -1.361971 21.821853 -0.701187 -3.301578
0.936907 0.000000 -0.599130 0.000000 0.000000 0.000000 1.607480 0.624288 0.485410 0.807270 0.361461 0.255378 0.393568 0.226149 0.128454 0.115230 0.118632 0.038258 -0.027605 0.067834 -0.009198 10.716536 4.161920 3.236068 12.109057 5.421917 3.830677 10.495157 6.030629 3.425440 16.886559 -0.826742 -2.351141 27.447600 -0.164062 -4.617999 38.598597 1.219132 -7.229548 8.037402 3.121440 2.427051 10.090881 4.518264 3.192231 12.664919 -0.620056 -1.763356 22.873000 -0.136718 -3.848332
0.782172 0.000000 -0.654430 0.000000 0.000000 0.000000 1.361971 0.573682 0.424264 0.631485 0.324360 0.204073 0.255605 0.196200 0.084462 0.021237 0.097539 0.007078 -0.102724 0.050300 -0.034073 9.079810 3.824544 2.828427 9.472270 4.865402 3.061101 6.816130 5.232013 2.252316 17.820130 -0.376743 -2.828427 28.465349 0.514233 -5.160393 39.414976 2.114913 -7.676397 6.809857 2.868408 2.121320 7.893558 4.054502 2.550918 13.365098 -0.282557 -2.121320 23.721124 0.428528 -4.300328
0.626666 0.000000 -0.709497 0.000000 0.000000 0.000000 1.104374 0.519815 0.352671 0.450094 0.285416 0.147743 0.115373 0.165138 0.038390 -0.072944 0.075892 -0.024276 -0.176932 0.032481 -0.058109 7.362491 3.465436 2.351141 6.751405 4.281241 2.216151 3.076603 4.403668 1.023733 18.595530 0.075396 -3.236068 29.230438 1.189606 -5.575722 39.881506 2.998677 -7.934228 5.521868 2.599077 1.763356 5.626171 3.567700 1.846792 13.946647 0.056547 -2.427051 24.358699 0.991338 -4.646435
0.470542 0.000000 -0.764312 0.000000 0.000000 0.000000 0.836973 0.462996 0.272394 0.264708 0.244850 0.087775 -0.025884 0.133136 -0.008627 -0.166478 0.053813 -0.055033 -0.249569 0.014476 -0.080714 5.579822 3.086637 1.815962 3.970615 3.672752 1.316631 -0.690232 3.550300 -0.230057 19.205874 0.527107 -3.564026 29.736076 1.858219 -5.853758 39.994044 3.865401 -7.996691 4.184867 2.314978 1.361971 3.308846 3.060627 1.097192 14.404405 0.395330 -2.673020 24.780063 1.548516 -4.878132
0.313953 0.000000 -0.818856 0.000000 0.000000 0.000000 0.562144 0.403545 0.185410 0.076972 0.202893 0.025646 -0.166910 0.100378 -0.055432 -0.258534 0.031429 -0.084435 -0.319991 -0.003610 -0.101332 3.747626 2.690299 1.236068 1.154582 3.043395 0.384692 -4.450941 2.676758 -1.478183 19.645745 0.975823 -3.804226 29.977774 2.516273 -5.987655 39.751593 4.710162 -7.862250 2.810720 2.017724 0.927051 0.962151 2.536162 0.320576 14.734309 0.731867 -2.853170 24.981478 2.096895 -4.989713
0.157054 0.000000 -0.873109 0.000000 0.000000 0.000000 0.282325 0.341801 0.093861 -0.111447 0.159783 -0.037115 -0.306455 0.067050 -0.100872 -0.348296 0.008866 -0.111757 -0.387573 -0.021677 -0.119454 1.882166 2.278675 0.625738 -1.671700 2.396744 -0.556720 -8.172143 1.788007 -2.689911 19.911239 1.418994 -3.950753 29.953387 3.160030 -5.974116 39.156303 5.528158 -7.534214 1.411625 1.709006 0.469303 -1.393084 1.997287 -0.463934 14.933429 1.064245 -2.963065 24.961156 2.633358 -4.978430
