HIERARCHY
ROOT Hips
{
    OFFSET 0.0 0.0 0.0
    CHANNELS 6 Xposition Yposition Zposition Zrotation Xrotation Yrotation
    JOINT Spine
    {
        OFFSET 0.0 5.0 0.0
        CHANNELS 3 Zrotation Xrotation Yrotation
        JOINT Chest
        {
            OFFSET 0.0 5.0 0.0
            CHANNELS 3 Zrotation Xrotation Yrotation
            JOINT Neck
            {
                OFFSET 0.0 8.0 0.0
                CHANNELS 3 Zrotation Xrotation Yrotation
                JOINT Head
                {
                    OFFSET 0.0 5.0 0.0
                    CHANNELS 3 Zrotation Xrotation Yrotation
                    End Site
                    {
                        OFFSET 0.0 3.0 0.0
                    }
                }
            }
            JOINT LeftShoulder
            {
                OFFSET -5.0 0.0 0.0
                CHANNELS 3 Zrotation Xrotation Yrotation
                JOINT LeftArm
                {
                    OFFSET 0.0 -10.0 0.0
                    CHANNELS 3 Zrotation Xrotation Yrotation
                    JOINT LeftForeArm
                    {
                        OFFSET 0.0 -10.0 0.0
                        CHANNELS 3 Zrotation Xrotation Yrotation
                        End Site
                        {
                            OFFSET 0.0 -3.0 0.0
                        }
                    }
                }
            }
            JOINT RightShoulder
            {
                OFFSET 5.0 0.0 0.0
                CHANNELS 3 Zrotation Xrotation Yrotation
                JOINT RightArm
                {
                    OFFSET 0.0 -10.0 0.0
                    CHANNELS 3 Zrotation Xrotation Yrotation
                    JOINT RightForeArm
                    {
                        OFFSET 0.0 -10.0 0.0
                        CHANNELS 3 Zrotation Xrotation Yrotation
                        End Site
                        {
                            OFFSET 0.0 -3.0 0.0
                        }
                    }
                }
            }
        }
    }
    JOINT LeftHip
    {
        OFFSET -2.0 0.0 0.0
        CHANNELS 3 Zrotation Xrotation Yrotation
        JOINT LeftKnee
        {
            OFFSET 0.0 -10.0 0.0
            CHANNELS 3 Zrotation Xrotation Yrotation
            JOINT LeftAnkle
            {
                OFFSET 0.0 -10.0 0.0
                CHANNELS 3 Zrotation Xrotation Yrotation
                End Site
                {
                    OFFSET 0.0 -3.0 0.0
                }
            }
        }
    }
    JOINT RightHip
    {
        OFFSET 2.0 0.0 0.0
        CHANNELS 3 Zrotation Xrotation Yrotation
        JOINT RightKnee
        {
            OFFSET 0.0 -10.0 0.0
            CHANNELS 3 Zrotation Xrotation Yrotation
            JOINT RightAnkle
            {
                OFFSET 0.0 -10.0 0.0
                CHANNELS 3 Zrotation Xrotation Yrotation
                End Site
                {
                    OFFSET 0.0 -3.0 0.0
                }
            }
        }
    }
}

MOTION
Frames: 100
Frame Time: 0.033333

960.000000 445.000000 100.730024 0.000000 0.000000 0.000000 0.000000 3.000000 0.000000 90.559543 36.801164 0.499792 24.141837 -5.387810 0.998334 181.667679 5.440201 1.494381 43.531199 25.919304 0.000000 185.910404 29.655881 8.940120 27.238245 24.371234 17.523825 129.513844 -4.501197 -0.000000 5.399528 15.545348 8.940120 168.707151 -7.943361 17.523825 82.694240 38.466620 0.000000 188.469637 66.822523 23.365101 61.470139 27.614462 43.041365 96.709837 41.676211 -0.000000
1578.156967 80.474526 114.588568 0.000000 0.000000 0.000000 0.157054 2.999467 0.175872 42.719359 -0.513137 0.813260 -138.056227 -1.996663 1.310380 42.490288 3.679092 1.804224 -170.760098 26.346953 5.639996 15.778700 32.741672 14.397195 -159.421387 24.066486 22.580425 -173.073880 4.111610 5.639996 53.866072 13.221480 14.397195 40.011620 10.181385 22.580425 128.274101 29.150663 14.921393 -158.939653 34.751243 36.374556 39.063732 25.949733 9.999808 -171.558992 35.537051 14.921393
960.627905 444.996447 116.773479 0.000000 0.000000 0.000000 0.313953 2.997868 0.351405 91.658167 -18.867701 1.125926 28.027035 28.220509 1.621132 182.348601 -17.051194 2.112287 55.977750 38.062780 11.191045 192.529011 26.149356 19.627219 35.601272 16.166777 27.280917 116.778784 16.106362 11.191045 0.956141 -3.473325 19.627219 163.423648 -20.981359 27.280917 94.331533 37.876688 28.905220 194.648816 55.473966 47.098465 67.650349 13.647356 57.855897 105.585823 40.345932 28.905220
960.941083 444.992008 101.836460 0.000000 0.000000 0.000000 0.470542 2.995205 0.526257 92.203600 55.460022 1.437481 30.220859 15.010440 1.930285 182.682575 -17.072530 2.418265 62.042278 13.810696 16.565605 195.228217 33.406393 24.547709 39.243652 31.419315 31.551173 110.729836 4.649898 16.565605 -0.443167 11.462148 24.547709 161.620393 -8.314298 31.551173 98.294262 38.199267 41.072826 194.807986 4.349286 54.863004 67.924824 57.911723 59.991519 108.250790 40.112748 41.072826
1136.717377 590.104480 120.221664 0.000000 0.000000 0.000000 0.626666 2.991477 0.700092 -111.346487 0.744144 1.747617 118.237725 3.967285 2.237533 -61.236513 5.478827 2.721856 87.329088 32.971760 21.678915 -44.073797 25.464837 29.081067 94.901037 23.996242 35.323849 12.388607 13.437497 21.678915 -181.596112 13.140901 29.081067 -78.728768 32.795963 35.323849 -146.051858 35.086595 50.659676 -144.346668 30.447926 59.180298 -140.636309 15.289677 58.357653 -142.325618 35.453535 50.659676
1097.449951 565.089898 124.742433 0.000000 0.000000 0.000000 0.782172 2.986686 0.872573 109.116848 2.431267 2.056028 -116.402037 8.378307 2.542572 64.114755 6.435968 3.022762 -134.000302 21.127356 26.450336 49.057540 29.326425 33.155800 -129.882197 16.579745 38.539446 -2.519066 17.672109 26.450336 -180.141305 15.011536 33.155800 80.747117 25.510267 38.539446 -153.048081 31.050495 57.063391 -138.530384 19.806896 59.779077 39.792721 15.487789 0.566068 -155.643975 31.451461 57.063391
1135.931282 466.493965 122.536857 0.000000 0.000000 0.000000 0.936907 2.980834 1.043366 145.739408 14.439267 2.362410 -109.724392 -6.172481 2.845103 70.782429 24.834647 3.320684 -141.421321 26.969670 30.804620 43.622180 22.801923 36.707645 -134.682632 13.762834 41.147253 3.130426 16.394161 30.804620 -182.291529 17.011985 36.707645 85.918308 68.549922 41.147253 -165.615615 30.116597 59.881604 -171.228007 20.599899 56.621716 0.636145 33.679001 44.422505 -163.370956 29.181397 59.881604
1151.529922 496.420240 126.140862 0.000000 0.000000 0.000000 1.090716 2.973923 1.212141 138.684184 13.558552 2.666461 -112.897712 -0.044457 3.144825 67.598158 15.409873 3.615329 -129.709379 23.675043 34.673096 46.961979 19.484811 39.680589 -138.050636 17.659706 43.106143 -2.556158 18.323752 34.673096 -185.015287 20.942573 39.680589 80.812146 38.835333 43.106143 -170.942372 29.156953 58.937235 -181.087132 17.134144 49.906605 59.473911 -23.651803 32.996819 -169.311592 26.647767 58.937235
1199.533310 485.991104 121.365660 0.000000 0.000000 0.000000 1.243449 2.965955 1.378572 155.331944 18.474435 2.967881 -96.225077 -1.598672 3.441444 84.258883 6.614198 3.906406 -66.122654 23.264190 37.994757 80.994851 13.432609 42.027747 -89.356228 19.941996 44.385224 1.768262 19.087568 37.994757 -185.203081 24.016198 42.027747 62.897721 25.261701 44.385224 179.155494 22.637916 54.289623 171.968706 18.675822 40.055678 -39.624974 -35.874761 19.497823 -173.112724 22.349163 54.289623
1164.005928 424.847746 153.748970 0.000000 0.000000 0.000000 1.394956 2.956934 1.542336 149.626240 -3.966068 3.266371 -80.156563 -17.005947 3.734667 100.314551 26.261062 4.193628 -136.339290 13.162433 40.717217 43.268028 23.422935 43.712102 -139.986087 5.133862 44.964323 157.485893 18.927749 40.717217 161.535068 21.409283 43.712102 75.156953 59.812875 44.964323 166.067403 11.771659 46.230795 158.813214 15.461014 27.687906 -82.193700 -0.724050 4.773706 174.553791 17.345126 46.230795
963.090170 444.911436 154.261614 0.000000 0.000000 0.000000 1.545085 2.946862 1.703117 95.866813 -43.508988 3.561638 47.042207 17.421958 4.024204 184.840364 11.471770 4.476712 83.264045 13.885510 42.797543 196.345165 32.171945 44.707091 41.278021 -1.899245 44.834308 95.576663 30.234468 42.797543 4.023835 23.056174 44.707091 167.790866 38.073834 44.834308 79.076784 2.247966 35.267115 165.871118 57.801252 13.580401 56.528548 -11.885152 -10.250360 84.200200 8.766485 35.267115
1347.999344 420.772226 134.754940 0.000000 0.000000 0.000000 1.693690 2.935743 1.860604 -164.176525 17.127105 3.853390 94.827375 -3.957591 4.309770 -84.729910 3.356329 4.755377 -144.527267 7.929094 44.202926 32.904302 19.237884 44.997022 -151.967123 -1.038776 43.997229 -179.579534 18.480112 44.202926 13.452293 35.839037 44.997022 -93.206646 16.459205 43.997229 159.578896 10.145771 22.087473 -167.642779 -8.900403 -1.380411 18.118666 2.216207 -24.630359 -175.329389 2.044265 22.087473
1357.685051 430.688889 153.998183 0.000000 0.000000 0.000000 1.840623 2.923581 2.014493 -161.672340 -5.624107 4.141339 82.610080 1.223005 4.591082 -96.962703 11.275028 5.029350 54.817416 14.793527 44.911203 -139.108210 11.254847 44.577324 27.664759 4.870705 42.466287 -183.344147 27.244493 44.911203 88.123754 30.115207 44.577324 -84.837484 35.864139 42.466287 155.706236 1.900507 7.519994 -188.744220 -4.228050 -16.254487 -70.679198 -18.206262 -37.462741 163.541193 1.009809 7.519994
963.971479 444.850633 159.031940 0.000000 0.000000 0.000000 1.985739 2.910380 2.164485 97.307247 -47.451462 4.425202 50.609040 3.764004 4.867864 185.636292 20.694004 5.298359 74.954229 16.692846 44.911203 187.625043 11.916358 43.454614 26.320274 -1.314748 40.265627 107.965753 36.867957 44.911203 9.454369 11.013821 43.454614 178.179516 54.991844 40.265627 73.384213 -8.124720 -7.519994 169.426302 -19.906707 -30.107233 64.419454 2.377849 -47.941202 79.499071 -3.733900 -7.519994
964.257793 444.826908 136.944547 0.000000 0.000000 0.000000 2.128896 2.896145 2.310291 97.764255 45.566679 4.704697 50.748896 18.134461 5.139841 185.880464 -27.608530 5.562139 70.123333 3.718018 44.202926 184.025411 15.535420 41.646599 20.579099 -8.758711 37.429954 113.809274 22.589912 44.202926 11.697328 35.914253 41.646599 181.943830 47.209724 37.429954 75.360978 -8.360771 -22.087473 174.085450 17.056652 -42.068231 67.547821 -19.140656 -55.407340 82.196721 -4.283819 -22.087473
1258.788185 528.263061 179.386651 0.000000 0.000000 0.000000 2.269952 2.880881 2.451628 -148.122128 -15.880580 4.979549 124.064233 44.332768 5.406747 -55.559874 -17.814142 5.820430 149.395099 18.819725 42.797543 -152.067958 -7.734308 39.181793 22.534271 2.956518 34.003988 -163.784426 23.503448 42.797543 29.138047 38.543747 39.181793 -54.308366 -2.619423 34.003988 -182.197188 -15.997963 -35.267115 176.415557 -18.804483 -51.385928 -134.245033 -37.182570 -59.392032 -175.964848 -14.198989 -35.267115
1223.669701 418.195664 135.838018 0.000000 0.000000 0.000000 2.408768 2.864594 2.588224 153.769355 13.139906 5.249487 -96.107103 -3.022252 5.668316 84.250182 6.137198 6.072977 -168.597193 2.100545 40.717217 78.690672 11.481300 36.099066 -162.729399 -15.474197 30.041759 175.867520 28.335683 40.717217 -1.692655 36.392158 36.099066 92.541266 10.972829 30.041759 166.245326 -13.668941 -46.230795 -146.293355 -32.758306 -57.474857 -44.733678 -22.335748 8.126427 168.916033 -14.365699 -46.230795
1214.024734 450.340490 167.507319 0.000000 0.000000 0.000000 2.545207 2.847288 2.719814 142.508870 -0.796690 5.514244 -104.429779 -7.512689 5.924291 75.908207 6.519631 6.319531 -138.839153 -6.304763 37.994757 -166.049082 -12.869231 32.447035 8.572415 0.425760 25.605753 -154.026001 22.821135 37.994757 34.549280 38.346535 32.447035 107.416141 21.926582 25.605753 179.900344 -22.880568 -54.289623 -142.594701 -36.753856 -59.952430 -42.112550 -24.669778 9.701051 -157.767748 -28.804105 -54.289623
1182.456551 475.103824 141.320993 0.000000 0.000000 0.000000 2.679134 2.828972 2.846143 159.707077 14.189131 5.773560 -161.725024 -79.014395 6.174420 18.593010 -42.936870 6.559848 -68.776442 -2.709886 34.673096 -57.349015 -37.986833 28.283296 -62.912397 -12.503518 20.765929 -51.208565 24.483615 34.673096 156.641409 31.747447 28.283296 -162.089497 -17.460920 20.765929 177.811099 -23.656104 -58.937235 -137.143346 -39.201949 -58.662972 47.323530 -26.588815 -49.127115 -150.883735 -31.825085 -58.937235
965.620834 444.682749 154.273685 0.000000 0.000000 0.000000 2.810417 2.809650 2.966967 99.843418 -32.875677 6.027177 44.866246 19.337415 6.418456 186.922059 -14.406913 6.793692 39.865187 -1.637262 30.804620 166.516857 -8.841504 23.673511 -2.534034 -8.609148 15.598615 144.766001 30.344816 30.804620 24.044224 33.355462 23.673511 197.246292 27.773466 15.598615 98.045383 -30.851343 -59.881604 194.937730 -2.424759 -53.687503 62.402246 -57.782154 -39.017325 110.377386 -30.260351 -59.881604
965.877853 444.648882 144.536553 0.000000 0.000000 0.000000 2.938926 2.789329 3.082053 100.213478 -17.387903 6.274847 42.984499 14.532979 6.656157 187.091705 3.013823 7.020830 34.218387 -0.679358 26.450336 163.987729 -23.670565 18.690382 -5.092142 -13.186664 10.185301 149.821675 28.121893 26.450336 25.962826 40.311386 18.690382 198.838509 23.160361 10.185301 100.283361 -32.737283 -57.063391 194.391374 -49.488602 -45.338650 56.038483 -33.727280 -26.455934 113.876958 -36.555073 -57.063391
966.129071 444.613364 131.619276 0.000000 0.000000 0.000000 3.064535 2.768018 3.191178 100.566875 46.046371 6.516324 41.082394 14.812518 6.887289 187.247634 -21.177285 7.241041 29.168488 -23.863472 21.678915 162.025843 -6.639198 13.412494 -6.806188 -19.069120 4.611358 154.133490 26.890791 21.678915 27.437935 24.071081 13.412494 199.763363 -16.424662 4.611358 100.486086 -32.396888 -50.659676 191.823792 -35.585604 -34.141004 48.627925 -40.959842 -12.232219 115.318378 -31.988606 -50.659676
966.374240 444.576206 128.057893 0.000000 0.000000 0.000000 3.187120 2.745724 3.294130 100.903067 52.240441 6.751370 39.226672 19.288990 7.111625 187.389545 -7.868558 7.454105 24.853184 -25.505414 16.565605 160.700702 -10.693457 7.923082 -7.661189 -26.231100 -1.035308 157.598609 27.059780 16.565605 28.388857 17.582252 7.923082 199.988089 60.498500 -1.035308 98.565723 -32.522729 -41.072826 187.595594 -36.962722 -20.798153 40.889404 -38.071291 2.760091 114.582158 -36.211902 -41.072826
1165.827255 569.832902 136.630288 0.000000 0.000000 0.000000 3.306559 2.722453 3.390712 -172.497013 7.090377 6.979753 32.901516 13.331667 7.328942 -146.888627 -17.375019 7.659812 -6.871647 -20.916384 11.191045 -185.846117 -22.020158 2.308720 -11.735146 -24.464185 -6.665647 -149.095726 19.252556 11.191045 78.584750 51.723701 2.308720 144.415260 -37.277290 -6.665647 -167.041269 -40.117938 -28.905220 -172.687363 -38.202581 -6.148477 -2.721930 -22.133211 17.578975 -165.100941 -39.250675 -28.905220
1180.398903 551.817470 140.281497 0.000000 0.000000 0.000000 3.422736 2.698216 3.480735 131.377948 0.055107 7.201248 59.083516 12.722292 7.539027 -120.729652 -0.610343 7.857961 -5.226345 -25.643553 5.639996 -195.893245 -25.080683 -3.342053 -52.607912 -23.964208 -12.190865 27.823563 18.607627 5.639996 -148.518876 23.432961 -3.342053 -98.983471 45.966212 -12.190865 174.738583 -37.889412 -14.921393 -155.285442 -46.621268 8.887530 8.232265 -31.568673 31.293307 -149.422800 -45.829343 -14.921393
1150.187302 553.686991 128.160960 0.000000 0.000000 0.000000 3.535534 2.673020 3.564026 142.337664 14.833667 7.415637 -108.500021 -6.785731 7.741671 71.663423 1.770449 8.048355 -171.059314 -27.674065 0.000000 5.881800 -18.929970 -8.940120 -30.550810 -18.857232 -17.523825 8.660938 21.025863 0.000000 -157.787869 16.097031 -8.940120 116.009937 35.234654 -17.523825 -177.058241 -39.260870 -0.000000 -154.345453 -47.128831 23.365101 27.784863 -28.331807 43.041365 -175.755643 -39.608657 -0.000000
1124.373779 618.464527 150.262411 0.000000 0.000000 0.000000 3.644843 2.646874 3.640424 -133.460043 -8.566138 7.622707 107.001833 3.701874 7.936675 -72.858426 0.918907 8.230805 66.315182 -20.975820 -5.639996 -165.217517 -31.677091 -14.397195 17.545834 -22.515470 -22.580425 -132.479378 13.039003 -5.639996 53.678565 23.842738 -14.397195 -56.567764 -14.947982 -22.580425 -175.675071 -43.674738 14.921393 -190.586160 -39.801201 36.374556 -68.537687 -29.107278 52.084977 -180.064126 -41.084177 14.921393
1119.652290 522.766346 115.746181 0.000000 0.000000 0.000000 3.750555 2.619787 3.709781 147.099972 9.506172 7.822254 -91.253318 -0.286477 8.123847 88.862451 4.271114 8.405133 -168.885132 -30.807720 -11.191045 -13.084812 -18.035801 -11.691917 -18.187278 -19.124945 -8.392783 -131.694073 10.867199 -11.191045 52.121533 19.414161 -19.627219 97.575927 29.723118 -27.280917 160.630511 -38.039917 28.905220 -158.116507 -43.047280 47.098465 43.391923 -23.858393 -9.274782 -165.240307 -44.094608 28.905220
1165.252304 561.329677 115.286872 0.000000 0.000000 0.000000 3.852566 2.591770 3.771962 146.066108 8.614926 8.014082 -105.019743 5.636665 8.303001 75.071828 -14.309299 8.571167 -176.283102 -26.623588 -16.565605 -160.317309 -34.856470 -24.547709 30.536521 -22.029231 -31.551173 -132.477965 8.793795 -16.565605 51.024026 16.704146 -24.547709 97.065519 22.212401 -31.551173 158.142215 -38.533816 41.072826 -156.749353 -39.594871 54.863004 44.993639 -21.390792 -7.247140 -167.851186 -42.284612 41.072826
1139.678879 602.981014 131.518919 0.000000 0.000000 0.000000 3.950775 2.562832 3.826848 170.341743 -6.603085 8.198001 -89.695974 20.038015 8.473961 90.371223 -24.105010 8.728741 -128.545179 -30.306885 -21.678915 87.144094 -49.707485 -29.081067 -122.794795 -27.362783 -35.323849 -103.352986 11.234173 -21.678915 113.588411 7.936056 -29.081067 128.457217 9.484308 -35.323849 -178.322900 -40.196420 50.659676 163.589421 -22.660174 59.180298 -150.493544 -32.490645 58.357653 -167.087991 -40.876471 50.659676
968.090170 444.221640 106.744888 0.000000 0.000000 0.000000 4.045085 2.532984 3.874333 102.918518 8.750587 8.373830 29.043363 -9.992513 8.636559 187.993169 7.481834 8.877701 22.772195 -25.719562 -26.450336 173.550963 -31.519641 -33.155800 11.112613 -30.177295 -38.539446 150.208460 8.160826 -26.450336 15.878855 6.714569 -33.155800 180.566295 -16.918893 -38.539446 67.143864 -36.378523 57.063391 170.843150 -25.310223 59.779077 34.511434 -20.723241 53.056961 87.864688 -33.065128 57.063391
968.270806 444.170392 116.075477 0.000000 0.000000 0.000000 4.135403 2.502235 3.914324 103.080745 -30.971361 8.541394 28.372231 9.840132 8.790633 187.999972 -8.945945 9.017900 26.191944 -31.947335 -30.804620 177.212644 -29.108144 -36.707645 15.284921 -26.999436 -41.147253 145.266866 3.622823 -30.804620 12.665817 14.246621 -36.707645 176.810141 -27.249909 -41.147253 69.623799 -32.923339 59.881604 175.859770 -25.785954 56.621716 40.455100 -18.864938 44.422505 90.151171 -31.941143 59.881604
968.443279 444.117663 85.768447 0.000000 0.000000 0.000000 4.221640 2.470598 3.946744 103.222149 14.910303 8.700529 27.810631 19.357656 8.936032 187.991301 -1.696161 9.149200 30.152229 -26.542995 -34.673096 180.973067 -31.843598 -39.680589 19.465157 -30.789414 -43.106143 139.729791 5.829386 -34.673096 9.452871 3.990075 -39.680589 173.166989 -12.073846 -43.106143 73.799425 -22.050293 58.937235 181.457873 -23.289746 49.906605 45.980912 -13.882791 32.996819 93.959865 -25.201897 58.937235
1051.772690 653.004448 77.552042 0.000000 0.000000 0.000000 4.303710 2.438082 3.971530 -157.644795 16.360626 8.851078 -71.009535 -21.855245 9.072612 108.959341 25.486056 9.271470 -127.971109 -35.458556 -37.994757 -144.884756 -34.727980 -42.027747 42.006380 -23.104046 -44.385224 -145.317211 -4.114071 -37.994757 35.366250 2.027183 -42.027747 93.064571 8.143043 -44.385224 -169.492348 -19.549440 54.289623 -133.083508 -20.094036 40.055678 14.623367 -4.941971 8.792742 -150.045473 -25.017572 54.289623
1070.057373 572.884376 103.627851 0.000000 0.000000 0.000000 4.381533 2.404701 3.988636 161.291375 1.050042 8.992892 -72.866889 -15.814186 9.200239 107.077437 9.202985 9.384591 -145.060860 -34.802381 -40.717217 42.810510 -24.399153 -43.712102 -132.175356 -32.970811 -44.964323 -169.595474 -2.939006 -40.717217 63.530485 -18.429196 -43.712102 113.483675 56.454077 -44.964323 181.095415 -20.509720 46.230795 -126.654551 -14.573814 27.687906 70.469409 5.833223 4.773706 -175.653649 -17.594667 46.230795
968.910065 443.950775 71.606862 0.000000 0.000000 0.000000 4.455033 2.370465 3.998026 103.519929 33.532675 9.125831 26.716950 2.215097 9.318786 187.872770 2.601023 9.488450 44.059058 -41.395164 -42.797543 191.525433 -24.525739 -44.707091 30.882316 -22.559310 -44.834308 121.265542 -8.955509 -42.797543 1.111645 -3.450778 -44.707091 164.159007 -7.801339 -44.834308 89.839443 -11.811671 35.267115 194.128882 10.699946 13.580401 54.159414 -4.020277 -10.250360 108.004961 -13.462191 35.267115
969.048271 443.892312 67.742221 0.000000 0.000000 0.000000 4.524135 2.335387 3.999684 103.576731 46.832066 9.249763 26.534239 -5.404929 9.428137 187.802673 3.648848 9.582945 48.957984 -38.141800 -44.202926 194.384064 -24.314960 -44.997022 33.972421 -24.751965 -43.997229 115.200432 3.985570 -44.202926 -0.870117 -21.864927 -44.997022 162.151831 -26.803537 -43.997229 93.843983 -8.886785 22.087473 194.991067 7.764963 -1.380411 53.305943 25.899169 -24.630359 111.114107 -6.846751 22.087473
1122.856522 566.714029 51.332495 0.000000 0.000000 0.000000 4.588773 2.299479 3.993606 -123.280669 13.434289 9.364568 104.062211 4.610745 9.528183 -76.066274 0.323016 9.667983 58.938104 -25.974393 -44.911203 -135.546428 -29.596781 -44.577324 43.893155 -21.134554 -42.466287 -10.290844 -3.547744 -44.911203 149.186336 -17.561922 -44.577324 -123.422082 -15.263891 -42.466287 184.044004 -1.355594 7.519994 193.428630 9.606352 -16.254487 -120.631207 17.820285 -37.462741 191.651585 -0.401860 7.519994
1086.733246 592.557156 72.853738 0.000000 0.000000 0.000000 4.648882 2.262754 3.979804 -160.916257 2.934101 9.470131 -72.362630 60.928593 9.618826 107.485049 -68.092726 9.743479 51.611829 -25.700903 -44.911203 -32.180087 -22.565329 -43.454614 97.966816 -26.508148 -40.265627 -28.629484 -15.858885 -44.911203 153.532927 -16.464739 -43.454614 70.593333 47.622621 -40.265627 -164.719255 1.067962 -7.519994 179.101814 12.374864 -30.107233 -72.121283 37.639270 -47.941202 -165.227524 2.258870 -7.519994
1114.282036 523.965647 65.107518 0.000000 0.000000 0.000000 4.704404 2.225225 3.958304 137.578271 9.267342 9.566348 -148.395596 -5.409810 9.699976 31.428542 15.149936 9.809361 192.351940 -27.759548 -44.202926 14.328842 -26.494692 -41.646599 181.172131 -17.951636 -37.429954 -27.899805 -12.830411 -44.202926 154.418451 -21.958075 -41.646599 25.889803 -13.326457 -37.429954 182.050534 7.589004 -22.087473 165.929931 16.549751 -42.068231 -55.735688 20.610412 -55.407340 181.139625 7.476057 -22.087473
1156.756668 500.025387 70.975902 0.000000 0.000000 0.000000 4.755283 2.186906 3.929149 153.901527 -1.647101 9.653124 -132.568537 -2.353285 9.771554 47.232400 10.914675 9.865561 -157.845459 -29.261719 -42.797543 -126.972090 -23.722172 -39.181793 59.744179 -12.876547 -34.003988 -171.595795 -20.559839 -42.797543 18.899452 -16.836300 -39.181793 36.331930 0.941530 -34.003988 174.923857 10.453848 -35.267115 164.400913 19.044655 -51.385928 -136.905742 22.535595 -59.392032 177.106419 10.950714 -35.267115
1165.045052 489.521159 75.170699 0.000000 0.000000 0.000000 4.801468 2.147809 3.892394 121.057512 -9.522213 9.730373 -126.969865 12.675512 9.833489 52.808255 -9.297380 9.912025 -118.272668 -23.803800 -40.717217 47.917927 -16.928653 -36.099066 -131.883204 -14.940634 -30.041759 -53.068228 -27.023207 -40.717217 148.346929 -17.906727 -36.099066 61.471195 -33.602992 -30.041759 170.492191 16.605766 -46.230795 -150.985184 19.767884 -57.474857 30.662503 34.126630 -59.644904 -153.478792 13.626991 -46.230795
846.875610 502.341399 70.491494 0.000000 0.000000 0.000000 4.842916 2.107950 3.848111 56.202104 -5.915260 9.798020 -146.041972 11.899233 9.885718 33.713761 1.060419 9.948708 -127.667635 -23.359552 -37.994757 -21.631357 -11.358493 14.023432 -17.070502 -8.770957 11.823792 -167.588704 -24.692198 -37.994757 7.315992 -22.137104 -32.447035 -11.019523 -30.971734 -25.605753 5.709139 19.328247 -54.289623 -55.944376 22.416893 -59.952430 -15.199515 39.547416 -56.150067 -16.366733 17.100918 -54.289623
969.759168 443.445569 49.034039 0.000000 0.000000 0.000000 4.879584 2.067341 3.796385 103.381512 -3.210081 9.855997 27.808908 7.850933 9.928192 186.900667 5.492153 9.975572 75.715037 -17.616118 -34.673096 197.036599 2.976815 -28.283296 37.713011 -22.782770 -20.765929 97.239087 -10.051950 -34.673096 -0.907157 -43.586242 -28.283296 166.820294 -28.998438 -20.765929 76.896423 30.568885 -58.937235 166.613873 17.306732 -58.662972 40.900239 39.005044 -49.127115 87.361902 27.293323 -58.937235
969.822873 443.376664 51.660018 0.000000 0.000000 0.000000 4.911436 2.025998 3.737316 103.270422 14.575915 9.904248 28.417041 11.733678 9.960868 186.716040 -5.722703 9.992591 77.333960 -22.370365 -30.804620 194.771758 -8.839505 -23.673511 35.027271 -19.440357 -15.598615 99.707753 -31.084373 -30.804620 0.701174 -30.437253 -23.673511 169.872542 -32.725425 -15.598615 73.161780 31.124959 -59.881604 165.062270 27.762308 -53.687503 44.468932 41.342789 -39.017325 82.887701 28.147473 -59.881604
594.905148 538.048757 36.633261 0.000000 0.000000 0.000000 4.938442 1.983936 3.671019 31.667622 16.218170 9.942725 -50.253632 22.688941 9.983714 129.437944 -6.539376 9.999749 3.429784 -14.484940 -26.450336 180.693434 1.893246 -18.690382 -1.557649 -13.953824 -10.185301 163.402779 -22.008962 -26.450336 -14.136799 -30.870050 -18.690382 73.565293 2.217345 -10.185301 -12.810944 37.266725 -57.063391 -18.267289 38.541150 -45.338650 47.782406 -2.594452 -26.455934 -14.940377 32.484679 -57.063391
1279.050064 493.773898 41.571353 0.000000 0.000000 0.000000 4.960574 1.941168 3.597621 -163.414164 5.211667 9.971389 63.322084 3.400914 9.996707 -117.006587 2.775112 9.997039 37.756394 -11.155443 -21.678915 -151.855594 -4.852531 -13.412494 16.164950 -1.754021 -4.611358 -181.080664 -29.397690 -21.678915 77.728201 -24.432977 -13.412494 -98.800026 -26.247725 -4.611358 150.093799 35.518151 -50.659676 -182.284131 37.707656 -34.141004 -146.486042 58.367752 -12.232219 159.991079 36.129347 -50.659676
1285.337105 480.691112 46.634854 0.000000 0.000000 0.000000 4.977810 1.897710 3.517265 -151.190818 9.353986 9.990212 64.456038 -7.672193 9.999835 -115.892244 5.190573 9.984462 42.422465 -12.316472 -16.565605 -156.434448 -5.179434 -7.923082 10.417177 4.528669 1.035308 168.468822 -29.975016 -16.565605 75.753334 -32.036048 -7.923082 -85.304629 -34.838182 1.035308 154.404325 37.454079 -41.072826 -186.346863 38.097411 -20.798153 -56.981261 63.725482 2.760091 161.039927 38.082484 -41.072826
1366.101608 507.691247 42.467398 0.000000 0.000000 0.000000 4.990134 1.853579 3.430107 -161.097231 3.229055 9.999177 114.933901 23.001196 9.993093 -65.433319 -24.091135 9.962033 164.023623 8.500316 -11.191045 -156.196194 -3.526542 -2.308720 4.443765 2.225470 -3.317475 -166.749660 -31.191578 -11.191045 19.243668 -28.217172 -2.308720 116.864602 48.165892 6.665647 -172.201204 42.938591 -28.905220 -121.155714 33.685095 -6.148477 -156.398228 37.313680 17.578975 -145.928576 40.985221 -28.905220
1282.921486 484.777769 58.608886 0.000000 0.000000 0.000000 4.997533 1.808789 3.336314 -168.817993 -3.024008 9.998273 -75.746130 0.646116 9.976490 103.868422 -9.903893 9.929771 -20.119475 -1.349382 -5.639996 101.096228 -4.084019 3.342053 -37.454684 7.844675 12.190865 -7.860309 -33.611105 -5.639996 179.840017 -28.406528 3.342053 68.927298 -11.146327 12.190865 -185.192741 38.119798 -14.921393 179.352954 41.632194 8.887530 -83.523368 51.998034 31.293307 173.471879 38.578873 -14.921393
970.000000 442.938926 45.083411 0.000000 0.000000 0.000000 5.000000 1.763356 3.236068 102.192029 42.658192 9.987503 35.431246 24.889402 9.950042 185.349712 -16.916572 9.887711 69.304988 -7.181851 -0.000000 174.089596 -14.524027 8.940120 8.690257 20.814262 17.523825 131.853858 -37.287729 -0.000000 16.215251 -24.458434 8.940120 191.292849 -25.802231 17.523825 88.202810 45.636866 -0.000000 188.469637 20.594140 23.365101 74.133730 46.378866 43.041365 96.270158 40.643457 -0.000000
1246.736984 514.278152 50.833717 0.000000 0.000000 0.000000 4.997533 1.717296 3.129563 -127.665796 12.299149 9.966876 149.059733 -5.875036 9.913773 -31.359899 -2.513735 9.835892 130.013410 -4.479589 5.639996 -162.418454 4.841915 14.397195 15.053616 7.682276 -10.639404 17.917578 -33.904525 5.639996 -169.871321 -29.008529 14.397195 -30.332179 -16.143124 22.580425 -170.963022 40.622012 14.921393 178.477442 37.623894 36.374556 -122.478222 30.531550 52.084977 -169.829452 40.080235 14.921393
1275.099564 408.163741 58.900539 0.000000 0.000000 0.000000 4.990134 1.670627 3.017006 149.313505 -3.804489 9.936412 -127.687533 5.783424 9.867722 51.876944 20.169455 9.774367 166.129421 8.620787 11.191045 -166.715587 6.905672 19.627219 16.562441 17.185376 27.280917 -151.657170 -31.635531 11.191045 40.673313 -24.841517 19.627219 92.841165 -22.966730 27.280917 180.197552 40.126511 28.905220 176.548665 33.409955 47.098465 -127.764821 27.978995 57.855897 183.375447 38.660910 28.905220
1304.997711 379.563582 69.518396 0.000000 0.000000 0.000000 4.977810 1.623364 2.898613 121.193060 2.627007 9.896143 -121.756756 -4.543663 9.811931 57.792673 -1.680565 9.703195 -170.936129 6.541060 16.565605 -1.678760 9.792880 24.547709 -192.748377 18.673535 31.551173 2.005652 -32.840130 16.565605 -164.678202 -26.675078 24.547709 106.920097 -27.889719 31.551173 181.562993 34.795855 41.072826 176.767715 35.046719 54.863004 146.748052 9.651390 59.991519 185.446270 35.886915 41.072826
1296.320457 392.734526 41.325481 0.000000 0.000000 0.000000 4.960574 1.575524 2.774613 128.911313 21.568772 9.846108 -126.344931 -2.316337 9.746458 53.190321 -0.342730 9.622448 -142.660505 6.455233 21.678915 27.689484 17.550279 29.081067 -154.308605 18.568449 35.323849 7.298878 -39.947599 21.678915 195.873932 -24.555510 29.081067 99.064718 -24.560792 35.323849 182.926955 39.323542 50.659676 -140.973772 26.865509 59.180298 43.768240 18.585846 4.201659 184.074518 36.963976 50.659676
969.876883 442.545207 70.441623 0.000000 0.000000 0.000000 4.938442 1.527124 2.645247 100.798990 16.352185 9.786355 46.643306 -11.370864 9.671366 183.923323 20.025370 9.532204 45.976710 9.218158 26.450336 161.068283 23.279254 33.155800 -5.168911 10.812270 38.539446 156.869096 -29.958293 26.450336 26.989653 -23.957291 33.155800 199.991981 -21.239747 38.539446 104.093379 29.051404 57.063391 189.156850 30.575325 59.779077 53.708176 17.472686 53.056961 114.148057 35.340071 57.063391
969.822873 442.463637 73.373759 0.000000 0.000000 0.000000 4.911436 1.478182 2.510765 100.472495 13.220741 9.716945 49.213485 3.969123 9.586730 183.612987 5.267900 9.432553 41.377184 4.841044 30.804620 160.195186 26.150432 36.707645 -5.585328 16.277640 41.147253 159.639878 -35.686167 30.804620 27.677624 -16.586607 36.707645 199.743981 -9.446405 41.147253 101.478527 26.515819 59.881604 184.140230 20.597938 56.621716 46.394137 8.052487 44.422505 112.139161 28.201294 59.881604
1182.242889 522.024286 68.528364 0.000000 0.000000 0.000000 4.879584 1.428715 2.371427 -171.097600 13.596449 9.637945 -101.924488 7.570826 9.492633 77.573726 -16.086065 9.323594 -175.079669 14.996366 34.673096 26.453726 14.482081 -14.982236 28.737429 16.380785 -14.097406 158.303783 -20.994421 34.673096 -145.768522 -24.458909 39.680589 90.382296 5.991619 43.106143 -169.617184 26.665767 58.937235 -151.981690 14.730029 49.906605 24.747615 8.611632 -6.421849 180.132658 24.670687 58.937235
1161.066513 575.006626 86.192317 0.000000 0.000000 0.000000 4.842916 1.378740 2.227502 -167.576278 9.125676 9.549434 -77.536982 1.730842 9.389167 101.950797 -7.300899 9.205433 -122.812236 19.004822 37.994757 -178.417311 19.125367 42.027747 4.246666 30.189359 44.385224 165.658453 -41.776669 37.994757 -144.256919 -19.919385 42.027747 98.794217 -21.435797 44.385224 -166.904768 18.913321 54.289623 167.909772 16.675458 40.055678 42.163712 6.427114 19.497823 -173.132232 20.878973 54.289623
1228.099480 522.138258 67.987834 0.000000 0.000000 0.000000 4.801468 1.328275 2.079269 -152.041251 3.885223 9.451498 74.215084 4.487179 9.276436 -106.306580 0.138058 9.078187 130.257676 33.613568 40.717217 -128.410649 20.897719 43.712102 -171.236874 22.530136 44.964323 -137.252702 -23.237242 40.717217 53.578244 -11.733702 43.712102 -81.491980 -12.704873 44.964323 169.297322 17.983985 46.230795 -190.175958 7.886383 27.687906 -71.686352 15.686224 4.773706 171.387725 18.138791 46.230795
1221.475182 508.360147 64.788618 0.000000 0.000000 0.000000 4.755283 1.277338 1.927015 -163.309631 20.763671 9.344235 80.288684 -3.205418 9.154550 -100.241416 3.603934 8.941983 -175.810914 19.992063 42.797543 3.637595 30.702879 44.707091 -172.226374 24.327802 44.834308 -123.939627 -18.860306 42.797543 115.568177 -13.864870 44.707091 -79.565411 -19.272084 44.834308 162.456034 17.262854 35.267115 -188.767986 -0.232833 13.580401 -121.829947 9.477364 -10.250360 168.015151 12.064670 35.267115
1271.640472 556.840560 86.374781 0.000000 0.000000 0.000000 4.704404 1.225947 1.771033 173.727079 5.616458 9.227751 -91.898270 -0.212818 9.023629 87.564221 6.578505 8.796953 -79.943920 25.148359 44.202926 61.166829 29.693858 44.997022 -85.880677 24.166186 43.997229 14.390628 -11.107011 44.202926 -165.928531 -14.728411 44.997022 132.611089 51.257913 43.997229 -192.411636 7.451536 22.087473 -193.569897 -1.054827 -1.380411 -20.782590 27.140031 -24.630359 -189.572192 7.637012 22.087473
1243.466148 571.776259 97.225066 0.000000 0.000000 0.000000 4.648882 1.174121 1.611626 -138.483153 2.802566 9.102159 88.471463 5.284632 8.883803 -92.072416 -6.447890 8.643243 9.143269 25.752872 44.911203 -167.323134 25.112904 44.577324 13.990177 33.332537 42.466287 16.233594 -12.618091 44.911203 185.198053 -10.240053 44.577324 -72.493855 1.001972 42.466287 164.412843 3.587823 7.519994 164.113532 -7.602819 -16.254487 -139.304219 -20.201167 -37.462741 165.096007 2.395351 7.519994
1272.860069 533.494012 96.305832 0.000000 0.000000 0.000000 4.588773 1.121878 1.449101 -163.577294 1.027920 8.967585 74.130805 10.410203 8.735210 -106.418393 -3.350378 8.481002 66.054093 30.196422 44.911203 -157.659607 25.159740 43.454614 25.106970 33.995983 40.265627 -143.512684 -14.526280 44.911203 41.759374 -0.290023 43.454614 -82.112159 30.093752 40.265627 162.316456 0.101616 -7.519994 152.775928 -13.183979 -30.107233 -136.195405 -24.829313 -47.941202 160.275566 -1.915742 -7.519994
1236.502075 429.951335 105.627541 0.000000 0.000000 0.000000 4.524135 1.069236 1.283774 133.466338 1.795034 8.824162 -111.809927 7.140622 8.577997 67.636620 -2.859078 8.310392 -184.299242 29.732930 44.202926 -157.487322 24.238363 41.646599 34.812820 35.927997 37.429954 -146.807873 -12.216539 44.202926 34.121388 2.988338 41.646599 81.342231 -2.772018 37.429954 154.416633 -8.201562 -22.087473 150.109679 -16.588906 -42.068231 -137.462617 -28.176680 -55.407340 155.689689 -7.627446 -22.087473
1300.238571 418.760215 122.282726 0.000000 0.000000 0.000000 4.455033 1.016214 1.115964 116.168516 -2.954983 8.672029 -125.125020 0.468460 8.412318 54.318341 -3.791709 8.131580 -165.919698 32.348485 42.797543 16.265166 27.034455 39.181793 -164.684631 30.053578 34.003988 8.632893 -7.008906 42.797543 -176.083204 0.674844 39.181793 72.094870 -6.495842 34.003988 159.873853 -16.157354 -35.267115 157.087315 -17.401620 -51.385928 -134.420066 -32.573408 -59.392032 163.902897 -12.690311 -35.267115
1329.124603 416.860342 99.190373 0.000000 0.000000 0.000000 4.381533 0.962831 0.945996 109.562394 7.186585 8.511339 -133.234542 -2.186574 8.238337 46.206710 6.021411 7.944743 -130.537495 33.241106 40.717217 42.060515 27.815425 36.099066 -127.313023 29.364332 30.041759 18.285382 0.203934 40.717217 -175.690356 0.187665 36.099066 64.127855 55.018471 30.041759 162.474991 -14.042791 -46.230795 -147.548809 -30.030652 -57.474857 -44.733678 -22.335748 8.126427 -166.317084 -21.104227 -46.230795
1384.978867 468.790376 115.548683 0.000000 0.000000 0.000000 4.303710 0.909106 0.774198 177.272616 20.057372 8.342249 -93.282374 -69.500041 8.056226 86.157850 31.778557 7.750066 5.103624 17.901783 37.994757 -154.245793 25.113753 32.447035 28.298006 32.185374 25.605753 5.042742 -3.997131 37.994757 170.139045 5.964697 32.447035 167.572113 -31.111021 25.605753 172.074997 -23.598883 -54.289623 181.633711 -20.080636 -59.952430 -163.159930 -75.876717 -56.150067 -176.878159 -21.237553 -54.289623
1336.846733 493.527671 130.096752 0.000000 0.000000 0.000000 4.221640 0.855058 0.600902 -145.672549 -0.591384 8.164926 102.767681 -6.540162 7.866164 -77.792041 13.560472 7.547741 40.959017 22.987719 34.673096 -149.139859 24.324094 28.283296 34.418526 32.099451 20.765929 -165.929056 -1.747045 34.673096 19.471905 15.615760 28.283296 -93.177380 -28.353570 20.765929 181.167953 -26.257400 -58.937235 158.673581 -27.115598 -58.662972 -63.015919 -43.654650 -49.127115 180.650158 -26.867041 -58.937235
1352.596436 477.564354 120.760673 0.000000 0.000000 0.000000 4.135403 0.800706 0.426445 142.341012 5.375585 7.979545 -99.462180 2.826411 7.668339 79.979236 -1.901917 7.337967 -116.756999 25.653309 30.804620 -150.002561 22.538371 23.673511 34.623918 32.173326 15.598615 -165.632540 1.261142 30.804620 14.351655 18.387942 23.673511 36.624385 -41.030004 15.598615 189.254717 -27.662791 -59.881604 186.170115 -36.266651 -53.687503 -37.105622 2.486897 -39.017325 186.921382 -29.538315 -59.881604
1345.818558 392.423122 133.807986 0.000000 0.000000 0.000000 4.045085 0.746070 0.251162 160.480638 -1.652388 7.786289 71.166251 10.389450 7.462947 -109.390116 -3.352275 7.120951 -157.713556 26.461151 26.450336 -112.147550 74.896754 18.690382 -135.832180 26.463515 10.185301 -177.477126 12.431798 26.450336 66.638762 5.964836 18.690382 -124.365987 14.190377 10.185301 180.232933 -32.932082 -57.063391 193.107460 -38.788190 -45.338650 -87.435316 -30.300449 -26.455934 185.926634 -33.531887 -57.063391
1330.326691 347.207226 135.670965 0.000000 0.000000 0.000000 3.950775 0.691168 0.075394 173.569848 -4.636843 7.585349 51.497340 7.230047 7.250189 -129.055733 2.648665 6.896907 28.850290 25.880423 21.678915 -127.895889 28.356267 13.412494 42.584237 24.824499 4.611358 -142.547993 14.804018 21.678915 82.678251 15.568717 13.412494 -144.840361 24.451031 4.611358 178.039943 -33.967827 -50.659676 -160.874962 -37.829312 -34.141004 -155.744183 -68.153262 -12.232219 187.229373 -33.971348 -50.659676
1359.462433 496.472383 132.534501 0.000000 0.000000 0.000000 3.852566 0.636021 -0.100520 -154.327269 1.332677 7.376924 82.953763 4.920401 7.030277 -97.594948 -4.813548 6.666058 47.165712 33.275551 16.565605 -79.336440 22.419645 7.923082 59.445806 17.769092 -1.035308 -51.182532 18.153754 16.565605 135.316204 17.455445 7.923082 -113.124429 20.068876 -1.035308 184.805653 -37.235213 -41.072826 181.694762 -35.133321 -20.798153 -98.953587 -48.039180 2.760091 189.652405 -35.664493 -41.072826
1303.157158 602.888768 154.197133 0.000000 0.000000 0.000000 3.750555 0.580648 -0.276240 -136.305327 -6.282800 7.161218 88.688535 2.313332 6.803426 -91.854751 -1.162064 6.428629 66.302841 25.540651 11.191045 -72.905352 24.447616 2.308720 59.575693 16.242581 -6.665647 -20.081910 13.922622 11.191045 148.177884 21.460531 2.308720 -109.375325 23.982411 -6.665647 184.605315 -37.786311 -28.905220 176.864754 -44.846630 -6.148477 -136.592742 -48.548104 17.578975 -168.361904 -39.107243 -28.905220
1277.812729 671.228578 149.563579 0.000000 0.000000 0.000000 3.644843 0.525069 -0.451426 -130.289550 -1.191088 6.938445 97.705304 7.566710 6.569861 -82.831507 -9.267044 6.184857 111.884885 26.328074 5.639996 -32.440790 19.715452 -3.342053 116.498859 16.127991 -12.190865 -22.658561 20.695996 5.639996 152.107898 21.699901 -3.342053 -94.628527 25.398097 -12.190865 -170.214014 -39.954365 -14.921393 168.909065 -36.915589 8.887530 -138.931806 -49.233492 31.293307 -174.227871 -39.582994 -14.921393
1313.353729 643.668108 122.512568 0.000000 0.000000 0.000000 3.535534 0.469303 -0.625738 174.095173 20.862919 6.708825 -156.657724 0.267864 6.329813 22.812979 -14.092223 5.934980 193.459940 19.635035 0.000000 11.323345 17.652101 -8.940120 180.751588 14.171509 -17.523825 -32.100022 18.722223 0.000000 157.541589 23.481034 -8.940120 26.501753 28.264447 -17.523825 -177.122151 -36.369914 -0.000000 150.476706 -41.864078 23.365101 -83.151703 -34.678001 43.041365 173.271462 -39.173703 -0.000000
1328.535919 624.780936 140.173037 0.000000 0.000000 0.000000 3.422736 0.413371 -0.798840 174.622626 3.854971 6.472584 -168.123127 4.661951 6.083518 11.356114 7.887639 5.679247 189.303256 17.191637 -5.639996 -127.535074 8.793782 -14.397195 56.027906 20.436410 -22.580425 -172.238212 17.010278 -5.639996 20.418621 33.617874 -14.397195 -10.282096 65.080921 -22.580425 169.572223 -36.798177 14.921393 152.607165 -42.175236 36.374556 -69.339459 -43.150368 52.084977 -185.022608 -39.621885 14.921393
1328.445511 687.490232 152.352688 0.000000 0.000000 0.000000 3.306559 0.357291 -0.970397 172.123221 -2.556900 6.229955 -107.258220 -3.325317 5.831219 72.230565 12.874935 5.417908 -91.545349 12.165894 -11.191045 -139.705438 7.031343 -19.627219 35.072522 15.348799 -27.280917 -9.412245 24.037900 -11.191045 -186.985327 26.833808 -19.627219 72.275128 36.899677 -27.280917 -185.253656 -38.448785 28.905220 140.028726 -36.486777 47.098465 -59.252997 -54.259085 57.855897 -186.493371 -39.636853 28.905220
966.374240 440.501809 144.762209 0.000000 0.000000 0.000000 3.187120 0.301085 -1.140077 90.873206 18.883005 5.981178 21.662434 8.195619 5.573166 176.171432 3.912490 5.151223 59.818850 21.826318 -16.565605 192.965393 9.743146 -24.547709 26.988477 5.464940 -31.551173 100.353430 21.738623 -16.565605 6.224809 20.497425 -24.547709 172.113933 80.060961 -31.551173 66.955469 -36.184461 41.072826 165.192014 -34.162568 54.863004 38.568961 -35.179563 59.991519 80.410793 -38.421306 41.072826
644.985180 745.864069 157.511252 0.000000 0.000000 0.000000 3.064535 0.244772 -1.307552 -7.014599 -35.339186 5.726498 92.441881 42.461437 5.309612 -88.047300 3.815379 4.879455 -145.082999 19.592421 -21.678915 -15.961742 1.530178 -29.081067 -171.698829 7.843532 -35.323849 -162.996005 33.209276 -21.678915 -3.276924 27.834914 -29.081067 -114.538157 72.887907 -35.323849 -25.405929 -35.951057 50.659676 -155.371455 -38.150587 59.180298 26.043911 -18.202332 58.357653 -23.976953 -37.774456 50.659676
1261.580200 714.897366 164.880590 0.000000 0.000000 0.000000 2.938926 0.188372 -1.472498 -130.785175 -9.776365 5.466167 83.237142 10.452960 5.040818 -97.239591 -4.328837 4.602871 34.884824 17.950701 -26.450336 -146.818203 -1.371758 -33.155800 25.111802 5.565389 -38.539446 2.407659 29.665979 -26.450336 162.327747 29.824863 -33.155800 -96.463723 37.184677 -38.539446 159.550437 -35.429443 57.063391 -188.169861 -24.452144 59.779077 -97.438044 -18.348107 53.056961 163.766400 -33.152224 57.063391
1367.852325 659.536314 146.755095 0.000000 0.000000 0.000000 2.810417 0.131904 -1.634596 161.874388 -3.240178 5.200441 -154.534515 33.323311 4.767050 25.002122 -40.134441 4.321744 -142.707212 0.956908 -30.804620 30.335436 6.829643 -36.707645 -155.641779 -7.134094 -41.147253 -3.333475 32.326490 -30.804620 -181.791300 28.441005 -36.707645 -57.186730 87.688073 -41.147253 163.624587 -29.573971 59.881604 -177.878603 -20.286464 56.621716 -98.759459 -27.049320 44.422505 166.836174 -28.761760 59.881604
1381.838951 663.410475 148.730149 0.000000 0.000000 0.000000 2.679134 0.075390 -1.793533 -171.629891 -0.155592 4.929583 74.665526 3.389748 4.488578 -105.783571 -6.292222 4.036352 35.614252 7.020135 -34.673096 -157.645089 -3.109531 -39.680589 7.469402 -3.223955 -43.106143 -166.376157 30.089144 -34.673096 92.492684 30.309892 -39.680589 -71.941086 27.573049 -43.106143 162.858122 -25.932722 58.937235 -169.193970 -19.516979 49.906605 -71.097213 -13.445974 32.996819 169.573410 -25.284205 58.937235
905.601082 693.654528 150.696020 0.000000 0.000000 0.000000 2.545207 0.018849 -1.949001 117.053481 -5.340226 4.653861 -89.245594 -3.190568 4.205675 90.320444 6.990485 3.746977 -138.242992 -6.255216 -37.994757 33.239136 3.753240 -42.027747 -152.295944 -15.263426 -44.385224 -37.657258 28.854279 -37.994757 -174.977817 31.324892 -42.027747 109.767035 22.661476 -44.385224 -174.456940 -20.677836 54.289623 -136.573997 -10.718341 40.055678 142.460452 -12.778210 19.497823 -172.078693 -20.715387 54.289623
1305.530548 682.910864 133.212514 0.000000 0.000000 0.000000 2.408768 -0.037698 -2.100699 152.905250 10.003593 4.373545 67.868993 -14.804776 3.918622 -112.548995 15.752124 3.453905 -151.235246 -8.164596 -40.717217 20.563249 -0.709690 -43.712102 -164.450885 -16.274865 -44.964323 -31.167495 23.854610 -40.717217 178.221155 27.410905 -43.712102 -96.501394 64.726822 -44.964323 177.665151 -14.718823 46.230795 191.032399 -9.814950 27.687906 -70.738385 -12.604422 4.773706 180.343403 -16.750246 46.230795
1306.260338 711.527116 141.932239 0.000000 0.000000 0.000000 2.269952 -0.094232 -2.248334 156.978927 1.479480 4.088914 -91.134651 4.130406 3.627702 88.464144 -0.925424 3.157423 -37.642089 -2.516266 -42.797543 68.456290 -22.641901 -44.707091 -31.056780 -10.330779 -44.834308 -7.952224 30.380100 -42.797543 187.957916 28.143626 -44.707091 -64.304156 11.065899 -44.834308 -169.272238 -11.832650 35.267115 -165.065216 -5.308091 13.580401 -71.951829 6.525603 -10.250360 187.355540 -12.411206 35.267115
1315.732956 671.025095 121.959906 0.000000 0.000000 0.000000 2.128896 -0.150733 -2.391620 -142.948005 8.653627 3.800247 92.166071 -2.342475 3.333202 -88.217576 0.906229 2.857826 40.190860 -11.232483 -44.202926 -97.098120 -5.716237 -44.997022 18.627462 -21.655907 -43.997229 18.708526 28.457846 -44.202926 192.745177 27.553087 -44.997022 -72.807496 15.650462 -43.997229 -166.150960 -5.713844 22.087473 192.621268 -0.173790 -1.380411 -57.113789 3.800390 -24.630359 190.794276 -7.062103 22.087473
1317.367287 678.027205 120.995058 0.000000 0.000000 0.000000 1.985739 -0.207180 -2.530281 -144.243459 -0.087720 3.507829 89.277281 14.161754 3.035412 -91.088066 -18.833920 2.555408 86.044355 -6.524477 -44.911203 -161.231708 -19.822461 -44.577324 13.760689 -13.487831 -42.466287 -141.681423 22.970518 -44.911203 56.041422 33.856650 -44.577324 -64.295311 22.982444 -42.466287 -162.796530 -0.791182 7.519994 175.948580 7.074022 -16.254487 -78.015970 7.372349 -37.462741 191.915493 -2.515211 7.519994
1312.776718 630.059459 121.044255 0.000000 0.000000 0.000000 1.840623 -0.263554 -2.664047 168.191460 0.697733 3.211950 -122.746664 0.968230 2.734627 56.906996 20.744300 2.250468 155.684305 -13.689428 -44.911203 -163.523303 -22.484638 -43.454614 24.030890 -13.299118 -40.265627 -136.283595 21.929006 -44.911203 53.582274 32.018390 -43.454614 108.248130 32.705277 -40.265627 -160.566705 1.935103 -7.519994 169.916419 13.690602 -30.107233 50.736514 7.525543 -47.941202 193.060509 3.588030 -7.519994
1334.396782 646.165652 123.602396 0.000000 0.000000 0.000000 1.693690 -0.319833 -2.792662 144.916632 -1.620937 2.912901 -123.233363 -0.183728 2.431143 56.439975 3.553980 1.943308 -172.120667 -14.539312 -44.202926 -169.361056 -25.183058 -41.646599 17.230868 -14.917559 -37.429954 -133.177190 20.933281 -44.202926 56.377727 30.385797 -41.646599 105.061704 13.874504 -37.429954 -163.004202 8.414891 -22.087473 181.867404 17.039985 -42.068231 59.373708 18.460891 -55.407340 -162.699118 7.601674 -22.087473
1337.431641 662.410698 137.310056 0.000000 0.000000 0.000000 1.545085 -0.376000 -2.915875 138.645851 -14.301508 2.610978 -115.650691 1.525884 2.125260 64.042955 -4.491700 1.634230 -110.165509 -16.305668 -42.797543 -182.047820 -26.330674 -39.181793 -8.890297 -17.795232 -34.003988 26.977384 24.751589 -42.797543 -153.606858 22.227445 -39.181793 97.636128 26.545388 -34.003988 186.862485 9.427901 -35.267115 157.774335 22.349807 -51.385928 -135.167814 18.939659 -59.392032 -170.818324 11.374108 -35.267115
962.789911 439.279946 114.140908 0.000000 0.000000 0.000000 1.394956 -0.432032 -3.033448 85.158644 32.081637 2.306478 13.354378 -16.225511 1.817279 172.979339 8.479879 1.323538 45.190811 -27.111529 -40.717217 160.303162 -0.152774 -36.099066 -2.865632 -33.549201 -30.041759 160.361380 14.064826 -40.717217 28.300706 25.499899 -36.099066 197.791921 26.580302 -30.041759 87.469298 14.091841 -46.230795 174.875241 37.207020 -57.474857 32.453386 35.609384 -59.644904 102.180013 19.950582 -46.230795
962.486899 439.186814 118.418621 0.000000 0.000000 0.000000 1.243449 -0.487911 -3.145154 84.781184 -35.318143 1.999701 13.547375 2.199551 1.507505 172.817493 -4.886895 1.011541 44.057175 -18.119029 -37.994757 161.302090 -48.989342 -32.447035 -0.964631 -18.064521 -25.605753 160.462612 26.822052 -37.994757 27.244954 15.627222 -32.447035 195.765056 43.439703 -25.605753 82.359016 21.952964 -54.289623 170.045519 11.799699 -59.952430 29.537780 38.561742 -56.150067 97.199223 21.129954 -54.289623
1337.358742 570.303276 92.059577 0.000000 0.000000 0.000000 1.090716 -0.543617 -3.250777 -171.555423 4.487395 1.690951 66.617492 1.382123 1.196243 -113.624543 -4.770268 0.698545 -175.290039 -28.476012 -34.673096 -18.855530 -17.457482 -12.777449 -13.843953 -18.719807 -9.884780 -136.546712 13.615850 -34.673096 56.781769 20.810718 -28.283296 -75.516964 4.629560 -20.765929 155.570882 25.524522 -58.937235 -181.832838 34.195154 -58.662972 -95.889444 36.977927 -49.127115 169.231663 25.731757 -58.937235
1337.950974 598.074245 97.831051 0.000000 0.000000 0.000000 0.936907 -0.599130 -3.350112 -180.085621 0.501597 1.380532 55.452999 1.606224 0.883801 -124.766604 -1.703811 0.384861 1.270195 -27.939503 -30.804620 -176.295391 -25.749083 -23.673511 -0.216003 -29.818868 -15.598615 -147.707367 15.348371 -30.804620 96.475592 9.131738 -23.673511 -91.705351 11.636787 -15.598615 156.137704 32.174530 -59.881604 -192.838726 29.892690 -53.687503 -112.560047 24.307847 -39.017325 163.830494 29.782663 -59.881604
1326.982155 606.886139 97.787649 0.000000 0.000000 0.000000 0.782172 -0.654430 -3.442968 -175.086651 0.114855 1.068751 62.733151 -6.715886 0.570486 -117.463595 3.979877 0.070796 10.331550 -24.513135 -26.450336 -146.909877 -31.481542 -18.690382 24.437399 -28.389043 -10.185301 -94.470160 13.446574 -26.450336 138.477531 9.705368 -18.690382 -103.414078 -20.337056 -10.185301 163.702983 31.927635 -57.063391 -179.854844 33.481411 -45.338650 114.717413 47.672098 -26.455934 -192.788099 33.380672 -57.063391
1372.834854 597.828534 100.736133 0.000000 0.000000 0.000000 0.626666 -0.709497 -3.529165 -144.228996 -7.215692 0.755915 85.893253 -1.457276 0.256609 -94.280256 0.516277 -0.243339 40.474903 -25.885812 -21.678915 -90.965232 -30.484468 -13.412494 53.507697 -23.554650 -4.611358 17.359203 9.981846 -21.678915 180.773832 7.521236 -13.412494 -81.249925 9.438410 -4.611358 161.835598 35.403356 -50.659676 -187.225033 34.921769 -34.141004 -87.590014 43.253074 -12.232219 -192.004851 33.907893 -50.659676
1328.574371 576.493385 80.725607 0.000000 0.000000 0.000000 0.470542 -0.764312 -3.608536 -134.298253 1.390855 0.442333 94.315669 4.705186 -0.057522 -85.834267 -3.109573 -0.557233 51.186302 -31.653372 -16.565605 -79.626794 -30.386675 -7.923082 56.450516 -30.432478 1.035308 24.150444 8.058269 -16.565605 185.189299 4.514163 -7.923082 -74.709449 -5.021802 1.035308 -190.432007 38.178650 -41.072826 -180.587256 36.992788 -20.798153 -65.894773 54.434619 2.760091 -187.476868 37.490171 -41.072826
1274.166183 540.660596 86.072176 0.000000 0.000000 0.000000 0.313953 -0.818856 -3.680927 -173.794855 -2.533485 0.128315 -134.625325 -21.819843 -0.371596 45.248602 -0.323585 -0.870578 119.914171 -28.725661 -11.191045 -29.128458 -31.848121 -2.308720 124.134572 -26.340730 6.665647 4.214007 4.232462 -11.191045 -175.452617 0.934695 -2.308720 76.667541 18.593252 6.665647 -180.311913 38.243526 -28.905220 168.347049 37.797437 -6.148477 -36.909909 36.923869 17.578975 -187.993352 38.312390 -28.905220
1285.008774 434.700390 75.156622 0.000000 0.000000 0.000000 0.157054 -0.873109 -3.746200 134.273259 5.095215 -0.185830 -139.815530 -4.989558 -0.685303 40.082504 1.513567 -1.183063 -174.995401 -32.704221 -5.639996 12.961946 -30.447781 3.342053 186.805730 -29.422183 12.190865 13.868759 1.094014 -5.639996 -173.763660 -1.866646 3.342053 41.195874 21.355849 12.190865 173.636037 37.824616 -14.921393 173.263283 45.768290 8.887530 -49.802274 34.548517 31.293307 173.306376 40.062847 -14.921393
