HIERARCHY
ROOT rootx
{
    OFFSET 0.0 0.0 0.0
    CHANNELS 6 Xposition Yposition Zposition Zrotation Xrotation Yrotation
    JOINT spine_01x
    {
        OFFSET 0.0 8.0 0.0
        CHANNELS 3 Zrotation Xrotation Yrotation
        JOINT spine_02x
        {
            OFFSET 0.0 8.0 0.0
            CHANNELS 3 Zrotation Xrotation Yrotation
            JOINT spine_03x
            {
                OFFSET 0.0 8.0 0.0
                CHANNELS 3 Zrotation Xrotation Yrotation
                JOINT neckx
                {
                    OFFSET 0.0 6.0 0.0
                    CHANNELS 3 Zrotation Xrotation Yrotation
                    JOINT headx
                    {
                        OFFSET 0.0 4.0 0.0
                        CHANNELS 3 Zrotation Xrotation Yrotation
                        End Site
                        {
                            OFFSET 0.0 2.0 0.0
                        }
                    }
                }
                JOINT shoulderr
                {
                    OFFSET 6.0 0.0 0.0
                    CHANNELS 3 Zrotation Xrotation Yrotation
                    JOINT arm_stretchr
                    {
                        OFFSET 0.0 -12.0 0.0
                        CHANNELS 3 Zrotation Xrotation Yrotation
                        JOINT forearm_stretchr
                        {
                            OFFSET 0.0 -12.0 0.0
                            CHANNELS 3 Zrotation Xrotation Yrotation
                            End Site
                            {
                                OFFSET 0.0 -4.0 0.0
                            }
                        }
                    }
                }
                JOINT shoulderl
                {
                    OFFSET -6.0 0.0 0.0
                    CHANNELS 3 Zrotation Xrotation Yrotation
                    JOINT arm_stretchl
                    {
                        OFFSET 0.0 -12.0 0.0
                        CHANNELS 3 Zrotation Xrotation Yrotation
                        JOINT forearm_stretchl
                        {
                            OFFSET 0.0 -12.0 0.0
                            CHANNELS 3 Zrotation Xrotation Yrotation
                            End Site
                            {
                                OFFSET 0.0 -4.0 0.0
                            }
                        }
                    }
                }
            }
        }
    }
    JOINT thigh_stretchl
    {
        OFFSET -3.0 0.0 0.0
        CHANNELS 3 Zrotation Xrotation Yrotation
        JOINT leg_stretchl
        {
            OFFSET 0.0 -15.0 0.0
            CHANNELS 3 Zrotation Xrotation Yrotation
            End Site
            {
                OFFSET 0.0 -5.0 0.0
            }
        }
    }
    JOINT thigh_stretchr
    {
        OFFSET 3.0 0.0 0.0
        CHANNELS 3 Zrotation Xrotation Yrotation
        JOINT leg_stretchr
        {
            OFFSET 0.0 -15.0 0.0
            CHANNELS 3 Zrotation Xrotation Yrotation
            End Site
            {
                OFFSET 0.0 -5.0 0.0
            }
        }
    }
}

MOTION
Frames: 120
Frame Time: 0.033333

0.000000 0.000000 1.500000 0.000000 0.000000 0.000000 0.000000 3.200000 0.000000 0.993347 1.932780 0.209315 1.168255 1.041383 0.248720 0.399334 1.586499 0.083931 0.591040 0.739927 0.125076 0.000000 10.000000 0.000000 3.494170 13.881867 0.734400 8.940120 17.395020 1.883832 0.000000 -5.877853 6.067627 -3.494170 -6.691289 8.042206 -8.940120 -6.480850 9.707582 0.000000 8.000000 0.000000 2.995002 11.898743 0.629486 0.000000 -4.702282 4.854102 -2.995002 -5.735391 6.893319
0.031415 0.000000 1.499918 0.104712 0.000000 0.047122 0.502324 3.189331 0.105523 1.248449 1.893333 0.263602 1.282940 1.007387 0.273971 0.627777 1.566538 0.132112 0.680389 0.719918 0.144362 1.308399 9.976843 0.274828 5.311988 13.726281 1.117723 11.236040 17.040000 2.372417 -1.308399 -5.313986 5.902013 -5.311988 -5.839381 7.789431 -11.236040 -5.323674 9.357289 0.837513 7.988142 0.175904 4.242369 11.796438 0.892425 -0.837513 -4.343051 4.748622 -4.242369 -5.153190 6.720715
0.062822 0.000000 1.499671 0.209378 0.000000 0.094232 1.002666 3.157395 0.210843 1.500129 1.845118 0.317535 1.395375 0.970404 0.298987 0.854139 1.537800 0.180078 0.768228 0.697208 0.163490 2.613212 9.907478 0.549286 7.115247 13.507122 1.499545 13.501163 16.606061 2.857815 -2.613212 -4.725508 5.728470 -7.115247 -4.960428 7.526194 -13.501163 -4.141842 8.994427 1.673557 7.952603 0.351657 5.482293 11.659162 1.154597 -1.673557 -3.970944 4.639059 -5.482293 -4.555712 6.542333
0.094213 0.000000 1.499260 0.313953 0.000000 0.141319 1.499051 3.104405 0.315754 1.747698 1.788357 0.371042 1.505362 0.930545 0.323745 1.077668 1.500443 0.227752 0.854360 0.671883 0.182441 3.910862 9.792228 0.823007 8.899004 13.225406 1.879353 15.729281 16.095212 3.339375 -3.910862 -4.115144 5.547233 -8.899004 -4.058502 7.252847 -15.729281 -2.940827 8.619484 2.506665 7.893488 0.527107 6.712599 11.487322 1.415776 -2.506665 -3.587066 4.525508 -6.712599 -3.944728 6.358327
0.125581 0.000000 1.498684 0.418389 0.000000 0.188372 1.989519 3.030715 0.420055 1.990476 1.723313 0.424050 1.612707 0.887926 0.348226 1.297623 1.454680 0.275055 0.938596 0.644036 0.201193 5.197792 9.631626 1.095623 10.658369 12.882438 2.256637 17.914285 15.509819 3.816449 -5.197792 -3.485720 5.358545 -10.658369 -3.137778 6.969758 -17.914285 -1.726192 8.232963 3.335375 7.810972 0.702104 7.931129 11.281428 1.675739 -3.335375 -3.192553 4.408067 -7.931129 -3.322050 6.168854
0.156918 0.000000 1.497944 0.522642 0.000000 0.235377 2.472136 2.936815 0.523544 2.227799 1.650288 0.476488 1.717224 0.842676 0.372406 1.513275 1.400764 0.321911 1.020748 0.613774 0.219726 6.470476 9.426415 1.366766 12.388520 12.479805 2.630889 20.050188 14.852593 4.288396 -6.470476 -2.840153 5.162659 -12.388520 -2.202522 6.677307 -20.050188 -0.503562 7.835383 4.158234 7.705301 0.876498 9.135744 11.042089 1.934260 -4.158234 -2.788576 4.286836 -9.135744 -2.689524 5.974078
0.188217 0.000000 1.497040 0.626666 0.000000 0.282325 2.944996 2.823332 0.626020 2.459015 1.569620 0.528287 1.818728 0.794927 0.396267 1.723908 1.338999 0.368244 1.100633 0.581208 0.238021 7.725425 9.177546 1.636074 14.084715 12.019372 3.001608 22.131135 14.126578 4.754584 -7.725425 -2.181432 4.959839 -14.084715 -1.257065 6.375888 -22.131135 0.721400 7.427278 4.973798 7.576786 1.050138 10.324333 10.770016 2.191119 -4.973798 -2.376333 4.161920 -10.324333 -2.049025 5.774167
0.219469 0.000000 1.495972 0.730415 0.000000 0.329203 3.406234 2.691023 0.727285 2.683491 1.481682 0.579376 1.917041 0.744822 0.419787 1.928824 1.269732 0.413979 1.178075 0.546462 0.256056 8.959199 8.886172 1.903185 15.742304 11.503273 3.368294 24.151421 13.335136 5.214385 -8.959199 -1.512608 4.750357 -15.742304 -0.305787 6.065904 -24.151421 1.943021 7.009197 5.780636 7.425811 1.222876 11.494810 10.466015 2.446094 -5.780636 -1.957044 4.033426 -11.494810 -1.402451 5.569291
0.250666 0.000000 1.494739 0.833844 0.000000 0.376000 3.854029 2.540769 0.827143 2.900612 1.386882 0.629687 2.011991 0.692509 0.442946 2.127343 1.193349 0.459040 1.252901 0.509666 0.273813 10.168416 8.553643 2.167738 17.356746 10.933897 3.730457 26.105510 12.481934 5.667182 -10.168416 -0.836778 4.534493 -17.356746 0.646908 5.747772 -26.105510 3.155643 6.581702 6.577333 7.252821 1.394562 12.645120 10.130987 2.698966 -6.577333 -1.531954 3.901464 -12.645120 -0.751720 5.359628
0.281802 0.000000 1.493343 0.936907 0.000000 0.422704 4.286614 2.373574 0.925402 3.109783 1.285658 0.679152 2.103412 0.638143 0.465725 2.318808 1.110279 0.503356 1.324946 0.470958 0.291271 11.349762 8.181497 2.429381 18.923613 10.313881 4.087609 27.988046 11.570922 6.112367 -11.349762 -0.157073 4.312539 -18.923613 1.596607 5.421920 -27.988046 4.353650 6.145365 7.362491 7.058330 1.565049 13.773247 9.765925 2.949518 -7.362491 -1.102322 3.766148 -13.773247 -0.098760 5.145356
0.312869 0.000000 1.491783 1.039558 0.000000 0.469303 4.702282 2.190551 1.021870 3.310430 1.178480 0.727705 2.191142 0.581885 0.488103 2.502582 1.020987 0.546853 1.394048 0.430483 0.308413 12.500000 7.771460 2.687760 20.438613 9.646097 4.439270 29.793869 10.606321 6.549341 -12.500000 0.523360 4.084793 -20.438613 2.538912 5.088785 -29.793869 5.531493 5.700774 8.134733 6.842914 1.734191 14.877211 9.371911 3.197534 -8.134733 -0.669423 3.627595 -14.877211 0.554493 4.926662
0.343858 0.000000 1.490059 1.141754 0.000000 0.515787 5.099392 1.992921 1.116363 3.502003 1.065844 0.775280 2.275028 0.523902 0.510061 2.678057 0.925974 0.589462 1.460056 0.388393 0.325220 13.615976 7.325429 2.942528 21.897591 8.933637 4.784968 31.518029 9.592596 6.977519 -13.615976 1.201368 3.851559 -21.897591 3.469457 4.748815 -31.518029 6.683718 5.248526 8.892704 6.607212 1.901842 15.955075 8.950115 3.442802 -8.892704 -0.234539 3.485923 -15.955075 1.206102 4.703732
0.374763 0.000000 1.488172 1.243449 0.000000 0.562144 5.476377 1.782002 1.208696 3.683978 0.948272 0.821814 2.354923 0.464366 0.531581 2.844650 0.825773 0.631113 1.522822 0.344845 0.341672 14.694631 6.845471 3.193345 23.296550 8.179802 5.124239 33.155800 8.534445 7.396324 -14.694631 1.873813 3.613153 -23.296550 4.383934 4.402466 -33.155800 7.804987 4.789228 9.635073 6.351923 2.067858 17.004948 8.501785 3.685110 -9.635073 0.201041 3.341254 -17.004948 1.854135 4.476758
0.405575 0.000000 1.486122 1.344599 0.000000 0.608362 5.831749 1.559200 1.298691 3.855855 0.826307 0.867244 2.430687 0.403453 0.552644 3.001809 0.720944 0.671738 1.582207 0.300004 0.357753 15.733010 6.333809 3.439872 24.631654 7.388083 5.456627 34.702693 7.436766 7.805194 -15.733010 2.537579 3.369892 -24.631654 5.278107 4.050204 -34.702693 8.890108 4.323497 10.360540 6.077804 2.232096 18.024989 8.028252 3.924249 -10.360540 0.636024 3.193712 -18.024989 2.496672 4.245936
0.436286 0.000000 1.483908 1.445159 0.000000 0.654430 6.164106 1.326002 1.386174 4.017163 0.700516 0.911509 2.502187 0.341344 0.573231 3.149014 0.612075 0.711271 1.638078 0.254038 0.373444 16.728265 5.792812 3.681778 25.899245 6.562146 5.781685 36.154468 6.304644 8.203581 -16.728265 3.189593 3.122106 -25.899245 6.147835 3.692501 -36.154468 9.934054 3.851959 11.067831 5.785666 2.394415 19.013408 7.530918 4.160015 -11.067831 1.069122 3.043425 -19.013408 3.131807 4.011463
0.466891 0.000000 1.481533 1.545085 0.000000 0.700336 6.472136 1.083961 1.470977 4.167461 0.571480 0.954550 2.569296 0.278224 0.593326 3.285775 0.499777 0.749649 1.690313 0.207118 0.388729 17.677670 5.224986 3.918739 27.095848 5.705817 6.098978 37.507147 5.143323 8.590948 -17.677670 3.826834 2.870126 -27.095848 6.989089 3.329838 -37.507147 10.931992 3.375246 11.755705 5.476377 2.554676 19.968471 7.011259 4.392205 -11.755705 1.499051 2.890522 -19.968471 3.757658 3.773542
0.497380 0.000000 1.478994 1.644333 0.000000 0.746070 6.754623 0.834693 1.552934 4.306336 0.439798 0.996308 2.631899 0.214278 0.612911 3.411639 0.384678 0.786808 1.738796 0.159421 0.403591 18.578621 4.632960 4.150437 28.218183 4.823062 6.408078 38.757021 3.958181 8.966775 -18.578621 4.446352 2.614290 -28.218183 7.797974 2.962703 -38.757021 11.879299 2.894000 12.422956 5.150853 2.712740 20.888503 6.470815 4.620618 -12.422956 1.924535 2.735134 -20.888503 4.372369 3.532377
0.527746 0.000000 1.476293 1.742860 0.000000 0.791619 7.010453 0.579858 1.631888 4.433407 0.306079 1.036729 2.689884 0.149697 0.631969 3.526189 0.267423 0.822688 1.783417 0.111126 0.418015 19.428649 4.019478 4.376559 29.263174 3.917969 6.708571 39.900665 2.754707 9.330559 -19.428649 5.045276 2.354943 -29.263174 8.570743 2.591589 -39.900665 12.771588 2.408867 13.068412 4.810059 2.868473 21.771889 5.911188 4.845060 -13.068412 2.344314 2.577394 -21.771889 4.974118 3.288175
0.557982 0.000000 1.473431 1.840623 0.000000 0.836973 7.238616 0.321157 1.707686 4.548327 0.170942 1.075757 2.743150 0.084673 0.650484 3.629045 0.148670 0.857231 1.824079 0.062414 0.431983 20.225425 3.387379 4.596803 30.227956 2.994731 7.000053 40.934944 1.538474 9.681809 -20.225425 5.620834 2.092433 -30.227956 9.303817 2.216993 -40.934944 13.604725 1.920498 13.690942 4.455005 3.021739 22.617080 5.334037 5.065336 -13.690942 2.757143 2.417439 -22.617080 5.561121 3.041146
0.588081 0.000000 1.470407 1.937578 0.000000 0.882121 7.438212 0.060315 1.780180 4.650780 0.035013 1.113339 2.791604 0.019397 0.668439 3.719866 0.029084 0.890381 1.860691 0.013468 0.445481 20.966764 2.739592 4.810872 31.109886 2.057622 7.282133 41.857023 0.315116 10.020055 -20.966764 6.170359 1.827113 -31.109886 9.993801 1.839419 -41.857023 14.374854 1.429549 14.289454 4.086744 3.172408 23.422592 4.741073 5.281257 -14.289454 3.161799 2.255405 -23.422592 6.131638 2.791503
0.618034 0.000000 1.467221 2.033683 0.000000 0.927051 7.608452 -0.200930 1.849232 4.740486 -0.101078 1.149427 2.835160 -0.045936 0.685820 3.798350 -0.090665 0.922084 1.893172 -0.035528 0.458495 21.650635 2.079117 5.018480 31.906546 1.110984 7.554430 42.664375 -0.909701 10.344842 -21.650635 6.691306 1.559338 -31.906546 10.637499 1.459375 -42.664375 15.078405 0.936680 14.862897 3.706368 3.320349 24.187014 4.134053 5.492639 -14.862897 3.557081 2.091432 -24.187014 6.683978 2.539460
0.647835 0.000000 1.463875 2.128896 0.000000 0.971752 7.748665 -0.460835 1.914707 4.817199 -0.236701 1.183970 2.873743 -0.111133 0.702611 3.864237 -0.209906 0.952288 1.921449 -0.084391 0.471009 22.275163 1.409012 5.219346 32.615752 0.159200 7.816581 43.354787 -2.130305 10.655733 -22.275163 7.181263 1.289468 -32.615752 11.231930 1.077370 -43.354787 15.712123 0.442553 15.410265 3.315005 3.465436 24.909003 3.514779 5.699298 -15.410265 3.941819 1.925662 -24.909003 7.216502 2.285234
0.677476 0.000000 1.460368 2.223176 0.000000 1.016214 7.858298 -0.717666 1.976478 4.880707 -0.371227 1.216924 2.907284 -0.176000 0.718799 3.917309 -0.327971 0.980944 1.945461 -0.132938 0.483012 22.838636 0.732382 5.413202 33.235561 -0.793321 8.068233 43.926366 -3.341043 10.952312 -22.838636 7.637960 1.017867 -33.235561 11.774341 0.693919 -43.926366 16.273070 -0.052168 15.930598 2.913814 3.607544 25.587293 2.885084 5.901058 -15.930598 4.314870 1.758236 -25.587293 7.727633 2.029043
0.706950 0.000000 1.456701 2.316480 0.000000 1.060425 7.936918 -0.969713 2.034427 4.930838 -0.504034 1.248242 2.935725 -0.240346 0.734368 3.957390 -0.444198 1.008007 1.965153 -0.180986 0.494488 23.339511 0.052360 5.599786 33.764273 -1.742168 8.309047 44.377546 -4.536307 11.234179 -23.339511 8.059283 0.744898 -33.764273 12.262221 0.309535 -44.377546 16.758650 -0.546820 16.422984 2.503984 3.746550 26.220695 2.246837 6.097744 -16.422984 4.675130 1.589298 -26.220695 8.215855 1.771108
0.736249 0.000000 1.452875 2.408768 0.000000 1.104374 7.984214 -1.215293 2.088441 4.967455 -0.634507 1.277884 2.959015 -0.303979 0.749306 3.984347 -0.557936 1.033431 1.980481 -0.228355 0.505427 23.776413 -0.627905 5.778849 34.200440 -2.682946 8.538700 44.707091 -5.710561 11.500956 -23.776413 8.443279 0.470929 -34.200440 12.693308 -0.075265 -44.707091 17.166612 -1.040736 16.886559 2.086732 3.882336 26.808097 1.601929 6.289188 -16.886559 5.021531 1.418994 -26.808097 8.679722 1.511650
0.765367 0.000000 1.448889 2.500000 0.000000 1.148050 8.000000 -1.452770 2.138416 4.990455 -0.762041 1.305809 2.977114 -0.366711 0.763599 3.998091 -0.668548 1.057175 1.991413 -0.274867 0.515816 24.148146 -1.305262 5.950150 34.542865 -3.611299 8.756884 44.914096 -6.858367 11.752285 -24.148146 8.788171 0.196327 -34.542865 13.065607 -0.459963 -44.914096 17.495069 -1.533255 17.320508 1.663294 4.014784 27.348468 0.952272 6.475226 -17.320508 5.353045 1.247470 -27.348468 9.117856 1.250893
0.794296 0.000000 1.444744 2.590135 0.000000 1.191444 7.984214 -1.680559 2.184254 4.999777 -0.886045 1.331981 2.989991 -0.428356 0.777237 3.998575 -0.775413 1.079201 1.997923 -0.320348 0.525643 24.453690 -1.976573 6.113458 34.790612 -4.522925 8.963305 44.997995 -7.974409 11.987828 -24.453690 9.092361 -0.078538 -34.790612 13.377393 -0.844044 -44.997995 17.742498 -2.023715 17.724072 1.234924 4.143780 27.840860 0.299792 6.655697 -17.724072 5.668690 1.074874 -27.840860 9.528961 0.989060
0.823029 0.000000 1.440441 2.679134 0.000000 1.234543 7.936918 -1.897142 2.225868 4.995395 -1.005946 1.356363 2.997622 -0.488731 0.790206 3.985798 -0.877933 1.099473 1.999998 -0.364627 0.534899 24.692209 -2.638730 6.268555 34.942999 -5.413604 9.157687 44.958558 -9.053518 12.207269 -24.692209 9.354440 -0.353298 -34.942999 13.627223 -1.226991 -44.958558 17.907754 -2.511456 18.096541 0.802894 4.269214 28.284411 -0.353577 6.830446 -18.096541 5.967529 0.901354 -28.284411 9.911816 0.726377
0.851559 0.000000 1.435979 2.766958 0.000000 1.277338 7.858298 -2.101074 2.263177 4.977321 -1.121188 1.378924 2.999994 -0.547657 0.802496 3.959803 -0.975534 1.117959 1.997631 -0.407538 0.543573 24.863047 -3.288666 6.415232 34.999610 -6.279211 9.339768 44.795892 -10.090696 12.410313 -24.863047 9.573195 -0.627584 -34.999610 13.813939 -1.608290 -44.795892 17.990072 -2.995824 18.437263 0.368483 4.390978 28.678340 -1.005898 6.999323 -18.437263 6.248678 0.727058 -28.678340 10.265288 0.463070
0.879878 0.000000 1.431360 2.853568 0.000000 1.319818 7.748665 -2.290997 2.296109 4.945605 -1.231238 1.399632 2.997103 -0.604959 0.814095 3.920676 -1.067668 1.134627 1.990830 -0.448920 0.551655 24.965738 -3.923371 6.553292 34.960290 -7.115735 9.509304 44.510444 -11.081140 12.596688 -24.965738 9.747612 -0.901026 -34.960290 13.936677 -1.987428 -44.510444 17.989069 -3.476167 18.745640 -0.067020 4.508967 29.021959 -1.655237 7.162183 -18.745640 6.511302 0.552138 -29.021959 10.588328 0.199364
0.907981 0.000000 1.426585 2.938926 0.000000 1.361971 7.608452 -2.465642 2.324600 4.900333 -1.335585 1.418460 2.988954 -0.660469 0.824995 3.868547 -1.153820 1.149451 1.979609 -0.488618 0.559137 25.000000 -4.539905 6.682549 34.825146 -7.919304 9.666067 44.102996 -12.020262 12.766142 -25.000000 9.876883 -1.173258 -34.825146 13.994867 -2.363897 -44.102996 17.904751 -3.951842 19.021130 -0.502324 4.623079 29.314663 -2.299668 7.318886 -19.021130 6.754623 0.376743 -29.314663 10.879978 -0.064513
0.935860 0.000000 1.421653 3.022996 0.000000 1.403789 7.438212 -2.623847 2.348594 4.841629 -1.433746 1.435383 2.975561 -0.714020 0.835186 3.803587 -1.233505 1.162408 1.963992 -0.526482 0.566010 24.965738 -5.135413 6.802830 34.594548 -8.686194 9.809847 43.574665 -12.903713 12.918449 -24.965738 9.960411 -1.443915 -34.594548 13.988241 -2.737191 -43.574665 17.737508 -4.422208 19.263251 -0.936139 4.733218 29.555939 -2.937283 7.469296 -19.263251 6.977920 0.201024 -29.555939 11.139374 -0.328334
0.963507 0.000000 1.416565 3.105739 0.000000 1.445261 7.238616 -2.764555 2.368046 4.769655 -1.525267 1.450378 2.956949 -0.765454 0.844659 3.726014 -1.306279 1.173475 1.944014 -0.562372 0.572268 24.863047 -5.707136 6.913974 34.269130 -9.412855 9.940449 42.926898 -13.727401 13.053403 -24.863047 9.997807 -1.712632 -34.269130 13.916830 -3.106808 -42.926898 17.488115 -4.886634 19.471578 -1.367179 4.839287 29.745363 -3.566189 7.613285 -19.471578 7.180531 0.025133 -29.745363 11.365748 -0.591873
0.990917 0.000000 1.411321 3.187120 0.000000 1.486376 7.010453 -2.886829 2.382918 4.684608 -1.609723 1.463425 2.933149 -0.814619 0.853406 3.636084 -1.371733 1.182634 1.919721 -0.596151 0.577903 24.692209 -6.252427 7.015830 33.849782 -10.095921 10.057700 42.161472 -14.487511 13.170824 -24.692209 9.988899 -1.979048 -33.849782 13.780963 -3.472253 -42.161472 17.157726 -5.344497 19.645745 -1.794166 4.941196 29.882605 -4.184524 7.750730 -19.645745 7.361855 -0.150781 -29.882605 11.558427 -0.854904
1.018083 0.000000 1.405923 3.267103 0.000000 1.527124 6.754623 -2.989853 2.393181 4.586720 -1.686725 1.474506 2.904203 -0.861370 0.861419 3.534096 -1.429500 1.189872 1.891165 -0.627694 0.582910 24.453690 -6.768760 7.108263 33.337654 -10.732228 10.161441 41.280484 -15.180523 13.270554 -24.453690 9.933728 -2.242806 -33.337654 13.581271 -3.833033 -41.280484 16.747873 -5.795181 19.785447 -2.215834 5.038857 29.967422 -4.790453 7.881511 -19.785447 7.521354 -0.326564 -29.967422 11.716840 -1.117199
1.044997 0.000000 1.400371 3.345653 0.000000 1.567496 6.472136 -3.072940 2.398816 4.476261 -1.755914 1.483607 2.870162 -0.905566 0.868691 3.420387 -1.479257 1.195176 1.858411 -0.656882 0.587282 24.148146 -7.253744 7.191148 32.734150 -11.318830 10.251532 40.286350 -15.803228 13.352459 -24.148146 9.832549 -2.503551 -32.734150 13.318678 -4.188664 -40.286350 16.260453 -6.238080 19.890438 -2.630933 5.132186 29.999666 -5.382181 8.005516 -19.890438 7.658556 -0.502067 -29.999666 11.840519 -1.378534
1.071654 0.000000 1.394665 3.422736 0.000000 1.607480 6.164106 -3.135536 2.399811 4.353533 -1.816971 1.490714 2.831086 -0.947078 0.875217 3.295335 -1.520725 1.198537 1.821530 -0.683606 0.591015 23.776413 -7.705132 7.264374 32.040924 -11.853009 10.327854 39.181793 -16.352741 13.416428 -23.776413 9.685832 -2.760934 -32.040924 12.994400 -4.538669 -39.181793 15.697723 -6.672601 19.960535 -3.038233 5.221103 29.979280 -5.957953 8.122639 -19.960535 7.773054 -0.677138 -29.979280 11.929096 -1.638684
1.098046 0.000000 1.388806 3.498317 0.000000 1.647068 5.831749 -3.177224 2.396164 4.218871 -1.869613 1.495820 2.787043 -0.985783 0.880990 3.159354 -1.553671 1.199951 1.780605 -0.707765 0.594105 23.339511 -8.120835 7.327842 31.259876 -12.332291 10.390304 37.969841 -16.826517 13.462377 -23.339511 9.494255 -3.014608 -31.259876 12.609940 -4.882578 -37.969841 15.062290 -7.098159 19.995614 -3.436525 5.305531 29.906301 -6.516062 8.232779 -19.995614 7.864508 -0.851627 -29.906301 11.982309 -1.897425
1.124167 0.000000 1.382795 3.572363 0.000000 1.686250 5.476377 -3.197726 2.387882 4.072646 -1.913596 1.498916 2.738111 -1.021565 0.886005 3.012896 -1.577911 1.199414 1.735726 -0.729268 0.596549 22.838636 -8.498927 7.381467 30.393147 -12.754457 10.438797 36.653817 -17.222362 13.490242 -22.838636 9.258706 -3.264233 -30.393147 12.167077 -5.219929 -36.653817 14.357098 -7.514182 19.995614 -3.824630 5.385398 29.780856 -7.054855 8.335841 -19.995614 7.932648 -1.025384 -29.780856 12.000000 -2.154535
1.150011 0.000000 1.376632 3.644843 0.000000 1.725016 5.099392 -3.196905 2.374983 3.915259 -1.948716 1.499999 2.684375 -1.054319 0.890260 2.856446 -1.593309 1.196928 1.686994 -0.748036 0.598344 22.275163 -8.837656 7.425177 29.443112 -13.117552 10.473268 35.237328 -17.538442 13.499987 -22.275163 8.980276 -3.509474 -29.443112 11.667863 -5.550268 -35.237328 13.585411 -7.920112 19.960535 -4.201397 5.460636 29.603165 -7.572733 8.431738 -19.960535 7.977271 -1.198260 -29.603165 11.982116 -2.409793
1.175571 0.000000 1.370318 3.715724 0.000000 1.763356 4.702282 -3.174767 2.357489 3.747139 -1.974811 1.499067 2.625930 -1.083947 0.893748 2.690522 -1.599779 1.192496 1.634516 -0.763997 0.599488 21.650635 -9.135455 7.458914 28.412376 -13.419893 10.493672 33.724255 -17.773295 13.491599 -21.650635 8.660254 -3.750000 -28.412376 11.114610 -5.873152 -33.724255 12.750804 -8.315404 19.890438 -4.565709 5.531179 29.373540 -8.068162 8.520385 -19.890438 7.998245 -1.370105 -29.373540 11.928711 -2.662979
1.200840 0.000000 1.363854 3.784975 0.000000 1.801261 4.286614 -3.131459 2.335436 3.568750 -1.991759 1.496121 2.562878 -1.110361 0.896469 2.515676 -1.597285 1.186127 1.578410 -0.777091 0.599979 20.966764 -9.390943 7.482632 27.303764 -13.660081 10.499980 32.118746 -17.925831 13.465089 -20.966764 8.300123 -3.985489 -27.303764 10.509880 -6.188147 -32.118746 11.857142 -8.699527 19.785447 -4.916485 5.596967 29.092384 -8.539672 8.601708 -19.785447 7.995509 -1.540773 -29.092384 11.839943 -2.913875
1.225814 0.000000 1.357241 3.852566 0.000000 1.838721 3.854029 -3.067270 2.308866 3.380578 -1.999483 1.491166 2.495330 -1.133484 0.898418 2.332488 -1.585840 1.177830 1.518799 -0.787271 0.599818 20.225425 -9.602937 7.496299 26.120313 -13.837004 10.492185 30.425203 -17.995345 13.420492 -20.225425 7.901550 -4.215625 -26.120313 9.856475 -6.494830 -30.425203 10.908565 -9.071964 19.645745 -5.252686 5.657943 28.760190 -8.985866 8.675635 -19.645745 7.969069 -1.710116 -28.760190 11.716075 -3.162267
1.250485 0.000000 1.350478 3.918467 0.000000 1.875728 3.406234 -2.982628 2.277831 3.183141 -1.997946 1.484208 2.423405 -1.153247 0.899596 2.141563 -1.565508 1.167618 1.455815 -0.794496 0.599004 19.428649 -9.770456 7.499897 24.865269 -13.949840 10.470297 28.648265 -17.981514 13.357869 -19.428649 7.466382 -4.440099 -24.865269 9.157420 -6.792789 -28.648265 9.909466 -9.432216 19.471578 -5.573315 5.714055 28.377540 -9.405421 8.742105 -19.471578 7.919005 -1.877988 -28.377540 11.557475 -3.407940
1.274848 0.000000 1.343568 3.982650 0.000000 1.912272 2.944996 -2.878097 2.242389 2.976978 -1.987156 1.475256 2.347227 -1.169591 0.900000 1.943537 -1.536404 1.155509 1.389600 -0.798741 0.597538 18.578621 -9.892723 7.493421 23.542071 -13.998069 10.434344 26.792805 -17.884404 13.277303 -18.578621 6.996633 -4.658608 -23.542071 8.415952 -7.081624 -26.792805 8.864471 -9.779798 19.263251 -5.877423 5.765255 27.945107 -9.797093 8.801059 -19.263251 7.845464 -2.044247 -27.945107 11.364611 -3.650683
1.298896 0.000000 1.336510 4.045085 0.000000 1.948344 2.472136 -2.754374 2.202611 2.762656 -1.967162 1.464323 2.266933 -1.182467 0.899630 1.739065 -1.498691 1.141522 1.320299 -0.799989 0.595422 17.677670 -9.969173 7.476880 22.154346 -13.981467 10.384376 24.863908 -17.704462 13.178903 -17.677670 6.494480 -4.870860 -22.154346 7.635507 -7.360946 -24.863908 7.778421 -10.114244 19.021130 -6.164106 5.811499 27.463649 -10.159722 8.852447 -19.021130 7.748665 -2.208747 -27.463649 11.138057 -3.890288
1.322624 0.000000 1.329305 4.105746 0.000000 1.983936 1.989519 -2.612286 2.158573 2.540762 -1.938058 1.451422 2.182661 -1.191838 0.898487 1.528826 -1.452579 1.125679 1.248067 -0.798236 0.592659 16.728265 -9.999452 7.450296 20.705897 -13.900110 10.320460 22.866861 -17.442523 13.062801 -16.728265 5.962249 -5.076570 -20.705897 6.819698 -7.630382 -22.866861 6.656346 -10.435104 18.745640 -6.432516 5.852746 26.934010 -10.492231 8.896224 -18.745640 7.628895 -2.371349 -26.934010 10.878484 -4.126548
1.346025 0.000000 1.321955 4.164606 0.000000 2.019038 1.499051 -2.452778 2.110359 2.311904 -1.899978 1.436573 2.094560 -1.197676 0.896571 1.313516 -1.398328 1.108008 1.173063 -0.793488 0.589250 15.733010 -9.983418 7.413704 19.200695 -13.754376 10.242681 20.807137 -17.099801 12.929153 -15.733010 5.402403 -5.275460 -19.200695 5.972305 -7.889568 -20.807137 5.503442 -10.741948 18.437263 -6.681856 5.888962 26.357120 -10.793637 8.932353 -18.437263 7.486509 -2.531913 -26.357120 10.586661 -4.359261
1.369094 0.000000 1.314460 4.221640 0.000000 2.053641 1.002666 -2.276914 2.058064 2.076709 -1.853098 1.419793 2.002784 -1.199964 0.893885 1.093851 -1.336241 1.088535 1.095455 -0.785763 0.585201 14.694631 -9.921147 7.367154 17.642865 -13.544939 10.151144 18.690382 -16.677881 12.778138 -14.694631 4.817537 -5.467265 -17.642865 5.097250 -8.138157 -18.690382 4.325049 -11.034363 18.096541 -6.911387 5.920116 25.733991 -11.063044 8.960804 -18.096541 7.321929 -2.690299 -25.733991 10.263454 -4.588226
1.391826 0.000000 1.306821 4.276821 0.000000 2.087738 0.502324 -2.085868 2.001788 1.835822 -1.797635 1.401107 1.907495 -1.198694 0.890430 0.870558 -1.266667 1.067293 1.015416 -0.775091 0.580514 13.615976 -9.812927 7.310709 16.036677 -13.272770 10.045972 16.522398 -16.178719 12.609960 -13.615976 4.210358 -5.651725 -16.036677 4.198589 -8.375814 -16.522398 3.126625 -11.311957 17.724072 -7.120430 5.946179 25.065715 -11.299654 8.981551 -17.724072 7.135643 -2.846373 -25.065715 9.909820 -4.813247
1.414214 0.000000 1.299038 4.330127 0.000000 2.121320 0.000000 -1.880913 1.941641 1.589903 -1.733847 1.380538 1.808859 -1.193870 0.886210 0.644377 -1.189994 1.044316 0.933121 -0.761510 0.575196 12.500000 -9.659258 7.244444 14.386533 -12.939128 9.927306 14.309127 -15.604627 12.424844 -12.500000 3.583679 -5.828595 -14.386533 3.280481 -8.602222 -14.309127 1.913721 -11.574356 17.320508 -7.308364 5.967131 24.353465 -11.502766 8.994576 -17.320508 6.928203 -3.000000 -24.353465 9.526809 -5.034130
1.436253 0.000000 1.291113 4.381533 0.000000 2.154379 -0.502324 -1.663415 1.877738 1.339626 -1.662029 1.358115 1.707050 -1.185507 0.881228 0.416060 -1.106654 1.019643 0.848755 -0.745072 0.569252 11.349762 -9.460854 7.168448 12.696957 -12.545560 9.795306 12.056636 -14.958262 12.223038 -11.349762 2.940403 -5.997635 -12.696957 2.347181 -8.817074 -12.056636 0.691953 -11.821208 16.886559 -7.474632 5.982953 23.598491 -11.671777 8.999869 -16.886559 6.700224 -3.151048 -23.598491 9.115554 -5.250685
1.457937 0.000000 1.283046 4.431018 0.000000 2.186906 -1.002666 -1.434826 1.810203 1.085678 -1.582513 1.333868 1.602247 -1.173630 0.875488 0.186363 -1.017112 0.993312 0.762504 -0.725839 0.562689 10.168416 -9.218632 7.082823 10.972580 -12.093888 9.650148 9.771099 -14.242619 12.004814 -10.168416 2.283509 -6.158619 -10.972580 1.403009 -9.020083 -9.771099 -0.533020 -12.052182 16.422984 -7.618741 5.993632 22.802118 -11.806188 8.997425 -16.422984 6.452382 -3.299387 -22.802118 8.677277 -5.462726
1.479262 0.000000 1.274839 4.478559 0.000000 2.218893 -1.499051 -1.196669 1.739168 0.828753 -1.495668 1.307830 1.494632 -1.158273 0.868996 -0.043952 -0.921871 0.965366 0.674561 -0.703882 0.555514 8.959199 -8.933714 6.987684 9.218128 -11.586203 9.492028 7.458779 -13.461012 11.770466 -8.959199 1.616038 -6.311331 -9.218128 0.452340 -9.210977 -7.458779 -1.755524 -12.266967 15.930598 -7.740264 5.999158 21.965742 -11.905598 8.987245 -15.930598 6.185412 -3.444889 -21.965742 8.213275 -5.670071
1.500222 0.000000 1.266492 4.524135 0.000000 2.250333 -1.989519 -0.950533 1.664768 0.569557 -1.401896 1.280034 1.384395 -1.139483 0.861756 -0.274121 -0.821463 0.935852 0.585119 -0.679285 0.547734 7.725425 -8.607420 6.883160 7.438409 -11.024858 9.321159 5.126016 -12.617061 11.520307 -7.725425 0.941083 -6.455565 -7.438409 -0.500424 -9.389498 -5.126016 -2.969897 -12.465276 15.410265 -7.838840 5.999526 21.090830 -11.969714 8.969340 -15.410265 5.900105 -3.587430 -21.090830 7.724925 -5.872541
1.520812 0.000000 1.258006 4.567727 0.000000 2.281218 -2.472136 -0.698058 1.587148 0.308800 -1.301631 1.250519 1.271730 -1.117314 0.853776 -0.503382 -0.716453 0.904817 0.494379 -0.652140 0.539359 6.470476 -8.241262 6.769390 5.638302 -10.412452 9.137769 2.779203 -11.714675 11.254674 -6.470476 0.261769 -6.591128 -5.638302 -1.450871 -9.555407 -2.779203 -4.170516 -12.646840 14.862897 -7.914179 5.994737 20.178918 -11.998345 8.943724 -14.862897 5.597307 -3.726887 -20.178918 7.213673 -6.069963
1.541026 0.000000 1.249382 4.609316 0.000000 2.311540 -2.944996 -0.440929 1.506459 0.047197 -1.195337 1.219325 1.156834 -1.091834 0.845062 -0.730972 -0.607428 0.872311 0.402541 -0.622548 0.530396 5.197792 -7.836935 6.646527 3.822741 -9.751821 8.942105 0.424772 -10.758033 10.973923 -5.197792 -0.418757 -6.717838 -3.822741 -2.394598 -9.708481 -0.424772 -5.351819 -12.811418 14.289454 -7.966055 5.984794 19.231605 -11.991407 8.910419 -14.289454 5.277915 -3.863139 -19.231605 6.681037 -6.262167
1.560861 0.000000 1.240621 4.648882 0.000000 2.341291 -3.406234 -0.180859 1.422856 -0.214536 -1.083507 1.186492 1.039908 -1.063116 0.835621 -0.956139 -0.494999 0.838388 0.309809 -0.590620 0.520856 3.910862 -7.396311 6.514736 1.996702 -9.046025 8.734430 -1.930824 -9.751566 10.678432 -3.910862 -1.097343 -6.835525 -1.996702 -3.327235 -9.848514 1.930824 -6.508335 -12.958786 13.690942 -7.994316 5.969706 18.250554 -11.948920 8.869453 -13.690942 4.942877 -3.996071 -18.250554 6.128595 -6.448986
1.580310 0.000000 1.231724 4.686410 0.000000 2.370465 -3.854029 0.080416 1.336501 -0.475681 -0.966659 1.152066 0.921157 -1.031247 0.825462 -1.178135 -0.379797 0.803101 0.216390 -0.556476 0.510750 2.613212 -6.921432 6.374195 0.165191 -8.298332 8.515022 -4.281127 -8.699935 10.368598 -2.613212 -1.770847 -6.944029 -0.165191 -4.244462 -9.975319 4.281127 -7.634708 -13.088749 13.068412 -7.998877 5.949486 17.237485 -11.871009 8.820863 -13.068412 4.593185 -4.125568 -17.237485 5.557984 -6.630262
1.599369 0.000000 1.222692 4.721882 0.000000 2.399054 -4.286614 0.341156 1.247562 -0.735522 -0.845335 1.116093 0.800791 -0.996321 0.814593 -1.396223 -0.262466 0.766510 0.122490 -0.520244 0.500088 1.308399 -6.414496 6.225092 -1.666774 -7.512207 8.284178 -6.619695 -7.608011 10.044836 -1.308399 -2.436150 -7.043207 1.666774 -5.142030 -10.088725 6.619695 -8.725722 -13.201130 12.422956 -7.979725 5.924151 16.194175 -11.757907 8.764689 -12.422956 4.229877 -4.251517 -16.194175 4.970896 -6.805838
1.618034 0.000000 1.213525 4.755283 0.000000 2.427051 -4.702282 0.599620 1.156209 -0.993347 -0.720094 1.078620 0.679020 -0.958441 0.803024 -1.609682 -0.143665 0.728673 0.028318 -0.482061 0.488882 0.000000 -5.877853 6.067627 -3.494170 -6.691289 8.042206 -8.940120 -6.480850 9.707582 -0.000000 -3.090170 -7.132924 3.494170 -6.015784 -10.188580 8.940120 -9.776323 -13.295780 11.755705 -7.936918 5.893724 15.122455 -11.609948 8.700981 -11.755705 3.854029 -4.373812 -15.122455 4.369072 -6.975563
1.636299 0.000000 1.204226 4.786597 0.000000 2.454449 -5.099392 0.854086 1.062620 -1.248449 -0.591519 1.039699 0.556058 -0.917719 0.790764 -1.817802 -0.024058 0.689651 -0.065917 -0.442069 0.477144 -1.308399 -5.313986 5.902013 -5.311988 -5.839381 7.789431 -11.236040 -5.323674 9.357289 1.308399 -3.729878 -7.213060 5.311988 -6.861676 -10.274749 11.236040 -10.781646 -13.372570 11.067831 -7.870581 5.858229 14.024206 -11.427571 8.629792 -11.067831 3.466756 -4.492346 -14.024206 3.754295 -7.139291
1.654161 0.000000 1.194795 4.815813 0.000000 2.481242 -5.476377 1.102857 0.966975 -1.500129 -0.460205 0.999381 0.432120 -0.874278 0.777825 -2.019893 0.095683 0.649509 -0.160006 -0.400419 0.464887 -2.613212 -4.725508 5.728470 -7.115247 -4.960428 7.526194 -13.501163 -4.141842 8.994427 2.613212 -4.352311 -7.283507 7.115247 -7.675789 -10.347117 13.501163 -11.737034 -13.431398 10.360540 -7.780911 5.817698 12.901353 -11.211316 8.551185 -10.360540 3.069206 -4.607019 -12.901353 3.128389 -7.296882
1.671615 0.000000 1.185233 4.842916 0.000000 2.507422 -5.831749 1.344274 0.869461 -1.747698 -0.326759 0.957720 0.307424 -0.828244 0.764217 -2.215286 0.214888 0.608311 -0.253739 -0.357266 0.452123 -3.910862 -4.115144 5.547233 -8.899004 -4.058502 7.252847 -15.729281 -2.940827 8.619484 3.910862 -4.954587 -7.344171 8.899004 -8.454351 -10.405586 15.729281 -12.638062 -13.472185 9.635073 -7.668174 5.772166 11.755867 -10.961825 8.465226 -9.635073 2.662556 -4.717731 -11.755867 2.493209 -7.448199
1.688656 0.000000 1.175540 4.867895 0.000000 2.532984 -6.164106 1.576727 0.770265 -1.990476 -0.191799 0.914774 0.182189 -0.779755 0.749952 -2.403332 0.332890 0.566125 -0.346909 -0.312773 0.438869 -5.197792 -3.485720 5.358545 -10.658369 -3.137778 6.969758 -17.914285 -1.726192 8.232963 5.197792 -5.533915 -7.394970 10.658369 -9.193758 -10.450079 17.914285 -13.480558 -13.494876 8.892704 -7.532705 5.721672 10.589757 -10.679838 8.371989 -8.892704 2.248014 -4.824387 -10.589757 1.850637 -7.593113
1.705280 0.000000 1.165719 4.890738 0.000000 2.557920 -6.472136 1.798667 0.669579 -2.227799 -0.055951 0.870598 0.056634 -0.728954 0.735043 -2.583408 0.449025 0.523018 -0.439309 -0.267107 0.425136 -6.470476 -2.840153 5.162659 -12.388520 -2.202522 6.677307 -20.050188 -0.503562 7.835383 6.470476 -6.087614 -7.435836 12.388520 -9.890584 -10.480535 20.050188 -14.260620 -13.499441 8.134733 -7.374905 5.666258 9.405069 -10.366189 8.271556 -8.134733 1.826807 -4.926895 -9.405069 1.202579 -7.731500
1.721484 0.000000 1.155770 4.911436 0.000000 2.582226 -6.754623 2.008612 0.567598 -2.459015 0.080156 0.825253 -0.069021 -0.675992 0.719501 -2.754916 0.562645 0.479061 -0.530733 -0.220438 0.410941 -7.725425 -2.181432 4.959839 -14.084715 -1.257065 6.375888 -22.131135 0.721400 7.427278 7.725425 -6.613119 -7.466715 14.084715 -10.541603 -10.496913 22.131135 -14.974634 -13.485873 7.362491 -7.195242 5.605974 8.203881 -10.021810 8.164011 -7.362491 1.400184 -5.025168 -8.203881 0.550957 -7.863240
1.737263 0.000000 1.145694 4.929980 0.000000 2.605895 -7.010453 2.205164 0.464519 -2.683491 0.215891 0.778800 -0.194554 -0.621027 0.703341 -2.917288 0.673111 0.434326 -0.620979 -0.172942 0.396299 -8.959199 -1.512608 4.750357 -15.742304 -0.305787 6.065904 -24.151421 1.943021 7.009197 8.959199 -7.107995 -7.487564 15.742304 -11.143799 -10.499192 24.151421 -15.619295 -13.454190 6.577333 -6.994248 5.540870 6.988301 -9.647721 8.049448 -6.577333 0.969411 -5.119121 -6.988301 -0.102300 -7.988220
1.752613 0.000000 1.135493 4.946362 0.000000 2.628920 -7.238616 2.387012 0.360541 -2.900612 0.350627 0.731300 -0.319746 -0.564220 0.686576 -3.069985 0.779806 0.388885 -0.709846 -0.124798 0.381226 -10.168416 -0.836778 4.534493 -17.356746 0.646908 5.747772 -26.105510 3.155643 6.581702 10.168416 -7.569951 -7.498355 17.356746 -11.694383 -10.487368 26.105510 -16.191615 -13.404436 5.780636 -6.772520 5.471002 5.760461 -9.245031 7.927964 -5.780636 0.535764 -5.208673 -5.760461 -0.755253 -8.106332
1.767531 0.000000 1.125167 4.960574 0.000000 2.651297 -7.438212 2.552942 0.255867 -3.109783 0.483739 0.682818 -0.444376 -0.505741 0.669221 -3.212501 0.882131 0.342812 -0.797137 -0.076185 0.365738 -11.349762 -0.157073 4.312539 -18.923613 1.596607 5.421920 -27.988046 4.353650 6.145365 11.349762 -7.996847 -7.499075 18.923613 -12.190805 -10.461458 27.988046 -16.688945 -13.336677 4.973798 -6.530714 5.396432 4.522515 -8.814933 7.799665 -4.973798 0.100528 -5.293747 -4.522515 -1.405967 -8.217476
1.782013 0.000000 1.114717 4.972609 0.000000 2.673020 -7.608452 2.701849 0.150697 -3.310430 0.614610 0.633419 -0.568228 -0.445762 0.651291 -3.344363 0.979513 0.296182 -0.882659 -0.027287 0.349852 -12.500000 0.523360 4.084793 -20.438613 2.538912 5.088785 -29.793869 5.531493 5.700774 12.500000 -8.386706 -7.489722 20.438613 -12.630766 -10.421495 29.793869 -17.108981 -13.251004 4.158234 -6.269548 5.317221 3.276635 -8.358703 7.664661 -4.158234 -0.335005 -5.374271 -3.276635 -2.052513 -8.321555
1.796055 0.000000 1.104146 4.982464 0.000000 2.694083 -7.748665 2.832740 0.045236 -3.502003 0.742635 0.583170 -0.691082 -0.384462 0.632800 -3.465134 1.071407 0.249070 -0.966220 0.021714 0.333585 -13.615976 1.201368 3.851559 -21.897591 3.469457 4.748815 -31.518029 6.683718 5.248526 13.615976 -8.737722 -7.470308 21.897591 -13.012229 -10.367535 31.518029 -17.449778 -13.147531 3.335375 -5.989795 5.233440 2.025007 -7.877694 7.523068 -3.335375 -0.769546 -5.450174 -2.025007 -2.692974 -8.418480
1.809654 0.000000 1.093453 4.990134 0.000000 2.714481 -7.858298 2.944742 -0.060312 -3.683978 0.867221 0.532136 -0.812724 -0.322022 0.613766 -3.574413 1.157296 0.201553 -1.047637 0.070634 0.316955 -14.694631 1.873813 3.613153 -23.296550 4.383934 4.402466 -33.155800 7.804987 4.789228 14.694631 -9.048271 -7.440860 23.296550 -13.333426 -10.299648 33.155800 -17.709757 -13.026399 2.506665 -5.692285 5.145160 0.769827 -7.373331 7.375007 -2.506665 -1.201805 -5.521391 -0.769827 -3.325452 -8.508168
1.822807 0.000000 1.082640 4.995614 0.000000 2.734210 -7.936918 3.037108 -0.165744 -3.855855 0.987790 0.480389 -0.932941 -0.258627 0.594204 -3.671838 1.236701 0.153709 -1.126727 0.119288 0.299981 -15.733010 2.537579 3.369892 -24.631654 5.278107 4.050204 -34.702693 8.890108 4.323497 15.733010 -9.316912 -7.401418 24.631654 -13.592870 -10.217927 34.702693 -17.887714 -12.887770 1.673557 -5.377901 5.052456 -0.486705 -6.847109 7.220606 -1.673557 -1.630501 -5.587862 0.486705 -3.948071 -8.590541
1.835509 0.000000 1.071709 4.998903 0.000000 2.753264 -7.984214 3.109222 -0.270855 -4.017163 1.103784 0.427995 -1.051520 -0.194466 0.574131 -3.757086 1.309175 0.105615 -1.203316 0.167495 0.282680 -16.728265 3.189593 3.122106 -25.899245 6.147835 3.692501 -36.154468 9.934054 3.851959 16.728265 -9.542403 -7.352034 25.899245 -13.789359 -10.122481 36.154468 -17.982826 -12.731829 0.837513 -5.047573 4.955409 -1.742382 -6.300589 7.059997 -0.837513 -2.054364 -5.649529 1.742382 -4.558987 -8.665530
1.847759 0.000000 1.060660 5.000000 0.000000 2.771639 -8.000000 3.160603 -0.375443 -4.167461 1.214666 0.375027 -1.168255 -0.129728 0.553565 -3.829874 1.374314 0.057350 -1.277233 0.215073 0.265072 -17.677670 3.826834 2.870126 -27.095848 6.989089 3.329838 -37.507147 10.931992 3.375246 17.677670 -9.723699 -7.292774 27.095848 -13.921984 -10.013438 37.507147 -17.994651 -12.558788 0.000000 -4.702282 4.854102 -2.995002 -5.735391 6.893319 -0.000000 -2.472136 -5.706339 2.995002 -5.156386 -8.733068
1.859553 0.000000 1.049495 4.998903 0.000000 2.789329 -7.984214 3.190908 -0.479304 -4.306336 1.319922 0.321556 -1.282940 -0.064606 0.532523 -3.889961 1.431751 0.008991 -1.348314 0.261845 0.247175 -18.578621 4.446352 2.614290 -28.218183 7.797974 2.962703 -38.757021 11.879299 2.894000 18.578621 -9.859960 -7.223719 28.218183 -13.990130 -9.890945 38.757021 -17.923134 -12.368876 -0.837513 -4.343051 4.748622 -4.242369 -5.153190 6.720715 0.837513 -2.882580 -5.758244 4.242369 -5.738500 -8.793099
1.870888 0.000000 1.038215 4.995614 0.000000 2.806332 -7.936918 3.199937 -0.582238 -4.433407 1.419065 0.267652 -1.395375 0.000708 0.511023 -3.937148 1.481165 -0.039382 -1.416402 0.307634 0.229009 -19.428649 5.045276 2.354943 -29.263174 8.570743 2.591589 -39.900665 12.771588 2.408867 19.428649 -9.950556 -7.144961 29.263174 -13.993482 -9.755166 39.900665 -17.768608 -12.162351 -1.673557 -3.970944 4.639059 -5.482293 -4.555712 6.542333 1.673557 -3.284478 -5.805198 5.482293 -6.303602 -8.845570
1.881762 0.000000 1.026821 4.990134 0.000000 2.822642 -7.858298 3.187628 -0.684046 -4.548327 1.511636 0.213389 -1.505362 0.066020 0.489084 -3.971277 1.522280 -0.087692 -1.481345 0.352269 0.210594 -20.225425 5.620834 2.092433 -30.227956 9.303817 2.216993 -40.934944 13.604725 1.920498 20.225425 -9.995066 -7.056606 30.227956 -13.932023 -9.606285 40.934944 -17.531788 -11.939490 -2.506665 -3.587066 4.525508 -6.712599 -3.944728 6.358327 2.506665 -3.676639 -5.847161 6.712599 -6.850016 -8.890438
1.892171 0.000000 1.015314 4.982464 0.000000 2.838256 -7.748665 3.154063 -0.784531 -4.650780 1.597206 0.158839 -1.612707 0.131136 0.466724 -3.992236 1.554864 -0.135859 -1.542999 0.395583 0.191950 -20.966764 6.170359 1.827113 -31.109886 9.993801 1.839419 -41.857023 14.374854 1.429549 20.966764 -9.993284 -6.958772 31.109886 -13.806040 -9.444500 41.857023 -17.213770 -11.700591 -3.335375 -3.192553 4.408067 -7.931129 -3.322050 6.168854 3.335375 -4.057901 -5.884098 7.931129 -7.376124 -8.927662
1.902113 0.000000 1.003696 4.972609 0.000000 2.853170 -7.608452 3.099466 -0.883499 -4.740486 1.675378 0.104076 -1.717224 0.195863 0.443963 -3.999955 1.578736 -0.183805 -1.601227 0.437412 0.173097 -21.650635 6.691306 1.559338 -31.906546 10.637499 1.459375 -42.664375 15.078405 0.936680 21.650635 -9.945219 -6.851591 31.906546 -13.616114 -9.270029 42.664375 -16.816028 -11.445975 -4.158234 -2.788576 4.286836 -9.135744 -2.689524 5.974078 4.158234 -4.427132 -5.915976 9.135744 -7.880364 -8.957211
1.911586 0.000000 0.991968 4.960574 0.000000 2.867379 -7.438212 3.024202 -0.980758 -4.817199 1.745791 0.049173 -1.818728 0.260010 0.420820 -3.994410 1.593761 -0.231452 -1.655900 0.477600 0.154056 -22.275163 7.181263 1.289468 -32.615752 11.231930 1.077370 -43.354787 15.712123 0.442553 22.275163 -9.851093 -6.735207 32.615752 -13.363126 -9.083106 43.354787 -16.340403 -11.175986 -4.973798 -2.376333 4.161920 -10.324333 -2.049025 5.774167 4.973798 -4.783240 -5.942769 10.324333 -8.361243 -8.979059
1.920587 0.000000 0.980131 4.946362 0.000000 2.880881 -7.238616 2.928772 -1.076120 -4.880707 1.808119 -0.005796 -1.917041 0.323386 0.397316 -3.975617 1.599855 -0.278723 -1.706897 0.515997 0.134847 -22.838636 7.637960 1.017867 -33.235561 11.774341 0.693919 -43.926366 16.273070 -0.052168 22.838636 -9.711343 -6.609776 33.235561 -13.048247 -8.883983 43.926366 -15.789098 -10.890984 -5.780636 -1.957044 4.033426 -11.494810 -1.402451 5.569291 5.780636 -5.125167 -5.964452 11.494810 -8.817335 -8.993188
1.929115 0.000000 0.968187 4.929980 0.000000 2.893672 -7.010453 2.813812 -1.169400 -4.930838 1.862072 -0.060758 -2.011991 0.385803 0.373469 -3.943639 1.596984 -0.325541 -1.754103 0.552457 0.115491 -23.339511 8.059283 0.744898 -33.764273 12.262221 0.309535 -44.377546 16.758650 -0.546820 23.339511 -9.526615 -6.475467 33.764273 -12.672937 -8.672926 44.377546 -15.164667 -10.591354 -6.577333 -1.531954 3.901464 -12.645120 -0.751720 5.359628 6.577333 -5.451901 -5.981008 12.645120 -9.247287 -8.999586
1.937166 0.000000 0.956136 4.911436 0.000000 2.905749 -6.754623 2.680090 -1.260419 -4.967455 1.907401 -0.115637 -2.103412 0.447076 0.349302 -3.898583 1.585164 -0.371830 -1.797416 0.586845 0.096010 -23.776413 8.443279 0.470929 -34.200440 12.693308 -0.075265 -44.707091 17.166612 -1.040736 23.776413 -9.297765 -6.332459 34.200440 -12.238932 -8.450221 44.707091 -14.470002 -10.277497 -7.362491 -1.102322 3.766148 -13.773247 -0.098760 5.145356 7.362491 -5.762472 -5.992422 13.773247 -9.649826 -8.998248
1.944740 0.000000 0.943981 4.890738 0.000000 2.917110 -6.472136 2.528496 -1.349000 -4.990455 1.943897 -0.170362 -2.191142 0.507024 0.324835 -3.840598 1.564462 -0.417515 -1.836737 0.619031 0.076425 -24.148146 8.788171 0.196327 -34.542865 13.065607 -0.459963 -44.914096 17.495069 -1.533255 24.148146 -9.025853 -6.180946 34.542865 -11.748243 -8.216164 44.914096 -13.708320 -9.949835 -8.134733 -0.669423 3.627595 -14.877211 0.554493 4.926662 8.134733 -6.055960 -5.998684 14.877211 -10.023757 -8.989173
1.951834 0.000000 0.931722 4.867895 0.000000 2.927750 -6.164106 2.360042 -1.434972 -4.999777 1.971389 -0.224857 -2.275028 0.565469 0.300088 -3.769876 1.534993 -0.462521 -1.871981 0.648895 0.056756 -24.453690 9.092361 -0.078538 -34.790612 13.377393 -0.844044 -44.997995 17.742498 -2.023715 24.453690 -8.712138 -6.021131 34.790612 -11.203143 -7.971072 44.997995 -12.883149 -9.608809 -8.892704 -0.234539 3.485923 -15.955075 1.206102 4.703732 8.892704 -6.331496 -5.999789 15.955075 -10.367972 -8.972370
1.958446 0.000000 0.919361 4.842916 0.000000 2.937668 -5.831749 2.175851 -1.518168 -4.995395 1.989750 -0.279051 -2.354923 0.622238 0.275084 -3.686652 1.496923 -0.506776 -1.903068 0.676324 0.037025 -24.692209 9.354440 -0.353298 -34.942999 13.627223 -1.226991 -44.958558 17.907754 -2.511456 24.692209 -8.358074 -5.853228 34.942999 -10.606157 -7.715273 44.958558 -11.998310 -9.254876 -9.635073 0.201041 3.341254 -17.004948 1.854135 4.476758 9.635073 -6.588261 -5.995737 17.004948 -10.681452 -8.947854
1.964575 0.000000 0.906899 4.815813 0.000000 2.946862 -5.476377 1.977151 -1.598428 -4.977321 1.998897 -0.332869 -2.430687 0.677162 0.249842 -3.591201 1.450465 -0.550206 -1.929930 0.701216 0.017254 -24.863047 9.573195 -0.627584 -34.999610 13.813939 -1.608290 -44.795892 17.990072 -2.995824 24.863047 -7.965299 -5.677463 34.999610 -9.960048 -7.449110 44.795892 -11.057901 -8.888512 -10.360540 0.636024 3.193712 -18.024989 2.496672 4.245936 10.360540 -6.825495 -5.986530 18.024989 -10.963265 -8.915646
1.970219 0.000000 0.894337 4.786597 0.000000 2.955328 -5.099392 1.765267 -1.675597 -4.945605 1.998785 -0.386241 -2.502187 0.730078 0.224387 -3.483841 1.395878 -0.592743 -1.952507 0.723477 -0.002535 -24.965738 9.747612 -0.901026 -34.960290 13.936677 -1.987428 -44.510444 17.989069 -3.476167 24.965738 -7.535634 -5.494072 34.960290 -9.267811 -7.172942 44.510444 -10.066279 -8.510208 -11.067831 1.069122 3.043425 -19.013408 3.131807 4.011463 11.067831 -7.042494 -5.972176 19.013408 -11.212578 -8.875773
1.975377 0.000000 0.881678 4.755283 0.000000 2.963065 -4.702282 1.541612 -1.749525 -4.900333 1.989417 -0.439094 -2.569296 0.780831 0.198738 -3.364927 1.333470 -0.634316 -1.970749 0.743024 -0.022322 -25.000000 9.876883 -1.173258 -34.825146 13.994867 -2.363897 -44.102996 17.904751 -3.951842 25.000000 -7.071068 -5.303301 34.825146 -8.532649 -6.887139 44.102996 -9.028035 -8.120474 -11.755705 1.499051 2.890522 -19.968471 3.757658 3.773542 11.755705 -7.238616 -5.952688 19.968471 -11.428651 -8.828270
1.980047 0.000000 0.868922 4.721882 0.000000 2.970071 -4.286614 1.307677 -1.820069 -4.841629 1.970834 -0.491356 -2.631899 0.829268 0.172918 -3.234854 1.263590 -0.674859 -1.984615 0.759783 -0.042085 -24.965738 9.960411 -1.443915 -34.594548 13.988241 -2.737191 -43.574665 17.737508 -4.422208 24.965738 -6.573752 -5.105407 34.594548 -7.757970 -6.592085 43.574665 -7.947978 -7.719832 -12.422956 1.924535 2.735134 -20.888503 4.372369 3.532377 12.422956 -7.413279 -5.928083 20.888503 -11.610843 -8.773177
1.984229 0.000000 0.856070 4.686410 0.000000 2.976344 -3.854029 1.065023 -1.887092 -4.769655 1.943124 -0.542959 -2.689884 0.875247 0.146950 -3.094053 1.186629 -0.714304 -1.994075 0.773691 -0.061802 -24.863047 9.997807 -1.712632 -34.269130 13.916830 -3.106808 -42.926898 17.488115 -4.886634 24.863047 -6.045991 -4.900655 34.269130 -6.947360 -6.288177 42.926898 -6.831111 -7.308820 -13.068412 2.344314 2.577394 -21.771889 4.974118 3.288175 13.068412 -7.565965 -5.898381 21.771889 -11.758614 -8.710541
1.987922 0.000000 0.843125 4.648882 0.000000 2.981883 -3.406234 0.815266 -1.950466 -4.684608 1.906414 -0.593833 -2.743150 0.918631 0.120855 -2.942990 1.103018 -0.752589 -1.999108 0.784697 -0.081451 -24.692209 9.988899 -1.979048 -33.849782 13.780963 -3.472253 -42.161472 17.157726 -5.344497 24.692209 -5.490228 -4.689320 33.849782 -6.104573 -5.975822 42.161472 -5.682606 -6.887991 -13.690942 2.757143 2.417439 -22.617080 5.561121 3.041146 13.690942 -7.696221 -5.863609 22.617080 -11.871526 -8.640418
1.991124 0.000000 0.830087 4.609316 0.000000 2.986686 -2.944996 0.560074 -2.010067 -4.586720 1.860875 -0.643909 -2.791604 0.959292 0.094656 -2.782168 1.013227 -0.789650 -1.999702 0.792759 -0.101012 -24.453690 9.933728 -2.242806 -33.337654 13.581271 -3.833033 -41.280484 16.747873 -5.795181 24.453690 -4.909038 -4.471687 33.337654 -5.233514 -5.655440 41.280484 -4.507782 -6.457911 -14.289454 3.161799 2.255405 -23.422592 6.131638 2.791503 14.289454 -7.803662 -5.823795 23.422592 -11.949245 -8.562866
1.993835 0.000000 0.816959 4.567727 0.000000 2.990752 -2.472136 0.301147 -2.065781 -4.476261 1.806717 -0.693120 -2.835160 0.997109 0.068377 -2.612119 0.917758 -0.825428 -1.995857 0.797847 -0.120463 -24.148146 9.832549 -2.503551 -32.734150 13.318678 -4.188664 -40.286350 16.260453 -6.238080 24.148146 -4.305111 -4.248047 32.734150 -4.338215 -5.327462 40.286350 -3.312081 -6.019156 -14.862897 3.557081 2.091432 -24.187014 6.683978 2.539460 14.862897 -7.887968 -5.778975 24.187014 -11.991540 -8.477953
1.996053 0.000000 0.803740 4.524135 0.000000 2.994080 -1.989519 0.040211 -2.117499 -4.353533 1.744191 -0.741400 -2.873743 1.031970 0.042038 -2.433407 0.817146 -0.859865 -1.987580 0.799941 -0.139783 -23.776413 9.685832 -2.760934 -32.040924 12.994400 -4.538669 -39.181793 15.697723 -6.672601 23.776413 -3.681246 -4.018701 32.040924 -3.422825 -4.992328 39.181793 -2.101040 -5.572316 -15.410265 3.941819 1.925662 -24.909003 7.216502 2.285234 15.410265 -7.948890 -5.729187 24.909003 -11.998286 -8.385751
1.997780 0.000000 0.790434 4.478559 0.000000 2.996670 -1.499051 -0.220992 -2.165122 -4.218871 1.673588 -0.788684 -2.907284 1.063772 0.015663 -2.246625 0.711955 -0.892904 -1.974890 0.799034 -0.158951 -23.339511 9.494255 -3.014608 -31.259876 12.609940 -4.882578 -37.969841 15.062290 -7.098159 23.339511 -3.040331 -3.783957 31.259876 -2.491582 -4.650489 37.969841 -0.880268 -5.117991 -15.930598 4.314870 1.758236 -25.587293 7.727633 2.029043 15.930598 -7.986248 -5.674474 25.587293 -11.969462 -8.286341
1.999013 0.000000 0.777041 4.431018 0.000000 2.998520 -1.002666 -0.480722 -2.208556 -4.072646 1.595233 -0.834909 -2.935725 1.092420 -0.010725 -2.052393 0.602775 -0.924492 -1.957815 0.795130 -0.177946 -22.838636 9.258706 -3.264233 -30.393147 12.167077 -5.219929 -36.653817 14.357098 -7.514182 22.838636 -2.385335 -3.544131 30.393147 -1.548799 -4.302402 36.653817 0.344581 -4.656791 -16.422984 4.675130 1.589298 -26.220695 8.215855 1.771108 16.422984 -7.999930 -5.614882 26.220695 -11.905154 -8.179806
1.999753 0.000000 0.763562 4.381533 0.000000 2.999630 -0.502324 -0.737246 -2.247720 -3.915259 1.509490 -0.880012 -2.959015 1.117830 -0.037105 -1.851354 0.490217 -0.954577 -1.936394 0.788242 -0.196747 -22.275163 8.980276 -3.509474 -29.443112 11.667863 -5.550268 -35.237328 13.585411 -7.920112 22.275163 -1.719291 -3.299544 29.443112 -0.598844 -3.948537 35.237328 1.567834 -4.189337 -16.886559 5.021531 1.418994 -26.808097 8.679722 1.511650 16.886559 -7.989896 -5.550463 26.808097 -11.805554 -8.066240
2.000000 0.000000 0.750000 4.330127 0.000000 3.000000 -0.000000 -0.988854 -2.282536 -3.747139 1.416756 -0.923934 -2.977114 1.139926 -0.063452 -1.644175 0.374912 -0.983111 -1.910673 0.778397 -0.215335 -21.650635 8.660254 -3.750000 -28.412376 11.114610 -5.873152 -33.724255 12.750804 -8.315404 21.650635 -1.045285 -3.050525 28.412376 0.353886 -3.589368 33.724255 2.783826 -3.716255 -17.320508 5.353045 1.247470 -27.348468 9.117856 1.250893 17.320508 -7.956175 -5.481273 27.348468 -11.670955 -7.945739
1.999753 0.000000 0.736356 4.276821 0.000000 2.999630 0.502324 -1.233869 -2.312937 -3.568750 1.317460 -0.966614 -2.989991 1.158642 -0.089744 -1.431544 0.257506 -1.010047 -1.880710 0.765632 -0.233688 -20.966764 8.300123 -3.985489 -27.303764 10.509880 -6.188147 -32.118746 11.857142 -8.699527 20.966764 -0.366437 -2.797408 27.303764 1.304976 -3.225378 32.118746 3.986924 -3.238182 -17.724072 5.668690 1.074874 -27.840860 9.528961 0.989060 17.724072 -7.898868 -5.407370 27.840860 -11.501757 -7.818407
1.999013 0.000000 0.722631 4.221640 0.000000 2.998520 1.002666 -1.470656 -2.338864 -3.380578 1.212063 -1.007996 -2.997622 1.173924 -0.115960 -1.214165 0.138658 -1.035342 -1.846572 0.749994 -0.251786 -20.225425 7.901550 -4.215625 -26.120313 9.856475 -6.494830 -30.425203 10.908565 -9.071964 20.225425 0.314108 -2.540534 26.120313 2.250022 -2.857055 30.425203 5.171557 -2.755759 -18.096541 5.967529 0.901354 -28.284411 9.911816 0.726377 18.096541 -7.818145 -5.328819 28.284411 -11.298462 -7.684354
1.997780 0.000000 0.708826 4.164606 0.000000 2.996670 1.499051 -1.697636 -2.360268 -3.183141 1.101052 -1.048024 -2.999994 1.185726 -0.142076 -0.992759 0.019032 -1.058954 -1.808333 0.731543 -0.269611 -19.428649 7.466382 -4.440099 -24.865269 9.157420 -6.792789 -28.648265 9.909466 -9.432216 19.428649 0.993197 -2.280248 24.865269 3.184648 -2.484895 28.648265 6.332239 -2.269634 -18.437263 6.248678 0.727058 -28.678340 10.265288 0.463070 18.437263 -7.714244 -5.245686 28.678340 -11.061672 -7.543694
1.996053 0.000000 0.694944 4.105746 0.000000 2.994080 1.989519 -1.913296 -2.377107 -2.976978 0.984941 -1.086644 -2.997103 1.194012 -0.168069 -0.768061 -0.100700 -1.080844 -1.766080 0.710346 -0.287143 -18.578621 6.996633 -4.658608 -23.542071 8.415952 -7.081624 -26.792805 8.864471 -9.779798 18.578621 1.667687 -2.016899 23.542071 4.104524 -2.109396 26.792805 7.463593 -1.780461 -18.745640 6.511302 0.552138 -29.021959 10.588328 0.199364 18.745640 -7.587475 -5.158044 29.021959 -10.792089 -7.396550
1.993835 0.000000 0.680986 4.045085 0.000000 2.990752 2.472136 -2.116198 -2.389349 -2.762656 0.864269 -1.123805 -2.988954 1.198759 -0.193919 -0.540816 -0.219868 -1.100978 -1.719905 0.686485 -0.304362 -17.677670 6.494480 -4.870860 -22.154346 7.635507 -7.360946 -24.863908 7.778421 -10.114244 17.677670 2.334454 -1.750840 22.154346 5.005390 -1.731065 24.863908 8.560380 -1.288896 -19.021130 6.754623 0.376743 -29.314663 10.879978 -0.064513 19.021130 -7.438212 -5.065968 29.314663 -10.490513 -7.243046
1.991124 0.000000 0.666953 3.982650 0.000000 2.986686 2.944996 -2.304989 -2.396969 -2.540762 0.739594 -1.159456 -2.975561 1.199952 -0.219601 -0.311778 -0.337804 -1.119323 -1.669912 0.660049 -0.321249 -16.728265 5.962249 -5.076570 -20.705897 6.819698 -7.630382 -22.866861 6.656346 -10.435104 16.728265 2.990408 -1.482430 20.705897 5.883074 -1.350408 22.866861 9.617520 -0.795600 -19.263251 6.977920 0.201024 -29.555939 11.139374 -0.328334 19.263251 -7.266898 -4.969536 29.555939 -10.157837 -7.083316
1.987922 0.000000 0.652847 3.918467 0.000000 2.981883 3.406234 -2.478410 -2.399953 -2.311904 0.611494 -1.193550 -2.956949 1.197587 -0.245095 -0.081705 -0.453848 -1.135849 -1.616211 0.631136 -0.337788 -15.733010 5.402403 -5.275460 -19.200695 5.972305 -7.889568 -20.807137 5.503442 -10.741948 15.733010 3.632512 -1.212029 19.200695 6.733511 -0.967938 20.807137 10.630117 -0.301236 -19.471578 7.180531 0.025133 -29.745363 11.365748 -0.591873 19.471578 -7.074041 -4.868832 29.745363 -9.795049 -6.917496
1.984229 0.000000 0.638669 3.852566 0.000000 2.976344 3.854029 -2.635304 -2.398295 -2.076709 0.480561 -1.226040 -2.933149 1.191673 -0.270378 0.148638 -0.567347 -1.150528 -1.558922 0.599855 -0.353959 -14.694631 4.817537 -5.467265 -17.642865 5.097250 -8.138157 -18.690382 4.325049 -11.034363 14.694631 4.257793 -0.939999 17.642865 7.552762 -0.584167 18.690382 11.593481 0.193533 -19.645745 7.361855 -0.150781 -29.882605 11.558427 -0.854904 19.645745 -6.860213 -4.763942 29.882605 -9.403222 -6.745730
1.980047 0.000000 0.624421 3.784975 0.000000 2.970071 4.286614 -2.774626 -2.391998 -1.835822 0.347403 -1.256884 -2.904203 1.182225 -0.295428 0.378489 -0.677668 -1.163338 -1.498172 0.566323 -0.369744 -13.615976 4.210358 -5.651725 -16.036677 4.198589 -8.375814 -16.522398 3.126625 -11.311957 13.615976 4.863354 -0.666707 16.036677 8.337033 -0.199612 16.522398 12.503151 0.688043 -19.785447 7.521354 -0.326564 -29.967422 11.716840 -1.117199 19.785447 -6.626048 -4.654957 29.967422 -8.983519 -6.568164
1.975377 0.000000 0.610105 3.715724 0.000000 2.963065 4.702282 -2.895447 -2.381075 -1.589903 0.212636 -1.286040 -2.870162 1.169273 -0.320225 0.607084 -0.784192 -1.174257 -1.434095 0.530667 -0.385128 -12.500000 3.583679 -5.828595 -14.386533 3.280481 -8.602222 -14.309127 1.913721 -11.574356 12.500000 5.446390 -0.392520 14.386533 9.082691 0.185212 14.309127 13.354913 1.181628 -19.890438 7.658556 -0.502067 -29.999666 11.840519 -1.378534 19.890438 -6.372239 -4.541970 29.999666 -8.537184 -6.384952
1.970219 0.000000 0.595722 3.644843 0.000000 2.955328 5.099392 -2.996960 -2.365547 -1.339626 0.076884 -1.313468 -2.831086 1.152855 -0.344746 0.833666 -0.886321 -1.183267 -1.366835 0.493020 -0.400092 -11.349762 2.940403 -5.997635 -12.696957 2.347181 -8.817074 -12.056636 0.691953 -11.821208 11.349762 6.004202 -0.117805 12.696957 9.786284 0.569786 12.056636 14.144822 1.673626 -19.960535 7.773054 -0.677138 -29.979280 11.929096 -1.638684 19.960535 -6.099540 -4.425079 29.979280 -8.065541 -6.196250
1.964575 0.000000 0.581273 3.572363 0.000000 2.946862 5.476377 -3.078489 -2.345443 -1.085678 -0.059224 -1.339131 -2.787043 1.133019 -0.368971 1.057484 -0.983483 -1.190355 -1.296539 0.453524 -0.414621 -10.168416 2.283509 -6.158619 -10.972580 1.403009 -9.020083 -9.771099 -0.533020 -12.052182 10.168416 6.534206 0.157068 10.972580 10.444551 0.953596 9.771099 14.869221 2.163375 -19.995614 7.864508 -0.851627 -29.906301 11.982309 -1.897425 19.995614 -5.808759 -4.304383 29.906301 -7.569987 -6.002222
1.958446 0.000000 0.566761 3.498317 0.000000 2.937668 5.831749 -3.139490 -2.320804 -0.828753 -0.195058 -1.362996 -2.738111 1.109824 -0.392879 1.277794 -1.075135 -1.195508 -1.223365 0.412325 -0.428699 -8.959199 1.616038 -6.311331 -9.218128 0.452340 -9.210977 -7.458779 -1.755524 -12.266967 8.959199 7.033947 0.431730 9.218128 11.054446 1.336124 7.458779 15.524754 2.650219 -19.995614 7.932648 -1.025384 -29.780856 12.000000 -2.154535 19.995614 -5.500757 -4.179987 29.780856 -7.051991 -5.803034
1.951834 0.000000 0.552187 3.422736 0.000000 2.927750 6.164106 -3.179556 -2.291675 -0.569557 -0.329989 -1.385031 -2.684375 1.083338 -0.416449 1.493867 -1.160761 -1.198717 -1.147475 0.369580 -0.442311 -7.725425 0.941083 -6.455565 -7.438409 -0.500424 -9.389498 -5.126016 -2.969897 -12.465276 7.725425 7.501111 0.705812 7.438409 11.613142 1.716858 5.126016 16.108384 3.133504 -19.960535 7.977271 -1.198260 -29.603165 11.982116 -2.409793 19.960535 -5.176448 -4.051997 29.603165 -6.513089 -5.598856
1.944740 0.000000 0.537552 3.345653 0.000000 2.917110 6.472136 -3.198421 -2.258114 -0.308800 -0.463391 -1.405204 -2.625930 1.053642 -0.439661 1.704985 -1.239884 -1.199979 -1.069037 0.325449 -0.455441 -6.470476 0.261769 -6.591128 -5.638302 -1.450871 -9.555407 -2.779203 -4.170516 -12.646840 6.470476 7.933533 0.978946 5.638302 12.118053 2.095286 2.779203 16.617410 3.612579 -19.890438 7.998245 -1.370105 -29.373540 11.928711 -2.662979 19.890438 -4.836793 -3.920524 29.373540 -5.954880 -5.389866
1.937166 0.000000 0.522858 3.267103 0.000000 2.905749 6.754623 -3.195958 -2.220185 -0.047197 -0.594647 -1.423491 -2.562878 1.020821 -0.462495 1.910449 -1.312058 -1.199290 -0.988226 0.280096 -0.468076 -5.197792 -0.418757 -6.717838 -3.822741 -2.394598 -9.708481 -0.424772 -5.351819 -12.811418 5.197792 8.329212 1.250766 3.822741 12.566840 2.470899 0.424772 17.049473 4.086802 -19.785447 7.995509 -1.540773 -29.092384 11.839943 -2.913875 19.785447 -4.482799 -3.785680 29.092384 -5.379016 -5.176242
1.929115 0.000000 0.508107 3.187120 0.000000 2.893672 7.010453 -3.172184 -2.177963 0.214536 -0.723148 -1.439865 -2.495330 0.984975 -0.484931 2.109578 -1.376881 -1.196652 -0.905220 0.233692 -0.480201 -3.910862 -1.097343 -6.835525 -1.996702 -3.327235 -9.848514 1.930824 -6.508335 -12.958786 3.910862 8.686315 1.520905 1.996702 12.957424 2.843193 -1.930824 17.402572 4.555535 -19.645745 7.969069 -1.710116 -28.760190 11.716075 -3.162267 19.645745 -4.115516 -3.647582 28.760190 -4.787207 -4.958168
1.920587 0.000000 0.493300 3.105739 0.000000 2.880881 7.238616 -3.127258 -2.131527 0.475681 -0.848301 -1.454305 -2.423405 0.946208 -0.506950 2.301710 -1.433988 -1.192070 -0.820205 0.186412 -0.491804 -2.613212 -1.770847 -6.944029 -0.165191 -4.244462 -9.975319 4.281127 -7.634708 -13.088749 2.613212 9.003188 1.789001 0.165191 13.287996 3.211668 -4.281127 17.675073 5.018149 -19.471578 7.919005 -1.877988 -28.377540 11.557475 -3.407940 19.471578 -3.736033 -3.506348 28.377540 -4.181205 -4.735831
1.911586 0.000000 0.478439 3.022996 0.000000 2.867379 7.438212 -3.061479 -2.080970 0.735522 -0.969525 -1.466792 -2.347227 0.904637 -0.528534 2.486209 -1.483059 -1.185550 -0.733368 0.138432 -0.502872 -1.308399 -2.436150 -7.043207 1.666774 -5.142030 -10.088725 6.619695 -8.725722 -13.201130 1.308399 9.278363 2.054694 -1.666774 13.557026 3.575830 -6.619695 17.865712 5.474023 -19.263251 7.845464 -2.044247 -27.945107 11.364611 -3.650683 19.263251 -3.345473 -3.362099 27.945107 -3.562809 -4.509423
