HIERARCHY
ROOT Hips
{
    OFFSET 0.0 0.0 0.0
    CHANNELS 6 Xposition Yposition Zposition Zrotation Xrotation Yrotation
    JOINT Spine
    {
        OFFSET 0.0 5.0 0.0
        CHANNELS 3 Zrotation Xrotation Yrotation
        JOINT Chest
        {
            OFFSET 0.0 5.0 0.0
            CHANNELS 3 Zrotation Xrotation Yrotation
            JOINT Neck
            {
                OFFSET 0.0 8.0 0.0
                CHANNELS 3 Zrotation Xrotation Yrotation
                JOINT Head
                {
                    OFFSET 0.0 5.0 0.0
                    CHANNELS 3 Zrotation Xrotation Yrotation
                    End Site
                    {
                        OFFSET 0.0 3.0 0.0
                    }
                }
            }
            JOINT LeftShoulder
            {
                OFFSET -5.0 0.0 0.0
                CHANNELS 3 Zrotation Xrotation Yrotation
                JOINT LeftArm
                {
                    OFFSET 0.0 -10.0 0.0
                    CHANNELS 3 Zrotation Xrotation Yrotation
                    JOINT LeftForeArm
                    {
                        OFFSET 0.0 -10.0 0.0
                        CHANNELS 3 Zrotation Xrotation Yrotation
                        End Site
                        {
                            OFFSET 0.0 -3.0 0.0
                        }
                    }
                }
            }
        }
    }
}

MOTION
Frames: 300
Frame Time: 0.033333

960.000000 445.000000 88.467677 0.000000 0.000000 0.000000 0.000000 0.000000 0.000000 23.025492 -14.249695 0.000000 180.000000 0.511774 0.000000 21.801409 -1.059147 -0.000000 158.198591 14.219922 30.000000 15.945396 -11.223970 0.000000 18.000000 0.221849 0.000000
1691.525230 140.756605 105.438245 0.000000 0.000000 0.000000 0.000000 0.000000 0.000000 -163.376529 2.901525 4.973798 16.623471 10.408822 4.973798 -171.853121 -4.409550 3.759997 99.744051 -11.290723 29.763441 -171.126653 -3.737364 -3.759997 0.673538 0.431261 0.313953
1636.048050 128.802021 100.485167 0.000000 0.000000 0.000000 0.000000 0.000000 0.000000 157.904128 -23.124744 9.635073 -22.095872 -11.084200 9.635073 -171.936471 -3.713610 7.460697 -143.675701 -1.462227 29.057495 -173.500805 -4.154938 -7.460697 0.570999 0.448287 0.626666
1578.156967 80.474526 105.782906 0.000000 0.000000 0.000000 0.000000 0.000000 0.000000 -139.519796 -4.270637 13.690942 40.480204 15.543191 13.690942 -174.507724 -4.588761 11.043737 119.111399 -6.892008 27.893295 -173.607258 -3.626499 -11.043737 0.461920 0.484856 0.936907
960.418757 444.998421 119.447395 0.000000 0.000000 0.000000 0.000000 0.000000 0.000000 25.077893 -36.723137 16.886559 180.000000 0.788811 16.886559 23.861935 12.159173 14.452610 156.138065 10.928139 26.289200 17.903699 -5.796203 -14.452610 18.000000 0.272017 1.243449
960.523360 444.997533 111.435288 0.000000 0.000000 0.000000 0.000000 0.000000 0.000000 25.638906 -27.651754 19.021130 180.000000 9.471721 19.021130 24.425035 14.128745 17.633558 155.574965 15.755434 24.270510 18.452907 -6.857808 -17.633558 18.000000 0.301910 1.545085
960.627905 444.996447 119.739973 0.000000 0.000000 0.000000 0.000000 0.000000 0.000000 26.219073 37.433735 19.960535 180.000000 -11.416851 19.960535 25.006291 0.353802 20.536413 154.993709 -9.468541 21.869059 19.024920 -0.461565 -20.536413 18.000000 -0.500170 1.840623
1126.242828 420.359820 141.717806 0.000000 0.000000 0.000000 0.000000 0.000000 0.000000 31.410514 4.574427 19.645745 -148.589486 0.235694 19.645745 32.280463 -1.004378 23.115397 -131.603972 -4.088355 19.122720 45.585331 0.858750 -23.115397 -13.449727 -0.087412 2.128896
1257.895088 650.549197 130.161746 0.000000 0.000000 0.000000 0.000000 0.000000 0.000000 25.073180 -25.323646 18.096541 -154.926820 18.521693 18.096541 46.260945 -4.475938 25.329838 -154.651428 -5.007035 16.074804 27.339487 5.746153 -25.329838 -13.619892 -2.478101 2.408768
960.941083 444.992008 146.434605 0.000000 0.000000 0.000000 0.000000 0.000000 0.000000 28.072001 -15.902206 15.410265 180.000000 15.105504 15.410265 26.849221 -5.292319 27.144812 153.150779 3.116255 12.773379 20.864045 -2.187254 -27.144812 18.000000 0.536903 2.679134
1163.815842 547.748709 148.115345 0.000000 0.000000 0.000000 0.000000 0.000000 0.000000 117.162728 -9.312397 11.755705 -62.837272 2.786314 11.755705 102.363764 -1.033412 28.531695 -47.376450 5.758678 9.270510 104.768601 -0.395830 -28.531695 -6.003489 -0.109307 2.938926
961.149372 444.988063 141.045746 0.000000 0.000000 0.000000 0.000000 0.000000 0.000000 29.395983 -21.925417 7.362491 180.000000 21.513364 7.362491 28.146217 -5.237260 29.468618 151.853783 11.461421 5.621439 22.170006 -9.544913 -29.468618 18.000000 0.776907 3.187120
1136.717377 590.104480 136.447276 0.000000 0.000000 0.000000 0.000000 0.000000 0.000000 115.752126 0.021336 2.506665 -64.247874 -3.543915 2.506665 73.638146 1.629337 29.940802 -21.842452 1.412634 1.883716 75.369282 4.099266 -29.940802 -6.767207 -0.608945 3.422736
1163.079758 634.077559 157.979895 0.000000 0.000000 0.000000 0.000000 0.000000 0.000000 132.174340 -1.281563 -2.506665 -47.825660 1.891648 -2.506665 94.255711 -0.378341 29.940802 -149.364979 -6.641487 -1.883716 30.021641 4.979206 -29.940802 -5.096180 0.715509 3.644843
961.460830 444.980668 148.180443 0.000000 0.000000 0.000000 0.000000 0.000000 0.000000 31.497152 -22.928114 -7.362491 180.000000 6.306172 -7.362491 30.152455 -8.195534 29.468618 149.847545 2.743144 -5.621439 24.175589 -3.842203 -29.468618 18.000000 0.597161 3.852566
1097.449951 565.089898 140.079181 0.000000 0.000000 0.000000 0.000000 0.000000 0.000000 -119.219568 6.051335 -11.755705 60.780432 -9.186765 -11.755705 -150.180642 -6.197707 28.531695 48.804955 -2.163137 -9.270510 -149.874178 -6.275677 -28.531695 2.713854 0.577318 4.045085
1114.140244 528.302071 159.316744 0.000000 0.000000 0.000000 0.000000 0.000000 0.000000 -142.671523 -3.415024 -15.410265 37.328477 -0.446990 -15.410265 -177.395681 0.144070 27.144812 34.687329 -2.962001 -12.773379 161.894167 4.542819 -27.144812 -0.910956 -0.119644 4.221640
1116.433640 479.728639 157.205256 0.000000 0.000000 0.000000 0.000000 0.000000 0.000000 -102.267481 -13.639546 -18.096541 77.732519 15.479902 -18.096541 -163.695626 -7.883590 25.329838 38.575767 1.620991 -16.074804 -176.001122 -1.307959 -25.329838 0.706594 0.132660 4.381533
1135.931282 466.493965 160.648411 0.000000 0.000000 0.000000 0.000000 0.000000 0.000000 -112.868406 1.730658 -19.645745 67.131594 -16.509670 -19.645745 -159.517862 -4.461280 23.115397 36.204678 -3.604399 -19.122720 -154.426613 -6.047447 -23.115397 2.428729 0.498341 4.524135
1141.618767 467.420679 157.831007 0.000000 0.000000 0.000000 0.000000 0.000000 0.000000 -123.086385 -11.306391 -19.960535 56.913615 -2.948453 -19.960535 -154.885724 1.093375 20.536413 36.481623 -0.707492 -21.869059 -153.965441 -5.716476 -20.536413 2.446728 0.487344 4.648882
1150.647926 469.370956 128.057104 0.000000 0.000000 0.000000 0.000000 0.000000 0.000000 -43.953779 2.335240 -19.021130 136.046221 28.004771 -19.021130 -154.327268 -7.600506 17.633558 60.745168 8.094986 -24.270510 -153.350642 -6.994191 -17.633558 2.386216 0.661286 4.755283
1151.529922 496.420240 148.129244 0.000000 0.000000 0.000000 0.000000 0.000000 0.000000 -116.362129 7.192998 -16.886559 63.637871 -2.805296 -16.886559 -149.081043 3.421206 14.452610 35.941860 -2.901510 -26.289200 -156.847177 0.748932 -14.452610 2.056513 -0.030756 4.842916
1148.402367 515.713574 132.831934 0.000000 0.000000 0.000000 0.000000 0.000000 0.000000 -118.252650 -19.005049 -13.690942 61.747350 8.802898 -13.690942 -138.082896 5.525575 11.043737 -156.312677 -5.961785 -27.893295 21.649626 9.164321 -11.043737 2.962417 0.052174 4.911436
1175.363617 533.368646 124.091755 0.000000 0.000000 0.000000 0.000000 0.000000 0.000000 -95.476638 -26.165110 -9.635073 84.523362 9.841986 -9.635073 -113.907461 5.399218 7.460697 -155.995907 -5.952205 -29.057495 12.512064 8.933684 -7.460697 -16.748794 -0.893368 4.960574
1199.533310 485.991104 144.832817 0.000000 0.000000 0.000000 0.000000 0.000000 0.000000 -100.003195 8.162675 -4.973798 79.996805 4.111803 -4.973798 -86.083188 -6.106315 3.759997 38.843754 -6.167713 -29.763441 -106.539452 1.623172 -3.759997 6.197806 -0.029419 4.990134
962.588190 444.938442 145.122433 0.000000 0.000000 0.000000 0.000000 0.000000 0.000000 39.579754 -24.210392 -0.000000 180.000000 -6.280779 -0.000000 36.680773 2.479179 0.000000 143.319227 -1.153115 -30.000000 29.388385 -4.517569 -0.000000 18.000000 -0.218239 5.000000
1142.094727 445.716287 105.810077 0.000000 0.000000 0.000000 0.000000 0.000000 0.000000 -140.228454 -19.091070 4.973798 39.771546 5.668052 4.973798 -156.118008 -6.137192 -3.759997 3.479189 -8.962224 -29.763441 -158.005660 -4.990486 3.759997 2.150019 0.432015 4.990134
1164.005928 424.847746 130.696225 0.000000 0.000000 0.000000 0.000000 0.000000 0.000000 -84.241076 -47.505394 9.635073 95.758924 54.538100 9.635073 -156.181584 -6.353708 -7.460697 166.928360 7.712889 -29.057495 -154.947270 -5.625285 7.460697 2.644196 0.673806 4.960574
1124.208755 418.286655 115.171611 0.000000 0.000000 0.000000 0.000000 0.000000 0.000000 -117.427077 23.309579 13.690942 62.572923 -18.908051 13.690942 -155.943063 -5.623913 -11.043737 14.023837 -16.284281 -27.893295 -157.382674 -5.260514 11.043737 2.188130 0.500196 4.911436
962.990408 444.917226 97.184727 0.000000 0.000000 0.000000 0.000000 0.000000 0.000000 42.110883 14.875511 16.886559 180.000000 3.372779 16.886559 37.946959 -11.013120 -14.452610 142.053041 -6.786064 -26.289200 29.293612 -1.312486 14.452610 18.000000 2.073001 4.842916
963.090170 444.911436 118.779218 0.000000 0.000000 0.000000 0.000000 0.000000 0.000000 42.659200 0.815307 19.021130 180.000000 -1.179210 19.021130 38.119107 -14.031342 -17.633558 141.880893 5.321514 -24.270510 29.068887 -12.475007 17.633558 18.000000 0.032902 4.755283
1186.646461 396.272757 118.674439 0.000000 0.000000 0.000000 0.000000 0.000000 0.000000 -72.847419 -10.018068 19.960535 107.152581 8.403109 19.960535 -156.703603 -4.643034 -20.536413 178.447294 0.398253 -21.869059 -157.212393 -4.661836 20.536413 1.964058 0.526505 4.648882
1313.051605 426.636125 96.435164 0.000000 0.000000 0.000000 0.000000 0.000000 0.000000 90.994869 -1.067240 19.645745 -89.005131 15.805795 19.645745 -160.515303 -4.419465 -23.115397 -153.248861 3.111404 -19.122720 -159.640525 -4.830013 23.115397 0.000000 0.000000 0.000000
1347.999344 420.772226 100.935087 0.000000 0.000000 0.000000 0.000000 0.000000 0.000000 90.154351 -0.318604 18.096541 -89.845649 -3.201173 18.096541 -162.053401 -3.778138 -25.329838 -136.198880 5.055103 -16.074804 -160.991694 -5.587254 25.329838 0.000000 0.000000 0.000000
1344.315948 421.031681 74.215598 0.000000 0.000000 0.000000 0.000000 0.000000 0.000000 69.757587 -3.462008 15.410265 -110.242413 10.920621 15.410265 25.616746 -0.203849 -27.144812 -157.821005 -3.069178 -12.773379 17.214985 3.076045 27.144812 -16.704706 -0.078688 4.221640
1350.307617 440.309436 82.163750 0.000000 0.000000 0.000000 0.000000 0.000000 0.000000 71.124018 0.308988 11.755705 -108.875982 3.232271 11.755705 42.739987 -5.575143 -28.531695 -142.315466 0.149071 -9.270510 16.600926 -1.825059 28.531695 -16.660102 0.145272 4.045085
1357.685051 430.688889 76.972387 0.000000 0.000000 0.000000 0.000000 0.000000 0.000000 77.656077 1.700513 7.362491 -102.343923 2.098762 7.362491 39.407151 1.228039 -29.468618 -136.343173 -0.872032 -5.621439 22.144452 0.707321 29.468618 -16.305135 -0.109349 3.852566
1369.482193 445.909406 69.288146 0.000000 0.000000 0.000000 0.000000 0.000000 0.000000 88.051188 1.568922 2.506665 -91.948812 -6.195501 2.506665 -161.283973 -3.048894 -29.940802 -119.799169 -3.513514 -1.883716 -164.575400 -3.140474 29.940802 1.401013 0.382365 3.644843
963.875156 444.858159 85.587856 0.000000 0.000000 0.000000 0.000000 0.000000 0.000000 45.304844 32.391544 -2.506665 180.000000 14.021571 -2.506665 37.252439 -9.594223 -29.940802 142.747561 -5.235237 1.883716 25.146244 -5.943480 29.940802 18.000000 0.442893 3.422736
963.971479 444.850633 63.152761 0.000000 0.000000 0.000000 0.000000 0.000000 0.000000 45.383640 12.075004 -7.362491 180.000000 0.566430 -7.362491 36.882310 -3.651728 -29.468618 143.117690 10.557535 5.621439 24.499789 -10.620214 29.468618 18.000000 0.674816 3.187120
1336.629524 469.010178 44.091018 0.000000 0.000000 0.000000 0.000000 0.000000 0.000000 -72.390177 8.685869 -11.755705 107.609823 4.685356 -11.755705 -158.649984 -2.724696 -28.531695 2.583425 0.823125 9.270510 -39.658551 -3.980178 28.531695 10.837181 -0.269463 2.938926
1311.966934 518.219100 60.475639 0.000000 0.000000 0.000000 0.000000 0.000000 0.000000 -63.565072 -53.413252 -15.410265 116.434928 32.187642 -15.410265 -14.840750 -2.658870 -27.144812 -158.549348 -1.766580 12.773379 17.488774 2.076199 27.144812 7.174982 4.009852 2.679134
964.257793 444.826908 61.741004 0.000000 0.000000 0.000000 0.000000 0.000000 0.000000 45.262206 5.089248 -18.096541 180.000000 -12.863995 -18.096541 35.497192 21.299373 -25.329838 144.502808 3.319576 16.074804 22.522929 -2.143075 25.329838 18.000000 -0.254534 2.408768
1275.921364 516.836239 44.401126 0.000000 0.000000 0.000000 0.000000 0.000000 0.000000 85.186295 -0.566501 -19.645745 -94.813705 -0.510275 -19.645745 52.470689 -2.923712 -23.115397 -44.513683 -1.150948 19.122720 50.867598 -5.731208 23.115397 -8.717188 0.837109 2.128896
1263.254128 546.875424 45.238376 0.000000 0.000000 0.000000 0.000000 0.000000 0.000000 34.848242 2.678083 -19.960535 -145.151758 -17.611795 -19.960535 42.487561 -50.042612 -20.536413 -157.415675 -2.603572 21.869059 22.420880 2.267674 20.536413 -15.757912 -0.226767 1.840623
1258.788185 528.263061 51.905748 0.000000 0.000000 0.000000 0.000000 0.000000 0.000000 118.326865 -18.083359 -19.021130 -61.673135 -18.138532 -19.021130 143.214759 7.668393 -17.633558 -156.228306 -2.320884 24.270510 28.173554 1.813789 17.633558 -15.182645 -0.181379 1.545085
1231.492081 471.383836 54.786066 0.000000 0.000000 0.000000 0.000000 0.000000 0.000000 -115.049381 5.139290 -16.886559 64.950619 -22.013086 -16.886559 172.843704 2.037014 -14.452610 -157.842300 -2.511336 26.289200 32.851042 2.430029 14.452610 -14.714896 -0.243003 1.243449
1223.928795 435.993515 61.662726 0.000000 0.000000 0.000000 0.000000 0.000000 0.000000 -115.322532 8.055879 -13.690942 64.677468 -14.844895 -13.690942 -168.597862 0.286359 -11.043737 -158.853816 -2.516911 27.893295 31.099266 3.536051 11.043737 -14.890073 -0.353605 0.936907
1223.669701 418.195664 55.596997 0.000000 0.000000 0.000000 0.000000 0.000000 0.000000 -102.084053 9.199973 -9.635073 77.915947 -12.392273 -9.635073 -171.103858 -2.993399 -7.460697 162.056334 -0.464333 29.057495 -153.594437 -3.003649 7.460697 2.968481 0.237045 0.626666
1216.486244 414.503002 70.054531 0.000000 0.000000 0.000000 0.000000 0.000000 0.000000 69.261091 -34.794979 -4.973798 -110.738909 39.771747 -4.973798 -158.083722 -2.796353 -3.759997 -173.244581 2.382566 29.763441 -154.635509 -2.626646 3.759997 2.928763 0.339657 0.313953
1212.090225 434.550980 52.595199 0.000000 0.000000 0.000000 0.000000 0.000000 0.000000 -112.403932 -26.562435 0.000000 67.596068 44.084301 0.000000 -157.060799 -3.370759 -0.000000 173.400765 7.694178 30.000000 -154.473580 -3.190645 0.000000 2.734633 0.414155 0.000000
1214.024734 450.340490 65.442436 0.000000 0.000000 0.000000 0.000000 0.000000 0.000000 -110.634751 -4.452185 4.973798 69.365249 9.064202 4.973798 -137.583343 -4.525192 3.759997 -158.589698 -2.449232 29.763441 20.879446 3.504326 -3.759997 -15.912055 -0.350433 0.313953
1204.271393 440.192921 50.496431 0.000000 0.000000 0.000000 0.000000 0.000000 0.000000 -99.498286 -2.000739 9.635073 80.501714 -4.514320 9.635073 -156.696469 -2.429362 7.460697 -178.487725 -12.952995 29.057495 -157.318323 -2.071362 -7.460697 2.108583 0.260545 0.626666
965.269558 444.725315 61.383464 0.000000 0.000000 0.000000 0.000000 0.000000 0.000000 40.845461 3.250316 13.690942 180.000000 -3.115610 13.690942 28.615377 7.278062 11.043737 151.384623 -1.527169 27.893295 16.305092 -5.660143 -11.043737 18.000000 0.524575 0.936907
1182.456551 475.103824 67.242531 0.000000 0.000000 0.000000 0.000000 0.000000 0.000000 -168.146016 -75.466735 16.886559 11.853984 82.393560 16.886559 -63.802645 -11.248984 14.452610 -61.114510 9.301871 26.289200 -47.869281 -8.101017 -14.452610 -13.834956 7.681869 1.243449
965.446390 444.704404 73.662750 0.000000 0.000000 0.000000 0.000000 0.000000 0.000000 39.578146 -31.379013 19.021130 180.000000 19.240129 19.021130 27.338029 -19.022903 17.633558 152.661971 19.178497 24.270510 15.463180 -9.570421 -17.633558 18.000000 0.041283 1.545085
965.533915 444.693669 50.701584 0.000000 0.000000 0.000000 0.000000 0.000000 0.000000 38.916706 -28.205943 19.960535 180.000000 25.760261 19.960535 26.716768 -12.639575 20.536413 153.283232 5.558664 21.869059 15.076605 -0.112607 -20.536413 18.000000 0.469428 1.840623
965.620834 444.682749 73.164017 0.000000 0.000000 0.000000 0.000000 0.000000 0.000000 38.241653 -24.575217 19.645745 180.000000 29.334094 19.645745 26.109467 -10.991658 23.115397 153.890533 3.911813 19.122720 14.712258 5.280160 -23.115397 18.000000 -0.158996 2.128896
965.707136 444.671645 66.887651 0.000000 0.000000 0.000000 0.000000 0.000000 0.000000 37.556504 -23.057298 18.096541 180.000000 22.289727 18.096541 25.517536 -3.522099 25.329838 154.482464 5.557477 16.074804 14.369537 5.185310 -25.329838 18.000000 -0.446157 2.408768
965.792812 444.660356 81.141229 0.000000 0.000000 0.000000 0.000000 0.000000 0.000000 36.864608 -7.225099 15.410265 180.000000 22.389430 15.410265 24.942131 -2.130281 27.144812 155.057869 7.970434 12.773379 14.047797 3.138969 -27.144812 18.000000 0.748178 2.679134
965.877853 444.648882 86.035753 0.000000 0.000000 0.000000 0.000000 0.000000 0.000000 36.169118 -3.457583 11.755705 180.000000 5.537946 11.755705 24.384173 -3.990972 28.531695 155.615827 1.213793 9.270510 13.746367 8.414336 -28.531695 18.000000 -0.505477 2.938926
965.962249 444.637226 92.363073 0.000000 0.000000 0.000000 0.000000 0.000000 0.000000 35.472980 -32.270128 7.362491 180.000000 -6.939957 7.362491 23.844373 19.506157 29.468618 156.155627 0.140984 5.621439 13.464570 -1.909684 -29.468618 18.000000 0.212780 3.187120
966.045991 444.625386 79.400028 0.000000 0.000000 0.000000 0.000000 0.000000 0.000000 34.778913 -11.020045 2.506665 180.000000 8.298241 2.506665 23.323250 8.058360 29.940802 156.676750 3.291233 1.883716 13.201728 4.324302 -29.940802 18.000000 -0.591849 3.422736
966.129071 444.613364 112.298180 0.000000 0.000000 0.000000 0.000000 0.000000 0.000000 34.089406 -21.977040 -2.506665 180.000000 14.606383 -2.506665 22.821158 0.013029 29.940802 157.178842 13.253949 -1.883716 12.957175 -1.882413 -29.940802 18.000000 -0.212406 3.644843
966.211478 444.601159 110.393615 0.000000 0.000000 0.000000 0.000000 0.000000 0.000000 33.406712 30.044406 -7.362491 180.000000 10.441024 -7.362491 22.338307 -4.156080 29.468618 157.661693 -8.329716 -5.621439 12.730264 8.774710 -29.468618 18.000000 -0.535779 3.852566
1171.486244 534.946783 112.584882 0.000000 0.000000 0.000000 0.000000 0.000000 0.000000 70.594720 -7.788025 -11.755705 -109.405280 7.944346 -11.755705 49.953444 4.871714 28.531695 -151.467583 -4.202219 -9.270510 0.000000 0.000000 0.000000 0.000000 0.000000 0.000000
966.374240 444.576206 121.605029 0.000000 0.000000 0.000000 0.000000 0.000000 0.000000 32.069603 -13.279220 -15.410265 180.000000 2.459464 -15.410265 21.430544 7.770868 27.144812 158.569456 3.802380 -12.773379 12.326901 0.857209 -27.144812 18.000000 -0.220243 4.221640
1172.156410 555.047708 126.995808 0.000000 0.000000 0.000000 0.000000 0.000000 0.000000 -121.065102 7.244565 -18.096541 58.934898 -13.647290 -18.096541 -151.641456 -5.882666 25.329838 -177.360623 -3.145898 -16.074804 -149.076048 -6.854306 -25.329838 0.000000 0.000000 0.000000
1161.826630 552.360713 121.513287 0.000000 0.000000 0.000000 0.000000 0.000000 0.000000 69.958407 -7.110859 -19.645745 -110.041593 38.159671 -19.645745 -152.437496 -6.538093 23.115397 -158.790607 1.532374 -19.122720 -150.591725 -7.053137 -23.115397 3.219062 0.808983 4.524135
1165.827255 569.832902 116.909273 0.000000 0.000000 0.000000 0.000000 0.000000 0.000000 25.594208 -9.974442 -19.960535 -154.405792 3.479062 -19.960535 11.723883 1.621065 20.536413 -161.543160 0.265023 -21.869059 7.769582 0.008178 -20.536413 -17.248199 -0.074338 4.648882
1165.555573 565.067046 134.171762 0.000000 0.000000 0.000000 0.000000 0.000000 0.000000 43.355707 -6.600008 -19.021130 -136.644293 -8.587214 -19.021130 15.984329 2.224117 17.633558 -140.773833 -1.059213 -24.270510 13.679449 -1.333084 -17.633558 -16.392157 0.014376 4.755283
1290.255775 608.533316 143.485552 0.000000 0.000000 0.000000 0.000000 0.000000 0.000000 -153.952071 -4.645490 -16.886559 26.047929 -2.650385 -16.886559 -152.683807 -5.023798 14.452610 4.794196 -0.019325 -26.289200 -154.287190 -4.953568 -14.452610 2.418080 0.523563 4.842916
1180.398903 551.817470 145.650892 0.000000 0.000000 0.000000 0.000000 0.000000 0.000000 51.640104 -23.660474 -13.690942 -128.359896 -1.544802 -13.690942 14.419400 -3.086821 11.043737 -33.521359 10.441558 -27.893295 -34.277510 -1.627165 -11.043737 5.235387 1.638520 4.911436
1162.708626 619.419501 141.766738 0.000000 0.000000 0.000000 0.000000 0.000000 0.000000 -88.968325 1.256469 -9.635073 91.031675 21.215298 -9.635073 -52.690088 -4.101239 7.460697 25.015222 2.229742 -29.057495 -72.561734 0.850925 -7.460697 8.557489 -0.127615 4.960574
1110.899391 602.919216 146.184762 0.000000 0.000000 0.000000 0.000000 0.000000 0.000000 -86.972237 -1.192020 -4.973798 93.027763 2.946987 -4.973798 -39.551144 -1.961835 3.759997 34.838085 -2.106874 -29.763441 -44.185810 -2.440304 -3.759997 10.000609 0.133598 4.990134
1150.187302 553.686991 166.721179 0.000000 0.000000 0.000000 0.000000 0.000000 0.000000 -116.065142 16.378619 -0.000000 63.934858 -25.091812 -0.000000 -151.059314 -6.423404 0.000000 -0.492058 -16.226950 -30.000000 -14.044098 6.848467 -0.000000 1.929760 0.708796 5.000000
967.144727 444.440682 153.702637 0.000000 0.000000 0.000000 0.000000 0.000000 0.000000 26.270296 7.270912 4.973798 180.000000 10.619759 4.973798 17.996647 -8.523558 -3.759997 162.003353 -2.429488 -29.763441 11.189167 2.244430 3.759997 18.000000 -0.271851 4.990134
1213.452644 620.002785 174.641206 0.000000 0.000000 0.000000 0.000000 0.000000 0.000000 140.390379 28.753630 9.635073 -39.609621 -47.305598 9.635073 77.724607 8.143536 -7.460697 -153.982965 -7.450368 -29.057495 24.142749 5.705948 7.460697 -0.833727 1.268987 4.960574
1124.373779 618.464527 140.649978 0.000000 0.000000 0.000000 0.000000 0.000000 0.000000 99.329635 -10.722531 13.690942 -80.670365 -22.716164 13.690942 85.960927 4.653643 -11.043737 -150.875293 -7.314518 -27.893295 31.644098 6.563644 11.043737 -14.835590 -0.656364 4.911436
967.360971 444.396582 161.942698 0.000000 0.000000 0.000000 0.000000 0.000000 0.000000 24.874716 -7.949932 16.886559 180.000000 -17.159593 16.886559 17.291102 7.059371 -14.452610 162.708898 -6.646848 -26.289200 11.098846 5.477108 14.452610 18.000000 -0.026996 4.842916
1107.875175 542.453964 151.039457 0.000000 0.000000 0.000000 0.000000 0.000000 0.000000 -128.741314 -4.022092 19.021130 51.258686 -5.863770 19.021130 -177.225595 0.303510 -17.633558 19.954750 -1.934505 -24.270510 162.677362 0.233724 17.633558 -1.443098 0.290730 4.755283
1119.652290 522.766346 161.881131 0.000000 0.000000 0.000000 0.000000 0.000000 0.000000 -99.017754 -4.371028 19.960535 80.982246 13.088456 19.960535 -150.289603 -7.773737 -20.536413 -152.613833 -7.336891 -21.869059 0.000000 0.000000 0.000000 0.000000 0.000000 0.000000
1132.908783 538.229613 152.163501 0.000000 0.000000 0.000000 0.000000 0.000000 0.000000 -127.874185 11.247818 19.645745 52.125815 -16.967644 19.645745 -165.450188 -0.327329 -23.115397 -152.521515 -7.938997 -19.122720 40.606225 8.040710 23.115397 -13.939378 -0.804071 4.524135
1146.969337 541.828065 152.280464 0.000000 0.000000 0.000000 0.000000 0.000000 0.000000 -113.631604 -4.989863 18.096541 66.368396 -0.248200 18.096541 -159.067475 2.176418 -25.329838 113.981862 3.193565 -16.074804 -145.449815 -7.048696 25.329838 0.000000 0.000000 0.000000
1165.252304 561.329677 142.430275 0.000000 0.000000 0.000000 0.000000 0.000000 0.000000 -112.861399 -9.248862 15.410265 67.138601 1.403333 15.410265 -159.396543 4.735504 -27.144812 -151.967552 -6.696716 -12.773379 38.422588 8.908214 27.144812 -14.157741 -0.890821 4.221640
1174.726181 592.839689 154.414477 0.000000 0.000000 0.000000 0.000000 0.000000 0.000000 -110.369899 -14.374234 11.755705 69.630101 -0.531076 11.755705 -148.108768 7.697364 -28.531695 -151.515612 -6.275780 -9.270510 34.277732 9.099323 28.531695 -14.572227 -0.909932 4.045085
1167.352524 605.194867 117.163664 0.000000 0.000000 0.000000 0.000000 0.000000 0.000000 -113.828445 6.361347 7.362491 66.171555 7.019046 7.362491 -131.688453 1.520300 -29.468618 -151.045756 -6.670886 -5.621439 27.200835 8.909442 29.468618 -15.279916 -0.890944 3.852566
1139.678879 602.981014 145.800358 0.000000 0.000000 0.000000 0.000000 0.000000 0.000000 -97.599684 13.882296 2.506665 82.400316 -3.645413 2.506665 -113.965806 0.337419 -29.940802 -121.058781 -3.338666 -1.883716 -118.492407 9.307159 29.940802 10.137620 -8.073126 3.644843
1165.830002 580.020189 128.317830 0.000000 0.000000 0.000000 0.000000 0.000000 0.000000 -28.085052 53.064149 -2.506665 151.914948 -13.276400 -2.506665 -150.589103 -5.940118 -29.940802 -172.678414 -9.900414 1.883716 -149.717924 -5.766649 29.940802 0.000000 0.000000 0.000000
1184.501953 619.872494 145.879183 0.000000 0.000000 0.000000 0.000000 0.000000 0.000000 -113.790307 35.328774 -7.362491 66.209693 -36.117525 -7.362491 -59.272274 4.499099 -29.468618 29.476823 -6.277324 5.621439 -88.148483 -1.721316 29.468618 7.414604 0.306692 3.187120
968.090170 444.221640 113.050114 0.000000 0.000000 0.000000 0.000000 0.000000 0.000000 21.092887 16.644476 -11.755705 180.000000 -2.681399 -11.755705 15.757771 -0.422177 -28.531695 164.242229 -3.224758 9.270510 11.678908 1.568006 28.531695 18.000000 -0.144137 2.938926
968.151278 444.204723 118.210362 0.000000 0.000000 0.000000 0.000000 0.000000 0.000000 20.844337 -5.695862 -15.410265 180.000000 -0.105239 -15.410265 15.691895 -1.707788 -27.144812 164.308105 -1.933749 12.773379 11.804629 0.106297 27.144812 18.000000 0.097874 2.679134
968.211492 444.187640 118.543653 0.000000 0.000000 0.000000 0.000000 0.000000 0.000000 20.610265 5.289653 -18.096541 180.000000 1.008216 -18.096541 15.637361 -0.204642 -25.329838 164.362639 0.546803 16.074804 11.943263 3.527565 25.329838 18.000000 -0.334391 2.408768
968.270806 444.170392 99.740496 0.000000 0.000000 0.000000 0.000000 0.000000 0.000000 20.390366 6.690378 -19.645745 180.000000 0.020040 -19.645745 15.594026 -1.635718 -23.115397 164.405974 3.971762 19.122720 12.095062 -6.016020 23.115397 18.000000 0.454172 2.128896
968.329212 444.152979 89.441544 0.000000 0.000000 0.000000 0.000000 0.000000 0.000000 20.184343 0.724613 -19.960535 180.000000 13.899698 -19.960535 15.561766 -2.142059 -20.536413 164.438234 6.002733 21.869059 12.260289 -2.308197 20.536413 18.000000 -0.643057 1.840623
968.386706 444.135403 81.604962 0.000000 0.000000 0.000000 0.000000 0.000000 0.000000 19.991916 15.258106 -19.021130 180.000000 -2.279639 -19.021130 15.540476 1.022594 -17.633558 164.459524 -3.962459 24.270510 12.439222 3.617892 17.633558 18.000000 -0.447848 1.545085
968.443279 444.117663 96.657337 0.000000 0.000000 0.000000 0.000000 0.000000 0.000000 19.812814 17.618547 -16.886559 180.000000 -10.798654 -16.886559 15.530069 1.284915 -14.452610 164.469931 -7.230128 26.289200 12.632146 0.617107 14.452610 18.000000 0.193940 1.243449
968.498927 444.099761 95.607669 0.000000 0.000000 0.000000 0.000000 0.000000 0.000000 19.646785 -5.372468 -13.690942 180.000000 2.183532 -13.690942 15.530474 7.916210 -11.043737 164.469526 4.447963 27.893295 12.839349 -2.541352 11.043737 18.000000 0.194728 0.936907
968.553643 444.081696 103.857418 0.000000 0.000000 0.000000 0.000000 0.000000 0.000000 19.493591 -7.697762 -9.635073 180.000000 -12.343725 -9.635073 15.541640 4.256322 -7.460697 164.458360 1.797568 29.057495 13.061119 4.463803 7.460697 18.000000 -0.502666 0.626666
1051.772690 653.004448 61.895327 0.000000 0.000000 0.000000 0.000000 0.000000 0.000000 -79.007834 1.470765 -4.973798 100.992166 -0.665576 -4.973798 -126.715299 -3.378663 -3.759997 -149.991181 -4.470181 29.763441 31.772279 3.620247 3.759997 -14.822772 -0.362025 0.313953
1061.669197 624.716241 65.379315 0.000000 0.000000 0.000000 0.000000 0.000000 0.000000 -94.718359 -1.255262 0.000000 85.281641 -7.065815 0.000000 -144.150484 0.073037 -0.000000 60.155085 -6.775268 30.000000 -152.711462 1.577969 0.000000 1.815393 -0.023334 0.000000
1072.053337 571.032879 60.222793 0.000000 0.000000 0.000000 0.000000 0.000000 0.000000 71.424080 -2.748314 4.973798 -108.575920 -2.152038 4.973798 -149.042361 -3.523227 3.759997 -149.913636 -3.877527 29.763441 -145.792107 -3.386036 -3.759997 3.947623 0.442234 0.313953
1070.057373 572.884376 74.335745 0.000000 0.000000 0.000000 0.000000 0.000000 0.000000 -80.850201 -18.159102 9.635073 99.149799 9.365273 9.635073 -147.567525 -3.173155 7.460697 -164.443014 -1.686226 29.057495 -145.447997 -3.262153 -7.460697 4.032371 0.499902 0.626666
968.813035 443.988972 63.023404 0.000000 0.000000 0.000000 0.000000 0.000000 0.000000 18.912944 -3.985308 13.690942 180.000000 10.349179 13.690942 15.758200 -4.417692 11.043737 164.241800 1.622383 27.893295 14.397395 1.732551 -11.043737 18.000000 -0.335391 0.936907
968.862036 443.969952 53.213909 0.000000 0.000000 0.000000 0.000000 0.000000 0.000000 18.832684 -0.958012 16.886559 180.000000 -7.073674 16.886559 15.833735 -2.348949 14.452610 164.166265 -5.009989 26.289200 14.711463 3.565514 -14.452610 18.000000 -0.148231 1.243449
968.910065 443.950775 47.607455 0.000000 0.000000 0.000000 0.000000 0.000000 0.000000 18.764066 -13.022307 19.021130 180.000000 2.844987 19.021130 15.920102 -2.818361 17.633558 164.079898 0.646656 24.270510 15.041323 -3.541212 -17.633558 18.000000 0.249461 1.545085
968.957118 443.931442 41.658780 0.000000 0.000000 0.000000 0.000000 0.000000 0.000000 18.706990 -16.527941 19.960535 180.000000 -2.707462 19.960535 16.017366 8.923970 20.536413 163.982634 2.011328 21.869059 15.386894 2.529411 -20.536413 18.000000 -0.880413 1.840623
969.003188 443.911954 43.900914 0.000000 0.000000 0.000000 0.000000 0.000000 0.000000 18.661377 22.873086 19.645745 180.000000 1.697084 19.645745 16.125602 0.831564 23.115397 163.874398 -11.484631 19.122720 15.747980 10.956681 -23.115397 18.000000 0.262440 2.128896
969.048271 443.892312 54.379417 0.000000 0.000000 0.000000 0.000000 0.000000 0.000000 18.627165 -20.507018 18.096541 180.000000 4.298437 18.096541 16.244896 2.643974 25.329838 163.755104 1.472905 16.074804 16.124252 2.642179 -25.329838 18.000000 0.023581 2.408768
969.092361 443.872515 63.764327 0.000000 0.000000 0.000000 0.000000 0.000000 0.000000 18.604312 6.965529 15.410265 180.000000 -10.767778 15.410265 16.375340 5.829774 27.144812 163.624660 4.626439 12.773379 16.515224 -8.019830 -27.144812 18.000000 0.374325 2.679134
1055.186234 577.357593 54.450552 0.000000 0.000000 0.000000 0.000000 0.000000 0.000000 85.510211 -2.420568 11.755705 -94.489789 3.184522 11.755705 37.103410 3.233433 28.531695 -148.111343 -2.578306 9.270510 24.294182 1.919007 -28.531695 -8.601915 0.487644 2.938926
1122.856522 566.714029 52.884710 0.000000 0.000000 0.000000 0.000000 0.000000 0.000000 96.216240 -0.268020 7.362491 -83.783760 0.511340 7.362491 46.189625 -2.189918 29.468618 -149.396962 -2.167390 5.621439 24.670091 1.333129 -29.468618 -7.107716 1.045877 3.187120
969.218632 443.812213 62.854432 0.000000 0.000000 0.000000 0.000000 0.000000 0.000000 18.603763 1.168854 2.506665 180.000000 -5.606553 2.506665 16.834613 9.121417 29.940802 163.165387 2.169920 1.883716 17.768624 -9.541385 -29.940802 18.000000 0.238473 3.422736
1112.757797 605.798106 51.977675 0.000000 0.000000 0.000000 0.000000 0.000000 0.000000 110.914625 -1.738608 -2.506665 -69.085375 9.529452 -2.506665 67.769469 -2.374815 29.940802 -149.822316 -2.207261 -1.883716 29.049901 2.758064 -29.940802 -3.625079 -0.055683 3.644843
1086.733246 592.557156 47.964750 0.000000 0.000000 0.000000 0.000000 0.000000 0.000000 -80.132323 -26.837035 -7.362491 99.867677 6.469770 -7.362491 36.201564 -0.384691 29.468618 -13.679556 0.840132 -5.621439 78.049842 6.637380 -29.468618 -5.127460 -0.592442 3.852566
1081.109390 570.394492 61.184205 0.000000 0.000000 0.000000 0.000000 0.000000 0.000000 -175.864613 14.866177 -11.755705 4.135387 -23.474636 -11.755705 134.713876 0.575511 28.531695 -10.005873 -4.976007 -9.270510 135.737755 2.082232 -28.531695 -3.389365 -0.104881 4.045085
1089.776802 536.594539 65.873380 0.000000 0.000000 0.000000 0.000000 0.000000 0.000000 -139.033903 -16.838218 -15.410265 40.966097 24.381052 -15.410265 161.695972 -7.237343 27.144812 3.114398 3.960554 -12.773379 148.805610 -0.333356 -27.144812 -2.611636 -0.000834 4.221640
1114.282036 523.965647 73.581919 0.000000 0.000000 0.000000 0.000000 0.000000 0.000000 -156.073983 9.348783 -18.096541 23.926017 -16.851307 -18.096541 174.825807 4.637540 25.329838 5.093343 -5.255046 -16.074804 161.266817 1.238942 -25.329838 -1.814366 0.070867 4.381533
1122.145157 503.425248 65.548028 0.000000 0.000000 0.000000 0.000000 0.000000 0.000000 -144.538174 -5.792410 -19.645745 35.461826 -9.470984 -19.645745 174.215003 5.365783 23.115397 -151.750905 -3.405635 -19.122720 43.887064 3.631342 -23.115397 -13.611294 -0.363134 4.524135
1134.158249 484.688419 66.015202 0.000000 0.000000 0.000000 0.000000 0.000000 0.000000 -142.311443 10.534994 -19.960535 37.688557 -15.840105 -19.960535 -174.407776 3.685544 20.536413 14.121014 -6.375856 -21.869059 176.737053 0.901648 -20.536413 -0.386439 0.024995 4.648882
1156.756668 500.025387 64.479085 0.000000 0.000000 0.000000 0.000000 0.000000 0.000000 -140.140767 2.653242 -19.021130 39.859233 -8.069499 -19.021130 -176.866589 2.624795 17.633558 -153.177991 -3.807311 -24.270510 40.555680 4.418466 -17.633558 -13.944432 -0.441847 4.755283
1163.818588 490.292573 72.547021 0.000000 0.000000 0.000000 0.000000 0.000000 0.000000 -126.918075 -3.413858 -16.886559 53.081925 -3.794613 -16.886559 -163.374411 -2.180289 14.452610 -153.952175 -4.326961 -26.289200 36.914642 5.365645 -14.452610 0.798233 -0.042600 4.842916
1176.523705 490.346003 96.962297 0.000000 0.000000 0.000000 0.000000 0.000000 0.000000 -130.072590 -0.600123 -13.690942 49.927410 6.212334 -13.690942 -150.224616 -3.793618 11.043737 24.749952 -5.200631 -27.893295 -162.219632 3.486096 -11.043737 1.550269 -0.021414 4.911436
1165.045052 489.521159 75.622086 0.000000 0.000000 0.000000 0.000000 0.000000 0.000000 -134.421293 2.597990 -9.635073 45.578707 7.278804 -9.635073 -138.114962 -2.161744 7.460697 20.347125 -0.775108 -29.057495 -149.675125 -0.116990 -7.460697 1.919618 0.029117 4.960574
1186.003189 485.341580 74.177636 0.000000 0.000000 0.000000 0.000000 0.000000 0.000000 151.263424 -85.060361 -4.973798 -28.736576 -4.005958 -4.973798 -155.571724 -3.642802 3.759997 -114.944239 28.237182 -29.763441 -157.446860 -5.414707 -3.759997 2.096391 0.353009 4.990134
1190.285912 497.609435 102.774112 0.000000 0.000000 0.000000 0.000000 0.000000 0.000000 -104.331435 -0.875592 -0.000000 75.668565 -20.451866 -0.000000 -153.934692 -3.433075 0.000000 -67.465008 -1.138083 -30.000000 -71.629168 7.695704 -0.000000 -13.965204 -8.330293 5.000000
846.875610 502.341399 111.882571 0.000000 0.000000 0.000000 0.000000 0.000000 0.000000 -153.358185 14.831883 4.973798 26.641815 2.020667 4.973798 -147.628169 -5.856125 -3.759997 -147.401289 -6.006192 -29.763441 0.000000 0.000000 0.000000 0.000000 0.000000 0.000000
969.711343 443.490827 96.146180 0.000000 0.000000 0.000000 0.000000 0.000000 0.000000 20.204512 27.505439 9.635073 180.000000 -8.740199 9.635073 20.733157 -7.862710 -7.460697 159.266843 -3.056482 -29.057495 24.065833 -3.338146 7.460697 18.000000 -0.464194 4.960574
969.735789 443.468267 114.973304 0.000000 0.000000 0.000000 0.000000 0.000000 0.000000 20.415894 23.942334 13.690942 180.000000 -10.539421 13.690942 21.087741 1.233487 -11.043737 158.912259 -8.937970 -27.893295 24.320336 -6.394416 11.043737 18.000000 0.882910 4.911436
969.759168 443.445569 110.195762 0.000000 0.000000 0.000000 0.000000 0.000000 0.000000 20.642061 6.593118 16.886559 180.000000 -7.279172 16.886559 21.453029 12.979509 -14.452610 158.546971 -7.302250 -26.289200 24.533304 1.158163 14.452610 18.000000 -1.245880 4.842916
585.252171 514.469179 125.121566 0.000000 0.000000 0.000000 0.000000 0.000000 0.000000 74.723181 58.271849 19.021130 -105.276819 -30.322053 19.021130 119.807175 7.032640 -17.633558 165.825978 0.773187 -24.270510 138.012220 -2.599983 17.633558 -12.357653 -0.772756 4.755283
624.843979 517.601860 121.800839 0.000000 0.000000 0.000000 0.000000 0.000000 0.000000 103.202449 1.472313 19.960535 -76.797551 -10.600419 19.960535 114.381580 5.427105 -20.536413 -53.015473 -74.351831 -21.869059 145.467160 2.341436 20.536413 -4.173333 0.495188 4.648882
969.822873 443.376664 124.149114 0.000000 0.000000 0.000000 0.000000 0.000000 0.000000 21.413420 -10.944797 19.645745 180.000000 -0.091315 19.645745 22.607712 -1.731796 -23.115397 157.392288 -6.254370 -19.122720 24.899813 20.348097 23.115397 18.000000 -1.818462 4.524135
969.841956 443.353428 126.567320 0.000000 0.000000 0.000000 0.000000 0.000000 0.000000 21.702987 -3.691108 18.096541 180.000000 0.111732 18.096541 23.009909 -0.022886 -25.329838 156.990091 16.420183 -16.074804 24.926562 -9.006392 25.329838 18.000000 -0.723120 4.381533
969.859960 443.330059 123.717411 0.000000 0.000000 0.000000 0.000000 0.000000 0.000000 22.009579 13.305626 15.410265 180.000000 -2.544239 15.410265 23.419334 -7.335944 -27.144812 156.580666 -0.862191 -12.773379 24.904993 2.481624 27.144812 18.000000 -0.483084 4.221640
594.905148 538.048757 137.800059 0.000000 0.000000 0.000000 0.000000 0.000000 0.000000 -57.080480 -8.001854 11.755705 122.919520 -5.939511 11.755705 -12.750556 2.014980 -28.531695 149.841027 4.966538 -9.270510 -8.274090 -6.403944 28.531695 17.596979 -0.086894 4.045085
969.892723 443.282929 124.754882 0.000000 0.000000 0.000000 0.000000 0.000000 0.000000 22.675903 -18.438662 7.362491 180.000000 0.733429 7.362491 24.255612 0.692254 -29.468618 155.744388 12.617949 -5.621439 24.720303 -4.931358 29.468618 18.000000 1.552234 3.852566
1257.001877 499.708382 151.600903 0.000000 0.000000 0.000000 0.000000 0.000000 0.000000 52.818511 -3.964479 2.506665 -127.181489 -2.280684 2.506665 25.369497 0.787667 -29.940802 -143.914951 -0.295510 -1.883716 14.556766 -0.754511 29.940802 -16.686776 -0.000156 3.644843
1279.050064 493.773898 137.111780 0.000000 0.000000 0.000000 0.000000 0.000000 0.000000 56.685213 -9.644799 -2.506665 -123.314787 -0.462947 -2.506665 24.065452 3.718444 -29.940802 -146.540317 -0.602348 1.883716 13.097461 3.285648 29.940802 -16.716891 -0.314188 3.422736
1295.108986 477.099677 145.744059 0.000000 0.000000 0.000000 0.000000 0.000000 0.000000 65.723361 7.344278 -7.362491 -114.276639 -6.692486 -7.362491 23.725299 1.749339 -29.468618 -147.984281 -6.559915 5.621439 13.187557 2.535815 29.468618 -16.751134 -0.104635 3.187120
1289.065018 496.763316 166.604999 0.000000 0.000000 0.000000 0.000000 0.000000 0.000000 61.662232 2.009768 -11.755705 -118.337768 1.384766 -11.755705 31.397757 1.235207 -28.531695 -148.047797 3.596641 9.270510 12.491083 -0.601661 28.531695 -16.898368 -0.155054 2.938926
1285.337105 480.691112 142.492460 0.000000 0.000000 0.000000 0.000000 0.000000 0.000000 58.021980 9.805355 -15.410265 -121.978020 -3.254817 -15.410265 31.705930 -3.153044 -27.144812 -157.028684 -1.154815 12.773379 11.107306 -0.184794 27.144812 -17.140016 0.000631 2.679134
1276.453171 465.093691 154.675635 0.000000 0.000000 0.000000 0.000000 0.000000 0.000000 70.157145 -4.836621 -18.096541 -109.842855 0.231186 -18.096541 40.303764 8.657694 -25.329838 -145.293609 3.149320 16.074804 10.431204 -0.274864 25.329838 -17.100572 -0.100880 2.408768
1253.658714 472.768564 141.520096 0.000000 0.000000 0.000000 0.000000 0.000000 0.000000 65.087926 11.688017 -19.645745 -114.912074 -15.646698 -19.645745 -157.680356 -6.406259 -23.115397 -137.727082 -4.194669 19.122720 -153.053596 4.942659 23.115397 -16.054219 -0.811157 2.128896
1366.101608 507.691247 143.264630 0.000000 0.000000 0.000000 0.000000 0.000000 0.000000 108.715100 8.134317 -19.960535 -71.284900 13.588839 -19.960535 156.661132 -2.204342 -20.536413 -158.224303 -6.118162 21.869059 0.000000 0.000000 0.000000 0.000000 0.000000 0.000000
969.986295 443.064535 155.292744 0.000000 0.000000 0.000000 0.000000 0.000000 0.000000 26.662144 3.989876 -19.021130 180.000000 -1.417411 -19.021130 28.015351 -4.066980 -17.633558 151.984649 -4.739775 24.270510 22.068935 -5.560289 17.633558 18.000000 1.136072 1.545085
1282.107124 481.511257 149.590226 0.000000 0.000000 0.000000 0.000000 0.000000 0.000000 80.650781 45.925091 -16.886559 -99.349219 -36.447295 -16.886559 1.511604 4.848084 -14.452610 -32.896908 -8.045751 26.289200 -7.727072 2.327127 14.452610 13.531851 1.001115 1.243449
1282.921486 484.777769 151.649415 0.000000 0.000000 0.000000 0.000000 0.000000 0.000000 -81.737646 -0.048363 -13.690942 98.262354 12.998088 -13.690942 -23.867101 -2.495206 -11.043737 12.655668 5.922309 27.893295 -29.454911 -2.841291 11.043737 9.861248 -0.098290 0.936907
1290.933037 513.180238 134.647804 0.000000 0.000000 0.000000 0.000000 0.000000 0.000000 -91.387864 -3.076947 -9.635073 88.612136 10.916811 -9.635073 -41.685392 -8.724260 -7.460697 -161.156957 -5.998048 29.057495 15.157863 5.254915 7.460697 10.543436 -1.334263 0.626666
969.999452 442.964284 136.996091 0.000000 0.000000 0.000000 0.000000 0.000000 0.000000 29.025427 13.712819 -4.973798 180.000000 -9.272001 -4.973798 29.437993 -1.153178 -3.759997 150.562007 -0.690476 29.763441 20.404746 -6.150123 3.759997 18.000000 -0.613358 0.313953
970.000000 442.938926 140.394043 0.000000 0.000000 0.000000 0.000000 0.000000 0.000000 29.678605 -18.476186 0.000000 180.000000 5.196866 0.000000 29.744881 -5.924365 -0.000000 150.255119 5.754667 30.000000 19.983107 1.851500 0.000000 18.000000 0.042134 0.000000
1354.522934 467.411410 153.593245 0.000000 0.000000 0.000000 0.000000 0.000000 0.000000 150.622570 1.773254 4.973798 -29.377430 13.350130 4.973798 140.176400 -5.705246 3.759997 -12.221629 1.510606 29.763441 132.794256 -7.495826 -3.759997 -2.626015 0.430603 0.313953
969.997807 442.887864 124.741537 0.000000 0.000000 0.000000 0.000000 0.000000 0.000000 31.061399 7.837314 9.635073 180.000000 8.955744 9.635073 30.285790 -10.127084 7.460697 149.714210 -1.076995 29.057495 19.151579 3.942753 -7.460697 18.000000 -0.591936 0.626666
1246.736984 514.278152 118.995200 0.000000 0.000000 0.000000 0.000000 0.000000 0.000000 143.557092 4.321525 13.690942 -36.442908 -18.733931 13.690942 133.761037 9.438978 11.043737 -156.950665 -5.986628 27.893295 0.000000 0.000000 0.000000 1.928484 0.461610 0.936907
1245.221100 458.637464 141.935711 0.000000 0.000000 0.000000 0.000000 0.000000 0.000000 160.701064 0.334398 16.886559 -19.298936 28.760787 16.886559 140.193827 -2.805675 14.452610 -157.554825 -5.088602 26.289200 29.500467 5.593183 -14.452610 -15.049953 -0.559318 1.243449
1257.365570 418.514181 100.057350 0.000000 0.000000 0.000000 0.000000 0.000000 0.000000 -143.710676 -1.413721 19.021130 36.289324 -0.009456 19.021130 163.220413 -1.475705 17.633558 11.688054 -1.430000 24.270510 152.038385 -0.903307 -17.633558 -2.339948 0.267941 1.545085
1275.099564 408.163741 107.085717 0.000000 0.000000 0.000000 0.000000 0.000000 0.000000 -132.929531 -8.767686 19.960535 47.070469 8.116640 19.960535 173.491912 -4.761888 20.536413 -160.709681 -5.225274 21.869059 33.138793 5.691261 -20.536413 -14.686121 -0.569126 1.840623
1290.611115 384.880857 93.903700 0.000000 0.000000 0.000000 0.000000 0.000000 0.000000 -132.705235 4.422734 19.645745 47.294765 1.682002 19.645745 -173.778854 -3.912203 23.115397 20.496835 0.411746 19.122720 -161.220290 -4.074312 -23.115397 1.723235 0.337193 2.128896
1302.817154 380.305352 104.855588 0.000000 0.000000 0.000000 0.000000 0.000000 0.000000 -131.493915 -1.292849 18.096541 48.506085 -6.066854 18.096541 -165.393697 -0.465115 25.329838 23.154815 -0.121264 16.074804 -178.200316 -0.392259 -25.329838 0.138141 -0.042254 2.408768
1304.997711 379.563582 94.584723 0.000000 0.000000 0.000000 0.000000 0.000000 0.000000 -126.727972 -2.865414 15.410265 53.272028 -8.882991 15.410265 -160.219593 9.820413 27.144812 28.448880 -2.950284 12.773379 -174.368770 -0.527496 -27.144812 0.079526 0.168627 2.679134
1311.668472 386.890390 83.730986 0.000000 0.000000 0.000000 0.000000 0.000000 0.000000 -122.308728 -9.034827 11.755705 57.691272 7.075458 11.755705 -158.801130 -4.378626 28.531695 150.942637 4.523418 9.270510 -154.878332 -5.109156 -28.531695 2.695409 0.490459 2.938926
1305.131836 395.180186 85.481241 0.000000 0.000000 0.000000 0.000000 0.000000 0.000000 -125.112810 -1.496562 7.362491 54.887190 2.323398 7.362491 -146.487292 3.026335 29.468618 -175.167369 -6.013871 5.621439 -159.224034 -3.741853 -29.468618 1.782042 0.517749 3.187120
1296.320457 392.734526 64.581604 0.000000 0.000000 0.000000 0.000000 0.000000 0.000000 -131.035750 14.887000 2.506665 48.964250 -4.709238 2.506665 -128.969563 -3.088832 29.940802 38.856147 -12.609726 1.883716 -134.776850 1.969380 -29.940802 3.458429 0.003798 3.422736
1306.963577 386.612041 81.815663 0.000000 0.000000 0.000000 0.000000 0.000000 0.000000 -124.469622 2.161287 -2.506665 55.530378 1.815951 -2.506665 -109.994856 3.733051 29.940802 37.691309 -0.514515 -1.883716 -118.274788 -1.209103 -29.940802 5.098336 0.202465 3.644843
969.892723 442.572198 72.903113 0.000000 0.000000 0.000000 0.000000 0.000000 0.000000 41.287575 -22.963014 -7.362491 180.000000 -0.433784 -7.362491 30.974696 5.821155 29.468618 149.025304 -2.615282 -5.621439 15.072869 0.560872 -29.468618 18.000000 -0.054472 3.852566
969.876883 442.545207 73.154088 0.000000 0.000000 0.000000 0.000000 0.000000 0.000000 42.241956 29.169623 -11.755705 180.000000 -11.871437 -11.755705 30.826133 -2.546854 28.531695 149.173867 -10.656041 -9.270510 14.823070 -0.003909 -28.531695 18.000000 0.370433 4.045085
969.859960 442.518116 48.837402 0.000000 0.000000 0.000000 0.000000 0.000000 0.000000 43.199779 5.033083 -15.410265 180.000000 -24.614878 -15.410265 30.649504 17.423174 27.144812 149.350496 -0.159703 -12.773379 14.587557 -1.125035 -27.144812 18.000000 -0.135351 4.221640
969.841956 442.490926 64.971827 0.000000 0.000000 0.000000 0.000000 0.000000 0.000000 44.157210 27.230190 -18.096541 180.000000 -24.038751 -18.096541 30.446417 12.817254 25.329838 149.553583 5.121886 -16.074804 14.366154 1.171029 -25.329838 18.000000 -0.266025 4.381533
969.822873 442.463637 46.099932 0.000000 0.000000 0.000000 0.000000 0.000000 0.000000 45.110117 -2.323918 -19.645745 180.000000 -24.695736 -19.645745 30.218633 2.864319 23.115397 149.781367 -8.478100 -19.122720 14.158653 1.612469 -23.115397 18.000000 0.164568 4.524135
969.802712 442.436251 53.566800 0.000000 0.000000 0.000000 0.000000 0.000000 0.000000 46.054109 -43.999652 -19.960535 180.000000 32.179597 -19.960535 29.968037 -10.039341 20.536413 150.031963 3.927550 -21.869059 13.964823 8.866810 -20.536413 18.000000 -0.466787 4.648882
1187.040939 541.658249 75.041937 0.000000 0.000000 0.000000 0.000000 0.000000 0.000000 82.806623 -28.346865 -19.021130 -97.193377 13.857812 -19.021130 45.395981 -1.056437 17.633558 -156.144455 -1.867209 -24.270510 0.000000 0.000000 0.000000 0.000000 0.000000 0.000000
1182.242889 522.024286 53.285771 0.000000 0.000000 0.000000 0.000000 0.000000 0.000000 -105.721938 -2.193094 -16.886559 74.278062 5.173629 -16.886559 -155.708006 -2.353197 14.452610 -157.302521 -2.219023 -26.289200 0.000000 0.000000 0.000000 2.684983 0.252030 4.842916
1180.914459 527.065626 63.720337 0.000000 0.000000 0.000000 0.000000 0.000000 0.000000 88.055617 -7.641564 -13.690942 -91.944383 -0.161702 -13.690942 -158.862018 -2.205701 11.043737 -151.747289 -2.094153 -27.893295 0.000000 0.000000 0.000000 0.000000 0.000000 0.000000
1236.800194 541.387432 33.635983 0.000000 0.000000 0.000000 0.000000 0.000000 0.000000 -85.588400 6.853161 -9.635073 94.411600 -4.766286 -9.635073 -159.297106 -9.809011 7.460697 -157.915391 -2.930449 -29.057495 26.607362 3.340063 -7.460697 14.926890 -3.062612 4.960574
1161.066513 575.006626 40.666067 0.000000 0.000000 0.000000 0.000000 0.000000 0.000000 -81.021168 11.050637 -4.973798 98.978832 -12.283139 -4.973798 -102.851701 7.623672 3.759997 -157.041007 -2.715386 -29.763441 21.429890 1.650924 -3.759997 10.859432 0.012860 4.990134
1255.636253 512.645942 58.355621 0.000000 0.000000 0.000000 0.000000 0.000000 0.000000 77.832564 3.121104 -0.000000 -102.167436 0.487639 -0.000000 -158.264834 -3.213574 0.000000 -130.745502 -7.763750 -30.000000 -157.699225 -1.711235 -0.000000 0.000000 0.000000 0.000000
1265.118484 521.473864 59.406015 0.000000 0.000000 0.000000 0.000000 0.000000 0.000000 64.078276 1.422017 4.973798 -115.921724 3.304070 4.973798 41.397952 3.497908 -3.759997 -139.329851 -1.057901 -29.763441 20.223252 1.054387 3.759997 -16.047574 0.026974 4.990134
1228.099480 522.138258 60.932977 0.000000 0.000000 0.000000 0.000000 0.000000 0.000000 71.050901 3.283646 9.635073 -108.949099 -8.365775 9.635073 150.099970 1.164751 -7.460697 -139.894702 -3.456531 -29.057495 -156.275691 -2.386683 7.460697 0.000000 0.000000 0.000000
1240.357246 528.695873 42.344109 0.000000 0.000000 0.000000 0.000000 0.000000 0.000000 65.413351 -7.154584 13.690942 -114.586649 12.763424 13.690942 147.242328 -5.846956 -11.043737 -154.470720 -2.085943 -27.893295 25.557225 2.264326 11.043737 -15.444278 -0.226433 4.911436
1231.815262 551.380248 65.758415 0.000000 0.000000 0.000000 0.000000 0.000000 0.000000 56.412506 10.826884 16.886559 -123.587494 -13.166221 16.886559 -153.392336 4.492023 -14.452610 -154.784582 -3.054906 -26.289200 24.191555 3.214054 14.452610 -15.580844 -0.321405 4.842916
1221.475182 508.360147 37.329449 0.000000 0.000000 0.000000 0.000000 0.000000 0.000000 77.450622 2.117357 19.021130 -102.549378 -9.579761 19.021130 -156.789784 -2.641492 -17.633558 -125.590168 -2.509373 -24.270510 -160.017240 -3.282336 17.633558 1.833434 0.370796 4.755283
969.477684 442.100429 60.667176 0.000000 0.000000 0.000000 0.000000 0.000000 0.000000 54.932575 -35.210933 19.960535 180.000000 25.829530 19.960535 25.919122 -6.489696 -20.536413 154.080878 13.506414 -21.869059 12.612867 -7.556717 20.536413 18.000000 0.545480 4.648882
1480.140495 518.878891 71.812670 0.000000 0.000000 0.000000 0.000000 0.000000 0.000000 -110.621767 -87.258516 19.645745 69.378233 80.293188 19.645745 -158.235933 -2.513944 -23.115397 166.031448 4.013404 -19.122720 -155.186432 -2.900996 23.115397 2.641553 0.238588 4.524135
1271.640472 556.840560 64.542002 0.000000 0.000000 0.000000 0.000000 0.000000 0.000000 -94.404719 2.937308 18.096541 85.595281 -3.251427 18.096541 -62.417786 5.106783 -25.329838 23.992813 -3.816270 -16.074804 -76.856107 1.094794 25.329838 7.708835 -0.059569 4.381533
1258.556786 530.268441 82.850408 0.000000 0.000000 0.000000 0.000000 0.000000 0.000000 78.355945 -3.225578 15.410265 -101.644055 10.361500 15.410265 35.068294 -1.818004 -27.144812 -54.090640 6.927447 -12.773379 35.848220 -11.533775 27.144812 -8.104639 0.852318 4.221640
1250.800209 527.150567 77.438888 0.000000 0.000000 0.000000 0.000000 0.000000 0.000000 72.417769 11.529581 11.755705 -107.582231 -8.653881 11.755705 24.571109 0.031229 -28.531695 -39.196117 -1.276333 -9.270510 10.411117 -1.205182 28.531695 -9.048616 -3.916391 4.045085
1243.466148 571.776259 85.107813 0.000000 0.000000 0.000000 0.000000 0.000000 0.000000 86.301473 3.391595 7.362491 -93.698527 -2.059900 7.362491 24.553534 4.866099 -29.468618 -153.460385 -3.739124 -5.621439 19.510484 2.934864 29.468618 -10.109500 2.589681 3.852566
1261.883812 566.052918 88.177716 0.000000 0.000000 0.000000 0.000000 0.000000 0.000000 94.015209 -15.963752 2.506665 -85.984791 18.071995 2.506665 38.959993 -3.623822 -29.940802 -154.008305 -3.643764 -1.883716 20.870951 3.181915 29.940802 -10.872440 0.715112 3.644843
1284.436798 527.190542 100.540591 0.000000 0.000000 0.000000 0.000000 0.000000 0.000000 111.186365 -6.875984 -2.506665 -68.813635 -7.279452 -2.506665 58.506163 -0.612017 -29.940802 -19.138727 -5.037759 1.883716 51.457372 11.152235 29.940802 -5.203198 -0.106970 3.422736
1272.860069 533.494012 104.606595 0.000000 0.000000 0.000000 0.000000 0.000000 0.000000 72.301471 -5.898018 -7.362491 -107.698529 11.717954 -7.362491 78.802573 0.627931 -29.468618 -154.772375 -4.467041 5.621439 26.927455 3.820165 29.468618 -15.307255 -0.382016 3.187120
1255.264664 498.243735 111.867351 0.000000 0.000000 0.000000 0.000000 0.000000 0.000000 164.596971 -6.983243 -11.755705 -15.403029 62.134480 -11.755705 125.849126 -4.964074 -28.531695 -156.067666 -4.542246 9.270510 33.087561 4.603315 28.531695 -14.691244 -0.460332 2.938926
1259.202232 470.407684 111.947513 0.000000 0.000000 0.000000 0.000000 0.000000 0.000000 -139.980397 13.527083 -15.410265 40.019603 -10.560872 -15.410265 165.887722 -0.485578 -27.144812 -157.901492 -5.824672 12.773379 35.196094 5.523945 27.144812 -14.480391 -0.552395 2.679134
1236.502075 429.951335 122.424412 0.000000 0.000000 0.000000 0.000000 0.000000 0.000000 -113.295066 -20.718967 -18.096541 66.704934 4.914006 -18.096541 -174.664169 0.158828 -25.329838 -159.007335 -4.797252 16.074804 32.868990 6.413372 25.329838 -14.713101 -0.641337 2.408768
1253.359451 413.942538 132.995878 0.000000 0.000000 0.000000 0.000000 0.000000 0.000000 -123.348580 1.983560 -19.645745 56.651420 -6.701854 -19.645745 -167.815074 5.094530 -23.115397 -159.603180 -5.993076 19.122720 32.791747 7.463031 23.115397 -14.720825 -0.746303 2.128896
1281.206589 405.664523 149.214694 0.000000 0.000000 0.000000 0.000000 0.000000 0.000000 -124.414271 3.577606 -19.960535 55.585729 2.761796 -19.960535 -161.281803 -5.432642 -20.536413 28.568449 -1.625859 21.869059 -159.052798 -4.417979 20.536413 1.849141 0.411888 1.840623
1300.238571 418.760215 149.879962 0.000000 0.000000 0.000000 0.000000 0.000000 0.000000 -126.263092 2.803785 -19.021130 53.736908 -4.799455 -19.021130 -159.739358 2.805279 -17.633558 31.487961 -7.233332 24.270510 -170.323915 1.680083 17.633558 0.671815 0.139362 1.545085
1321.889191 413.634385 122.329540 0.000000 0.000000 0.000000 0.000000 0.000000 0.000000 -133.874471 4.951267 -16.886559 46.125529 -2.880023 -16.886559 -159.376251 -0.284248 -14.452610 30.696824 0.112373 26.289200 -164.929556 -0.728684 14.452610 1.089735 -0.032001 1.243449
1336.221428 432.881820 123.795714 0.000000 0.000000 0.000000 0.000000 0.000000 0.000000 -115.020798 -14.816494 -13.690942 64.979202 15.186751 -13.690942 -135.609544 -2.411877 -11.043737 -161.321630 -4.874343 27.893295 17.353502 8.351416 11.043737 -16.264650 -0.835142 0.936907
1329.124603 416.860342 133.239232 0.000000 0.000000 0.000000 0.000000 0.000000 0.000000 -134.023347 -7.201681 -9.635073 45.976653 6.016321 -9.635073 -128.030830 -0.214154 -7.460697 28.249885 5.415081 29.057495 -136.447985 -1.464987 7.460697 4.038834 0.127283 0.626666
1343.366776 427.060794 132.598063 0.000000 0.000000 0.000000 0.000000 0.000000 0.000000 -130.153347 -2.062539 -4.973798 49.846653 0.590790 -4.973798 -103.564435 1.540383 -3.759997 27.398095 -2.408770 29.763441 -115.461530 2.052605 3.759997 5.470063 0.040346 0.313953
1376.991005 465.829636 134.745364 0.000000 0.000000 0.000000 0.000000 0.000000 0.000000 -120.272352 5.542518 0.000000 59.727648 -4.656030 0.000000 -62.204131 1.585209 -0.000000 27.740602 -4.724015 30.000000 -80.461527 1.449085 0.000000 7.450891 0.225530 0.000000
1384.978867 468.790376 163.921993 0.000000 0.000000 0.000000 0.000000 0.000000 0.000000 -93.720384 -25.492307 4.973798 86.279616 -36.462382 4.973798 3.847814 4.560624 3.759997 -160.438787 -6.108688 29.763441 15.990976 5.216134 -3.759997 7.894783 0.491466 0.313953
1345.894547 516.257268 146.116010 0.000000 0.000000 0.000000 0.000000 0.000000 0.000000 127.577640 3.871277 9.635073 -52.422360 -0.287515 9.635073 53.096359 4.706486 7.460697 -159.021748 -6.888221 29.057495 18.308456 5.946880 -7.460697 -4.062191 -4.224710 0.626666
968.498927 441.455181 132.144351 0.000000 0.000000 0.000000 0.000000 0.000000 0.000000 47.920147 35.781399 13.690942 180.000000 -20.827620 13.690942 19.641385 -0.585353 11.043737 160.358615 -3.329247 27.893295 13.993219 -0.349732 -11.043737 18.000000 -0.161412 0.936907
1336.846733 493.527671 145.466978 0.000000 0.000000 0.000000 0.000000 0.000000 0.000000 102.681311 -33.787600 16.886559 -77.318689 10.776877 16.886559 35.985219 6.761427 14.452610 -159.617763 -5.752664 26.289200 19.375410 5.589038 -14.452610 -16.062459 -0.558904 1.243449
968.386706 441.394956 151.889849 0.000000 0.000000 0.000000 0.000000 0.000000 0.000000 46.120581 -4.292038 19.021130 180.000000 6.772029 19.021130 19.316787 -2.450844 17.633558 160.683213 -4.463024 24.270510 14.327067 13.067350 -17.633558 18.000000 -0.967263 1.545085
1263.984947 433.341283 146.520738 0.000000 0.000000 0.000000 0.000000 0.000000 0.000000 -115.578373 -11.933360 19.960535 64.421627 4.794638 19.960535 -82.396446 8.067896 20.536413 25.733383 6.377107 21.869059 -77.477544 1.383550 -20.536413 5.836928 0.547190 1.840623
1352.596436 477.564354 140.233820 0.000000 0.000000 0.000000 0.000000 0.000000 0.000000 -99.196741 -7.276515 19.645745 80.803259 2.078696 19.645745 -125.272585 0.781615 23.115397 -162.405270 -6.056032 19.122720 17.377627 7.224648 -23.115397 -16.262237 -0.722465 2.128896
1384.326782 408.174427 147.496204 0.000000 0.000000 0.000000 0.000000 0.000000 0.000000 96.868601 20.097166 18.096541 -83.131399 18.150291 18.096541 -160.848957 -6.870384 25.329838 -137.255583 -4.999901 16.074804 -162.076720 -6.345368 -25.329838 0.000000 0.000000 0.000000
1387.580223 387.128634 147.387873 0.000000 0.000000 0.000000 0.000000 0.000000 0.000000 78.087764 -5.048055 15.410265 -101.912236 13.829468 15.410265 -161.807915 -6.597146 27.144812 -147.504361 -3.376204 12.773379 -162.566306 -6.502756 -27.144812 1.735427 0.920113 2.679134
1345.818558 392.423122 146.426914 0.000000 0.000000 0.000000 0.000000 0.000000 0.000000 71.782984 -16.877720 11.755705 -108.217016 14.567261 11.755705 -169.469261 -0.498926 28.531695 -153.903088 1.156389 9.270510 -154.670689 -3.582143 -28.531695 15.277725 1.527049 2.938926
1331.471329 361.814139 133.880367 0.000000 0.000000 0.000000 0.000000 0.000000 0.000000 53.586100 -17.279318 7.362491 -126.413900 4.443657 7.362491 -162.290330 -5.561134 29.468618 -154.912165 2.271213 5.621439 -162.550394 -6.964904 -29.468618 1.742175 0.770199 3.187120
1354.413986 427.213873 150.012840 0.000000 0.000000 0.000000 0.000000 0.000000 0.000000 -131.358118 -7.077471 2.506665 48.641882 11.199759 2.506665 -142.488821 -0.525144 29.940802 -161.977882 -5.932893 1.883716 12.673705 6.934761 -29.940802 1.397524 0.252891 3.422736
1330.326691 347.207226 141.079465 0.000000 0.000000 0.000000 0.000000 0.000000 0.000000 52.464175 -8.728928 -2.506665 -127.535825 4.583524 -2.506665 14.270918 0.026507 29.940802 -122.057234 1.489757 -1.883716 22.820874 0.525605 -29.940802 -15.244909 -0.131171 3.644843
1317.103271 414.475805 134.197865 0.000000 0.000000 0.000000 0.000000 0.000000 0.000000 76.170457 8.357124 -7.362491 -103.829543 -15.711189 -7.362491 -50.250674 5.325731 29.468618 -52.503744 -1.892889 -5.621439 -92.793049 10.478759 -29.468618 3.303440 -1.707054 3.852566
1331.844635 430.291482 132.980253 0.000000 0.000000 0.000000 0.000000 0.000000 0.000000 79.985160 3.257262 -11.755705 -100.014840 -10.186137 -11.755705 25.995082 4.964698 28.531695 -75.062603 -0.852497 -9.270510 38.761234 -1.992388 -28.531695 -11.442229 0.201515 4.045085
1359.462433 496.472383 130.847996 0.000000 0.000000 0.000000 0.000000 0.000000 0.000000 84.268829 -2.136543 -15.410265 -95.731171 1.757415 -15.410265 30.279153 -4.959400 27.144812 -63.318008 0.712144 -12.773379 39.457716 3.541052 -27.144812 -9.485742 -0.383640 4.221640
1323.514366 546.771398 112.054770 0.000000 0.000000 0.000000 0.000000 0.000000 0.000000 84.407325 -4.748476 -18.096541 -95.592675 5.299977 -18.096541 27.768249 -2.022122 25.329838 -47.660055 -0.588567 -16.074804 28.281511 2.271868 -25.329838 -7.827901 -0.294415 4.381533
1268.535347 591.567099 108.501541 0.000000 0.000000 0.000000 0.000000 0.000000 0.000000 90.890792 -5.018941 -19.645745 -89.109208 0.094143 -19.645745 44.654760 0.461896 23.115397 -48.200667 0.079788 -19.122720 43.369388 3.871072 -23.115397 -8.974980 -0.967579 4.524135
1303.157158 602.888768 93.342619 0.000000 0.000000 0.000000 0.000000 0.000000 0.000000 90.349289 -1.179859 -19.960535 -89.650711 -3.274238 -19.960535 47.707312 -0.058728 20.536413 -53.918782 0.724585 -21.869059 40.070965 -0.498352 -20.536413 -9.318632 -0.760356 4.648882
1314.841690 613.141973 109.233989 0.000000 0.000000 0.000000 0.000000 0.000000 0.000000 94.480501 -4.033516 -19.021130 -85.519499 6.579585 -19.021130 58.462862 -2.777594 17.633558 -52.020507 4.303858 -24.270510 55.276552 4.414663 -17.633558 -7.777523 -0.436770 4.755283
1327.521400 639.394319 103.652197 0.000000 0.000000 0.000000 0.000000 0.000000 0.000000 99.879576 1.766047 -16.886559 -80.120424 -2.382323 -16.886559 69.161359 1.307415 14.452610 -46.413613 -0.806269 -26.289200 76.680143 -1.257849 -14.452610 -6.257768 0.071906 4.842916
1277.812729 671.228578 78.043638 0.000000 0.000000 0.000000 0.000000 0.000000 0.000000 99.708534 -0.888817 -13.690942 -80.291466 5.932214 -13.690942 92.239140 -4.802688 11.043737 -26.764021 6.726628 -27.893295 98.168457 -9.078605 -11.043737 -4.372074 0.315110 4.911436
1309.642181 690.479329 84.261350 0.000000 0.000000 0.000000 0.000000 0.000000 0.000000 117.292414 -2.663032 -9.635073 -62.707586 -1.478997 -9.635073 137.002702 6.274462 7.460697 -32.045917 2.601108 -29.057495 135.211322 -2.421429 -7.460697 -3.212944 0.070943 4.960574
1299.770966 664.126496 85.189944 0.000000 0.000000 0.000000 0.000000 0.000000 0.000000 158.531160 -7.503243 -4.973798 -21.468840 -0.587569 -4.973798 161.478323 -2.952820 3.759997 -12.838206 1.258656 -29.763441 151.269584 -1.127827 -3.759997 -2.521934 -0.095865 4.990134
1313.353729 643.668108 71.398455 0.000000 0.000000 0.000000 0.000000 0.000000 0.000000 -154.315892 10.310966 -0.000000 25.684108 -2.293475 -0.000000 173.459940 -1.929317 0.000000 1.519689 -1.513586 -30.000000 164.244875 1.860921 -0.000000 -1.552244 -0.068340 5.000000
1342.841377 638.982847 50.535634 0.000000 0.000000 0.000000 0.000000 0.000000 0.000000 -138.993869 -4.044620 4.973798 41.006131 -11.807984 4.973798 175.724056 2.053005 -3.759997 -151.723069 -3.218540 -29.763441 43.242568 3.616117 3.759997 -13.675743 -0.361612 4.990134
1350.000229 614.724133 66.006916 0.000000 0.000000 0.000000 0.000000 0.000000 0.000000 -144.248147 -8.653606 9.635073 35.751853 -18.874863 9.635073 177.069273 5.357141 -7.460697 -152.227621 -2.925454 -29.057495 43.136563 3.493685 7.460697 -13.686344 -0.349368 4.960574
1328.535919 624.780936 54.969083 0.000000 0.000000 0.000000 0.000000 0.000000 0.000000 -165.447222 12.785793 13.690942 14.552778 -4.391133 13.690942 169.657511 2.728808 -11.043737 -152.168050 -2.578654 -27.893295 41.929642 2.913894 11.043737 -13.807036 -0.291389 4.911436
1318.810501 615.688248 44.186980 0.000000 0.000000 0.000000 0.000000 0.000000 0.000000 -120.063657 2.529302 16.886559 59.936343 -9.723054 16.886559 -165.389465 3.409527 -14.452610 -152.866764 -3.102301 -26.289200 39.162270 2.229011 14.452610 -14.083773 -0.222901 4.842916
1321.656418 659.275410 49.486878 0.000000 0.000000 0.000000 0.000000 0.000000 0.000000 -121.435085 7.547161 19.021130 58.564915 17.420685 19.021130 -149.190712 -6.549264 -17.633558 -151.926374 -2.218057 -24.270510 33.097066 3.476983 17.633558 -14.690293 -0.347698 4.755283
1328.445511 687.490232 39.385939 0.000000 0.000000 0.000000 0.000000 0.000000 0.000000 -104.253419 0.235744 19.960535 75.746581 -2.904222 19.960535 -110.140878 -1.852392 -20.536413 -152.911692 -2.879880 -21.869059 23.882145 2.590359 20.536413 3.694979 0.024365 4.648882
966.534206 440.564282 48.807658 0.000000 0.000000 0.000000 0.000000 0.000000 0.000000 25.865486 5.342772 19.645745 180.000000 10.463222 19.645745 18.728337 -5.525930 -23.115397 161.271663 10.187661 -19.122720 19.024234 -6.543963 23.115397 18.000000 -0.107393 4.524135
966.454577 440.533056 49.220473 0.000000 0.000000 0.000000 0.000000 0.000000 0.000000 25.417507 -5.418385 18.096541 180.000000 3.647001 18.096541 18.825450 6.406584 -25.329838 161.174550 10.439094 -16.074804 19.071566 -12.096393 25.329838 18.000000 1.705899 4.381533
966.374240 440.501809 59.567614 0.000000 0.000000 0.000000 0.000000 0.000000 0.000000 24.990320 -24.648730 15.410265 180.000000 7.396572 15.410265 18.929718 -4.229851 -27.144812 161.070282 -0.341203 -12.773379 19.102411 4.392606 27.144812 18.000000 -0.037141 4.221640
966.293204 440.470542 37.683833 0.000000 0.000000 0.000000 0.000000 0.000000 0.000000 24.583377 14.275498 11.755705 180.000000 -5.424622 11.755705 19.040946 -9.979020 -28.531695 160.959054 -8.407203 -9.270510 19.116765 -0.458428 28.531695 18.000000 2.353462 4.045085
966.211478 440.439256 66.415437 0.000000 0.000000 0.000000 0.000000 0.000000 0.000000 24.196129 9.630447 7.362491 180.000000 5.017870 7.362491 19.158923 -6.965136 -29.468618 160.841077 -9.192371 -5.621439 19.114778 10.196025 29.468618 18.000000 -0.656600 3.852566
644.985180 745.864069 67.385128 0.000000 0.000000 0.000000 0.000000 0.000000 0.000000 96.086415 46.588415 2.506665 -83.913585 -50.754969 2.506665 -159.662371 6.147141 -29.940802 -116.741565 -22.141279 -1.883716 -176.001217 5.391084 29.940802 -1.006627 0.378580 3.644843
1269.020119 699.025490 58.510715 0.000000 0.000000 0.000000 0.000000 0.000000 0.000000 83.810916 -2.140910 -2.506665 -96.189084 -3.104890 -2.506665 51.932890 3.982587 -29.940802 -149.314466 -1.930555 1.883716 27.598511 2.197477 29.940802 -15.240149 -0.219748 3.422736
573.721218 678.450201 54.849748 0.000000 0.000000 0.000000 0.000000 0.000000 0.000000 18.756393 43.287003 -7.362491 -161.243607 2.832125 -7.362491 -174.158094 -5.252181 -29.468618 178.010322 -6.269714 5.621439 -154.394154 4.093601 29.468618 11.886524 1.853252 3.187120
1261.580200 714.897366 40.617974 0.000000 0.000000 0.000000 0.000000 0.000000 0.000000 87.191276 5.373738 -11.755705 -92.808724 -8.785558 -11.755705 23.129119 8.459504 -28.531695 -149.376238 -2.463785 9.270510 24.545507 2.007755 28.531695 13.583501 -0.712373 2.938926
1314.655838 684.171546 57.743650 0.000000 0.000000 0.000000 0.000000 0.000000 0.000000 61.219932 4.475315 -15.410265 -118.780068 3.993632 -15.410265 25.476616 0.571970 -27.144812 -150.404247 -2.315955 12.773379 24.621454 1.918369 27.144812 -15.537855 -0.191837 2.679134
1319.638939 674.820013 66.090991 0.000000 0.000000 0.000000 0.000000 0.000000 0.000000 82.055377 4.553782 -18.096541 -97.944623 -9.486512 -18.096541 17.325085 1.885516 -25.329838 -60.067277 1.810593 16.074804 23.747728 -4.875675 25.329838 -13.005173 0.396244 2.408768
1367.852325 659.536314 63.196819 0.000000 0.000000 0.000000 0.000000 0.000000 0.000000 -150.278430 -10.833751 -19.645745 29.721570 4.655250 -19.645745 -151.222797 -2.406432 -23.115397 18.758043 5.605972 19.122720 -152.451920 -2.762867 23.115397 2.484143 0.172033 2.128896
1392.624664 638.981302 50.202472 0.000000 0.000000 0.000000 0.000000 0.000000 0.000000 -122.704248 4.195393 -19.960535 57.295752 -9.317543 -19.960535 -134.513385 3.513336 -20.536413 30.292627 -0.484976 21.869059 -146.694539 0.038231 20.536413 2.430965 -0.029652 1.840623
1401.291389 646.422758 78.664214 0.000000 0.000000 0.000000 0.000000 0.000000 0.000000 83.316637 2.068899 -19.021130 -96.683363 -3.146581 -19.021130 29.335627 -6.052972 -17.633558 -136.281416 0.785189 24.270510 19.119183 -0.821659 17.633558 -15.871560 -0.033596 1.545085
1381.838951 663.410475 83.300965 0.000000 0.000000 0.000000 0.000000 0.000000 0.000000 79.215331 1.455682 -16.886559 -100.784669 -1.298436 -16.886559 30.640455 0.297079 -14.452610 -139.113455 0.397126 26.289200 14.302413 -0.261154 14.452610 -16.408036 0.059013 1.243449
1390.185928 664.248354 80.876646 0.000000 0.000000 0.000000 0.000000 0.000000 0.000000 75.546066 -9.124839 -13.690942 -104.453934 2.382345 -13.690942 38.995097 0.332656 -11.043737 -142.871297 5.112835 27.893295 14.209110 -4.577558 11.043737 -16.737090 0.260026 0.936907
1393.889923 677.551103 81.543662 0.000000 0.000000 0.000000 0.000000 0.000000 0.000000 84.293627 -0.491177 -9.635073 -95.706373 7.180184 -9.635073 -152.700272 -3.909136 -7.460697 -143.357755 -1.629075 29.057495 -148.868889 -3.266481 7.460697 3.626268 0.506198 0.626666
905.601082 693.654528 90.704946 0.000000 0.000000 0.000000 0.000000 0.000000 0.000000 -84.410869 -14.785654 -4.973798 95.589131 -2.105548 -4.973798 -139.498802 -3.764248 -3.759997 -178.556713 -28.044224 29.763441 -142.061844 -3.637011 3.759997 3.411456 0.505638 0.313953
1337.643929 680.318756 87.368579 0.000000 0.000000 0.000000 0.000000 0.000000 0.000000 78.192517 2.525948 0.000000 -101.807483 3.623473 0.000000 48.289813 -5.146907 -0.000000 -140.291980 -0.287194 30.000000 13.663140 0.993906 0.000000 -17.395561 -0.168417 0.000000
1322.670708 685.543334 106.082305 0.000000 0.000000 0.000000 0.000000 0.000000 0.000000 71.501063 10.292565 4.973798 -108.498937 -0.717648 4.973798 23.648228 3.329707 3.759997 -144.586500 0.955512 29.763441 14.578018 -1.295494 -3.759997 -16.885607 0.146672 0.313953
1305.530548 682.910864 121.352920 0.000000 0.000000 0.000000 0.000000 0.000000 0.000000 72.979287 -32.683043 9.635073 -107.020713 42.758842 9.635073 -148.728581 -4.253832 7.460697 -74.802907 4.607997 29.057495 -151.178244 -3.894178 -7.460697 2.601049 0.404521 0.626666
1359.363556 692.650115 118.222675 0.000000 0.000000 0.000000 0.000000 0.000000 0.000000 73.244804 -3.487300 13.690942 -106.755196 8.866381 13.690942 13.983499 -8.228891 11.043737 -67.611809 -1.208229 27.893295 13.130547 1.438875 -11.043737 -11.004089 0.547313 0.936907
1299.495964 679.994059 127.093023 0.000000 0.000000 0.000000 0.000000 0.000000 0.000000 116.206779 2.825644 16.886559 -63.793221 -9.975115 16.886559 -150.858719 -4.246178 14.452610 -34.548592 0.840462 26.289200 60.366751 -6.775558 -14.452610 -4.627493 -0.116119 1.243449
1306.260338 711.527116 101.745333 0.000000 0.000000 0.000000 0.000000 0.000000 0.000000 -85.758672 25.064921 19.021130 94.241328 -19.784107 19.021130 -31.461750 4.028934 17.633558 -4.237664 1.092832 24.270510 -15.215787 -2.630635 -17.633558 7.867754 -4.361783 1.545085
1272.614822 704.778571 105.803660 0.000000 0.000000 0.000000 0.000000 0.000000 0.000000 -78.634637 -2.445166 19.960535 101.365363 7.267831 19.960535 -34.118569 0.368297 20.536413 22.539652 5.997422 21.869059 -31.373170 -4.237849 -20.536413 11.310693 0.383910 1.840623
1310.345650 676.427021 117.867923 0.000000 0.000000 0.000000 0.000000 0.000000 0.000000 97.572435 -1.619007 19.645745 -82.427565 -0.392615 19.645745 50.400703 2.691106 23.115397 -39.584286 -4.223292 19.122720 44.966766 1.722837 -23.115397 -8.852712 0.777153 2.128896
1315.732956 671.025095 135.064762 0.000000 0.000000 0.000000 0.000000 0.000000 0.000000 97.797337 6.277667 18.096541 -82.202663 -2.942711 18.096541 49.825934 -4.970282 25.329838 -39.162923 2.007773 16.074804 36.475631 -6.767947 -25.329838 -8.191519 -0.952706 2.408768
1329.935532 653.525419 147.977635 0.000000 0.000000 0.000000 0.000000 0.000000 0.000000 96.469555 -2.014963 15.410265 -83.530445 -0.810399 15.410265 63.882053 -3.193039 27.144812 -51.972064 -1.648282 12.773379 58.624362 2.723296 -27.144812 -8.239564 -0.818664 2.679134
1316.170578 674.246514 141.264908 0.000000 0.000000 0.000000 0.000000 0.000000 0.000000 -87.946330 -7.650953 11.755705 92.053670 1.768112 11.755705 -29.715798 -0.868446 28.531695 54.212796 8.689969 9.270510 -40.560774 -4.598379 -28.531695 11.008015 0.215981 2.938926
1317.367287 678.027205 134.284043 0.000000 0.000000 0.000000 0.000000 0.000000 0.000000 95.152942 -7.811290 7.362491 -84.847058 4.214785 7.362491 98.792835 -3.119404 29.468618 -150.515547 -5.689078 5.621439 32.983753 5.179132 -29.468618 -14.701625 -0.517913 3.187120
1318.168488 670.157025 148.936556 0.000000 0.000000 0.000000 0.000000 0.000000 0.000000 -151.252255 54.348586 2.506665 28.747745 28.824884 2.506665 138.896993 -8.477669 29.940802 -151.946620 -6.300408 1.883716 38.784684 5.696093 -29.940802 -14.121532 -0.569609 3.422736
1323.412628 644.667885 143.704229 0.000000 0.000000 0.000000 0.000000 0.000000 0.000000 -97.904066 2.778468 -2.506665 82.095934 9.495464 -2.506665 155.695030 2.370518 29.940802 -152.500978 -6.484124 -1.883716 44.721081 6.990490 -29.940802 -13.527892 -0.699049 3.644843
1312.776718 630.059459 153.245336 0.000000 0.000000 0.000000 0.000000 0.000000 0.000000 -116.637972 -18.578298 -7.362491 63.362028 11.846384 -7.362491 171.094570 7.417781 29.468618 -152.894064 -5.982607 -5.621439 43.947863 7.473069 -29.468618 -13.605214 -0.747307 3.852566
1316.420746 625.237019 158.713721 0.000000 0.000000 0.000000 0.000000 0.000000 0.000000 -136.254273 14.383616 -11.755705 43.745727 -13.172807 -11.755705 -177.663204 1.142278 28.531695 -153.006287 -7.593593 -9.270510 42.784597 8.162131 -28.531695 -13.721540 -0.816213 4.045085
1314.719925 628.818026 169.491798 0.000000 0.000000 0.000000 0.000000 0.000000 0.000000 -114.737929 10.526777 -15.410265 65.262071 -7.266074 -15.410265 -169.764314 1.511173 27.144812 -153.369487 -6.785695 -12.773379 41.498347 7.565518 -27.144812 -13.850165 -0.756552 4.221640
1334.396782 646.165652 141.081899 0.000000 0.000000 0.000000 0.000000 0.000000 0.000000 -116.903454 -17.310131 -18.096541 63.096546 10.023752 -18.096541 -154.594534 1.566777 25.329838 -153.225015 -5.757085 -16.074804 37.136182 7.777774 -25.329838 -14.286382 -0.777777 4.381533
1340.823784 648.244128 134.089627 0.000000 0.000000 0.000000 0.000000 0.000000 0.000000 -116.932323 3.367803 -19.645745 63.067677 0.103439 -19.645745 -138.898656 -2.469033 23.115397 35.335752 -1.831479 -19.122720 -153.336856 -0.956675 -23.115397 2.206211 0.151555 4.524135
1330.023880 654.599032 147.946726 0.000000 0.000000 0.000000 0.000000 0.000000 0.000000 -112.150704 3.770779 -19.960535 67.849296 -5.918971 -19.960535 -118.798313 -3.128874 20.536413 -153.636372 -6.519938 -21.869059 16.691869 7.662414 -20.536413 -16.330813 -0.766241 4.648882
1337.431641 662.410698 146.972839 0.000000 0.000000 0.000000 0.000000 0.000000 0.000000 -109.111809 -1.116061 -19.021130 70.888191 -3.527875 -19.021130 -91.144379 1.822532 17.633558 -154.448144 -6.181231 -24.270510 10.298202 7.028246 -17.633558 6.642051 -0.138265 4.755283
1324.339714 676.416593 155.584888 0.000000 0.000000 0.000000 0.000000 0.000000 0.000000 -104.120178 11.722450 -16.886559 75.879822 -9.912772 -16.886559 -57.095620 4.035735 14.452610 38.799650 -2.605887 -26.289200 -71.942639 -1.476885 -14.452610 8.831938 0.409320 4.842916
962.890318 439.311049 140.659656 0.000000 0.000000 0.000000 0.000000 0.000000 0.000000 19.986963 11.722318 -13.690942 180.000000 3.915601 -13.690942 24.297229 -2.157619 11.043737 155.702771 -0.011291 -27.893295 14.983342 -2.935504 -11.043737 18.000000 0.520125 4.911436
962.789911 439.279946 166.243695 0.000000 0.000000 0.000000 0.000000 0.000000 0.000000 20.089586 -10.292029 -9.635073 180.000000 -1.667864 -9.635073 24.330184 0.026730 7.460697 155.669816 -1.299790 -29.057495 14.926290 -1.416382 -7.460697 18.000000 -0.238424 4.960574
641.318550 641.336324 135.069301 0.000000 0.000000 0.000000 0.000000 0.000000 0.000000 163.642929 -14.119514 -4.973798 -16.357071 28.239164 -4.973798 -155.926011 0.819183 3.759997 -130.644608 -7.717450 -29.763441 68.679337 10.937647 -3.759997 -11.132066 -1.093765 4.990134
1305.385551 662.289033 134.761067 0.000000 0.000000 0.000000 0.000000 0.000000 0.000000 -81.949824 39.501993 -0.000000 98.050176 -9.955910 -0.000000 9.536664 -2.615363 0.000000 -153.586691 -6.079347 -30.000000 24.402531 4.564404 -0.000000 -15.559747 -0.456440 5.000000
962.486899 439.186814 134.313730 0.000000 0.000000 0.000000 0.000000 0.000000 0.000000 20.465882 26.723419 4.973798 180.000000 -7.938598 4.973798 24.357206 4.484074 -3.759997 155.642794 -13.304727 -29.763441 14.800425 1.598205 3.759997 18.000000 0.532312 4.990134
1216.314240 612.580640 129.840926 0.000000 0.000000 0.000000 0.000000 0.000000 0.000000 78.221991 -2.961423 9.635073 -101.778009 -4.168279 9.635073 46.689014 7.160218 -7.460697 -61.937558 2.593123 -29.057495 44.546377 -2.061513 7.460697 -10.771750 0.715186 4.960574
1273.897820 573.707514 117.693954 0.000000 0.000000 0.000000 0.000000 0.000000 0.000000 77.469628 -0.369174 13.690942 -102.530372 0.924284 13.690942 -155.691164 -5.317387 -11.043737 -120.750172 -0.296804 -27.893295 -156.229293 -5.560229 11.043737 2.162203 0.502746 4.911436
1337.358742 570.303276 110.487313 0.000000 0.000000 0.000000 0.000000 0.000000 0.000000 73.705918 1.581356 16.886559 -106.294082 -1.701831 16.886559 -155.918376 -4.948365 -14.452610 -149.887909 -4.714186 -26.289200 0.000000 0.000000 0.000000 0.000000 0.000000 0.000000
1342.446442 569.623497 113.388139 0.000000 0.000000 0.000000 0.000000 0.000000 0.000000 68.898287 -1.708753 19.021130 -111.101713 1.854878 19.021130 39.314088 1.746271 -17.633558 -140.912764 1.420118 -24.270510 -153.216026 -6.233296 17.633558 2.759242 0.703399 4.755283
1335.759430 584.665475 123.813456 0.000000 0.000000 0.000000 0.000000 0.000000 0.000000 66.989329 1.013885 19.960535 -113.010671 -4.258802 19.960535 -154.807077 -4.260529 -20.536413 -142.328055 2.294370 -21.869059 -153.049156 -6.318788 20.536413 2.866457 0.684917 4.648882
1337.950974 598.074245 84.273218 0.000000 0.000000 0.000000 0.000000 0.000000 0.000000 62.697633 0.941600 19.645745 -117.302367 2.404512 19.645745 19.366736 -4.258363 -23.115397 -144.826223 -0.285975 -19.122720 9.911455 0.021192 23.115397 -17.004209 -0.069137 4.524135
1352.846489 601.043322 93.893210 0.000000 0.000000 0.000000 0.000000 0.000000 0.000000 59.083577 -3.709849 18.096541 -120.916423 -1.341044 18.096541 20.876734 3.839998 -25.329838 -142.301690 0.704240 -16.074804 13.356960 -0.609110 25.329838 -16.821524 0.028421 4.381533
1347.310982 587.475100 99.984132 0.000000 0.000000 0.000000 0.000000 0.000000 0.000000 56.169135 6.758321 15.410265 -123.830865 -5.009550 15.410265 21.172503 -4.144659 -27.144812 -139.640745 -2.204479 -12.773379 14.641496 -0.933030 27.144812 -16.282575 0.178261 4.221640
1326.982155 606.886139 90.354147 0.000000 0.000000 0.000000 0.000000 0.000000 0.000000 70.119981 0.255093 11.755705 -109.880019 6.160177 11.755705 26.511889 -7.470462 -28.531695 -111.264667 0.277369 -9.270510 31.153840 -2.432473 28.531695 -13.943905 0.055130 4.045085
1354.391098 626.185555 87.162944 0.000000 0.000000 0.000000 0.000000 0.000000 0.000000 88.154395 2.888524 7.362491 -91.845605 6.714102 7.362491 30.442275 -1.838742 -29.468618 -76.284233 -2.497192 -5.621439 43.854867 2.659442 29.468618 -10.818190 0.161515 3.852566
1370.667114 610.219567 84.612850 0.000000 0.000000 0.000000 0.000000 0.000000 0.000000 89.945118 1.189507 2.506665 -90.054882 -0.859729 2.506665 44.053326 0.838322 -29.940802 -56.238091 3.170709 -1.883716 55.411270 -0.966811 29.940802 -7.805659 -0.076356 3.644843
1372.834854 597.828534 71.722346 0.000000 0.000000 0.000000 0.000000 0.000000 0.000000 93.407992 -3.231606 -2.506665 -86.592008 4.920342 -2.506665 54.165845 -3.222372 -29.940802 -47.239220 3.896466 1.883716 56.575186 -3.445823 29.940802 -6.344474 -0.749234 3.422736
1336.554337 597.454848 68.149230 0.000000 0.000000 0.000000 0.000000 0.000000 0.000000 95.622643 -1.504925 -7.362491 -84.377357 -0.881979 -7.362491 56.597780 4.074717 -29.468618 -45.108662 1.803980 5.621439 55.386034 5.526538 29.468618 -7.206870 -0.938693 3.187120
1310.567093 590.844769 64.737344 0.000000 0.000000 0.000000 0.000000 0.000000 0.000000 100.193768 -1.409364 -11.755705 -79.806232 -6.316403 -11.755705 61.986347 -1.384394 -28.531695 -37.593815 -1.532886 9.270510 62.907615 3.945651 28.531695 -6.637230 -0.652177 2.938926
1328.574371 576.493385 62.970952 0.000000 0.000000 0.000000 0.000000 0.000000 0.000000 101.943783 2.915294 -15.410265 -78.056217 2.917031 -15.410265 61.902838 -2.980318 -27.144812 -33.889586 -0.802321 12.773379 55.760387 6.226536 27.144812 -7.097415 -1.237748 2.679134
1316.178360 595.500870 59.448506 0.000000 0.000000 0.000000 0.000000 0.000000 0.000000 103.792097 8.992199 -18.096541 -76.207903 7.547259 -18.096541 65.535198 -7.775375 -25.329838 -28.739437 0.192256 16.074804 68.415337 -3.674999 25.329838 -6.481753 0.129354 2.408768
1302.343140 568.138025 69.390585 0.000000 0.000000 0.000000 0.000000 0.000000 0.000000 101.222717 5.388260 -19.645745 -78.777283 -12.380228 -19.645745 90.757296 4.626142 -23.115397 -18.578033 4.654911 19.122720 97.909038 -5.737624 23.115397 -5.050134 0.443781 2.128896
1274.166183 540.660596 55.445555 0.000000 0.000000 0.000000 0.000000 0.000000 0.000000 -126.898591 16.682216 -19.960535 53.101409 -16.248566 -19.960535 127.276662 -0.481760 -20.536413 8.808645 -3.878557 21.869059 119.711272 1.338143 20.536413 -4.115393 -0.280070 1.840623
1268.557091 468.331075 44.088096 0.000000 0.000000 0.000000 0.000000 0.000000 0.000000 -124.112133 3.011469 -19.021130 55.887867 0.131449 -19.021130 163.344780 3.947340 -17.633558 38.476068 2.629732 24.270510 145.889074 -1.378546 17.633558 -1.929933 0.016937 1.545085
1278.673096 454.375906 39.361014 0.000000 0.000000 0.000000 0.000000 0.000000 0.000000 -126.805061 -10.746776 -16.886559 53.194939 7.158311 -16.886559 -174.009950 -0.774657 -14.452610 27.419224 -1.910346 26.289200 168.192977 0.615520 14.452610 -0.976267 0.092994 1.243449
1285.008774 434.700390 38.162884 0.000000 0.000000 0.000000 0.000000 0.000000 0.000000 -132.005120 1.097555 -13.690942 47.994880 -3.644525 -13.690942 -171.247775 1.788858 -11.043737 26.625253 0.673745 27.893295 178.805957 0.156655 11.043737 0.023422 -0.192810 0.936907
1288.157730 426.987666 55.340751 0.000000 0.000000 0.000000 0.000000 0.000000 0.000000 -123.987926 2.105312 -9.635073 56.012074 -4.068596 -9.635073 -166.356219 0.895751 -7.460697 35.716336 1.720874 29.057495 -172.960762 -2.489828 7.460697 0.819533 0.099829 0.626666
1291.221657 420.425448 54.389665 0.000000 0.000000 0.000000 0.000000 0.000000 0.000000 -122.265643 -4.251223 -4.973798 57.734357 5.042072 -4.973798 -156.870161 1.730837 -3.759997 38.220704 2.557365 29.763441 -165.716368 0.186411 3.759997 1.405814 -0.026863 0.313953
