HIERARCHY
ROOT Hips
{
    OFFSET 0.0 0.0 0.0
    CHANNELS 6 Xposition Yposition Zposition Zrotation Xrotation Yrotation
    JOINT Spine
    {
        OFFSET 0.0 5.0 0.0
        CHANNELS 3 Zrotation Xrotation Yrotation
        JOINT Chest
        {
            OFFSET 0.0 5.0 0.0
            CHANNELS 3 Zrotation Xrotation Yrotation
            JOINT Neck
            {
                OFFSET 0.0 8.0 0.0
                CHANNELS 3 Zrotation Xrotation Yrotation
                JOINT Head
                {
                    OFFSET 0.0 5.0 0.0
                    CHANNELS 3 Zrotation Xrotation Yrotation
                    End Site
                    {
                        OFFSET 0.0 3.0 0.0
                    }
                }
            }
            JOINT LeftShoulder
            {
                OFFSET -5.0 0.0 0.0
                CHANNELS 3 Zrotation Xrotation Yrotation
                JOINT LeftArm
                {
                    OFFSET 0.0 -10.0 0.0
                    CHANNELS 3 Zrotation Xrotation Yrotation
                    JOINT LeftForeArm
                    {
                        OFFSET 0.0 -10.0 0.0
                        CHANNELS 3 Zrotation Xrotation Yrotation
                        End Site
                        {
                            OFFSET 0.0 -3.0 0.0
                        }
                    }
                }
            }
        }
    }
}

MOTION
Frames: 300
Frame Time: 0.033333

960.000000 445.000000 89.211500 0.000000 0.000000 0.000000 0.000000 0.000000 0.000000 23.025492 -11.373465 0.000000 180.000000 7.155825 0.000000 21.801409 -3.332758 -0.000000 158.198591 7.748021 30.000000 15.945396 -3.850868 0.000000 18.000000 0.325476 0.000000
1691.525230 140.756605 90.604299 0.000000 0.000000 0.000000 0.000000 0.000000 0.000000 -163.376529 10.091042 4.973798 16.623471 -7.398953 4.973798 -171.853121 -3.236352 3.759997 99.744051 -18.008198 29.763441 -171.126653 -3.537633 -3.759997 0.673538 0.443638 0.313953
1636.048050 128.802021 114.417461 0.000000 0.000000 0.000000 0.000000 0.000000 0.000000 157.904128 -14.147408 9.635073 -22.095872 16.570807 9.635073 -171.936471 -4.027063 7.460697 -143.675701 3.839473 29.057495 -173.500805 -4.331721 -7.460697 0.570999 0.508271 0.626666
1578.156967 80.474526 117.862625 0.000000 0.000000 0.000000 0.000000 0.000000 0.000000 -139.519796 -14.896262 13.690942 40.480204 8.593638 13.690942 -174.507724 -4.095099 11.043737 119.111399 -1.797572 27.893295 -173.607258 -3.784311 -11.043737 0.461920 0.472099 0.936907
960.418757 444.998421 125.410640 0.000000 0.000000 0.000000 0.000000 0.000000 0.000000 25.077893 -12.128242 16.886559 180.000000 -7.196458 16.886559 23.861935 1.398449 14.452610 156.138065 -8.863123 26.289200 17.903699 2.344395 -14.452610 18.000000 -0.025229 1.243449
960.523360 444.997533 132.569462 0.000000 0.000000 0.000000 0.000000 0.000000 0.000000 25.638906 15.179995 19.021130 180.000000 -4.185646 19.021130 24.425035 -8.095602 17.633558 155.574965 8.139899 24.270510 18.452907 -1.303613 -17.633558 18.000000 -0.391806 1.545085
960.627905 444.996447 125.537424 0.000000 0.000000 0.000000 0.000000 0.000000 0.000000 26.219073 14.771629 19.960535 180.000000 -1.084023 19.960535 25.006291 -4.775015 20.536413 154.993709 -11.903031 21.869059 19.024920 7.010748 -20.536413 18.000000 -0.950157 1.840623
1126.242828 420.359820 117.061722 0.000000 0.000000 0.000000 0.000000 0.000000 0.000000 31.410514 -4.437965 19.645745 -148.589486 1.931576 19.645745 32.280463 -2.471749 23.115397 -131.603972 -1.927546 19.122720 45.585331 -0.138254 -23.115397 -13.449727 -0.066989 2.128896
1257.895088 650.549197 140.876725 0.000000 0.000000 0.000000 0.000000 0.000000 0.000000 25.073180 -1.494046 18.096541 -154.926820 -7.737981 18.096541 46.260945 -3.924343 25.329838 -154.651428 -5.429755 16.074804 27.339487 5.014886 -25.329838 -13.619892 0.851677 2.408768
960.941083 444.992008 131.597230 0.000000 0.000000 0.000000 0.000000 0.000000 0.000000 28.072001 -14.205844 15.410265 180.000000 -11.805424 15.410265 26.849221 9.157887 27.144812 153.150779 -4.574597 12.773379 20.864045 8.525211 -27.144812 18.000000 -0.621575 2.679134
1163.815842 547.748709 144.946896 0.000000 0.000000 0.000000 0.000000 0.000000 0.000000 117.162728 -7.126954 11.755705 -62.837272 5.791687 11.755705 102.363764 -4.396162 28.531695 -47.376450 0.478590 9.270510 104.768601 4.569834 -28.531695 -6.003489 -0.537497 2.938926
961.149372 444.988063 139.538819 0.000000 0.000000 0.000000 0.000000 0.000000 0.000000 29.395983 38.052739 7.362491 180.000000 -16.460995 7.362491 28.146217 -2.994319 29.468618 151.853783 -3.872756 5.621439 22.170006 1.433868 -29.468618 18.000000 -0.332499 3.187120
1136.717377 590.104480 128.377120 0.000000 0.000000 0.000000 0.000000 0.000000 0.000000 115.752126 -0.999268 2.506665 -64.247874 -3.672378 2.506665 73.638146 7.007650 29.940802 -21.842452 0.996827 1.883716 75.369282 3.546979 -29.940802 -6.767207 -0.584532 3.422736
1163.079758 634.077559 154.132949 0.000000 0.000000 0.000000 0.000000 0.000000 0.000000 132.174340 -7.057829 -2.506665 -47.825660 6.201802 -2.506665 94.255711 -11.112294 29.940802 -149.364979 -6.604144 -1.883716 30.021641 5.715057 -29.940802 -5.096180 -0.395395 3.644843
961.460830 444.980668 133.914236 0.000000 0.000000 0.000000 0.000000 0.000000 0.000000 31.497152 8.527368 -7.362491 180.000000 -17.910508 -7.362491 30.152455 2.646516 29.468618 149.847545 -4.251326 -5.621439 24.175589 -15.870936 -29.468618 18.000000 1.503531 3.852566
1097.449951 565.089898 146.687225 0.000000 0.000000 0.000000 0.000000 0.000000 0.000000 -119.219568 -5.111372 -11.755705 60.780432 7.985557 -11.755705 -150.180642 -7.026333 28.531695 48.804955 6.535402 -9.270510 -149.874178 -6.784368 -28.531695 2.713854 0.593609 4.045085
1114.140244 528.302071 141.831097 0.000000 0.000000 0.000000 0.000000 0.000000 0.000000 -142.671523 -6.214670 -15.410265 37.328477 14.122510 -15.410265 -177.395681 -4.871180 27.144812 34.687329 2.072566 -12.773379 161.894167 4.479988 -27.144812 -0.910956 -0.063111 4.221640
1116.433640 479.728639 141.582275 0.000000 0.000000 0.000000 0.000000 0.000000 0.000000 -102.267481 -9.814672 -18.096541 77.732519 6.884878 -18.096541 -163.695626 0.773946 25.329838 38.575767 0.868756 -16.074804 -176.001122 2.031649 -25.329838 0.706594 -0.149865 4.381533
1135.931282 466.493965 141.805470 0.000000 0.000000 0.000000 0.000000 0.000000 0.000000 -112.868406 4.047987 -19.645745 67.131594 9.459065 -19.645745 -159.517862 -3.377348 23.115397 36.204678 1.089474 -19.122720 -154.426613 -6.168936 -23.115397 2.428729 0.495200 4.524135
1141.618767 467.420679 154.432035 0.000000 0.000000 0.000000 0.000000 0.000000 0.000000 -123.086385 -1.116959 -19.960535 56.913615 1.929899 -19.960535 -154.885724 1.734322 20.536413 36.481623 2.555954 -21.869059 -153.965441 -6.157842 -20.536413 2.446728 0.606171 4.648882
1150.647926 469.370956 143.014373 0.000000 0.000000 0.000000 0.000000 0.000000 0.000000 -43.953779 13.778237 -19.021130 136.046221 -15.479398 -19.021130 -154.327268 -6.848161 17.633558 60.745168 1.527747 -24.270510 -153.350642 -6.876450 -17.633558 2.386216 0.665731 4.755283
1151.529922 496.420240 142.435759 0.000000 0.000000 0.000000 0.000000 0.000000 0.000000 -116.362129 -11.165616 -16.886559 63.637871 -5.352274 -16.886559 -149.081043 2.491299 14.452610 35.941860 2.657776 -26.289200 -156.847177 -0.649451 -14.452610 2.056513 0.074924 4.842916
1148.402367 515.713574 136.001418 0.000000 0.000000 0.000000 0.000000 0.000000 0.000000 -118.252650 7.851643 -13.690942 61.747350 0.005433 -13.690942 -138.082896 0.373441 11.043737 -156.312677 -7.247846 -27.893295 21.649626 9.135563 -11.043737 2.962417 0.099839 4.911436
1175.363617 533.368646 131.143803 0.000000 0.000000 0.000000 0.000000 0.000000 0.000000 -95.476638 -7.882254 -9.635073 84.523362 -5.904464 -9.635073 -113.907461 -5.319402 7.460697 -155.995907 -7.071005 -29.057495 12.512064 7.748581 -7.460697 -16.748794 -0.774858 4.960574
1199.533310 485.991104 115.868127 0.000000 0.000000 0.000000 0.000000 0.000000 0.000000 -100.003195 -10.476733 -4.973798 79.996805 7.987246 -4.973798 -86.083188 -2.372126 3.759997 38.843754 1.967739 -29.763441 -106.539452 0.076448 -3.759997 6.197806 0.098210 4.990134
962.588190 444.938442 116.442210 0.000000 0.000000 0.000000 0.000000 0.000000 0.000000 39.579754 19.074384 -0.000000 180.000000 -22.569209 -0.000000 36.680773 6.468850 0.000000 143.319227 5.711946 -30.000000 29.388385 -23.831239 -0.000000 18.000000 1.300593 5.000000
1142.094727 445.716287 136.041654 0.000000 0.000000 0.000000 0.000000 0.000000 0.000000 -140.228454 -14.217490 4.973798 39.771546 16.371736 4.973798 -156.118008 -6.495929 -3.759997 3.479189 -5.976842 -29.763441 -158.005660 -5.338748 3.759997 2.150019 0.631972 4.990134
1164.005928 424.847746 121.226596 0.000000 0.000000 0.000000 0.000000 0.000000 0.000000 -84.241076 -24.388724 9.635073 95.758924 -27.927837 9.635073 -156.181584 -5.100584 -7.460697 166.928360 1.984228 -29.057495 -154.947270 -6.163506 7.460697 2.644196 0.579344 4.960574
1124.208755 418.286655 117.689309 0.000000 0.000000 0.000000 0.000000 0.000000 0.000000 -117.427077 -11.902987 13.690942 62.572923 -24.727126 13.690942 -155.943063 -5.424408 -11.043737 14.023837 -21.821993 -27.893295 -157.382674 -4.966687 11.043737 2.188130 0.461242 4.911436
962.990408 444.917226 109.642400 0.000000 0.000000 0.000000 0.000000 0.000000 0.000000 42.110883 -25.786313 16.886559 180.000000 32.326622 16.886559 37.946959 -22.927703 -14.452610 142.053041 6.515056 -26.289200 29.293612 9.767161 14.452610 18.000000 -0.770912 4.842916
963.090170 444.911436 105.475754 0.000000 0.000000 0.000000 0.000000 0.000000 0.000000 42.659200 -50.337282 19.021130 180.000000 32.908832 19.021130 38.119107 -12.876508 -17.633558 141.880893 13.375540 -24.270510 29.068887 -4.201021 17.633558 18.000000 -0.125965 4.755283
1186.646461 396.272757 82.224302 0.000000 0.000000 0.000000 0.000000 0.000000 0.000000 -72.847419 9.926602 19.960535 107.152581 16.006844 19.960535 -156.703603 -5.150543 -20.536413 178.447294 -2.632289 -21.869059 -157.212393 -4.676448 20.536413 1.964058 0.440798 4.648882
1313.051605 426.636125 87.160539 0.000000 0.000000 0.000000 0.000000 0.000000 0.000000 90.994869 -10.463849 19.645745 -89.005131 19.748851 19.645745 -160.515303 -4.299609 -23.115397 -153.248861 6.283136 -19.122720 -159.640525 -4.977003 23.115397 0.000000 0.000000 0.000000
1347.999344 420.772226 81.898229 0.000000 0.000000 0.000000 0.000000 0.000000 0.000000 90.154351 -9.291309 18.096541 -89.845649 8.547629 18.096541 -162.053401 -4.281293 -25.329838 -136.198880 2.124105 -16.074804 -160.991694 -4.359841 25.329838 0.000000 0.000000 0.000000
1344.315948 421.031681 109.469262 0.000000 0.000000 0.000000 0.000000 0.000000 0.000000 69.757587 3.058759 15.410265 -110.242413 -3.442371 15.410265 25.616746 0.738114 -27.144812 -157.821005 -3.559041 -12.773379 17.214985 3.542730 27.144812 -16.704706 -0.025998 4.221640
1350.307617 440.309436 86.774556 0.000000 0.000000 0.000000 0.000000 0.000000 0.000000 71.124018 -10.116769 11.755705 -108.875982 -9.168442 11.755705 42.739987 7.393266 -28.531695 -142.315466 -0.178170 -9.270510 16.600926 2.826766 28.531695 -16.660102 -0.151131 4.045085
1357.685051 430.688889 85.266756 0.000000 0.000000 0.000000 0.000000 0.000000 0.000000 77.656077 2.342485 7.362491 -102.343923 8.340493 7.362491 39.407151 -6.861647 -29.468618 -136.343173 2.403508 -5.621439 22.144452 0.764944 29.468618 -16.305135 -0.093034 3.852566
1369.482193 445.909406 78.354545 0.000000 0.000000 0.000000 0.000000 0.000000 0.000000 88.051188 -5.575137 2.506665 -91.948812 8.646116 2.506665 -161.283973 -3.430156 -29.940802 -119.799169 -1.030518 -1.883716 -164.575400 -3.095692 29.940802 1.401013 0.316520 3.644843
963.875156 444.858159 69.308525 0.000000 0.000000 0.000000 0.000000 0.000000 0.000000 45.304844 -38.822706 -2.506665 180.000000 26.411030 -2.506665 37.252439 6.314167 -29.940802 142.747561 15.143040 1.883716 25.146244 -0.735608 29.940802 18.000000 0.170301 3.422736
963.971479 444.850633 69.560849 0.000000 0.000000 0.000000 0.000000 0.000000 0.000000 45.383640 -21.173139 -7.362491 180.000000 16.366577 -7.362491 36.882310 -17.404190 -29.468618 143.117690 0.059893 5.621439 24.499789 -1.643064 29.468618 18.000000 0.576199 3.187120
1336.629524 469.010178 56.797755 0.000000 0.000000 0.000000 0.000000 0.000000 0.000000 -72.390177 -8.789554 -11.755705 107.609823 8.417591 -11.755705 -158.649984 -2.640392 -28.531695 2.583425 0.163995 9.270510 -39.658551 5.935519 28.531695 10.837181 -0.435571 2.938926
1311.966934 518.219100 66.314995 0.000000 0.000000 0.000000 0.000000 0.000000 0.000000 -63.565072 30.315054 -15.410265 116.434928 0.924305 -15.410265 -14.840750 -1.775938 -27.144812 -158.549348 -2.682032 12.773379 17.488774 2.791516 27.144812 7.174982 -4.459980 2.679134
964.257793 444.826908 69.818890 0.000000 0.000000 0.000000 0.000000 0.000000 0.000000 45.262206 -25.596292 -18.096541 180.000000 -15.960789 -18.096541 35.497192 16.220785 -25.329838 144.502808 4.229725 16.074804 22.522929 2.619907 25.329838 18.000000 -0.696659 2.408768
1275.921364 516.836239 71.048044 0.000000 0.000000 0.000000 0.000000 0.000000 0.000000 85.186295 3.087010 -19.645745 -94.813705 -0.374939 -19.645745 52.470689 3.690027 -23.115397 -44.513683 -0.886860 19.122720 50.867598 -3.127575 23.115397 -8.717188 1.430731 2.128896
1263.254128 546.875424 34.403416 0.000000 0.000000 0.000000 0.000000 0.000000 0.000000 34.848242 -56.044072 -19.960535 -145.151758 52.446813 -19.960535 42.487561 -48.951406 -20.536413 -157.415675 -1.413170 21.869059 22.420880 2.187173 20.536413 -15.757912 -0.218717 1.840623
1258.788185 528.263061 42.129528 0.000000 0.000000 0.000000 0.000000 0.000000 0.000000 118.326865 13.569755 -19.021130 -61.673135 -20.993079 -19.021130 143.214759 1.649717 -17.633558 -156.228306 -2.808936 24.270510 28.173554 2.184642 17.633558 -15.182645 -0.218464 1.545085
1231.492081 471.383836 76.125334 0.000000 0.000000 0.000000 0.000000 0.000000 0.000000 -115.049381 -17.826392 -16.886559 64.950619 17.107763 -16.886559 172.843704 -8.177593 -14.452610 -157.842300 -2.175848 26.289200 32.851042 2.405779 14.452610 -14.714896 -0.240578 1.243449
1223.928795 435.993515 40.928432 0.000000 0.000000 0.000000 0.000000 0.000000 0.000000 -115.322532 -8.926908 -13.690942 64.677468 4.446534 -13.690942 -168.597862 1.559692 -11.043737 -158.853816 -2.398499 27.893295 31.099266 2.470022 11.043737 -14.890073 -0.247002 0.936907
1223.669701 418.195664 53.894750 0.000000 0.000000 0.000000 0.000000 0.000000 0.000000 -102.084053 5.222017 -9.635073 77.915947 34.976377 -9.635073 -171.103858 -5.660487 -7.460697 162.056334 6.564244 29.057495 -153.594437 -3.091976 7.460697 2.968481 0.226867 0.626666
1216.486244 414.503002 40.536314 0.000000 0.000000 0.000000 0.000000 0.000000 0.000000 69.261091 18.915911 -4.973798 -110.738909 -34.203566 -4.973798 -158.083722 -1.922589 -3.759997 -173.244581 1.285282 29.763441 -154.635509 -3.240635 3.759997 2.928763 0.316154 0.313953
1212.090225 434.550980 54.120497 0.000000 0.000000 0.000000 0.000000 0.000000 0.000000 -112.403932 -33.558162 0.000000 67.596068 3.887480 0.000000 -157.060799 -1.908162 -0.000000 173.400765 6.126336 30.000000 -154.473580 -2.881865 0.000000 2.734633 0.316514 0.000000
1214.024734 450.340490 49.010061 0.000000 0.000000 0.000000 0.000000 0.000000 0.000000 -110.634751 -10.592538 4.973798 69.365249 5.185287 4.973798 -137.583343 -3.549967 3.759997 -158.589698 -2.273345 29.763441 20.879446 3.118736 -3.759997 -15.912055 -0.311874 0.313953
1204.271393 440.192921 44.577385 0.000000 0.000000 0.000000 0.000000 0.000000 0.000000 -99.498286 -8.715311 9.635073 80.501714 19.524473 9.635073 -156.696469 -3.051166 7.460697 -178.487725 -0.955096 29.057495 -157.318323 -2.480503 -7.460697 2.108583 0.341405 0.626666
965.269558 444.725315 44.568819 0.000000 0.000000 0.000000 0.000000 0.000000 0.000000 40.845461 -5.741593 13.690942 180.000000 -9.702320 13.690942 28.615377 10.484553 11.043737 151.384623 -4.761704 27.893295 16.305092 -3.416261 -11.043737 18.000000 0.389055 0.936907
1182.456551 475.103824 81.670615 0.000000 0.000000 0.000000 0.000000 0.000000 0.000000 -168.146016 -32.705436 16.886559 11.853984 35.021694 16.886559 -63.802645 -2.712305 14.452610 -61.114510 4.183619 26.289200 -47.869281 -1.136177 -14.452610 -13.834956 -8.066220 1.243449
965.446390 444.704404 61.988134 0.000000 0.000000 0.000000 0.000000 0.000000 0.000000 39.578146 11.198990 19.021130 180.000000 1.588744 19.021130 27.338029 8.756196 17.633558 152.661971 -4.397996 24.270510 15.463180 -2.425537 -17.633558 18.000000 0.306731 1.545085
965.533915 444.693669 78.957417 0.000000 0.000000 0.000000 0.000000 0.000000 0.000000 38.916706 -17.757268 19.960535 180.000000 -2.244157 19.960535 26.716768 11.376869 20.536413 153.283232 -5.885998 21.869059 15.076605 1.050920 -20.536413 18.000000 0.488766 1.840623
965.620834 444.682749 68.174257 0.000000 0.000000 0.000000 0.000000 0.000000 0.000000 38.241653 18.627292 19.645745 180.000000 -17.049099 19.645745 26.109467 -2.456450 23.115397 153.890533 -5.591862 19.122720 14.712258 -1.889707 -23.115397 18.000000 0.701434 2.128896
965.707136 444.671645 81.461562 0.000000 0.000000 0.000000 0.000000 0.000000 0.000000 37.556504 10.913622 18.096541 180.000000 -18.823570 18.096541 25.517536 -8.681037 25.329838 154.482464 -8.329458 16.074804 14.369537 -4.767791 -25.329838 18.000000 0.298555 2.408768
965.792812 444.660356 89.443785 0.000000 0.000000 0.000000 0.000000 0.000000 0.000000 36.864608 -49.655042 15.410265 180.000000 18.784848 15.410265 24.942131 1.125481 27.144812 155.057869 13.824293 12.773379 14.047797 -7.492100 -27.144812 18.000000 0.146973 2.679134
965.877853 444.648882 85.115654 0.000000 0.000000 0.000000 0.000000 0.000000 0.000000 36.169118 -6.864301 11.755705 180.000000 6.000219 11.755705 24.384173 2.548265 28.531695 155.615827 4.600126 9.270510 13.746367 -6.339029 -28.531695 18.000000 1.106498 2.938926
965.962249 444.637226 85.737290 0.000000 0.000000 0.000000 0.000000 0.000000 0.000000 35.472980 -6.522873 7.362491 180.000000 -8.918995 7.362491 23.844373 18.394646 29.468618 156.155627 -1.225232 5.621439 13.464570 -0.988553 -29.468618 18.000000 0.227930 3.187120
966.045991 444.625386 103.394793 0.000000 0.000000 0.000000 0.000000 0.000000 0.000000 34.778913 22.819029 2.506665 180.000000 -11.581493 2.506665 23.323250 -1.519829 29.940802 156.676750 -11.596633 1.883716 13.201728 0.246555 -29.940802 18.000000 0.467100 3.422736
966.129071 444.613364 111.039813 0.000000 0.000000 0.000000 0.000000 0.000000 0.000000 34.089406 11.797502 -2.506665 180.000000 -13.642208 -2.506665 22.821158 14.796522 29.940802 157.178842 6.623049 -1.883716 12.957175 0.460424 -29.940802 18.000000 -0.383837 3.644843
966.211478 444.601159 108.096487 0.000000 0.000000 0.000000 0.000000 0.000000 0.000000 33.406712 -27.735560 -7.362491 180.000000 -4.573626 -7.362491 22.338307 3.566381 29.468618 157.661693 4.607501 -5.621439 12.730264 -2.608438 -29.468618 18.000000 0.303598 3.852566
1171.486244 534.946783 106.646888 0.000000 0.000000 0.000000 0.000000 0.000000 0.000000 70.594720 1.757517 -11.755705 -109.405280 3.151058 -11.755705 49.953444 -2.739096 28.531695 -151.467583 -4.655253 -9.270510 0.000000 0.000000 0.000000 0.000000 0.000000 0.000000
966.374240 444.576206 105.143572 0.000000 0.000000 0.000000 0.000000 0.000000 0.000000 32.069603 3.670837 -15.410265 180.000000 -3.401438 -15.410265 21.430544 -1.114391 27.144812 158.569456 -3.282958 -12.773379 12.326901 -0.167624 -27.144812 18.000000 0.428620 4.221640
1172.156410 555.047708 128.897689 0.000000 0.000000 0.000000 0.000000 0.000000 0.000000 -121.065102 -14.255033 -18.096541 58.934898 3.216866 -18.096541 -151.641456 -5.801035 25.329838 -177.360623 -2.830094 -16.074804 -149.076048 -6.203759 -25.329838 0.000000 0.000000 0.000000
1161.826630 552.360713 126.948480 0.000000 0.000000 0.000000 0.000000 0.000000 0.000000 69.958407 -40.745119 -19.645745 -110.041593 -20.499006 -19.645745 -152.437496 -5.629544 23.115397 -158.790607 1.358187 -19.122720 -150.591725 -7.172414 -23.115397 3.219062 0.705870 4.524135
1165.827255 569.832902 134.259887 0.000000 0.000000 0.000000 0.000000 0.000000 0.000000 25.594208 -32.332188 -19.960535 -154.405792 21.598765 -19.960535 11.723883 -7.725512 20.536413 -161.543160 3.126483 -21.869059 7.769582 1.276871 -20.536413 -17.248199 -0.151130 4.648882
1165.555573 565.067046 145.052491 0.000000 0.000000 0.000000 0.000000 0.000000 0.000000 43.355707 -13.110629 -19.021130 -136.644293 -5.757770 -19.021130 15.984329 -4.202851 17.633558 -140.773833 -2.255449 -24.270510 13.679449 1.673517 -17.633558 -16.392157 0.154810 4.755283
1290.255775 608.533316 148.007392 0.000000 0.000000 0.000000 0.000000 0.000000 0.000000 -153.952071 5.483369 -16.886559 26.047929 -12.117174 -16.886559 -152.683807 -4.967627 14.452610 4.794196 2.590708 -26.289200 -154.287190 -5.445540 -14.452610 2.418080 0.525287 4.842916
1180.398903 551.817470 148.245162 0.000000 0.000000 0.000000 0.000000 0.000000 0.000000 51.640104 -11.603565 -13.690942 -128.359896 -8.102194 -13.690942 14.419400 8.720170 11.043737 -33.521359 26.917810 -27.893295 -34.277510 1.702010 -11.043737 5.235387 1.198144 4.911436
1162.708626 619.419501 161.024249 0.000000 0.000000 0.000000 0.000000 0.000000 0.000000 -88.968325 -13.324020 -9.635073 91.031675 -32.029516 -9.635073 -52.690088 10.755361 7.460697 25.015222 -5.246040 -29.057495 -72.561734 1.211750 -7.460697 8.557489 0.030748 4.960574
1110.899391 602.919216 139.862482 0.000000 0.000000 0.000000 0.000000 0.000000 0.000000 -86.972237 7.285051 -4.973798 93.027763 -8.544979 -4.973798 -39.551144 0.667703 3.759997 34.838085 -3.681118 -29.763441 -44.185810 0.180852 -3.759997 10.000609 0.424913 4.990134
1150.187302 553.686991 161.383111 0.000000 0.000000 0.000000 0.000000 0.000000 0.000000 -116.065142 14.984403 -0.000000 63.934858 1.024434 -0.000000 -151.059314 -7.131615 0.000000 -0.492058 -12.779334 -30.000000 -14.044098 16.680157 -0.000000 1.929760 0.354815 5.000000
967.144727 444.440682 141.678987 0.000000 0.000000 0.000000 0.000000 0.000000 0.000000 26.270296 -1.485579 4.973798 180.000000 -10.590763 4.973798 17.996647 -1.346010 -3.759997 162.003353 -1.427731 -29.763441 11.189167 -1.641772 3.759997 18.000000 0.274055 4.990134
1213.452644 620.002785 139.840963 0.000000 0.000000 0.000000 0.000000 0.000000 0.000000 140.390379 27.102189 9.635073 -39.609621 17.622263 9.635073 77.724607 1.701838 -7.460697 -153.982965 -6.378093 -29.057495 24.142749 6.041539 7.460697 -0.833727 -0.485348 4.960574
1124.373779 618.464527 149.078314 0.000000 0.000000 0.000000 0.000000 0.000000 0.000000 99.329635 3.554896 13.690942 -80.670365 -23.564216 13.690942 85.960927 10.200057 -11.043737 -150.875293 -7.479058 -27.893295 31.644098 6.407590 11.043737 -14.835590 -0.640759 4.911436
967.360971 444.396582 137.724036 0.000000 0.000000 0.000000 0.000000 0.000000 0.000000 24.874716 -23.600526 16.886559 180.000000 7.236296 16.886559 17.291102 0.121934 -14.452610 162.708898 0.956842 -26.289200 11.098846 1.436572 14.452610 18.000000 0.242590 4.842916
1107.875175 542.453964 142.043274 0.000000 0.000000 0.000000 0.000000 0.000000 0.000000 -128.741314 8.019257 19.021130 51.258686 -5.253916 19.021130 -177.225595 1.181585 -17.633558 19.954750 1.197348 -24.270510 162.677362 -0.028364 17.633558 -1.443098 -0.146208 4.755283
1119.652290 522.766346 148.284360 0.000000 0.000000 0.000000 0.000000 0.000000 0.000000 -99.017754 5.026115 19.960535 80.982246 -21.746252 19.960535 -150.289603 -6.445697 -20.536413 -152.613833 -7.817424 -21.869059 0.000000 0.000000 0.000000 0.000000 0.000000 0.000000
1132.908783 538.229613 158.348687 0.000000 0.000000 0.000000 0.000000 0.000000 0.000000 -127.874185 4.325675 19.645745 52.125815 2.886428 19.645745 -165.450188 -7.203183 -23.115397 -152.521515 -7.439612 -19.122720 40.606225 9.495525 23.115397 -13.939378 -0.949552 4.524135
1146.969337 541.828065 148.858848 0.000000 0.000000 0.000000 0.000000 0.000000 0.000000 -113.631604 -2.785917 18.096541 66.368396 8.866775 18.096541 -159.067475 -2.515727 -25.329838 113.981862 5.218152 -16.074804 -145.449815 -7.003015 25.329838 0.000000 0.000000 0.000000
1165.252304 561.329677 138.743836 0.000000 0.000000 0.000000 0.000000 0.000000 0.000000 -112.861399 1.131324 15.410265 67.138601 2.176974 15.410265 -159.396543 0.793269 -27.144812 -151.967552 -6.821816 -12.773379 38.422588 8.734593 27.144812 -14.157741 -0.873459 4.221640
1174.726181 592.839689 113.598058 0.000000 0.000000 0.000000 0.000000 0.000000 0.000000 -110.369899 -5.096226 11.755705 69.630101 -0.443944 11.755705 -148.108768 1.353299 -28.531695 -151.515612 -6.671050 -9.270510 34.277732 8.424715 28.531695 -14.572227 -0.842472 4.045085
1167.352524 605.194867 125.390644 0.000000 0.000000 0.000000 0.000000 0.000000 0.000000 -113.828445 -10.324773 7.362491 66.171555 4.990070 7.362491 -131.688453 6.562128 -29.468618 -151.045756 -5.665358 -5.621439 27.200835 10.177689 29.468618 -15.279916 -1.017769 3.852566
1139.678879 602.981014 128.363032 0.000000 0.000000 0.000000 0.000000 0.000000 0.000000 -97.599684 35.919548 2.506665 82.400316 -8.188324 2.506665 -113.965806 6.769828 -29.940802 -121.058781 -2.147337 -1.883716 -118.492407 8.109898 29.940802 10.137620 -8.144634 3.644843
1165.830002 580.020189 116.276904 0.000000 0.000000 0.000000 0.000000 0.000000 0.000000 -28.085052 -13.598797 -2.506665 151.914948 12.644744 -2.506665 -150.589103 -6.126195 -29.940802 -172.678414 0.083504 1.883716 -149.717924 -6.283917 29.940802 0.000000 0.000000 0.000000
1184.501953 619.872494 138.484324 0.000000 0.000000 0.000000 0.000000 0.000000 0.000000 -113.790307 21.619240 -7.362491 66.209693 5.518972 -7.362491 -59.272274 -3.837861 -29.468618 29.476823 -1.235992 5.621439 -88.148483 1.029827 29.468618 7.414604 -0.075219 3.187120
968.090170 444.221640 100.185057 0.000000 0.000000 0.000000 0.000000 0.000000 0.000000 21.092887 3.213462 -11.755705 180.000000 4.054402 -11.755705 15.757771 -1.538437 -28.531695 164.242229 -2.413424 9.270510 11.678908 2.567592 28.531695 18.000000 -0.287052 2.938926
968.151278 444.204723 112.032772 0.000000 0.000000 0.000000 0.000000 0.000000 0.000000 20.844337 -4.726873 -15.410265 180.000000 -2.874281 -15.410265 15.691895 9.300129 -27.144812 164.308105 2.496298 12.773379 11.804629 0.640580 27.144812 18.000000 -0.771791 2.679134
968.211492 444.187640 97.409957 0.000000 0.000000 0.000000 0.000000 0.000000 0.000000 20.610265 12.860156 -18.096541 180.000000 7.079162 -18.096541 15.637361 -3.298216 -25.329838 164.362639 -0.292018 16.074804 11.943263 1.884850 25.329838 18.000000 0.154524 2.408768
968.270806 444.170392 117.736391 0.000000 0.000000 0.000000 0.000000 0.000000 0.000000 20.390366 1.632161 -19.645745 180.000000 9.019189 -19.645745 15.594026 -3.884075 -23.115397 164.405974 5.416682 19.122720 12.095062 -1.578999 23.115397 18.000000 0.376892 2.128896
968.329212 444.152979 117.231757 0.000000 0.000000 0.000000 0.000000 0.000000 0.000000 20.184343 -7.486129 -19.960535 180.000000 13.100890 -19.960535 15.561766 -0.884981 -20.536413 164.438234 5.738680 21.869059 12.260289 -7.038444 20.536413 18.000000 0.659181 1.840623
968.386706 444.135403 88.981003 0.000000 0.000000 0.000000 0.000000 0.000000 0.000000 19.991916 9.767691 -19.021130 180.000000 1.028460 -19.021130 15.540476 -2.455829 -17.633558 164.459524 -5.037587 24.270510 12.439222 3.557508 17.633558 18.000000 -0.353373 1.545085
968.443279 444.117663 101.239569 0.000000 0.000000 0.000000 0.000000 0.000000 0.000000 19.812814 11.806495 -16.886559 180.000000 -1.173342 -16.886559 15.530069 10.514961 -14.452610 164.469931 6.417654 26.289200 12.632146 -8.409058 14.452610 18.000000 -0.014348 1.243449
968.498927 444.099761 105.814098 0.000000 0.000000 0.000000 0.000000 0.000000 0.000000 19.646785 -11.679832 -13.690942 180.000000 1.276366 -13.690942 15.530474 -3.585046 -11.043737 164.469526 -0.772486 27.893295 12.839349 0.885248 11.043737 18.000000 0.766007 0.936907
968.553643 444.081696 86.205243 0.000000 0.000000 0.000000 0.000000 0.000000 0.000000 19.493591 16.245288 -9.635073 180.000000 -2.521686 -9.635073 15.541640 1.774863 -7.460697 164.458360 -7.536484 29.057495 13.061119 2.700462 7.460697 18.000000 0.628215 0.626666
1051.772690 653.004448 75.233529 0.000000 0.000000 0.000000 0.000000 0.000000 0.000000 -79.007834 0.940337 -4.973798 100.992166 0.314425 -4.973798 -126.715299 0.677911 -3.759997 -149.991181 -4.075543 29.763441 31.772279 4.319091 3.759997 -14.822772 -0.431909 0.313953
1061.669197 624.716241 83.562819 0.000000 0.000000 0.000000 0.000000 0.000000 0.000000 -94.718359 10.523347 0.000000 85.281641 -8.096342 0.000000 -144.150484 -5.449203 -0.000000 60.155085 4.763480 30.000000 -152.711462 0.676490 0.000000 1.815393 -0.151041 0.000000
1072.053337 571.032879 51.626357 0.000000 0.000000 0.000000 0.000000 0.000000 0.000000 71.424080 8.751251 4.973798 -108.575920 2.021195 4.973798 -149.042361 -3.867473 3.759997 -149.913636 -0.954288 29.763441 -145.792107 -4.181791 -3.759997 3.947623 0.465689 0.313953
1070.057373 572.884376 81.483146 0.000000 0.000000 0.000000 0.000000 0.000000 0.000000 -80.850201 -16.738749 9.635073 99.149799 28.319095 9.635073 -147.567525 -3.760895 7.460697 -164.443014 -0.963314 29.057495 -145.447997 -3.660321 -7.460697 4.032371 0.405803 0.626666
968.813035 443.988972 53.833013 0.000000 0.000000 0.000000 0.000000 0.000000 0.000000 18.912944 15.998295 13.690942 180.000000 -2.772978 13.690942 15.758200 -0.886770 11.043737 164.241800 -3.732346 27.893295 14.397395 4.483793 -11.043737 18.000000 -0.624392 0.936907
968.862036 443.969952 75.075645 0.000000 0.000000 0.000000 0.000000 0.000000 0.000000 18.832684 13.171949 16.886559 180.000000 0.087373 16.886559 15.833735 -0.016276 14.452610 164.166265 4.384208 26.289200 14.711463 -4.704111 -14.452610 18.000000 0.184281 1.243449
968.910065 443.950775 47.115841 0.000000 0.000000 0.000000 0.000000 0.000000 0.000000 18.764066 16.569803 19.021130 180.000000 -5.801330 19.021130 15.920102 4.618279 17.633558 164.079898 -7.000318 24.270510 15.041323 10.425096 -17.633558 18.000000 -0.673911 1.545085
968.957118 443.931442 59.597213 0.000000 0.000000 0.000000 0.000000 0.000000 0.000000 18.706990 33.391700 19.960535 180.000000 -15.612456 19.960535 16.017366 8.310231 20.536413 163.982634 -5.691522 21.869059 15.386894 -0.736056 -20.536413 18.000000 -0.126419 1.840623
969.003188 443.911954 36.828879 0.000000 0.000000 0.000000 0.000000 0.000000 0.000000 18.661377 11.559905 19.645745 180.000000 -2.778010 19.645745 16.125602 -1.760976 23.115397 163.874398 0.185770 19.122720 15.747980 -0.889616 -23.115397 18.000000 -0.037737 2.128896
969.048271 443.892312 71.073638 0.000000 0.000000 0.000000 0.000000 0.000000 0.000000 18.627165 -0.749245 18.096541 180.000000 -6.754643 18.096541 16.244896 -0.651136 25.329838 163.755104 -0.728129 16.074804 16.124252 0.575274 -25.329838 18.000000 -0.215554 2.408768
969.092361 443.872515 56.487719 0.000000 0.000000 0.000000 0.000000 0.000000 0.000000 18.604312 5.409683 15.410265 180.000000 8.187094 15.410265 16.375340 1.794674 27.144812 163.624660 2.069241 12.773379 16.515224 7.262123 -27.144812 18.000000 -0.663186 2.679134
1055.186234 577.357593 49.529833 0.000000 0.000000 0.000000 0.000000 0.000000 0.000000 85.510211 3.970047 11.755705 -94.489789 -8.621460 11.755705 37.103410 6.698351 28.531695 -148.111343 -2.959673 9.270510 24.294182 2.563106 -28.531695 -8.601915 -1.951500 2.938926
1122.856522 566.714029 54.220169 0.000000 0.000000 0.000000 0.000000 0.000000 0.000000 96.216240 -7.094463 7.362491 -83.783760 -5.332540 7.362491 46.189625 6.111558 29.468618 -149.396962 -2.267286 5.621439 24.670091 2.478158 -29.468618 -7.107716 -1.143005 3.187120
969.218632 443.812213 47.533332 0.000000 0.000000 0.000000 0.000000 0.000000 0.000000 18.603763 -16.678442 2.506665 180.000000 0.899476 2.506665 16.834613 1.628388 29.940802 163.165387 1.281707 1.883716 17.768624 3.005483 -29.940802 18.000000 -0.605136 3.422736
1112.757797 605.798106 43.782844 0.000000 0.000000 0.000000 0.000000 0.000000 0.000000 110.914625 -15.580486 -2.506665 -69.085375 17.075218 -2.506665 67.769469 -4.577954 29.940802 -149.822316 -2.375515 -1.883716 29.049901 2.407932 -29.940802 -3.625079 -0.229850 3.644843
1086.733246 592.557156 50.576510 0.000000 0.000000 0.000000 0.000000 0.000000 0.000000 -80.132323 -3.213934 -7.362491 99.867677 37.302511 -7.362491 36.201564 6.441245 29.468618 -13.679556 5.326139 -5.621439 78.049842 -6.741257 -29.468618 -5.127460 0.282840 3.852566
1081.109390 570.394492 72.190333 0.000000 0.000000 0.000000 0.000000 0.000000 0.000000 -175.864613 -12.025915 -11.755705 4.135387 -13.454983 -11.755705 134.713876 9.538578 28.531695 -10.005873 0.895532 -9.270510 135.737755 -0.384155 -28.531695 -3.389365 -0.031459 4.045085
1089.776802 536.594539 47.116901 0.000000 0.000000 0.000000 0.000000 0.000000 0.000000 -139.033903 9.044678 -15.410265 40.966097 -9.719932 -15.410265 161.695972 -3.227056 27.144812 3.114398 -6.908170 -12.773379 148.805610 -0.207838 -27.144812 -2.611636 0.023894 4.221640
1114.282036 523.965647 51.482465 0.000000 0.000000 0.000000 0.000000 0.000000 0.000000 -156.073983 -5.311480 -18.096541 23.926017 -2.580552 -18.096541 174.825807 3.536054 25.329838 5.093343 -0.386207 -16.074804 161.266817 0.097934 -25.329838 -1.814366 -0.047820 4.381533
1122.145157 503.425248 56.752307 0.000000 0.000000 0.000000 0.000000 0.000000 0.000000 -144.538174 -13.364071 -19.645745 35.461826 7.622128 -19.645745 174.215003 -0.868544 23.115397 -151.750905 -3.297542 -19.122720 43.887064 2.705267 -23.115397 -13.611294 -0.270527 4.524135
1134.158249 484.688419 62.167133 0.000000 0.000000 0.000000 0.000000 0.000000 0.000000 -142.311443 0.845170 -19.960535 37.688557 3.757029 -19.960535 -174.407776 -0.886237 20.536413 14.121014 -1.664127 -21.869059 176.737053 1.679955 -20.536413 -0.386439 0.123144 4.648882
1156.756668 500.025387 57.332960 0.000000 0.000000 0.000000 0.000000 0.000000 0.000000 -140.140767 -5.147214 -19.021130 39.859233 28.117872 -19.021130 -176.866589 -8.332859 17.633558 -153.177991 -3.320544 -24.270510 40.555680 4.189824 -17.633558 -13.944432 -0.418982 4.755283
1163.818588 490.292573 80.600595 0.000000 0.000000 0.000000 0.000000 0.000000 0.000000 -126.918075 1.114093 -16.886559 53.081925 -5.594826 -16.886559 -163.374411 -1.922941 14.452610 -153.952175 -3.949906 -26.289200 36.914642 4.669952 -14.452610 0.798233 0.280273 4.842916
1176.523705 490.346003 84.881017 0.000000 0.000000 0.000000 0.000000 0.000000 0.000000 -130.072590 7.232601 -13.690942 49.927410 -4.359582 -13.690942 -150.224616 -1.394914 11.043737 24.749952 -0.868617 -27.893295 -162.219632 -0.276070 -11.043737 1.550269 -0.047701 4.911436
1165.045052 489.521159 87.719761 0.000000 0.000000 0.000000 0.000000 0.000000 0.000000 -134.421293 2.787992 -9.635073 45.578707 -3.615215 -9.635073 -138.114962 2.438668 7.460697 20.347125 -0.952560 -29.057495 -149.675125 0.686648 -7.460697 1.919618 0.043041 4.960574
1186.003189 485.341580 95.787572 0.000000 0.000000 0.000000 0.000000 0.000000 0.000000 151.263424 79.924052 -4.973798 -28.736576 -85.497761 -4.973798 -155.571724 -3.139755 3.759997 -114.944239 -5.973429 -29.763441 -157.446860 -4.475693 -3.759997 2.096391 0.442126 4.990134
1190.285912 497.609435 93.568826 0.000000 0.000000 0.000000 0.000000 0.000000 0.000000 -104.331435 6.866164 -0.000000 75.668565 -30.175018 -0.000000 -153.934692 -3.550624 0.000000 -67.465008 -1.235337 -30.000000 -71.629168 -2.808002 -0.000000 -13.965204 -6.707919 5.000000
846.875610 502.341399 101.650333 0.000000 0.000000 0.000000 0.000000 0.000000 0.000000 -153.358185 -27.538680 4.973798 26.641815 -11.828787 4.973798 -147.628169 -4.645710 -3.759997 -147.401289 -5.300368 -29.763441 0.000000 0.000000 0.000000 0.000000 0.000000 0.000000
969.711343 443.490827 115.759747 0.000000 0.000000 0.000000 0.000000 0.000000 0.000000 20.204512 -14.934711 9.635073 180.000000 4.736681 9.635073 20.733157 1.510625 -7.460697 159.266843 12.416061 -29.057495 24.065833 -6.000780 7.460697 18.000000 -1.129677 4.960574
969.735789 443.468267 102.308339 0.000000 0.000000 0.000000 0.000000 0.000000 0.000000 20.415894 -5.878794 13.690942 180.000000 0.185212 13.690942 21.087741 -8.693481 -11.043737 158.912259 -16.331764 -27.893295 24.320336 20.822768 11.043737 18.000000 -0.344945 4.911436
969.759168 443.445569 114.920989 0.000000 0.000000 0.000000 0.000000 0.000000 0.000000 20.642061 -14.374710 16.886559 180.000000 0.900710 16.886559 21.453029 3.783914 -14.452610 158.546971 4.612166 -26.289200 24.533304 8.664323 14.452610 18.000000 -1.545079 4.842916
585.252171 514.469179 114.802329 0.000000 0.000000 0.000000 0.000000 0.000000 0.000000 74.723181 -62.492711 19.021130 -105.276819 72.977622 19.021130 119.807175 1.003053 -17.633558 165.825978 21.753522 -24.270510 138.012220 3.544978 17.633558 -12.357653 -1.834525 4.755283
624.843979 517.601860 138.608602 0.000000 0.000000 0.000000 0.000000 0.000000 0.000000 103.202449 -32.701544 19.960535 -76.797551 -10.117220 19.960535 114.381580 3.604908 -20.536413 -53.015473 51.195294 -21.869059 145.467160 6.223437 20.536413 -4.173333 -2.479524 4.648882
969.822873 443.376664 125.091048 0.000000 0.000000 0.000000 0.000000 0.000000 0.000000 21.413420 -8.236020 19.645745 180.000000 8.026448 19.645745 22.607712 -8.985660 -23.115397 157.392288 8.607742 -19.122720 24.899813 3.783855 23.115397 18.000000 -0.668097 4.524135
969.841956 443.353428 127.775210 0.000000 0.000000 0.000000 0.000000 0.000000 0.000000 21.702987 -36.428454 18.096541 180.000000 7.204764 18.096541 23.009909 -4.568122 -25.329838 156.990091 4.159596 -16.074804 24.926562 11.582694 25.329838 18.000000 -0.559488 4.381533
969.859960 443.330059 153.023480 0.000000 0.000000 0.000000 0.000000 0.000000 0.000000 22.009579 15.692013 15.410265 180.000000 -1.185384 15.410265 23.419334 -9.481943 -27.144812 156.580666 -4.678346 -12.773379 24.904993 3.287583 27.144812 18.000000 0.627970 4.221640
594.905148 538.048757 131.666011 0.000000 0.000000 0.000000 0.000000 0.000000 0.000000 -57.080480 -27.105424 11.755705 122.919520 18.263456 11.755705 -12.750556 7.282934 -28.531695 149.841027 13.549543 -9.270510 -8.274090 -6.859310 28.531695 17.596979 0.408003 4.045085
969.892723 443.282929 155.937548 0.000000 0.000000 0.000000 0.000000 0.000000 0.000000 22.675903 -4.752185 7.362491 180.000000 10.934448 7.362491 24.255612 -14.289304 -29.468618 155.744388 9.422713 -5.621439 24.720303 -3.228267 29.468618 18.000000 0.041418 3.852566
1257.001877 499.708382 128.456666 0.000000 0.000000 0.000000 0.000000 0.000000 0.000000 52.818511 5.591938 2.506665 -127.181489 -1.051632 2.506665 25.369497 -1.718559 -29.940802 -143.914951 -2.379306 -1.883716 14.556766 0.206252 29.940802 -16.686776 -0.133185 3.644843
1279.050064 493.773898 135.993194 0.000000 0.000000 0.000000 0.000000 0.000000 0.000000 56.685213 2.708408 -2.506665 -123.314787 -0.617351 -2.506665 24.065452 -3.801458 -29.940802 -146.540317 0.698787 1.883716 13.097461 -1.026065 29.940802 -16.716891 -0.068299 3.422736
1295.108986 477.099677 152.421518 0.000000 0.000000 0.000000 0.000000 0.000000 0.000000 65.723361 -4.702501 -7.362491 -114.276639 6.371641 -7.362491 23.725299 0.508930 -29.468618 -147.984281 1.012186 5.621439 13.187557 -0.815081 29.468618 -16.751134 -0.055911 3.187120
1289.065018 496.763316 148.875555 0.000000 0.000000 0.000000 0.000000 0.000000 0.000000 61.662232 0.269016 -11.755705 -118.337768 0.691569 -11.755705 31.397757 1.017739 -28.531695 -148.047797 -0.797317 9.270510 12.491083 1.200223 28.531695 -16.898368 0.078907 2.938926
1285.337105 480.691112 136.032074 0.000000 0.000000 0.000000 0.000000 0.000000 0.000000 58.021980 1.166925 -15.410265 -121.978020 -1.099566 -15.410265 31.705930 -1.354220 -27.144812 -157.028684 -0.025798 12.773379 11.107306 -1.394291 27.144812 -17.140016 0.049759 2.679134
1276.453171 465.093691 147.902126 0.000000 0.000000 0.000000 0.000000 0.000000 0.000000 70.157145 1.422866 -18.096541 -109.842855 -9.667745 -18.096541 40.303764 0.273904 -25.329838 -145.293609 -1.190338 16.074804 10.431204 -0.797330 25.329838 -17.100572 0.206400 2.408768
1253.658714 472.768564 145.100454 0.000000 0.000000 0.000000 0.000000 0.000000 0.000000 65.087926 -29.777151 -19.645745 -114.912074 -18.325521 -19.645745 -157.680356 -5.861863 -23.115397 -137.727082 8.303737 19.122720 -153.053596 -15.706649 23.115397 -16.054219 -0.818622 2.128896
1366.101608 507.691247 157.399080 0.000000 0.000000 0.000000 0.000000 0.000000 0.000000 108.715100 9.348571 -19.960535 -71.284900 -45.656046 -19.960535 156.661132 10.458491 -20.536413 -158.224303 -6.578971 21.869059 0.000000 0.000000 0.000000 0.000000 0.000000 0.000000
969.986295 443.064535 148.123719 0.000000 0.000000 0.000000 0.000000 0.000000 0.000000 26.662144 -0.670048 -19.021130 180.000000 4.152156 -19.021130 28.015351 -4.482839 -17.633558 151.984649 -6.338187 24.270510 22.068935 1.922450 17.633558 18.000000 0.196235 1.545085
1282.107124 481.511257 151.107020 0.000000 0.000000 0.000000 0.000000 0.000000 0.000000 80.650781 -10.756561 -16.886559 -99.349219 25.621355 -16.886559 1.511604 -1.902037 -14.452610 -32.896908 1.007563 26.289200 -7.727072 8.921275 14.452610 13.531851 -3.991253 1.243449
1282.921486 484.777769 126.811009 0.000000 0.000000 0.000000 0.000000 0.000000 0.000000 -81.737646 32.045193 -13.690942 98.262354 -9.926817 -13.690942 -23.867101 -8.224150 -11.043737 12.655668 -9.201744 27.893295 -29.454911 -2.778601 11.043737 9.861248 0.462829 0.936907
1290.933037 513.180238 147.350659 0.000000 0.000000 0.000000 0.000000 0.000000 0.000000 -91.387864 2.756975 -9.635073 88.612136 -7.227608 -9.635073 -41.685392 5.732354 -7.460697 -161.156957 -6.693005 29.057495 15.157863 5.037719 7.460697 10.543436 0.604772 0.626666
969.999452 442.964284 134.440189 0.000000 0.000000 0.000000 0.000000 0.000000 0.000000 29.025427 -16.054634 -4.973798 180.000000 6.534562 -4.973798 29.437993 6.303766 -3.759997 150.562007 1.506827 29.763441 20.404746 0.384140 3.759997 18.000000 -0.051679 0.313953
970.000000 442.938926 135.666187 0.000000 0.000000 0.000000 0.000000 0.000000 0.000000 29.678605 6.232428 0.000000 180.000000 -4.465887 0.000000 29.744881 -4.806903 -0.000000 150.255119 -2.832391 30.000000 19.983107 -3.250321 0.000000 18.000000 0.187755 0.000000
1354.522934 467.411410 120.331407 0.000000 0.000000 0.000000 0.000000 0.000000 0.000000 150.622570 -5.685401 4.973798 -29.377430 7.592698 4.973798 140.176400 1.167479 3.759997 -12.221629 1.135895 29.763441 132.794256 1.659592 -3.759997 -2.626015 -0.240264 0.313953
969.997807 442.887864 133.906872 0.000000 0.000000 0.000000 0.000000 0.000000 0.000000 31.061399 1.887354 9.635073 180.000000 -8.029814 9.635073 30.285790 12.953061 7.460697 149.714210 3.995534 29.057495 19.151579 6.576912 -7.460697 18.000000 -0.446089 0.626666
1246.736984 514.278152 120.204384 0.000000 0.000000 0.000000 0.000000 0.000000 0.000000 143.557092 -32.086950 13.690942 -36.442908 29.067496 13.690942 133.761037 -9.641138 11.043737 -156.950665 -4.437008 27.893295 0.000000 0.000000 0.000000 1.928484 0.456968 0.936907
1245.221100 458.637464 105.356010 0.000000 0.000000 0.000000 0.000000 0.000000 0.000000 160.701064 -7.695808 16.886559 -19.298936 23.077466 16.886559 140.193827 -6.032678 14.452610 -157.554825 -5.406541 26.289200 29.500467 5.479343 -14.452610 -15.049953 -0.547934 1.243449
1257.365570 418.514181 99.122648 0.000000 0.000000 0.000000 0.000000 0.000000 0.000000 -143.710676 6.629765 19.021130 36.289324 -3.763605 19.021130 163.220413 9.117943 17.633558 11.688054 2.139203 24.270510 152.038385 -1.032872 -17.633558 -2.339948 -0.171365 1.545085
1275.099564 408.163741 101.063254 0.000000 0.000000 0.000000 0.000000 0.000000 0.000000 -132.929531 4.739473 19.960535 47.070469 6.847543 19.960535 173.491912 1.387877 20.536413 -160.709681 -4.683562 21.869059 33.138793 6.451147 -20.536413 -14.686121 -0.645115 1.840623
1290.611115 384.880857 108.554085 0.000000 0.000000 0.000000 0.000000 0.000000 0.000000 -132.705235 -2.434043 19.645745 47.294765 7.471810 19.645745 -173.778854 -0.997533 23.115397 20.496835 7.074796 19.122720 -161.220290 -4.582772 -23.115397 1.723235 0.373921 2.128896
1302.817154 380.305352 103.268902 0.000000 0.000000 0.000000 0.000000 0.000000 0.000000 -131.493915 0.079847 18.096541 48.506085 4.154762 18.096541 -165.393697 -2.772455 25.329838 23.154815 1.408309 16.074804 -178.200316 0.469595 -25.329838 0.138141 -0.125053 2.408768
1304.997711 379.563582 96.097137 0.000000 0.000000 0.000000 0.000000 0.000000 0.000000 -126.727972 -4.733848 15.410265 53.272028 -2.788427 15.410265 -160.219593 0.793842 27.144812 28.448880 -0.689099 12.773379 -174.368770 0.976954 -27.144812 0.079526 -0.022064 2.679134
1311.668472 386.890390 92.517050 0.000000 0.000000 0.000000 0.000000 0.000000 0.000000 -122.308728 -6.085733 11.755705 57.691272 -4.120681 11.755705 -158.801130 -3.838576 28.531695 150.942637 -5.428897 9.270510 -154.878332 -3.487268 -28.531695 2.695409 0.519647 2.938926
1305.131836 395.180186 97.408561 0.000000 0.000000 0.000000 0.000000 0.000000 0.000000 -125.112810 -7.474374 7.362491 54.887190 6.730297 7.362491 -146.487292 1.795157 29.468618 -175.167369 4.387137 5.621439 -159.224034 -4.223929 -29.468618 1.782042 0.512669 3.187120
1296.320457 392.734526 92.093816 0.000000 0.000000 0.000000 0.000000 0.000000 0.000000 -131.035750 -19.668969 2.506665 48.964250 11.471930 2.506665 -128.969563 -1.182764 29.940802 38.856147 6.606657 1.883716 -134.776850 1.071630 -29.940802 3.458429 -0.304365 3.422736
1306.963577 386.612041 70.690469 0.000000 0.000000 0.000000 0.000000 0.000000 0.000000 -124.469622 10.250170 -2.506665 55.530378 -5.500027 -2.506665 -109.994856 1.826022 29.940802 37.691309 -4.376167 -1.883716 -118.274788 1.408368 -29.940802 5.098336 -0.030377 3.644843
969.892723 442.572198 52.287638 0.000000 0.000000 0.000000 0.000000 0.000000 0.000000 41.287575 36.310623 -7.362491 180.000000 -11.621535 -7.362491 30.974696 -5.163145 29.468618 149.025304 -15.404966 -5.621439 15.072869 4.007848 -29.468618 18.000000 -0.024909 3.852566
969.876883 442.545207 68.692334 0.000000 0.000000 0.000000 0.000000 0.000000 0.000000 42.241956 -1.857268 -11.755705 180.000000 1.145576 -11.755705 30.826133 5.092760 28.531695 149.173867 -3.916409 -9.270510 14.823070 4.603469 -28.531695 18.000000 -0.291371 4.045085
969.859960 442.518116 59.800551 0.000000 0.000000 0.000000 0.000000 0.000000 0.000000 43.199779 24.501502 -15.410265 180.000000 -3.746072 -15.410265 30.649504 -0.566910 27.144812 149.350496 4.327561 -12.773379 14.587557 -5.212266 -27.144812 18.000000 0.161309 4.221640
969.841956 442.490926 47.682999 0.000000 0.000000 0.000000 0.000000 0.000000 0.000000 44.157210 4.824413 -18.096541 180.000000 10.159415 -18.096541 30.446417 -3.929602 25.329838 149.553583 -1.415947 -16.074804 14.366154 -3.017621 -25.329838 18.000000 -0.065558 4.381533
969.822873 442.463637 57.499226 0.000000 0.000000 0.000000 0.000000 0.000000 0.000000 45.110117 -47.263882 -19.645745 180.000000 12.814806 -19.645745 30.218633 -3.130146 23.115397 149.781367 10.988525 -19.122720 14.158653 2.164970 -23.115397 18.000000 0.413672 4.524135
969.802712 442.436251 58.241387 0.000000 0.000000 0.000000 0.000000 0.000000 0.000000 46.054109 5.084649 -19.960535 180.000000 -20.777909 -19.960535 29.968037 8.834252 20.536413 150.031963 -9.465222 -21.869059 13.964823 -0.411240 -20.536413 18.000000 0.345359 4.648882
1187.040939 541.658249 47.746829 0.000000 0.000000 0.000000 0.000000 0.000000 0.000000 82.806623 -19.959309 -19.021130 -97.193377 30.207944 -19.021130 45.395981 -5.461660 17.633558 -156.144455 -1.856499 -24.270510 0.000000 0.000000 0.000000 0.000000 0.000000 0.000000
1182.242889 522.024286 60.714665 0.000000 0.000000 0.000000 0.000000 0.000000 0.000000 -105.721938 10.714395 -16.886559 74.278062 15.961202 -16.886559 -155.708006 -2.942549 14.452610 -157.302521 -2.415987 -26.289200 0.000000 0.000000 0.000000 2.684983 0.226389 4.842916
1180.914459 527.065626 43.343686 0.000000 0.000000 0.000000 0.000000 0.000000 0.000000 88.055617 -5.530345 -13.690942 -91.944383 -1.309048 -13.690942 -158.862018 -1.954133 11.043737 -151.747289 -2.012099 -27.893295 0.000000 0.000000 0.000000 0.000000 0.000000 0.000000
1236.800194 541.387432 62.512986 0.000000 0.000000 0.000000 0.000000 0.000000 0.000000 -85.588400 15.733285 -9.635073 94.411600 -22.238307 -9.635073 -159.297106 3.878287 7.460697 -157.915391 -3.379376 -29.057495 26.607362 1.695990 -7.460697 14.926890 -0.368111 4.960574
1161.066513 575.006626 27.502875 0.000000 0.000000 0.000000 0.000000 0.000000 0.000000 -81.021168 0.770045 -4.973798 98.978832 1.236409 -4.973798 -102.851701 -0.584195 3.759997 -157.041007 -2.179993 -29.763441 21.429890 2.685584 -3.759997 10.859432 0.204030 4.990134
1255.636253 512.645942 43.586026 0.000000 0.000000 0.000000 0.000000 0.000000 0.000000 77.832564 -1.325419 -0.000000 -102.167436 3.617127 -0.000000 -158.264834 -2.406336 0.000000 -130.745502 2.167248 -30.000000 -157.699225 -2.711857 -0.000000 0.000000 0.000000 0.000000
1265.118484 521.473864 41.810729 0.000000 0.000000 0.000000 0.000000 0.000000 0.000000 64.078276 7.632903 4.973798 -115.921724 -2.850830 4.973798 41.397952 -5.201885 -3.759997 -139.329851 -3.831027 -29.763441 20.223252 1.113861 3.759997 -16.047574 0.001900 4.990134
1228.099480 522.138258 50.356714 0.000000 0.000000 0.000000 0.000000 0.000000 0.000000 71.050901 4.180398 9.635073 -108.949099 -13.846785 9.635073 150.099970 5.232272 -7.460697 -139.894702 -2.071900 -29.057495 -156.275691 -3.146031 7.460697 0.000000 0.000000 0.000000
1240.357246 528.695873 58.197419 0.000000 0.000000 0.000000 0.000000 0.000000 0.000000 65.413351 3.740124 13.690942 -114.586649 1.040474 13.690942 147.242328 -2.223206 -11.043737 -154.470720 -2.700263 -27.893295 25.557225 1.626675 11.043737 -15.444278 -0.162668 4.911436
1231.815262 551.380248 57.131539 0.000000 0.000000 0.000000 0.000000 0.000000 0.000000 56.412506 -8.960555 16.886559 -123.587494 14.876839 16.886559 -153.392336 -3.483234 -14.452610 -154.784582 -2.203637 -26.289200 24.191555 3.345741 14.452610 -15.580844 -0.334574 4.842916
1221.475182 508.360147 63.120131 0.000000 0.000000 0.000000 0.000000 0.000000 0.000000 77.450622 -6.070521 19.021130 -102.549378 0.829958 19.021130 -156.789784 -2.854443 -17.633558 -125.590168 3.032118 -24.270510 -160.017240 -3.971372 17.633558 1.833434 0.406633 4.755283
969.477684 442.100429 67.512359 0.000000 0.000000 0.000000 0.000000 0.000000 0.000000 54.932575 -32.107114 19.960535 180.000000 4.910194 19.960535 25.919122 3.272668 -20.536413 154.080878 -4.475488 -21.869059 12.612867 8.918298 20.536413 18.000000 -0.453515 4.648882
1480.140495 518.878891 71.028836 0.000000 0.000000 0.000000 0.000000 0.000000 0.000000 -110.621767 -87.259011 19.645745 69.378233 88.117120 19.645745 -158.235933 -2.747772 -23.115397 166.031448 0.801101 -19.122720 -155.186432 -2.163736 23.115397 2.641553 0.318911 4.524135
1271.640472 556.840560 73.220830 0.000000 0.000000 0.000000 0.000000 0.000000 0.000000 -94.404719 -7.095043 18.096541 85.595281 12.346915 18.096541 -62.417786 -0.702619 -25.329838 23.992813 9.069882 -16.074804 -76.856107 1.605162 25.329838 7.708835 -0.558355 4.381533
1258.556786 530.268441 68.452322 0.000000 0.000000 0.000000 0.000000 0.000000 0.000000 78.355945 1.460651 15.410265 -101.644055 -2.199351 15.410265 35.068294 1.041209 -27.144812 -54.090640 -2.500903 -12.773379 35.848220 6.111668 27.144812 -8.104639 -1.445320 4.221640
1250.800209 527.150567 85.731363 0.000000 0.000000 0.000000 0.000000 0.000000 0.000000 72.417769 5.808552 11.755705 -107.582231 -5.178536 11.755705 24.571109 1.524383 -28.531695 -39.196117 -4.936054 -9.270510 10.411117 1.719945 28.531695 -9.048616 1.339661 4.045085
1243.466148 571.776259 80.369903 0.000000 0.000000 0.000000 0.000000 0.000000 0.000000 86.301473 -11.719052 7.362491 -93.698527 16.529283 7.362491 24.553534 -5.711726 -29.468618 -153.460385 -3.045722 -5.621439 19.510484 2.852233 29.468618 -10.109500 -0.951760 3.852566
1261.883812 566.052918 97.152296 0.000000 0.000000 0.000000 0.000000 0.000000 0.000000 94.015209 -6.802659 2.506665 -85.984791 22.499672 2.506665 38.959993 -0.518800 -29.940802 -154.008305 -3.814811 -1.883716 20.870951 3.213997 29.940802 -10.872440 -0.773240 3.644843
1284.436798 527.190542 92.731796 0.000000 0.000000 0.000000 0.000000 0.000000 0.000000 111.186365 -4.599758 -2.506665 -68.813635 -10.872207 -2.506665 58.506163 6.228256 -29.940802 -19.138727 2.152154 1.883716 51.457372 -1.608870 29.940802 -5.203198 0.163836 3.422736
1272.860069 533.494012 82.647753 0.000000 0.000000 0.000000 0.000000 0.000000 0.000000 72.301471 -15.380491 -7.362491 -107.698529 4.996722 -7.362491 78.802573 2.407054 -29.468618 -154.772375 -4.444956 5.621439 26.927455 4.300304 29.468618 -15.307255 -0.430030 3.187120
1255.264664 498.243735 120.231216 0.000000 0.000000 0.000000 0.000000 0.000000 0.000000 164.596971 -36.097318 -11.755705 -15.403029 4.515464 -11.755705 125.849126 4.723054 -28.531695 -156.067666 -5.006650 9.270510 33.087561 5.247091 28.531695 -14.691244 -0.524709 2.938926
1259.202232 470.407684 119.043447 0.000000 0.000000 0.000000 0.000000 0.000000 0.000000 -139.980397 20.168635 -15.410265 40.019603 -20.560773 -15.410265 165.887722 -3.956972 -27.144812 -157.901492 -6.326140 12.773379 35.196094 5.554651 27.144812 -14.480391 -0.555465 2.679134
1236.502075 429.951335 125.688887 0.000000 0.000000 0.000000 0.000000 0.000000 0.000000 -113.295066 9.263676 -18.096541 66.704934 -0.948170 -18.096541 -174.664169 0.652378 -25.329838 -159.007335 -5.547887 16.074804 32.868990 6.521230 25.329838 -14.713101 -0.652123 2.408768
1253.359451 413.942538 110.508435 0.000000 0.000000 0.000000 0.000000 0.000000 0.000000 -123.348580 -10.698112 -19.645745 56.651420 7.090597 -19.645745 -167.815074 -0.852559 -23.115397 -159.603180 -5.051096 19.122720 32.791747 7.626318 23.115397 -14.720825 -0.762632 2.128896
1281.206589 405.664523 122.767974 0.000000 0.000000 0.000000 0.000000 0.000000 0.000000 -124.414271 -0.301078 -19.960535 55.585729 -5.657927 -19.960535 -161.281803 3.352187 -20.536413 28.568449 -4.988134 21.869059 -159.052798 -3.877964 20.536413 1.849141 0.522166 1.840623
1300.238571 418.760215 127.449410 0.000000 0.000000 0.000000 0.000000 0.000000 0.000000 -126.263092 2.601488 -19.021130 53.736908 2.342125 -19.021130 -159.739358 -4.902346 -17.633558 31.487961 -5.278560 24.270510 -170.323915 0.310547 17.633558 0.671815 -0.127722 1.545085
1321.889191 413.634385 132.829767 0.000000 0.000000 0.000000 0.000000 0.000000 0.000000 -133.874471 15.618117 -16.886559 46.125529 -11.454015 -16.886559 -159.376251 1.691058 -14.452610 30.696824 -4.285070 26.289200 -164.929556 0.470938 14.452610 1.089735 0.056244 1.243449
1336.221428 432.881820 126.033474 0.000000 0.000000 0.000000 0.000000 0.000000 0.000000 -115.020798 2.545118 -13.690942 64.979202 -4.026050 -13.690942 -135.609544 2.390368 -11.043737 -161.321630 -6.462586 27.893295 17.353502 7.505412 11.043737 -16.264650 -0.750541 0.936907
1329.124603 416.860342 149.221870 0.000000 0.000000 0.000000 0.000000 0.000000 0.000000 -134.023347 10.413628 -9.635073 45.976653 -4.846067 -9.635073 -128.030830 0.037889 -7.460697 28.249885 -4.916617 29.057495 -136.447985 0.552634 7.460697 4.038834 0.014745 0.626666
1343.366776 427.060794 143.447460 0.000000 0.000000 0.000000 0.000000 0.000000 0.000000 -130.153347 -0.811342 -4.973798 49.846653 -4.087691 -4.973798 -103.564435 5.400341 -3.759997 27.398095 0.920436 29.763441 -115.461530 -0.813205 3.759997 5.470063 0.006075 0.313953
1376.991005 465.829636 150.530861 0.000000 0.000000 0.000000 0.000000 0.000000 0.000000 -120.272352 -4.803704 0.000000 59.727648 -13.439131 0.000000 -62.204131 6.143521 -0.000000 27.740602 0.363888 30.000000 -80.461527 -1.416332 0.000000 7.450891 0.145642 0.000000
1384.978867 468.790376 157.499148 0.000000 0.000000 0.000000 0.000000 0.000000 0.000000 -93.720384 27.286815 4.973798 86.279616 -69.040043 4.973798 3.847814 13.780675 3.759997 -160.438787 -6.428096 29.763441 15.990976 4.879120 -3.759997 7.894783 1.308737 0.313953
1345.894547 516.257268 146.147485 0.000000 0.000000 0.000000 0.000000 0.000000 0.000000 127.577640 3.659651 9.635073 -52.422360 -4.320157 9.635073 53.096359 1.901249 7.460697 -159.021748 -6.593280 29.057495 18.308456 5.780911 -7.460697 -4.062191 -3.219300 0.626666
968.498927 441.455181 145.315469 0.000000 0.000000 0.000000 0.000000 0.000000 0.000000 47.920147 -2.684611 13.690942 180.000000 5.223188 13.690942 19.641385 1.192533 11.043737 160.358615 0.135593 27.893295 13.993219 -7.611851 -11.043737 18.000000 1.059866 0.936907
1336.846733 493.527671 156.267279 0.000000 0.000000 0.000000 0.000000 0.000000 0.000000 102.681311 -41.235525 16.886559 -77.318689 16.120527 16.886559 35.985219 -2.568759 14.452610 -159.617763 -6.249109 26.289200 19.375410 5.624706 -14.452610 -16.062459 -0.562471 1.243449
968.386706 441.394956 152.882193 0.000000 0.000000 0.000000 0.000000 0.000000 0.000000 46.120581 30.323410 19.021130 180.000000 -19.506036 19.021130 19.316787 3.439020 17.633558 160.683213 -7.598865 24.270510 14.327067 1.551092 -17.633558 18.000000 -0.291697 1.545085
1263.984947 433.341283 134.033067 0.000000 0.000000 0.000000 0.000000 0.000000 0.000000 -115.578373 -11.785126 19.960535 64.421627 15.104021 19.960535 -82.396446 -1.604901 20.536413 25.733383 5.519451 21.869059 -77.477544 1.386784 -20.536413 5.836928 0.362355 1.840623
1352.596436 477.564354 137.763022 0.000000 0.000000 0.000000 0.000000 0.000000 0.000000 -99.196741 -2.737144 19.645745 80.803259 -0.243039 19.645745 -125.272585 5.073037 23.115397 -162.405270 -6.182523 19.122720 17.377627 6.567426 -23.115397 -16.262237 -0.656743 2.128896
1384.326782 408.174427 155.114352 0.000000 0.000000 0.000000 0.000000 0.000000 0.000000 96.868601 -12.234126 18.096541 -83.131399 4.849443 18.096541 -160.848957 -5.966991 25.329838 -137.255583 5.618546 16.074804 -162.076720 -7.284431 -25.329838 0.000000 0.000000 0.000000
1387.580223 387.128634 145.029393 0.000000 0.000000 0.000000 0.000000 0.000000 0.000000 78.087764 13.335627 15.410265 -101.912236 19.507236 15.410265 -161.807915 -6.933636 27.144812 -147.504361 2.174790 12.773379 -162.566306 -7.683144 -27.144812 1.735427 0.815832 2.679134
1345.818558 392.423122 136.948094 0.000000 0.000000 0.000000 0.000000 0.000000 0.000000 71.782984 -14.779336 11.755705 -108.217016 17.849582 11.755705 -169.469261 -1.454315 28.531695 -153.903088 7.913360 9.270510 -154.670689 -3.486816 -28.531695 15.277725 -2.420872 2.938926
1331.471329 361.814139 142.967987 0.000000 0.000000 0.000000 0.000000 0.000000 0.000000 53.586100 -5.993613 7.362491 -126.413900 17.366288 7.362491 -162.290330 -6.287112 29.468618 -154.912165 -1.434022 5.621439 -162.550394 -6.412657 -29.468618 1.742175 0.927457 3.187120
1354.413986 427.213873 146.634492 0.000000 0.000000 0.000000 0.000000 0.000000 0.000000 -131.358118 -21.974705 2.506665 48.641882 -8.618858 2.506665 -142.488821 -0.221504 29.940802 -161.977882 -6.001635 1.883716 12.673705 7.782371 -29.940802 1.397524 -0.037865 3.422736
1330.326691 347.207226 122.003003 0.000000 0.000000 0.000000 0.000000 0.000000 0.000000 52.464175 -10.679022 -2.506665 -127.535825 -0.221673 -2.506665 14.270918 -0.424936 29.940802 -122.057234 2.674309 -1.883716 22.820874 -1.847639 -29.940802 -15.244909 0.128937 3.644843
1317.103271 414.475805 127.086453 0.000000 0.000000 0.000000 0.000000 0.000000 0.000000 76.170457 14.020363 -7.362491 -103.829543 -12.159487 -7.362491 -50.250674 -4.538387 29.468618 -52.503744 -0.237998 -5.621439 -92.793049 -2.965583 -29.468618 3.303440 0.506248 3.852566
1331.844635 430.291482 115.525970 0.000000 0.000000 0.000000 0.000000 0.000000 0.000000 79.985160 4.359957 -11.755705 -100.014840 -5.168934 -11.755705 25.995082 4.808413 28.531695 -75.062603 1.758902 -9.270510 38.761234 -4.047898 -28.531695 -11.442229 0.250146 4.045085
1359.462433 496.472383 111.483816 0.000000 0.000000 0.000000 0.000000 0.000000 0.000000 84.268829 -1.069360 -15.410265 -95.731171 0.044865 -15.410265 30.279153 1.702318 27.144812 -63.318008 -1.039455 -12.773379 39.457716 -3.823216 -27.144812 -9.485742 -0.182830 4.221640
1323.514366 546.771398 115.021394 0.000000 0.000000 0.000000 0.000000 0.000000 0.000000 84.407325 0.784802 -18.096541 -95.592675 -2.144062 -18.096541 27.768249 2.946834 25.329838 -47.660055 -0.118615 -16.074804 28.281511 -4.288679 -25.329838 -7.827901 0.089103 4.381533
1268.535347 591.567099 112.145109 0.000000 0.000000 0.000000 0.000000 0.000000 0.000000 90.890792 2.522701 -19.645745 -89.109208 1.506929 -19.645745 44.654760 -0.836836 23.115397 -48.200667 -0.806400 -19.122720 43.369388 1.209071 -23.115397 -8.974980 0.070112 4.524135
1303.157158 602.888768 95.092642 0.000000 0.000000 0.000000 0.000000 0.000000 0.000000 90.349289 -7.416547 -19.960535 -89.650711 0.691131 -19.960535 47.707312 9.388480 20.536413 -53.918782 2.459339 -21.869059 40.070965 0.703387 -20.536413 -9.318632 1.167089 4.648882
1314.841690 613.141973 93.543848 0.000000 0.000000 0.000000 0.000000 0.000000 0.000000 94.480501 -1.372930 -19.021130 -85.519499 -1.489196 -19.021130 58.462862 5.810419 17.633558 -52.020507 -0.703603 -24.270510 55.276552 2.496718 -17.633558 -7.777523 -0.404569 4.755283
1327.521400 639.394319 85.103938 0.000000 0.000000 0.000000 0.000000 0.000000 0.000000 99.879576 -0.756115 -16.886559 -80.120424 2.692950 -16.886559 69.161359 -1.505817 14.452610 -46.413613 0.296780 -26.289200 76.680143 -3.042333 -14.452610 -6.257768 0.015889 4.842916
1277.812729 671.228578 85.669653 0.000000 0.000000 0.000000 0.000000 0.000000 0.000000 99.708534 16.638941 -13.690942 -80.291466 -12.148515 -13.690942 92.239140 -0.168031 11.043737 -26.764021 -8.731933 -27.893295 98.168457 7.286764 -11.043737 -4.372074 -0.506588 4.911436
1309.642181 690.479329 98.732656 0.000000 0.000000 0.000000 0.000000 0.000000 0.000000 117.292414 -4.455852 -9.635073 -62.707586 5.680073 -9.635073 137.002702 2.080614 7.460697 -32.045917 2.300245 -29.057495 135.211322 -0.646320 -7.460697 -3.212944 -0.072058 4.960574
1299.770966 664.126496 76.764465 0.000000 0.000000 0.000000 0.000000 0.000000 0.000000 158.531160 9.224610 -4.973798 -21.468840 -6.453157 -4.973798 161.478323 -3.230459 3.759997 -12.838206 -3.419263 -29.763441 151.269584 -0.270589 -3.759997 -2.521934 0.055414 4.990134
1313.353729 643.668108 67.110373 0.000000 0.000000 0.000000 0.000000 0.000000 0.000000 -154.315892 -1.645059 -0.000000 25.684108 -7.123148 -0.000000 173.459940 6.502210 0.000000 1.519689 4.048613 -30.000000 164.244875 -0.339161 -0.000000 -1.552244 -0.233247 5.000000
1342.841377 638.982847 89.032467 0.000000 0.000000 0.000000 0.000000 0.000000 0.000000 -138.993869 16.627531 4.973798 41.006131 -27.145710 4.973798 175.724056 3.339440 -3.759997 -151.723069 -3.686804 -29.763441 43.242568 3.786443 3.759997 -13.675743 -0.378644 4.990134
1350.000229 614.724133 80.833823 0.000000 0.000000 0.000000 0.000000 0.000000 0.000000 -144.248147 11.938242 9.635073 35.751853 -17.543792 9.635073 177.069273 -0.042006 -7.460697 -152.227621 -3.536207 -29.057495 43.136563 3.695979 7.460697 -13.686344 -0.369598 4.960574
1328.535919 624.780936 72.559173 0.000000 0.000000 0.000000 0.000000 0.000000 0.000000 -165.447222 -6.201494 13.690942 14.552778 -20.414558 13.690942 169.657511 5.831826 -11.043737 -152.168050 -2.796883 -27.893295 41.929642 4.043523 11.043737 -13.807036 -0.404352 4.911436
1318.810501 615.688248 42.969559 0.000000 0.000000 0.000000 0.000000 0.000000 0.000000 -120.063657 -6.402203 16.886559 59.936343 -4.470292 16.886559 -165.389465 6.015221 -14.452610 -152.866764 -2.849100 -26.289200 39.162270 2.844953 14.452610 -14.083773 -0.284495 4.842916
1321.656418 659.275410 58.905078 0.000000 0.000000 0.000000 0.000000 0.000000 0.000000 -121.435085 -2.705550 19.021130 58.564915 5.730488 19.021130 -149.190712 0.600857 -17.633558 -151.926374 -1.938943 -24.270510 33.097066 2.741709 17.633558 -14.690293 -0.274171 4.755283
1328.445511 687.490232 57.240555 0.000000 0.000000 0.000000 0.000000 0.000000 0.000000 -104.253419 0.438459 19.960535 75.746581 2.936844 19.960535 -110.140878 3.299205 -20.536413 -152.911692 -2.178864 -21.869059 23.882145 2.808677 20.536413 3.694979 -0.299980 4.648882
966.534206 440.564282 48.113543 0.000000 0.000000 0.000000 0.000000 0.000000 0.000000 25.865486 27.696832 19.645745 180.000000 -4.860094 19.645745 18.728337 -1.451598 -23.115397 161.271663 -6.412360 -19.122720 19.024234 4.422409 23.115397 18.000000 -0.475286 4.524135
966.454577 440.533056 50.931733 0.000000 0.000000 0.000000 0.000000 0.000000 0.000000 25.417507 -11.893340 18.096541 180.000000 10.821267 18.096541 18.825450 9.241824 -25.329838 161.174550 5.552527 -16.074804 19.071566 -1.121746 25.329838 18.000000 -0.436540 4.381533
966.374240 440.501809 50.306636 0.000000 0.000000 0.000000 0.000000 0.000000 0.000000 24.990320 -15.393679 15.410265 180.000000 -1.193707 15.410265 18.929718 0.116968 -27.144812 161.070282 4.664150 -12.773379 19.102411 0.275696 27.144812 18.000000 -0.198379 4.221640
966.293204 440.470542 34.233813 0.000000 0.000000 0.000000 0.000000 0.000000 0.000000 24.583377 -4.188687 11.755705 180.000000 -0.184793 11.755705 19.040946 3.726574 -28.531695 160.959054 -2.909568 -9.270510 19.116765 12.502019 28.531695 18.000000 -1.867698 4.045085
966.211478 440.439256 43.575179 0.000000 0.000000 0.000000 0.000000 0.000000 0.000000 24.196129 25.162883 7.362491 180.000000 0.206295 7.362491 19.158923 -6.489622 -29.468618 160.841077 -9.439624 -5.621439 19.114778 -0.425889 29.468618 18.000000 1.113972 3.852566
644.985180 745.864069 45.416310 0.000000 0.000000 0.000000 0.000000 0.000000 0.000000 96.086415 22.035767 2.506665 -83.913585 13.557950 2.506665 -159.662371 -12.322095 -29.940802 -116.741565 1.268561 -1.883716 -176.001217 -4.225682 29.940802 -1.006627 -0.230492 3.644843
1269.020119 699.025490 58.547991 0.000000 0.000000 0.000000 0.000000 0.000000 0.000000 83.810916 8.398339 -2.506665 -96.189084 -1.204437 -2.506665 51.932890 -1.356719 -29.940802 -149.314466 -2.564076 1.883716 27.598511 1.923197 29.940802 -15.240149 -0.192320 3.422736
573.721218 678.450201 45.525948 0.000000 0.000000 0.000000 0.000000 0.000000 0.000000 18.756393 -55.122772 -7.362491 -161.243607 51.552223 -7.362491 -174.158094 -12.795656 -29.468618 178.010322 7.885393 5.621439 -154.394154 4.381557 29.468618 11.886524 -0.426942 3.187120
1261.580200 714.897366 39.982559 0.000000 0.000000 0.000000 0.000000 0.000000 0.000000 87.191276 -4.109974 -11.755705 -92.808724 -5.185526 -11.755705 23.129119 7.916242 -28.531695 -149.376238 -2.292923 9.270510 24.545507 2.008512 28.531695 13.583501 3.072567 2.938926
1314.655838 684.171546 51.326591 0.000000 0.000000 0.000000 0.000000 0.000000 0.000000 61.219932 -0.376407 -15.410265 -118.780068 0.850751 -15.410265 25.476616 0.091487 -27.144812 -150.404247 -2.273625 12.773379 24.621454 2.102737 27.144812 -15.537855 -0.210274 2.679134
1319.638939 674.820013 62.381665 0.000000 0.000000 0.000000 0.000000 0.000000 0.000000 82.055377 -8.419990 -18.096541 -97.944623 1.842929 -18.096541 17.325085 4.698274 -25.329838 -60.067277 0.638554 16.074804 23.747728 3.944882 25.329838 -13.005173 0.034383 2.408768
1367.852325 659.536314 67.314226 0.000000 0.000000 0.000000 0.000000 0.000000 0.000000 -150.278430 25.526276 -19.645745 29.721570 -25.360938 -19.645745 -151.222797 -2.312186 -23.115397 18.758043 -3.406245 19.122720 -152.451920 -2.117425 23.115397 2.484143 0.215044 2.128896
1392.624664 638.981302 67.390449 0.000000 0.000000 0.000000 0.000000 0.000000 0.000000 -122.704248 4.401387 -19.960535 57.295752 -6.930377 -19.960535 -134.513385 2.119810 -20.536413 30.292627 2.452196 21.869059 -146.694539 -0.065634 20.536413 2.430965 -0.235270 1.840623
1401.291389 646.422758 84.191757 0.000000 0.000000 0.000000 0.000000 0.000000 0.000000 83.316637 -1.894868 -19.021130 -96.683363 13.325572 -19.021130 29.335627 -3.564177 -17.633558 -136.281416 0.243438 24.270510 19.119183 -0.180023 17.633558 -15.871560 0.193428 1.545085
1381.838951 663.410475 92.556399 0.000000 0.000000 0.000000 0.000000 0.000000 0.000000 79.215331 6.818095 -16.886559 -100.784669 4.548062 -16.886559 30.640455 0.485904 -14.452610 -139.113455 2.414361 26.289200 14.302413 0.580379 14.452610 -16.408036 -0.149855 1.243449
1390.185928 664.248354 83.758876 0.000000 0.000000 0.000000 0.000000 0.000000 0.000000 75.546066 -9.099710 -13.690942 -104.453934 14.785198 -13.690942 38.995097 -5.068021 -11.043737 -142.871297 5.670847 27.893295 14.209110 -1.045925 11.043737 -16.737090 0.009431 0.936907
1393.889923 677.551103 91.659822 0.000000 0.000000 0.000000 0.000000 0.000000 0.000000 84.293627 -6.470415 -9.635073 -95.706373 -0.557224 -9.635073 -152.700272 -3.238834 -7.460697 -143.357755 -1.196514 29.057495 -148.868889 -3.587459 7.460697 3.626268 0.355629 0.626666
905.601082 693.654528 78.401284 0.000000 0.000000 0.000000 0.000000 0.000000 0.000000 -84.410869 8.250690 -4.973798 95.589131 -17.247028 -4.973798 -139.498802 -4.213186 -3.759997 -178.556713 -50.221213 29.763441 -142.061844 -4.575235 3.759997 3.411456 0.426073 0.313953
1337.643929 680.318756 87.414115 0.000000 0.000000 0.000000 0.000000 0.000000 0.000000 78.192517 -3.303350 0.000000 -101.807483 7.910403 0.000000 48.289813 0.022026 -0.000000 -140.291980 1.859139 30.000000 13.663140 2.483010 0.000000 -17.395561 -0.407764 0.000000
1322.670708 685.543334 117.148499 0.000000 0.000000 0.000000 0.000000 0.000000 0.000000 71.501063 17.319906 4.973798 -108.498937 0.610499 4.973798 23.648228 -0.478573 3.759997 -144.586500 -3.340375 29.763441 14.578018 1.836100 -3.759997 -16.885607 -0.169611 0.313953
1305.530548 682.910864 92.412613 0.000000 0.000000 0.000000 0.000000 0.000000 0.000000 72.979287 58.963658 9.635073 -107.020713 -61.879600 9.635073 -148.728581 -3.918605 7.460697 -74.802907 -27.827311 29.057495 -151.178244 -3.611989 -7.460697 2.601049 0.433757 0.626666
1359.363556 692.650115 110.482287 0.000000 0.000000 0.000000 0.000000 0.000000 0.000000 73.244804 6.058565 13.690942 -106.755196 2.643868 13.690942 13.983499 -4.948062 11.043737 -67.611809 1.732574 27.893295 13.130547 -1.598969 -11.043737 -11.004089 -0.110538 0.936907
1299.495964 679.994059 125.534803 0.000000 0.000000 0.000000 0.000000 0.000000 0.000000 116.206779 -0.698907 16.886559 -63.793221 8.173128 16.886559 -150.858719 -4.735595 14.452610 -34.548592 -2.768907 26.289200 60.366751 16.918112 -14.452610 -4.627493 -0.110424 1.243449
1306.260338 711.527116 124.016811 0.000000 0.000000 0.000000 0.000000 0.000000 0.000000 -85.758672 -3.374241 19.021130 94.241328 -2.938176 19.021130 -31.461750 6.319291 17.633558 -4.237664 3.052427 24.270510 -15.215787 0.892962 -17.633558 7.867754 -1.293549 1.545085
1272.614822 704.778571 124.508021 0.000000 0.000000 0.000000 0.000000 0.000000 0.000000 -78.634637 7.185562 19.960535 101.365363 -13.155855 19.960535 -34.118569 1.029765 20.536413 22.539652 -0.095636 21.869059 -31.373170 -2.257433 -20.536413 11.310693 0.339281 1.840623
1310.345650 676.427021 132.200532 0.000000 0.000000 0.000000 0.000000 0.000000 0.000000 97.572435 9.042198 19.645745 -82.427565 -6.630406 19.645745 50.400703 7.639649 23.115397 -39.584286 3.381696 19.122720 44.966766 -3.762060 -23.115397 -8.852712 0.173735 2.128896
1315.732956 671.025095 128.796326 0.000000 0.000000 0.000000 0.000000 0.000000 0.000000 97.797337 -9.305415 18.096541 -82.202663 4.620214 18.096541 49.825934 -0.829805 25.329838 -39.162923 1.736173 16.074804 36.475631 3.906379 -25.329838 -8.191519 -3.508842 2.408768
1329.935532 653.525419 144.145817 0.000000 0.000000 0.000000 0.000000 0.000000 0.000000 96.469555 1.573733 15.410265 -83.530445 -2.158400 15.410265 63.882053 2.338251 27.144812 -51.972064 -1.701723 12.773379 58.624362 2.382502 -27.144812 -8.239564 0.176457 2.679134
1316.170578 674.246514 131.111019 0.000000 0.000000 0.000000 0.000000 0.000000 0.000000 -87.946330 -4.843517 11.755705 92.053670 -9.001481 11.755705 -29.715798 7.801298 28.531695 54.212796 -0.114481 9.270510 -40.560774 -1.929784 -28.531695 11.008015 -0.117719 2.938926
1317.367287 678.027205 139.279915 0.000000 0.000000 0.000000 0.000000 0.000000 0.000000 95.152942 0.040510 7.362491 -84.847058 5.735509 7.362491 98.792835 -1.465018 29.468618 -150.515547 -5.424919 5.621439 32.983753 5.560397 -29.468618 -14.701625 -0.556040 3.187120
1318.168488 670.157025 134.393959 0.000000 0.000000 0.000000 0.000000 0.000000 0.000000 -151.252255 -5.899765 2.506665 28.747745 7.681914 2.506665 138.896993 -1.614655 29.940802 -151.946620 -6.182763 1.883716 38.784684 5.664069 -29.940802 -14.121532 -0.566407 3.422736
1323.412628 644.667885 150.624462 0.000000 0.000000 0.000000 0.000000 0.000000 0.000000 -97.904066 9.938805 -2.506665 82.095934 5.000844 -2.506665 155.695030 -2.272373 29.940802 -152.500978 -6.485875 -1.883716 44.721081 6.299741 -29.940802 -13.527892 -0.629974 3.644843
1312.776718 630.059459 156.285492 0.000000 0.000000 0.000000 0.000000 0.000000 0.000000 -116.637972 22.424242 -7.362491 63.362028 -17.638731 -7.362491 171.094570 -3.907969 29.468618 -152.894064 -7.060442 -5.621439 43.947863 8.039041 -29.468618 -13.605214 -0.803904 3.852566
1316.420746 625.237019 154.659469 0.000000 0.000000 0.000000 0.000000 0.000000 0.000000 -136.254273 -5.782379 -11.755705 43.745727 8.051119 -11.755705 -177.663204 -1.010949 28.531695 -153.006287 -5.967508 -9.270510 42.784597 8.011531 -28.531695 -13.721540 -0.801153 4.045085
1314.719925 628.818026 123.371788 0.000000 0.000000 0.000000 0.000000 0.000000 0.000000 -114.737929 0.550323 -15.410265 65.262071 -6.376783 -15.410265 -169.764314 0.067704 27.144812 -153.369487 -6.718890 -12.773379 41.498347 8.743224 -27.144812 -13.850165 -0.874322 4.221640
1334.396782 646.165652 140.802630 0.000000 0.000000 0.000000 0.000000 0.000000 0.000000 -116.903454 -8.205660 -18.096541 63.096546 3.874614 -18.096541 -154.594534 4.004827 25.329838 -153.225015 -5.724596 -16.074804 37.136182 9.060730 -25.329838 -14.286382 -0.906073 4.381533
1340.823784 648.244128 149.965298 0.000000 0.000000 0.000000 0.000000 0.000000 0.000000 -116.932323 -3.320714 -19.645745 63.067677 4.864403 -19.645745 -138.898656 0.450656 23.115397 35.335752 1.365402 -19.122720 -153.336856 -0.810410 -23.115397 2.206211 0.138456 4.524135
1330.023880 654.599032 146.610019 0.000000 0.000000 0.000000 0.000000 0.000000 0.000000 -112.150704 -0.352258 -19.960535 67.849296 -2.723042 -19.960535 -118.798313 -1.317405 20.536413 -153.636372 -6.408624 -21.869059 16.691869 9.221835 -20.536413 -16.330813 -0.922183 4.648882
1337.431641 662.410698 157.256549 0.000000 0.000000 0.000000 0.000000 0.000000 0.000000 -109.111809 11.928163 -19.021130 70.888191 -6.988588 -19.021130 -91.144379 2.491019 17.633558 -154.448144 -7.003992 -24.270510 10.298202 5.778202 -17.633558 6.642051 0.198219 4.755283
1324.339714 676.416593 149.196195 0.000000 0.000000 0.000000 0.000000 0.000000 0.000000 -104.120178 -0.665849 -16.886559 75.879822 -2.210448 -16.886559 -57.095620 -3.680141 14.452610 38.799650 0.645690 -26.289200 -71.942639 0.778215 -14.452610 8.831938 -0.052555 4.842916
962.890318 439.311049 154.769364 0.000000 0.000000 0.000000 0.000000 0.000000 0.000000 19.986963 14.527515 -13.690942 180.000000 2.781500 -13.690942 24.297229 -11.794375 11.043737 155.702771 5.290184 -27.893295 14.983342 -10.454957 -11.043737 18.000000 0.676775 4.911436
962.789911 439.279946 150.220291 0.000000 0.000000 0.000000 0.000000 0.000000 0.000000 20.089586 -2.278464 -9.635073 180.000000 5.097512 -9.635073 24.330184 -9.919670 7.460697 155.669816 -1.295738 -29.057495 14.926290 -6.707631 -7.460697 18.000000 0.204462 4.960574
641.318550 641.336324 144.246590 0.000000 0.000000 0.000000 0.000000 0.000000 0.000000 163.642929 6.985689 -4.973798 -16.357071 -3.705907 -4.973798 -155.926011 0.874754 3.759997 -130.644608 -9.117823 -29.763441 68.679337 10.483087 -3.759997 -11.132066 -1.048309 4.990134
1305.385551 662.289033 147.785482 0.000000 0.000000 0.000000 0.000000 0.000000 0.000000 -81.949824 24.623853 -0.000000 98.050176 16.312250 -0.000000 9.536664 2.202410 0.000000 -153.586691 -5.680450 -30.000000 24.402531 4.866156 -0.000000 -15.559747 -0.486616 5.000000
962.486899 439.186814 135.017324 0.000000 0.000000 0.000000 0.000000 0.000000 0.000000 20.465882 22.303861 4.973798 180.000000 0.017710 4.973798 24.357206 -4.185605 -3.759997 155.642794 -4.016883 -29.763441 14.800425 3.824253 3.759997 18.000000 0.149569 4.990134
1216.314240 612.580640 121.458093 0.000000 0.000000 0.000000 0.000000 0.000000 0.000000 78.221991 4.550903 9.635073 -101.778009 2.840557 9.635073 46.689014 -5.274674 -7.460697 -61.937558 -5.562094 -29.057495 44.546377 3.337138 7.460697 -10.771750 0.193899 4.960574
1273.897820 573.707514 127.519761 0.000000 0.000000 0.000000 0.000000 0.000000 0.000000 77.469628 -7.958228 13.690942 -102.530372 6.078343 13.690942 -155.691164 -5.398831 -11.043737 -120.750172 5.041476 -27.893295 -156.229293 -5.993101 11.043737 2.162203 0.659181 4.911436
1337.358742 570.303276 99.699913 0.000000 0.000000 0.000000 0.000000 0.000000 0.000000 73.705918 -6.174387 16.886559 -106.294082 4.080845 16.886559 -155.918376 -5.791998 -14.452610 -149.887909 -4.686258 -26.289200 0.000000 0.000000 0.000000 0.000000 0.000000 0.000000
1342.446442 569.623497 104.442660 0.000000 0.000000 0.000000 0.000000 0.000000 0.000000 68.898287 -0.143864 19.021130 -111.101713 -5.480621 19.021130 39.314088 14.646264 -17.633558 -140.912764 0.747851 -24.270510 -153.216026 -6.031035 17.633558 2.759242 0.556622 4.755283
1335.759430 584.665475 104.646454 0.000000 0.000000 0.000000 0.000000 0.000000 0.000000 66.989329 -3.130444 19.960535 -113.010671 -5.824728 19.960535 -154.807077 -3.997444 -20.536413 -142.328055 0.903366 -21.869059 -153.049156 -5.821919 20.536413 2.866457 0.726183 4.648882
1337.950974 598.074245 94.574339 0.000000 0.000000 0.000000 0.000000 0.000000 0.000000 62.697633 -4.687216 19.645745 -117.302367 -0.134406 19.645745 19.366736 1.588485 -23.115397 -144.826223 1.701960 -19.122720 9.911455 -0.886773 23.115397 -17.004209 0.074175 4.524135
1352.846489 601.043322 114.523942 0.000000 0.000000 0.000000 0.000000 0.000000 0.000000 59.083577 -2.042467 18.096541 -120.916423 3.064655 18.096541 20.876734 -1.134067 -25.329838 -142.301690 0.843167 -16.074804 13.356960 0.114783 25.329838 -16.821524 -0.065994 4.381533
1347.310982 587.475100 96.376951 0.000000 0.000000 0.000000 0.000000 0.000000 0.000000 56.169135 4.707843 15.410265 -123.830865 -8.588029 15.410265 21.172503 1.361785 -27.144812 -139.640745 0.853374 -12.773379 14.641496 -0.589491 27.144812 -16.282575 -0.212273 4.221640
1326.982155 606.886139 70.201621 0.000000 0.000000 0.000000 0.000000 0.000000 0.000000 70.119981 -15.857509 11.755705 -109.880019 6.715785 11.755705 26.511889 -0.886646 -28.531695 -111.264667 8.022431 -9.270510 31.153840 -3.986773 28.531695 -13.943905 0.107869 4.045085
1354.391098 626.185555 80.311726 0.000000 0.000000 0.000000 0.000000 0.000000 0.000000 88.154395 -2.453973 7.362491 -91.845605 6.170210 7.362491 30.442275 -5.054584 -29.468618 -76.284233 0.948856 -5.621439 43.854867 -2.652245 29.468618 -10.818190 0.160190 3.852566
1370.667114 610.219567 90.591201 0.000000 0.000000 0.000000 0.000000 0.000000 0.000000 89.945118 1.925839 2.506665 -90.054882 3.103856 2.506665 44.053326 -0.171461 -29.940802 -56.238091 3.205148 -1.883716 55.411270 -6.382981 29.940802 -7.805659 0.111772 3.644843
1372.834854 597.828534 76.815592 0.000000 0.000000 0.000000 0.000000 0.000000 0.000000 93.407992 -2.176342 -2.506665 -86.592008 0.016540 -2.506665 54.165845 -2.076120 -29.940802 -47.239220 -0.469619 1.883716 56.575186 2.610216 29.940802 -6.344474 0.006865 3.422736
1336.554337 597.454848 84.631546 0.000000 0.000000 0.000000 0.000000 0.000000 0.000000 95.622643 -6.395983 -7.362491 -84.377357 10.025684 -7.362491 56.597780 -5.561384 -29.468618 -45.108662 0.808738 5.621439 55.386034 2.344509 29.468618 -7.206870 0.337781 3.187120
1310.567093 590.844769 77.042543 0.000000 0.000000 0.000000 0.000000 0.000000 0.000000 100.193768 -0.066089 -11.755705 -79.806232 -3.371887 -11.755705 61.986347 -3.121389 -28.531695 -37.593815 -0.987778 9.270510 62.907615 -0.098049 28.531695 -6.637230 1.121513 2.938926
1328.574371 576.493385 55.575694 0.000000 0.000000 0.000000 0.000000 0.000000 0.000000 101.943783 0.122873 -15.410265 -78.056217 -2.478049 -15.410265 61.902838 0.860238 -27.144812 -33.889586 -3.441584 12.773379 55.760387 4.434090 27.144812 -7.097415 -0.246645 2.679134
1316.178360 595.500870 56.503776 0.000000 0.000000 0.000000 0.000000 0.000000 0.000000 103.792097 -6.815203 -18.096541 -76.207903 4.405361 -18.096541 65.535198 -1.661833 -25.329838 -28.739437 -1.482367 16.074804 68.415337 2.236203 25.329838 -6.481753 -0.013722 2.408768
1302.343140 568.138025 61.626148 0.000000 0.000000 0.000000 0.000000 0.000000 0.000000 101.222717 -11.610444 -19.645745 -78.777283 17.638843 -19.645745 90.757296 -2.115784 -23.115397 -18.578033 -2.643911 19.122720 97.909038 2.495516 23.115397 -5.050134 0.002996 2.128896
1274.166183 540.660596 40.856878 0.000000 0.000000 0.000000 0.000000 0.000000 0.000000 -126.898591 18.819732 -19.960535 53.101409 -37.097303 -19.960535 127.276662 2.754551 -20.536413 8.808645 -7.079721 21.869059 119.711272 3.211810 20.536413 -4.115393 -0.090698 1.840623
1268.557091 468.331075 32.359103 0.000000 0.000000 0.000000 0.000000 0.000000 0.000000 -124.112133 15.180006 -19.021130 55.887867 -1.472586 -19.021130 163.344780 -7.898329 -17.633558 38.476068 -8.523928 24.270510 145.889074 2.612711 17.633558 -1.929933 -0.180741 1.545085
1278.673096 454.375906 59.288647 0.000000 0.000000 0.000000 0.000000 0.000000 0.000000 -126.805061 3.427945 -16.886559 53.194939 -5.201122 -16.886559 -174.009950 1.047401 -14.452610 27.419224 -5.882223 26.289200 168.192977 3.333444 14.452610 -0.976267 -0.029817 1.243449
1285.008774 434.700390 50.915644 0.000000 0.000000 0.000000 0.000000 0.000000 0.000000 -132.005120 -0.732626 -13.690942 47.994880 -5.989939 -13.690942 -171.247775 0.908165 -11.043737 26.625253 -2.253104 27.893295 178.805957 -1.057303 11.043737 0.023422 0.145804 0.936907
1288.157730 426.987666 40.164738 0.000000 0.000000 0.000000 0.000000 0.000000 0.000000 -123.987926 4.422435 -9.635073 56.012074 -0.927285 -9.635073 -166.356219 -4.040820 -7.460697 35.716336 1.450196 29.057495 -172.960762 1.067646 7.460697 0.819533 -0.192002 0.626666
1291.221657 420.425448 54.966204 0.000000 0.000000 0.000000 0.000000 0.000000 0.000000 -122.265643 -0.915248 -4.973798 57.734357 1.722561 -4.973798 -156.870161 -1.121454 -3.759997 38.220704 -1.045082 29.763441 -165.716368 1.291057 3.759997 1.405814 -0.145568 0.313953
