HIERARCHY
ROOT Hips
{
    OFFSET 0.0 0.0 0.0
    CHANNELS 6 Xposition Yposition Zposition Zrotation Xrotation Yrotation
    JOINT Spine
    {
        OFFSET 0.0 5.0 0.0
        CHANNELS 3 Zrotation Xrotation Yrotation
        JOINT Chest
        {
            OFFSET 0.0 5.0 0.0
            CHANNELS 3 Zrotation Xrotation Yrotation
            JOINT Neck
            {
                OFFSET 0.0 8.0 0.0
                CHANNELS 3 Zrotation Xrotation Yrotation
                JOINT Head
                {
                    OFFSET 0.0 5.0 0.0
                    CHANNELS 3 Zrotation Xrotation Yrotation
                    End Site
                    {
                        OFFSET 0.0 3.0 0.0
                    }
                }
            }
            JOINT LeftShoulder
            {
                OFFSET -5.0 0.0 0.0
                CHANNELS 3 Zrotation Xrotation Yrotation
                JOINT LeftArm
                {
                    OFFSET 0.0 -10.0 0.0
                    CHANNELS 3 Zrotation Xrotation Yrotation
                    JOINT LeftForeArm
                    {
                        OFFSET 0.0 -10.0 0.0
                        CHANNELS 3 Zrotation Xrotation Yrotation
                        End Site
                        {
                            OFFSET 0.0 -3.0 0.0
                        }
                    }
                }
            }
        }
    }
}

MOTION
Frames: 300
Frame Time: 0.033333

960.000000 445.000000 105.262714 0.000000 0.000000 0.000000 0.000000 0.000000 0.000000 23.025492 19.677424 0.000000 180.000000 -2.826980 0.000000 21.801409 -8.355009 -0.000000 158.198591 -5.433822 30.000000 15.945396 3.439486 0.000000 18.000000 -0.260017 0.000000
1691.525230 140.756605 117.257873 0.000000 0.000000 0.000000 0.000000 0.000000 0.000000 -163.376529 1.510143 4.973798 16.623471 4.697041 4.973798 -171.853121 -3.773949 3.759997 99.744051 17.380369 29.763441 -171.126653 -4.115728 -3.759997 0.673538 0.406900 0.313953
1636.048050 128.802021 102.750913 0.000000 0.000000 0.000000 0.000000 0.000000 0.000000 157.904128 -1.722428 9.635073 -22.095872 -4.383971 9.635073 -171.936471 -3.583923 7.460697 -143.675701 6.868398 29.057495 -173.500805 -4.535806 -7.460697 0.570999 0.461847 0.626666
1578.156967 80.474526 118.809495 0.000000 0.000000 0.000000 0.000000 0.000000 0.000000 -139.519796 7.833183 13.690942 40.480204 -6.681201 13.690942 -174.507724 -3.926472 11.043737 119.111399 -18.515236 27.893295 -173.607258 -3.563074 -11.043737 0.461920 0.407644 0.936907
960.418757 444.998421 129.626834 0.000000 0.000000 0.000000 0.000000 0.000000 0.000000 25.077893 24.276435 16.886559 180.000000 -19.241389 16.886559 23.861935 0.614161 14.452610 156.138065 -4.889405 26.289200 17.903699 -5.727418 -14.452610 18.000000 -0.334979 1.243449
960.523360 444.997533 112.723494 0.000000 0.000000 0.000000 0.000000 0.000000 0.000000 25.638906 8.821750 19.021130 180.000000 -10.742833 19.021130 24.425035 12.056481 17.633558 155.574965 -9.171395 24.270510 18.452907 5.233627 -17.633558 18.000000 0.536823 1.545085
960.627905 444.996447 138.296833 0.000000 0.000000 0.000000 0.000000 0.000000 0.000000 26.219073 -13.570067 19.960535 180.000000 18.381638 19.960535 25.006291 -9.908078 20.536413 154.993709 -2.221327 21.869059 19.024920 5.266938 -20.536413 18.000000 0.507331 1.840623
1126.242828 420.359820 122.426054 0.000000 0.000000 0.000000 0.000000 0.000000 0.000000 31.410514 -3.010348 19.645745 -148.589486 9.436048 19.645745 32.280463 -3.251780 23.115397 -131.603972 0.748011 19.122720 45.585331 2.578302 -23.115397 -13.449727 0.095775 2.128896
1257.895088 650.549197 157.743738 0.000000 0.000000 0.000000 0.000000 0.000000 0.000000 25.073180 17.900162 18.096541 -154.926820 -9.782305 18.096541 46.260945 -1.594413 25.329838 -154.651428 -5.993209 16.074804 27.339487 5.736650 -25.329838 -13.619892 -0.265622 2.408768
960.941083 444.992008 139.095454 0.000000 0.000000 0.000000 0.000000 0.000000 0.000000 28.072001 -40.320453 15.410265 180.000000 4.093444 15.410265 26.849221 8.722556 27.144812 153.150779 4.899823 12.773379 20.864045 4.468985 -27.144812 18.000000 -0.371293 2.679134
1163.815842 547.748709 143.195515 0.000000 0.000000 0.000000 0.000000 0.000000 0.000000 117.162728 -7.997516 11.755705 -62.837272 10.236795 11.755705 102.363764 0.489600 28.531695 -47.376450 1.200206 9.270510 104.768601 5.026268 -28.531695 -6.003489 -0.102077 2.938926
961.149372 444.988063 141.403764 0.000000 0.000000 0.000000 0.000000 0.000000 0.000000 29.395983 23.841695 7.362491 180.000000 -6.684434 7.362491 28.146217 -8.853462 29.468618 151.853783 10.671092 5.621439 22.170006 -22.530229 -29.468618 18.000000 -0.559489 3.187120
1136.717377 590.104480 171.606893 0.000000 0.000000 0.000000 0.000000 0.000000 0.000000 115.752126 8.197716 2.506665 -64.247874 -5.848908 2.506665 73.638146 -2.045628 29.940802 -21.842452 -1.985333 1.883716 75.369282 -4.325720 -29.940802 -6.767207 0.425810 3.422736
1163.079758 634.077559 134.895920 0.000000 0.000000 0.000000 0.000000 0.000000 0.000000 132.174340 -0.564680 -2.506665 -47.825660 -1.650528 -2.506665 94.255711 5.872020 29.940802 -149.364979 -6.401490 -1.883716 30.021641 5.437051 -29.940802 -5.096180 0.768868 3.644843
961.460830 444.980668 138.406784 0.000000 0.000000 0.000000 0.000000 0.000000 0.000000 31.497152 -3.537882 -7.362491 180.000000 15.066960 -7.362491 30.152455 2.292278 29.468618 149.847545 13.489629 -5.621439 24.175589 -8.129403 -29.468618 18.000000 1.633783 3.852566
1097.449951 565.089898 155.399674 0.000000 0.000000 0.000000 0.000000 0.000000 0.000000 -119.219568 2.746563 -11.755705 60.780432 -10.766242 -11.755705 -150.180642 -5.833135 28.531695 48.804955 0.590599 -9.270510 -149.874178 -6.653899 -28.531695 2.713854 0.596511 4.045085
1114.140244 528.302071 137.931565 0.000000 0.000000 0.000000 0.000000 0.000000 0.000000 -142.671523 2.670386 -15.410265 37.328477 4.799047 -15.410265 -177.395681 -2.092090 27.144812 34.687329 -2.447158 -12.773379 161.894167 7.064943 -27.144812 -0.910956 -0.248939 4.221640
1116.433640 479.728639 162.924096 0.000000 0.000000 0.000000 0.000000 0.000000 0.000000 -102.267481 3.068538 -18.096541 77.732519 -1.754898 -18.096541 -163.695626 1.912638 25.329838 38.575767 -2.563904 -16.074804 -176.001122 2.034374 -25.329838 0.706594 -0.172488 4.381533
1135.931282 466.493965 139.303601 0.000000 0.000000 0.000000 0.000000 0.000000 0.000000 -112.868406 9.577863 -19.645745 67.131594 -3.230289 -19.645745 -159.517862 -2.364708 23.115397 36.204678 -1.129498 -19.122720 -154.426613 -6.013742 -23.115397 2.428729 0.607655 4.524135
1141.618767 467.420679 152.946171 0.000000 0.000000 0.000000 0.000000 0.000000 0.000000 -123.086385 -8.467837 -19.960535 56.913615 -3.208337 -19.960535 -154.885724 -2.551183 20.536413 36.481623 -2.726690 -21.869059 -153.965441 -5.547117 -20.536413 2.446728 0.522342 4.648882
1150.647926 469.370956 139.284793 0.000000 0.000000 0.000000 0.000000 0.000000 0.000000 -43.953779 32.702816 -19.021130 136.046221 -7.786167 -19.021130 -154.327268 -7.113305 17.633558 60.745168 -3.107842 -24.270510 -153.350642 -6.645952 -17.633558 2.386216 0.636241 4.755283
1151.529922 496.420240 153.029319 0.000000 0.000000 0.000000 0.000000 0.000000 0.000000 -116.362129 17.832765 -16.886559 63.637871 -11.139541 -16.886559 -149.081043 1.563278 14.452610 35.941860 -2.156378 -26.289200 -156.847177 0.447654 -14.452610 2.056513 0.038854 4.842916
1148.402367 515.713574 130.734562 0.000000 0.000000 0.000000 0.000000 0.000000 0.000000 -118.252650 -5.474876 -13.690942 61.747350 -10.159339 -13.690942 -138.082896 0.332739 11.043737 -156.312677 -7.474060 -27.893295 21.649626 10.278097 -11.043737 2.962417 -0.020702 4.911436
1175.363617 533.368646 145.680171 0.000000 0.000000 0.000000 0.000000 0.000000 0.000000 -95.476638 -22.304177 -9.635073 84.523362 24.285507 -9.635073 -113.907461 -6.259578 7.460697 -155.995907 -5.865479 -29.057495 12.512064 8.612338 -7.460697 -16.748794 -0.861234 4.960574
1199.533310 485.991104 130.833601 0.000000 0.000000 0.000000 0.000000 0.000000 0.000000 -100.003195 -10.875191 -4.973798 79.996805 12.033363 -4.973798 -86.083188 -6.477084 3.759997 38.843754 3.980363 -29.763441 -106.539452 -0.414872 -3.759997 6.197806 -0.219763 4.990134
962.588190 444.938442 132.772124 0.000000 0.000000 0.000000 0.000000 0.000000 0.000000 39.579754 10.475786 -0.000000 180.000000 -18.906211 -0.000000 36.680773 10.236308 0.000000 143.319227 -5.387512 -30.000000 29.388385 3.665136 -0.000000 18.000000 0.359487 5.000000
1142.094727 445.716287 120.331641 0.000000 0.000000 0.000000 0.000000 0.000000 0.000000 -140.228454 -35.210285 4.973798 39.771546 40.511097 4.973798 -156.118008 -6.459924 -3.759997 3.479189 5.944701 -29.763441 -158.005660 -5.575310 3.759997 2.150019 0.570278 4.990134
1164.005928 424.847746 117.311135 0.000000 0.000000 0.000000 0.000000 0.000000 0.000000 -84.241076 38.030853 9.635073 95.758924 20.415868 9.635073 -156.181584 -6.238124 -7.460697 166.928360 -0.260359 -29.057495 -154.947270 -6.163584 7.460697 2.644196 0.659773 4.960574
1124.208755 418.286655 121.246074 0.000000 0.000000 0.000000 0.000000 0.000000 0.000000 -117.427077 24.260995 13.690942 62.572923 20.536825 13.690942 -155.943063 -6.541861 -11.043737 14.023837 -10.031646 -27.893295 -157.382674 -5.340557 11.043737 2.188130 0.499431 4.911436
962.990408 444.917226 96.904914 0.000000 0.000000 0.000000 0.000000 0.000000 0.000000 42.110883 15.679609 16.886559 180.000000 21.876571 16.886559 37.946959 -1.963871 -14.452610 142.053041 20.048431 -26.289200 29.293612 -10.930562 14.452610 18.000000 -0.655800 4.842916
963.090170 444.911436 117.509202 0.000000 0.000000 0.000000 0.000000 0.000000 0.000000 42.659200 -43.131833 19.021130 180.000000 -6.434084 19.021130 38.119107 18.982587 -17.633558 141.880893 -3.548338 -24.270510 29.068887 9.757867 17.633558 18.000000 -0.513675 4.755283
1186.646461 396.272757 108.526229 0.000000 0.000000 0.000000 0.000000 0.000000 0.000000 -72.847419 -8.420059 19.960535 107.152581 9.736223 19.960535 -156.703603 -4.790112 -20.536413 178.447294 3.423983 -21.869059 -157.212393 -4.982214 20.536413 1.964058 0.453170 4.648882
1313.051605 426.636125 80.750241 0.000000 0.000000 0.000000 0.000000 0.000000 0.000000 90.994869 20.855516 19.645745 -89.005131 15.635077 19.645745 -160.515303 -4.799905 -23.115397 -153.248861 3.036027 -19.122720 -159.640525 -5.252885 23.115397 0.000000 0.000000 0.000000
1347.999344 420.772226 78.362634 0.000000 0.000000 0.000000 0.000000 0.000000 0.000000 90.154351 -6.804749 18.096541 -89.845649 4.296738 18.096541 -162.053401 -4.068727 -25.329838 -136.198880 6.165951 -16.074804 -160.991694 -5.336719 25.329838 0.000000 0.000000 0.000000
1344.315948 421.031681 71.197191 0.000000 0.000000 0.000000 0.000000 0.000000 0.000000 69.757587 -1.928958 15.410265 -110.242413 -1.040065 15.410265 25.616746 2.687620 -27.144812 -157.821005 -3.630806 -12.773379 17.214985 3.592501 27.144812 -16.704706 -0.033803 4.221640
1350.307617 440.309436 72.663477 0.000000 0.000000 0.000000 0.000000 0.000000 0.000000 71.124018 2.823808 11.755705 -108.875982 1.449515 11.755705 42.739987 0.073972 -28.531695 -142.315466 -2.058264 -9.270510 16.600926 1.368533 28.531695 -16.660102 0.108070 4.045085
1357.685051 430.688889 83.849051 0.000000 0.000000 0.000000 0.000000 0.000000 0.000000 77.656077 6.421794 7.362491 -102.343923 5.575349 7.362491 39.407151 -10.855648 -29.468618 -136.343173 -3.037672 -5.621439 22.144452 -0.245562 29.468618 -16.305135 -0.084880 3.852566
1369.482193 445.909406 73.777482 0.000000 0.000000 0.000000 0.000000 0.000000 0.000000 88.051188 -8.074365 2.506665 -91.948812 -1.497856 2.506665 -161.283973 -2.838620 -29.940802 -119.799169 2.364190 -1.883716 -164.575400 -3.630387 29.940802 1.401013 0.298478 3.644843
963.875156 444.858159 54.471746 0.000000 0.000000 0.000000 0.000000 0.000000 0.000000 45.304844 -50.737481 -2.506665 180.000000 36.697481 -2.506665 37.252439 -23.367029 -29.940802 142.747561 16.038765 1.883716 25.146244 -0.126043 29.940802 18.000000 -0.795229 3.422736
963.971479 444.850633 75.325229 0.000000 0.000000 0.000000 0.000000 0.000000 0.000000 45.383640 -23.732626 -7.362491 180.000000 6.185692 -7.362491 36.882310 -4.634843 -29.468618 143.117690 11.086923 5.621439 24.499789 -3.042553 29.468618 18.000000 -0.003069 3.187120
1336.629524 469.010178 33.428949 0.000000 0.000000 0.000000 0.000000 0.000000 0.000000 -72.390177 -32.131876 -11.755705 107.609823 17.404970 -11.755705 -158.649984 -2.631541 -28.531695 2.583425 8.623715 9.270510 -39.658551 1.688182 28.531695 10.837181 -0.454797 2.938926
1311.966934 518.219100 63.784895 0.000000 0.000000 0.000000 0.000000 0.000000 0.000000 -63.565072 -20.992754 -15.410265 116.434928 -64.630191 -15.410265 -14.840750 10.081311 -27.144812 -158.549348 -2.653525 12.773379 17.488774 1.463841 27.144812 7.174982 5.793191 2.679134
964.257793 444.826908 68.303851 0.000000 0.000000 0.000000 0.000000 0.000000 0.000000 45.262206 -23.682280 -18.096541 180.000000 3.770910 -18.096541 35.497192 18.320650 -25.329838 144.502808 5.612871 16.074804 22.522929 -0.916949 25.329838 18.000000 -0.504199 2.408768
1275.921364 516.836239 62.425988 0.000000 0.000000 0.000000 0.000000 0.000000 0.000000 85.186295 -3.062438 -19.645745 -94.813705 14.560031 -19.645745 52.470689 -5.216486 -23.115397 -44.513683 -3.888659 19.122720 50.867598 7.698873 23.115397 -8.717188 -0.257518 2.128896
1263.254128 546.875424 55.984957 0.000000 0.000000 0.000000 0.000000 0.000000 0.000000 34.848242 10.375401 -19.960535 -145.151758 -9.571655 -19.960535 42.487561 -53.224897 -20.536413 -157.415675 -2.591607 21.869059 22.420880 2.128983 20.536413 -15.757912 -0.212898 1.840623
1258.788185 528.263061 62.284618 0.000000 0.000000 0.000000 0.000000 0.000000 0.000000 118.326865 29.814459 -19.021130 -61.673135 12.561567 -19.021130 143.214759 -2.421441 -17.633558 -156.228306 -2.247143 24.270510 28.173554 2.478538 17.633558 -15.182645 -0.247854 1.545085
1231.492081 471.383836 49.173639 0.000000 0.000000 0.000000 0.000000 0.000000 0.000000 -115.049381 -9.458635 -16.886559 64.950619 26.163104 -16.886559 172.843704 4.508655 -14.452610 -157.842300 -1.921941 26.289200 32.851042 2.767278 14.452610 -14.714896 -0.276728 1.243449
1223.928795 435.993515 53.853577 0.000000 0.000000 0.000000 0.000000 0.000000 0.000000 -115.322532 -2.716537 -13.690942 64.677468 21.295475 -13.690942 -168.597862 -3.971538 -11.043737 -158.853816 -1.814915 27.893295 31.099266 3.242196 11.043737 -14.890073 -0.324220 0.936907
1223.669701 418.195664 70.273338 0.000000 0.000000 0.000000 0.000000 0.000000 0.000000 -102.084053 -3.566910 -9.635073 77.915947 -3.838461 -9.635073 -171.103858 -8.370638 -7.460697 162.056334 -3.173265 29.057495 -153.594437 -2.809645 7.460697 2.968481 0.283180 0.626666
1216.486244 414.503002 54.212012 0.000000 0.000000 0.000000 0.000000 0.000000 0.000000 69.261091 -36.103163 -4.973798 -110.738909 -2.689259 -4.973798 -158.083722 -2.099442 -3.759997 -173.244581 4.201748 29.763441 -154.635509 -3.187710 3.759997 2.928763 0.174696 0.313953
1212.090225 434.550980 44.054925 0.000000 0.000000 0.000000 0.000000 0.000000 0.000000 -112.403932 33.292350 0.000000 67.596068 -17.246992 0.000000 -157.060799 -2.387890 -0.000000 173.400765 -4.030253 30.000000 -154.473580 -2.714620 0.000000 2.734633 0.289765 0.000000
1214.024734 450.340490 38.266288 0.000000 0.000000 0.000000 0.000000 0.000000 0.000000 -110.634751 7.213050 4.973798 69.365249 3.828369 4.973798 -137.583343 -6.137551 3.759997 -158.589698 -2.894035 29.763441 20.879446 2.792405 -3.759997 -15.912055 -0.279240 0.313953
1204.271393 440.192921 61.304114 0.000000 0.000000 0.000000 0.000000 0.000000 0.000000 -99.498286 -8.152667 9.635073 80.501714 13.415570 9.635073 -156.696469 -2.496389 7.460697 -178.487725 11.720418 29.057495 -157.318323 -2.792627 -7.460697 2.108583 0.303766 0.626666
965.269558 444.725315 68.939476 0.000000 0.000000 0.000000 0.000000 0.000000 0.000000 40.845461 -1.634122 13.690942 180.000000 -0.245775 13.690942 28.615377 1.727710 11.043737 151.384623 -0.247297 27.893295 16.305092 -4.080232 -11.043737 18.000000 0.369748 0.936907
1182.456551 475.103824 66.261340 0.000000 0.000000 0.000000 0.000000 0.000000 0.000000 -168.146016 59.691836 16.886559 11.853984 74.286067 16.886559 -63.802645 -6.250792 14.452610 -61.114510 -0.628857 26.289200 -47.869281 5.052034 -14.452610 -13.834956 -8.214498 1.243449
965.446390 444.704404 73.087486 0.000000 0.000000 0.000000 0.000000 0.000000 0.000000 39.578146 -10.876855 19.021130 180.000000 -4.102051 19.021130 27.338029 12.931930 17.633558 152.661971 -9.238539 24.270510 15.463180 5.273253 -17.633558 18.000000 -0.097969 1.545085
965.533915 444.693669 56.721288 0.000000 0.000000 0.000000 0.000000 0.000000 0.000000 38.916706 -36.767773 19.960535 180.000000 13.594681 19.960535 26.716768 8.690718 20.536413 153.283232 5.672020 21.869059 15.076605 -2.357210 -20.536413 18.000000 -0.040158 1.840623
965.620834 444.682749 59.322763 0.000000 0.000000 0.000000 0.000000 0.000000 0.000000 38.241653 23.523038 19.645745 180.000000 8.524161 19.645745 26.109467 1.177584 23.115397 153.890533 -1.759102 19.122720 14.712258 1.152014 -23.115397 18.000000 -0.276778 2.128896
965.707136 444.671645 77.799100 0.000000 0.000000 0.000000 0.000000 0.000000 0.000000 37.556504 17.705365 18.096541 180.000000 11.385832 18.096541 25.517536 -10.322815 25.329838 154.482464 -4.824887 16.074804 14.369537 2.008990 -25.329838 18.000000 -0.061580 2.408768
965.792812 444.660356 80.828644 0.000000 0.000000 0.000000 0.000000 0.000000 0.000000 36.864608 -9.043723 15.410265 180.000000 -16.658572 15.410265 24.942131 4.286825 27.144812 155.057869 6.287963 12.773379 14.047797 -8.575472 -27.144812 18.000000 -0.320553 2.679134
965.877853 444.648882 79.215613 0.000000 0.000000 0.000000 0.000000 0.000000 0.000000 36.169118 -1.064255 11.755705 180.000000 -5.851054 11.755705 24.384173 -0.136822 28.531695 155.615827 8.726727 9.270510 13.746367 -8.923781 -28.531695 18.000000 0.054495 2.938926
965.962249 444.637226 103.463378 0.000000 0.000000 0.000000 0.000000 0.000000 0.000000 35.472980 -2.664246 7.362491 180.000000 -18.591159 7.362491 23.844373 9.225372 29.468618 156.155627 -0.389901 5.621439 13.464570 -3.099966 -29.468618 18.000000 0.590081 3.187120
966.045991 444.625386 97.780685 0.000000 0.000000 0.000000 0.000000 0.000000 0.000000 34.778913 -15.285492 2.506665 180.000000 10.198021 2.506665 23.323250 14.188008 29.940802 156.676750 -3.301363 1.883716 13.201728 7.946238 -29.940802 18.000000 -0.335200 3.422736
966.129071 444.613364 97.901506 0.000000 0.000000 0.000000 0.000000 0.000000 0.000000 34.089406 15.079819 -2.506665 180.000000 -0.746821 -2.506665 22.821158 -1.594317 29.940802 157.178842 5.285202 -1.883716 12.957175 -4.646743 -29.940802 18.000000 0.558841 3.644843
966.211478 444.601159 114.303984 0.000000 0.000000 0.000000 0.000000 0.000000 0.000000 33.406712 7.045789 -7.362491 180.000000 -0.417891 -7.362491 22.338307 0.964891 29.468618 157.661693 1.830348 -5.621439 12.730264 -6.176244 -29.468618 18.000000 0.616452 3.852566
1171.486244 534.946783 101.910236 0.000000 0.000000 0.000000 0.000000 0.000000 0.000000 70.594720 5.125832 -11.755705 -109.405280 2.632392 -11.755705 49.953444 1.366959 28.531695 -151.467583 -4.902401 -9.270510 0.000000 0.000000 0.000000 0.000000 0.000000 0.000000
966.374240 444.576206 112.912428 0.000000 0.000000 0.000000 0.000000 0.000000 0.000000 32.069603 37.337927 -15.410265 180.000000 -8.538508 -15.410265 21.430544 -5.085016 27.144812 158.569456 -6.541517 -12.773379 12.326901 -3.038553 -27.144812 18.000000 0.128522 4.221640
1172.156410 555.047708 117.748711 0.000000 0.000000 0.000000 0.000000 0.000000 0.000000 -121.065102 -15.590509 -18.096541 58.934898 -17.912702 -18.096541 -151.641456 -5.449744 25.329838 -177.360623 -5.186324 -16.074804 -149.076048 -6.222222 -25.329838 0.000000 0.000000 0.000000
1161.826630 552.360713 133.811520 0.000000 0.000000 0.000000 0.000000 0.000000 0.000000 69.958407 -56.368237 -19.645745 -110.041593 37.313975 -19.645745 -152.437496 -5.697851 23.115397 -158.790607 5.287552 -19.122720 -150.591725 -6.767965 -23.115397 3.219062 0.749044 4.524135
1165.827255 569.832902 127.508375 0.000000 0.000000 0.000000 0.000000 0.000000 0.000000 25.594208 4.060207 -19.960535 -154.405792 -0.422254 -19.960535 11.723883 3.726443 20.536413 -161.543160 1.507013 -21.869059 7.769582 1.142980 -20.536413 -17.248199 -0.196118 4.648882
1165.555573 565.067046 122.180279 0.000000 0.000000 0.000000 0.000000 0.000000 0.000000 43.355707 -2.749089 -19.021130 -136.644293 -6.830929 -19.021130 15.984329 1.605094 17.633558 -140.773833 -3.130321 -24.270510 13.679449 1.941242 -17.633558 -16.392157 -0.060858 4.755283
1290.255775 608.533316 115.137637 0.000000 0.000000 0.000000 0.000000 0.000000 0.000000 -153.952071 4.956570 -16.886559 26.047929 -13.946348 -16.886559 -152.683807 -5.064035 14.452610 4.794196 3.757625 -26.289200 -154.287190 -5.695884 -14.452610 2.418080 0.550050 4.842916
1180.398903 551.817470 149.047980 0.000000 0.000000 0.000000 0.000000 0.000000 0.000000 51.640104 -5.152827 -13.690942 -128.359896 0.633572 -13.690942 14.419400 4.916015 11.043737 -33.521359 10.136292 -27.893295 -34.277510 5.453222 -11.043737 5.235387 -0.560085 4.911436
1162.708626 619.419501 151.715039 0.000000 0.000000 0.000000 0.000000 0.000000 0.000000 -88.968325 27.030668 -9.635073 91.031675 7.956803 -9.635073 -52.690088 -1.211868 7.460697 25.015222 -1.267465 -29.057495 -72.561734 -1.788489 -7.460697 8.557489 0.057571 4.960574
1110.899391 602.919216 140.593343 0.000000 0.000000 0.000000 0.000000 0.000000 0.000000 -86.972237 8.731362 -4.973798 93.027763 -10.285612 -4.973798 -39.551144 0.683513 3.759997 34.838085 -1.800670 -29.763441 -44.185810 2.373004 -3.759997 10.000609 0.033891 4.990134
1150.187302 553.686991 138.289042 0.000000 0.000000 0.000000 0.000000 0.000000 0.000000 -116.065142 -4.675328 -0.000000 63.934858 -9.917253 -0.000000 -151.059314 -6.151584 0.000000 -0.492058 6.039545 -30.000000 -14.044098 -4.569679 -0.000000 1.929760 -0.020685 5.000000
967.144727 444.440682 145.741141 0.000000 0.000000 0.000000 0.000000 0.000000 0.000000 26.270296 24.409662 4.973798 180.000000 -0.361826 4.973798 17.996647 4.422759 -3.759997 162.003353 3.627376 -29.763441 11.189167 -5.296702 3.759997 18.000000 0.036506 4.990134
1213.452644 620.002785 158.099611 0.000000 0.000000 0.000000 0.000000 0.000000 0.000000 140.390379 11.517817 9.635073 -39.609621 -19.126054 9.635073 77.724607 -0.809797 -7.460697 -153.982965 -7.157339 -29.057495 24.142749 7.039977 7.460697 -0.833727 -3.068686 4.960574
1124.373779 618.464527 156.962924 0.000000 0.000000 0.000000 0.000000 0.000000 0.000000 99.329635 -10.808726 13.690942 -80.670365 25.323881 13.690942 85.960927 0.560101 -11.043737 -150.875293 -7.202082 -27.893295 31.644098 6.495358 11.043737 -14.835590 -0.649536 4.911436
967.360971 444.396582 136.689340 0.000000 0.000000 0.000000 0.000000 0.000000 0.000000 24.874716 21.577498 16.886559 180.000000 -14.392046 16.886559 17.291102 3.800867 -14.452610 162.708898 -5.403003 -26.289200 11.098846 -1.478917 14.452610 18.000000 0.217082 4.842916
1107.875175 542.453964 161.183875 0.000000 0.000000 0.000000 0.000000 0.000000 0.000000 -128.741314 -18.571804 19.021130 51.258686 11.054599 19.021130 -177.225595 -6.455086 -17.633558 19.954750 0.879955 -24.270510 162.677362 0.094699 17.633558 -1.443098 0.049070 4.755283
1119.652290 522.766346 143.115213 0.000000 0.000000 0.000000 0.000000 0.000000 0.000000 -99.017754 -1.642001 19.960535 80.982246 7.609970 19.960535 -150.289603 -7.424367 -20.536413 -152.613833 -7.265740 -21.869059 0.000000 0.000000 0.000000 0.000000 0.000000 0.000000
1132.908783 538.229613 150.118194 0.000000 0.000000 0.000000 0.000000 0.000000 0.000000 -127.874185 5.776357 19.645745 52.125815 -6.237373 19.645745 -165.450188 -1.374657 -23.115397 -152.521515 -7.876012 -19.122720 40.606225 9.281599 23.115397 -13.939378 -0.928160 4.524135
1146.969337 541.828065 133.997602 0.000000 0.000000 0.000000 0.000000 0.000000 0.000000 -113.631604 -10.340710 18.096541 66.368396 5.983568 18.096541 -159.067475 -1.965453 -25.329838 113.981862 7.249332 -16.074804 -145.449815 -7.578385 25.329838 0.000000 0.000000 0.000000
1165.252304 561.329677 134.682967 0.000000 0.000000 0.000000 0.000000 0.000000 0.000000 -112.861399 -4.921755 15.410265 67.138601 8.928377 15.410265 -159.396543 -1.550304 -27.144812 -151.967552 -6.153550 -12.773379 38.422588 8.733270 27.144812 -14.157741 -0.873327 4.221640
1174.726181 592.839689 156.759989 0.000000 0.000000 0.000000 0.000000 0.000000 0.000000 -110.369899 -2.413249 11.755705 69.630101 -3.962872 11.755705 -148.108768 6.080020 -28.531695 -151.515612 -6.516650 -9.270510 34.277732 8.903361 28.531695 -14.572227 -0.890336 4.045085
1167.352524 605.194867 141.700989 0.000000 0.000000 0.000000 0.000000 0.000000 0.000000 -113.828445 1.817616 7.362491 66.171555 -4.907738 7.362491 -131.688453 2.278407 -29.468618 -151.045756 -6.676237 -5.621439 27.200835 8.685330 29.468618 -15.279916 -0.868533 3.852566
1139.678879 602.981014 136.463399 0.000000 0.000000 0.000000 0.000000 0.000000 0.000000 -97.599684 -21.959098 2.506665 82.400316 19.558811 2.506665 -113.965806 1.055884 -29.940802 -121.058781 -1.917762 -1.883716 -118.492407 0.227354 29.940802 10.137620 7.246126 3.644843
1165.830002 580.020189 134.233800 0.000000 0.000000 0.000000 0.000000 0.000000 0.000000 -28.085052 -41.824355 -2.506665 151.914948 37.001239 -2.506665 -150.589103 -6.333145 -29.940802 -172.678414 -1.093391 1.883716 -149.717924 -5.708708 29.940802 0.000000 0.000000 0.000000
1184.501953 619.872494 121.899759 0.000000 0.000000 0.000000 0.000000 0.000000 0.000000 -113.790307 5.033181 -7.362491 66.209693 6.246867 -7.362491 -59.272274 9.172687 -29.468618 29.476823 4.839938 5.621439 -88.148483 -2.332095 29.468618 7.414604 -0.253049 3.187120
968.090170 444.221640 112.526116 0.000000 0.000000 0.000000 0.000000 0.000000 0.000000 21.092887 11.905696 -11.755705 180.000000 3.567683 -11.755705 15.757771 -2.802143 -28.531695 164.242229 1.545522 9.270510 11.678908 -1.894655 28.531695 18.000000 0.203940 2.938926
968.151278 444.204723 114.322443 0.000000 0.000000 0.000000 0.000000 0.000000 0.000000 20.844337 -6.711734 -15.410265 180.000000 -0.139041 -15.410265 15.691895 7.767552 -27.144812 164.308105 2.739096 12.773379 11.804629 -4.509186 27.144812 18.000000 0.699347 2.679134
968.211492 444.187640 94.527463 0.000000 0.000000 0.000000 0.000000 0.000000 0.000000 20.610265 -19.529804 -18.096541 180.000000 8.126279 -18.096541 15.637361 -9.071438 -25.329838 164.362639 -0.588018 16.074804 11.943263 0.251330 25.329838 18.000000 -0.332508 2.408768
968.270806 444.170392 111.271224 0.000000 0.000000 0.000000 0.000000 0.000000 0.000000 20.390366 -19.537417 -19.645745 180.000000 6.659463 -19.645745 15.594026 -3.795663 -23.115397 164.405974 3.896538 19.122720 12.095062 6.139720 23.115397 18.000000 -0.642922 2.128896
968.329212 444.152979 87.746040 0.000000 0.000000 0.000000 0.000000 0.000000 0.000000 20.184343 -5.540140 -19.960535 180.000000 0.480518 -19.960535 15.561766 0.942221 -20.536413 164.438234 -6.883215 21.869059 12.260289 4.965415 20.536413 18.000000 0.093583 1.840623
968.386706 444.135403 107.364767 0.000000 0.000000 0.000000 0.000000 0.000000 0.000000 19.991916 -18.160686 -19.021130 180.000000 11.422096 -19.021130 15.540476 -6.979616 -17.633558 164.459524 6.132554 24.270510 12.439222 -6.383085 17.633558 18.000000 0.578776 1.545085
968.443279 444.117663 95.666379 0.000000 0.000000 0.000000 0.000000 0.000000 0.000000 19.812814 -5.852103 -16.886559 180.000000 -9.498969 -16.886559 15.530069 11.291476 -14.452610 164.469931 -7.612964 26.289200 12.632146 6.068313 14.452610 18.000000 -0.323284 1.243449
968.498927 444.099761 68.391162 0.000000 0.000000 0.000000 0.000000 0.000000 0.000000 19.646785 15.689140 -13.690942 180.000000 -1.415213 -13.690942 15.530474 1.921962 -11.043737 164.469526 -8.475712 27.893295 12.839349 3.989934 11.043737 18.000000 0.466312 0.936907
968.553643 444.081696 90.835556 0.000000 0.000000 0.000000 0.000000 0.000000 0.000000 19.493591 21.636958 -9.635073 180.000000 -5.208816 -9.635073 15.541640 -4.261600 -7.460697 164.458360 -0.655770 29.057495 13.061119 -4.002770 7.460697 18.000000 0.110721 0.626666
1051.772690 653.004448 70.358281 0.000000 0.000000 0.000000 0.000000 0.000000 0.000000 -79.007834 -4.533829 -4.973798 100.992166 17.774401 -4.973798 -126.715299 -6.379042 -3.759997 -149.991181 -3.727793 29.763441 31.772279 4.158072 3.759997 -14.822772 -0.415807 0.313953
1061.669197 624.716241 67.499046 0.000000 0.000000 0.000000 0.000000 0.000000 0.000000 -94.718359 13.530082 0.000000 85.281641 6.496535 0.000000 -144.150484 -4.025682 -0.000000 60.155085 -2.017049 30.000000 -152.711462 3.082600 0.000000 1.815393 -0.043445 0.000000
1072.053337 571.032879 51.765605 0.000000 0.000000 0.000000 0.000000 0.000000 0.000000 71.424080 16.779584 4.973798 -108.575920 -11.620137 4.973798 -149.042361 -3.643782 3.759997 -149.913636 -4.897170 29.763441 -145.792107 -4.056105 -3.759997 3.947623 0.450761 0.313953
1070.057373 572.884376 82.392381 0.000000 0.000000 0.000000 0.000000 0.000000 0.000000 -80.850201 11.137133 9.635073 99.149799 55.214725 9.635073 -147.567525 -4.034377 7.460697 -164.443014 5.592280 29.057495 -145.447997 -4.185828 -7.460697 4.032371 0.424197 0.626666
968.813035 443.988972 54.746726 0.000000 0.000000 0.000000 0.000000 0.000000 0.000000 18.912944 -19.382587 13.690942 180.000000 9.259148 13.690942 15.758200 -8.687652 11.043737 164.241800 4.165932 27.893295 14.397395 1.089651 -11.043737 18.000000 -0.455408 0.936907
968.862036 443.969952 59.683018 0.000000 0.000000 0.000000 0.000000 0.000000 0.000000 18.832684 -8.633777 16.886559 180.000000 2.208262 16.886559 15.833735 -1.485091 14.452610 164.166265 6.481331 26.289200 14.711463 1.484766 -14.452610 18.000000 0.267813 1.243449
968.910065 443.950775 39.274844 0.000000 0.000000 0.000000 0.000000 0.000000 0.000000 18.764066 3.398821 19.021130 180.000000 -4.445283 19.021130 15.920102 7.401621 17.633558 164.079898 0.469492 24.270510 15.041323 -5.761668 -17.633558 18.000000 0.634457 1.545085
968.957118 443.931442 48.709587 0.000000 0.000000 0.000000 0.000000 0.000000 0.000000 18.706990 1.967467 19.960535 180.000000 2.229388 19.960535 16.017366 -0.973035 20.536413 163.982634 2.298658 21.869059 15.386894 1.806281 -20.536413 18.000000 -0.144301 1.840623
969.003188 443.911954 46.306474 0.000000 0.000000 0.000000 0.000000 0.000000 0.000000 18.661377 -23.645376 19.645745 180.000000 10.770237 19.645745 16.125602 -1.527016 23.115397 163.874398 7.319141 19.122720 15.747980 -2.450222 -23.115397 18.000000 -1.070030 2.128896
969.048271 443.892312 65.346816 0.000000 0.000000 0.000000 0.000000 0.000000 0.000000 18.627165 3.723288 18.096541 180.000000 2.010452 18.096541 16.244896 -6.552855 25.329838 163.755104 -5.185502 16.074804 16.124252 1.562861 -25.329838 18.000000 -0.288508 2.408768
969.092361 443.872515 54.859944 0.000000 0.000000 0.000000 0.000000 0.000000 0.000000 18.604312 12.875338 15.410265 180.000000 9.357531 15.410265 16.375340 -1.820558 27.144812 163.624660 7.270856 12.773379 16.515224 2.024291 -27.144812 18.000000 -0.626703 2.679134
1055.186234 577.357593 50.702374 0.000000 0.000000 0.000000 0.000000 0.000000 0.000000 85.510211 -8.756346 11.755705 -94.489789 6.344665 11.755705 37.103410 -1.035024 28.531695 -148.111343 -2.078413 9.270510 24.294182 1.965684 -28.531695 -8.601915 0.497813 2.938926
1122.856522 566.714029 53.289565 0.000000 0.000000 0.000000 0.000000 0.000000 0.000000 96.216240 2.078712 7.362491 -83.783760 -8.476241 7.362491 46.189625 1.998488 29.468618 -149.396962 -2.497330 5.621439 24.670091 2.615082 -29.468618 -7.107716 -0.762371 3.187120
969.218632 443.812213 60.155330 0.000000 0.000000 0.000000 0.000000 0.000000 0.000000 18.603763 20.529106 2.506665 180.000000 -6.772248 2.506665 16.834613 5.910314 29.940802 163.165387 -1.777311 1.883716 17.768624 -4.771191 -29.940802 18.000000 0.858387 3.422736
1112.757797 605.798106 63.624375 0.000000 0.000000 0.000000 0.000000 0.000000 0.000000 110.914625 14.087240 -2.506665 -69.085375 -10.156885 -2.506665 67.769469 2.856142 29.940802 -149.822316 -2.560361 -1.883716 29.049901 2.349782 -29.940802 -3.625079 -0.243687 3.644843
1086.733246 592.557156 48.110203 0.000000 0.000000 0.000000 0.000000 0.000000 0.000000 -80.132323 -35.985845 -7.362491 99.867677 -12.644979 -7.362491 36.201564 -0.913935 29.468618 -13.679556 -1.857542 -5.621439 78.049842 7.249813 -29.468618 -5.127460 -0.280103 3.852566
1081.109390 570.394492 76.879830 0.000000 0.000000 0.000000 0.000000 0.000000 0.000000 -175.864613 11.202460 -11.755705 4.135387 -10.221117 -11.755705 134.713876 2.920696 28.531695 -10.005873 -3.229873 -9.270510 135.737755 1.165575 -28.531695 -3.389365 -0.044661 4.045085
1089.776802 536.594539 76.039231 0.000000 0.000000 0.000000 0.000000 0.000000 0.000000 -139.033903 3.450813 -15.410265 40.966097 4.007212 -15.410265 161.695972 -10.525781 27.144812 3.114398 -1.075551 -12.773379 148.805610 -0.214399 -27.144812 -2.611636 -0.093077 4.221640
1114.282036 523.965647 62.640459 0.000000 0.000000 0.000000 0.000000 0.000000 0.000000 -156.073983 -11.230299 -18.096541 23.926017 14.483049 -18.096541 174.825807 -2.091031 25.329838 5.093343 2.635568 -16.074804 161.266817 2.790797 -25.329838 -1.814366 -0.252302 4.381533
1122.145157 503.425248 69.402171 0.000000 0.000000 0.000000 0.000000 0.000000 0.000000 -144.538174 -8.484179 -19.645745 35.461826 15.578926 -19.645745 174.215003 -2.833995 23.115397 -151.750905 -3.290968 -19.122720 43.887064 4.405728 -23.115397 -13.611294 -0.440573 4.524135
1134.158249 484.688419 63.948194 0.000000 0.000000 0.000000 0.000000 0.000000 0.000000 -142.311443 -3.905906 -19.960535 37.688557 4.056545 -19.960535 -174.407776 1.632061 20.536413 14.121014 -0.053776 -21.869059 176.737053 1.845010 -20.536413 -0.386439 -0.007040 4.648882
1156.756668 500.025387 90.949287 0.000000 0.000000 0.000000 0.000000 0.000000 0.000000 -140.140767 -9.658754 -19.021130 39.859233 25.288414 -19.021130 -176.866589 -5.379377 17.633558 -153.177991 -3.295759 -24.270510 40.555680 5.522778 -17.633558 -13.944432 -0.552278 4.755283
1163.818588 490.292573 106.112702 0.000000 0.000000 0.000000 0.000000 0.000000 0.000000 -126.918075 -3.723796 -16.886559 53.081925 6.569691 -16.886559 -163.374411 1.193025 14.452610 -153.952175 -3.661862 -26.289200 36.914642 4.536106 -14.452610 0.798233 0.048440 4.842916
1176.523705 490.346003 86.207823 0.000000 0.000000 0.000000 0.000000 0.000000 0.000000 -130.072590 2.887816 -13.690942 49.927410 -11.056639 -13.690942 -150.224616 3.009334 11.043737 24.749952 1.606967 -27.893295 -162.219632 -2.694195 -11.043737 1.550269 0.062408 4.911436
1165.045052 489.521159 94.332161 0.000000 0.000000 0.000000 0.000000 0.000000 0.000000 -134.421293 0.317681 -9.635073 45.578707 -7.521344 -9.635073 -138.114962 3.150576 7.460697 20.347125 -3.209840 -29.057495 -149.675125 1.922274 -7.460697 1.919618 -0.251845 4.960574
1186.003189 485.341580 89.733659 0.000000 0.000000 0.000000 0.000000 0.000000 0.000000 151.263424 80.181713 -4.973798 -28.736576 -29.545288 -4.973798 -155.571724 -3.895983 3.759997 -114.944239 10.572678 -29.763441 -157.446860 -4.684211 -3.759997 2.096391 0.376145 4.990134
1190.285912 497.609435 96.943630 0.000000 0.000000 0.000000 0.000000 0.000000 0.000000 -104.331435 5.159575 -0.000000 75.668565 -6.604665 -0.000000 -153.934692 -4.319857 0.000000 -67.465008 -8.106944 -30.000000 -71.629168 9.823181 -0.000000 -13.965204 -8.758603 5.000000
846.875610 502.341399 98.323964 0.000000 0.000000 0.000000 0.000000 0.000000 0.000000 -153.358185 8.025785 4.973798 26.641815 1.868012 4.973798 -147.628169 -5.571600 -3.759997 -147.401289 -5.716594 -29.763441 0.000000 0.000000 0.000000 0.000000 0.000000 0.000000
969.711343 443.490827 101.758909 0.000000 0.000000 0.000000 0.000000 0.000000 0.000000 20.204512 3.798574 9.635073 180.000000 5.194063 9.635073 20.733157 3.107203 -7.460697 159.266843 3.201604 -29.057495 24.065833 -2.034299 7.460697 18.000000 -0.851244 4.960574
969.735789 443.468267 112.224097 0.000000 0.000000 0.000000 0.000000 0.000000 0.000000 20.415894 14.140338 13.690942 180.000000 -5.479586 13.690942 21.087741 15.091734 -11.043737 158.912259 -15.198155 -27.893295 24.320336 9.589771 11.043737 18.000000 0.694378 4.911436
969.759168 443.445569 119.666580 0.000000 0.000000 0.000000 0.000000 0.000000 0.000000 20.642061 -0.361920 16.886559 180.000000 7.949352 16.886559 21.453029 1.766530 -14.452610 158.546971 12.057747 -26.289200 24.533304 -11.839372 14.452610 18.000000 1.072702 4.842916
585.252171 514.469179 122.228572 0.000000 0.000000 0.000000 0.000000 0.000000 0.000000 74.723181 -49.583162 19.021130 -105.276819 38.915080 19.021130 119.807175 -9.263928 -17.633558 165.825978 -6.054283 -24.270510 138.012220 3.746353 17.633558 -12.357653 -0.101482 4.755283
624.843979 517.601860 117.585655 0.000000 0.000000 0.000000 0.000000 0.000000 0.000000 103.202449 23.100424 19.960535 -76.797551 1.243524 19.960535 114.381580 3.088843 -20.536413 -53.015473 23.819167 -21.869059 145.467160 5.785546 20.536413 -4.173333 -2.823333 4.648882
969.822873 443.376664 117.208156 0.000000 0.000000 0.000000 0.000000 0.000000 0.000000 21.413420 -14.001371 19.645745 180.000000 0.390931 19.645745 22.607712 7.322724 -23.115397 157.392288 -4.279140 -19.122720 24.899813 6.567897 23.115397 18.000000 0.061442 4.524135
969.841956 443.353428 138.364427 0.000000 0.000000 0.000000 0.000000 0.000000 0.000000 21.702987 2.643361 18.096541 180.000000 -0.362117 18.096541 23.009909 0.637424 -25.329838 156.990091 3.806035 -16.074804 24.926562 6.109871 25.329838 18.000000 -0.227327 4.381533
969.859960 443.330059 128.630051 0.000000 0.000000 0.000000 0.000000 0.000000 0.000000 22.009579 28.950672 15.410265 180.000000 -5.870455 15.410265 23.419334 -3.386901 -27.144812 156.580666 -1.994543 -12.773379 24.904993 -8.783182 27.144812 18.000000 -0.413134 4.221640
594.905148 538.048757 136.947371 0.000000 0.000000 0.000000 0.000000 0.000000 0.000000 -57.080480 7.899568 11.755705 122.919520 -12.741462 11.755705 -12.750556 -4.752765 -28.531695 149.841027 -26.677962 -9.270510 -8.274090 0.449843 28.531695 17.596979 0.947291 4.045085
969.892723 443.282929 143.766213 0.000000 0.000000 0.000000 0.000000 0.000000 0.000000 22.675903 24.042862 7.362491 180.000000 -19.651079 7.362491 24.255612 15.046585 -29.468618 155.744388 -5.912808 -5.621439 24.720303 -7.680094 29.468618 18.000000 0.401360 3.852566
1257.001877 499.708382 164.526287 0.000000 0.000000 0.000000 0.000000 0.000000 0.000000 52.818511 -2.678111 2.506665 -127.181489 4.591423 2.506665 25.369497 5.416431 -29.940802 -143.914951 1.842733 -1.883716 14.556766 1.740847 29.940802 -16.686776 -0.153278 3.644843
1279.050064 493.773898 141.877991 0.000000 0.000000 0.000000 0.000000 0.000000 0.000000 56.685213 -1.560608 -2.506665 -123.314787 1.977732 -2.506665 24.065452 -2.049365 -29.940802 -146.540317 -3.104427 1.883716 13.097461 0.536361 29.940802 -16.716891 -0.040438 3.422736
1295.108986 477.099677 147.445518 0.000000 0.000000 0.000000 0.000000 0.000000 0.000000 65.723361 6.364419 -7.362491 -114.276639 2.813095 -7.362491 23.725299 -1.590936 -29.468618 -147.984281 -1.076196 5.621439 13.187557 -2.765370 29.468618 -16.751134 0.156975 3.187120
1289.065018 496.763316 147.364546 0.000000 0.000000 0.000000 0.000000 0.000000 0.000000 61.662232 -0.714789 -11.755705 -118.337768 3.188804 -11.755705 31.397757 -1.031822 -28.531695 -148.047797 -0.993822 9.270510 12.491083 0.298645 28.531695 -16.898368 -0.013948 2.938926
1285.337105 480.691112 144.450927 0.000000 0.000000 0.000000 0.000000 0.000000 0.000000 58.021980 3.282974 -15.410265 -121.978020 -5.254256 -15.410265 31.705930 0.364343 -27.144812 -157.028684 0.148801 12.773379 11.107306 0.481735 27.144812 -17.140016 -0.049935 2.679134
1276.453171 465.093691 138.059859 0.000000 0.000000 0.000000 0.000000 0.000000 0.000000 70.157145 4.097739 -18.096541 -109.842855 -6.147747 -18.096541 40.303764 4.563351 -25.329838 -145.293609 -2.136680 16.074804 10.431204 4.044718 25.329838 -17.100572 -0.340891 2.408768
1253.658714 472.768564 163.513566 0.000000 0.000000 0.000000 0.000000 0.000000 0.000000 65.087926 27.010547 -19.645745 -114.912074 -2.328336 -19.645745 -157.680356 -7.209860 -23.115397 -137.727082 -1.380268 19.122720 -153.053596 -6.494598 23.115397 -16.054219 -0.820432 2.128896
1366.101608 507.691247 147.273226 0.000000 0.000000 0.000000 0.000000 0.000000 0.000000 108.715100 -25.100574 -19.960535 -71.284900 14.447190 -19.960535 156.661132 -20.434409 -20.536413 -158.224303 -5.938189 21.869059 0.000000 0.000000 0.000000 0.000000 0.000000 0.000000
969.986295 443.064535 140.132111 0.000000 0.000000 0.000000 0.000000 0.000000 0.000000 26.662144 -44.419442 -19.021130 180.000000 7.053323 -19.021130 28.015351 12.404463 -17.633558 151.984649 29.240839 24.270510 22.068935 -15.484227 17.633558 18.000000 0.530338 1.545085
1282.107124 481.511257 152.193268 0.000000 0.000000 0.000000 0.000000 0.000000 0.000000 80.650781 9.461548 -16.886559 -99.349219 -8.165411 -16.886559 1.511604 4.809428 -14.452610 -32.896908 -6.659597 26.289200 -7.727072 -3.910755 14.452610 13.531851 5.277123 1.243449
1282.921486 484.777769 148.778651 0.000000 0.000000 0.000000 0.000000 0.000000 0.000000 -81.737646 7.087956 -13.690942 98.262354 -14.289506 -13.690942 -23.867101 1.968736 -11.043737 12.655668 -0.946099 27.893295 -29.454911 0.814888 11.043737 9.861248 0.226698 0.936907
1290.933037 513.180238 150.101641 0.000000 0.000000 0.000000 0.000000 0.000000 0.000000 -91.387864 1.408986 -9.635073 88.612136 -7.226843 -9.635073 -41.685392 -1.937643 -7.460697 -161.156957 -6.816894 29.057495 15.157863 5.297286 7.460697 10.543436 0.731726 0.626666
969.999452 442.964284 136.986959 0.000000 0.000000 0.000000 0.000000 0.000000 0.000000 29.025427 2.450545 -4.973798 180.000000 -1.933206 -4.973798 29.437993 18.926191 -3.759997 150.562007 -0.928540 29.763441 20.404746 1.558100 3.759997 18.000000 -0.134553 0.313953
970.000000 442.938926 126.117212 0.000000 0.000000 0.000000 0.000000 0.000000 0.000000 29.678605 3.709255 0.000000 180.000000 -1.445766 0.000000 29.744881 6.029752 -0.000000 150.255119 -6.966430 30.000000 19.983107 -1.851595 0.000000 18.000000 -0.315355 0.000000
1354.522934 467.411410 147.029516 0.000000 0.000000 0.000000 0.000000 0.000000 0.000000 150.622570 6.499970 4.973798 -29.377430 1.201728 4.973798 140.176400 5.849283 3.759997 -12.221629 5.520754 29.763441 132.794256 -2.773523 -3.759997 -2.626015 -0.021429 0.313953
969.997807 442.887864 117.643933 0.000000 0.000000 0.000000 0.000000 0.000000 0.000000 31.061399 23.650433 9.635073 180.000000 10.278623 9.635073 30.285790 -7.516322 7.460697 149.714210 10.991751 29.057495 19.151579 -9.806427 -7.460697 18.000000 0.349880 0.626666
1246.736984 514.278152 119.899409 0.000000 0.000000 0.000000 0.000000 0.000000 0.000000 143.557092 -3.411250 13.690942 -36.442908 -13.051306 13.690942 133.761037 1.214916 11.043737 -156.950665 -6.403314 27.893295 0.000000 0.000000 0.000000 1.928484 0.499568 0.936907
1245.221100 458.637464 117.262359 0.000000 0.000000 0.000000 0.000000 0.000000 0.000000 160.701064 -0.842563 16.886559 -19.298936 3.076913 16.886559 140.193827 2.365151 14.452610 -157.554825 -5.319454 26.289200 29.500467 5.017974 -14.452610 -15.049953 -0.501797 1.243449
1257.365570 418.514181 103.969017 0.000000 0.000000 0.000000 0.000000 0.000000 0.000000 -143.710676 -8.540390 19.021130 36.289324 -1.672815 19.021130 163.220413 0.804473 17.633558 11.688054 0.650094 24.270510 152.038385 -0.509070 -17.633558 -2.339948 0.163197 1.545085
1275.099564 408.163741 97.044621 0.000000 0.000000 0.000000 0.000000 0.000000 0.000000 -132.929531 4.767918 19.960535 47.070469 -12.061095 19.960535 173.491912 3.343000 20.536413 -160.709681 -5.267491 21.869059 33.138793 5.427008 -20.536413 -14.686121 -0.542701 1.840623
1290.611115 384.880857 91.813463 0.000000 0.000000 0.000000 0.000000 0.000000 0.000000 -132.705235 0.574530 19.645745 47.294765 6.772768 19.645745 -173.778854 -1.500691 23.115397 20.496835 -5.925523 19.122720 -161.220290 -3.251938 -23.115397 1.723235 0.399808 2.128896
1302.817154 380.305352 91.801259 0.000000 0.000000 0.000000 0.000000 0.000000 0.000000 -131.493915 -2.649818 18.096541 48.506085 -0.586586 18.096541 -165.393697 2.012159 25.329838 23.154815 -2.260711 16.074804 -178.200316 0.437067 -25.329838 0.138141 0.012978 2.408768
1304.997711 379.563582 90.144626 0.000000 0.000000 0.000000 0.000000 0.000000 0.000000 -126.727972 0.228067 15.410265 53.272028 -3.105356 15.410265 -160.219593 2.478784 27.144812 28.448880 1.971257 12.773379 -174.368770 -1.276780 -27.144812 0.079526 0.060415 2.679134
1311.668472 386.890390 93.388766 0.000000 0.000000 0.000000 0.000000 0.000000 0.000000 -122.308728 2.828257 11.755705 57.691272 -2.476998 11.755705 -158.801130 1.065411 28.531695 150.942637 2.772845 9.270510 -154.878332 -4.658726 -28.531695 2.695409 0.565083 2.938926
1305.131836 395.180186 83.162532 0.000000 0.000000 0.000000 0.000000 0.000000 0.000000 -125.112810 9.535442 7.362491 54.887190 -9.524655 7.362491 -146.487292 3.565012 29.468618 -175.167369 1.263812 5.621439 -159.224034 -4.349072 -29.468618 1.782042 0.463147 3.187120
1296.320457 392.734526 87.488541 0.000000 0.000000 0.000000 0.000000 0.000000 0.000000 -131.035750 0.983987 2.506665 48.964250 -12.153642 2.506665 -128.969563 -1.662051 29.940802 38.856147 -5.976707 1.883716 -134.776850 1.404062 -29.940802 3.458429 0.138298 3.422736
1306.963577 386.612041 58.574082 0.000000 0.000000 0.000000 0.000000 0.000000 0.000000 -124.469622 15.399721 -2.506665 55.530378 -4.137739 -2.506665 -109.994856 -6.802284 29.940802 37.691309 -4.141539 -1.883716 -118.274788 -0.315421 -29.940802 5.098336 -0.048751 3.644843
969.892723 442.572198 44.726330 0.000000 0.000000 0.000000 0.000000 0.000000 0.000000 41.287575 27.442046 -7.362491 180.000000 -7.676658 -7.362491 30.974696 -0.536310 29.468618 149.025304 -9.971198 -5.621439 15.072869 -1.779879 -29.468618 18.000000 0.461448 3.852566
969.876883 442.545207 65.064960 0.000000 0.000000 0.000000 0.000000 0.000000 0.000000 42.241956 42.761790 -11.755705 180.000000 -13.849952 -11.755705 30.826133 6.330369 28.531695 149.173867 -8.365036 -9.270510 14.823070 -6.171378 -28.531695 18.000000 0.036690 4.045085
969.859960 442.518116 53.845650 0.000000 0.000000 0.000000 0.000000 0.000000 0.000000 43.199779 -22.358617 -15.410265 180.000000 -5.540192 -15.410265 30.649504 13.222182 27.144812 149.350496 -7.883903 -12.773379 14.587557 7.672394 -27.144812 18.000000 0.122835 4.221640
969.841956 442.490926 57.655347 0.000000 0.000000 0.000000 0.000000 0.000000 0.000000 44.157210 9.471166 -18.096541 180.000000 -21.547050 -18.096541 30.446417 17.099272 25.329838 149.553583 -16.463761 -16.074804 14.366154 12.632966 -25.329838 18.000000 -0.420824 4.381533
969.822873 442.463637 57.835374 0.000000 0.000000 0.000000 0.000000 0.000000 0.000000 45.110117 -9.224226 -19.645745 180.000000 40.044194 -19.645745 30.218633 -2.696943 23.115397 149.781367 3.006814 -19.122720 14.158653 7.641724 -23.115397 18.000000 0.169267 4.524135
969.802712 442.436251 50.388111 0.000000 0.000000 0.000000 0.000000 0.000000 0.000000 46.054109 -43.049289 -19.960535 180.000000 21.761891 -19.960535 29.968037 -17.175220 20.536413 150.031963 3.778730 -21.869059 13.964823 -4.920649 -20.536413 18.000000 0.208520 4.648882
1187.040939 541.658249 59.529495 0.000000 0.000000 0.000000 0.000000 0.000000 0.000000 82.806623 4.792949 -19.021130 -97.193377 20.388164 -19.021130 45.395981 -7.872665 17.633558 -156.144455 -2.118245 -24.270510 0.000000 0.000000 0.000000 0.000000 0.000000 0.000000
1182.242889 522.024286 48.098906 0.000000 0.000000 0.000000 0.000000 0.000000 0.000000 -105.721938 -28.186185 -16.886559 74.278062 28.424796 -16.886559 -155.708006 -3.264224 14.452610 -157.302521 -2.215019 -26.289200 0.000000 0.000000 0.000000 2.684983 0.233491 4.842916
1180.914459 527.065626 60.536711 0.000000 0.000000 0.000000 0.000000 0.000000 0.000000 88.055617 4.136013 -13.690942 -91.944383 6.134096 -13.690942 -158.862018 -3.135691 11.043737 -151.747289 -2.118975 -27.893295 0.000000 0.000000 0.000000 0.000000 0.000000 0.000000
1236.800194 541.387432 21.128461 0.000000 0.000000 0.000000 0.000000 0.000000 0.000000 -85.588400 5.137224 -9.635073 94.411600 -5.855561 -9.635073 -159.297106 12.713329 7.460697 -157.915391 -1.969434 -29.057495 26.607362 2.610612 -7.460697 14.926890 -0.270184 4.960574
1161.066513 575.006626 60.189885 0.000000 0.000000 0.000000 0.000000 0.000000 0.000000 -81.021168 4.110160 -4.973798 98.978832 -9.417292 -4.973798 -102.851701 5.247410 3.759997 -157.041007 -2.653851 -29.763441 21.429890 3.120680 -3.759997 10.859432 -1.307906 4.990134
1255.636253 512.645942 48.973938 0.000000 0.000000 0.000000 0.000000 0.000000 0.000000 77.832564 -6.360017 -0.000000 -102.167436 10.949296 -0.000000 -158.264834 -3.509972 0.000000 -130.745502 3.803698 -30.000000 -157.699225 -3.275772 -0.000000 0.000000 0.000000 0.000000
1265.118484 521.473864 55.905782 0.000000 0.000000 0.000000 0.000000 0.000000 0.000000 64.078276 3.323745 4.973798 -115.921724 -2.664670 4.973798 41.397952 -2.870233 -3.759997 -139.329851 -2.575884 -29.763441 20.223252 0.091101 3.759997 -16.047574 -0.175895 4.990134
1228.099480 522.138258 57.563534 0.000000 0.000000 0.000000 0.000000 0.000000 0.000000 71.050901 7.481082 9.635073 -108.949099 -1.911917 9.635073 150.099970 -0.481642 -7.460697 -139.894702 -0.784781 -29.057495 -156.275691 -3.390886 7.460697 0.000000 0.000000 0.000000
1240.357246 528.695873 63.181648 0.000000 0.000000 0.000000 0.000000 0.000000 0.000000 65.413351 -13.966285 13.690942 -114.586649 9.161452 13.690942 147.242328 -3.591826 -11.043737 -154.470720 -2.125302 -27.893295 25.557225 2.272781 11.043737 -15.444278 -0.227278 4.911436
1231.815262 551.380248 56.722209 0.000000 0.000000 0.000000 0.000000 0.000000 0.000000 56.412506 -14.595120 16.886559 -123.587494 6.765299 16.886559 -153.392336 3.338647 -14.452610 -154.784582 -1.976301 -26.289200 24.191555 2.497923 14.452610 -15.580844 -0.249792 4.842916
1221.475182 508.360147 61.383354 0.000000 0.000000 0.000000 0.000000 0.000000 0.000000 77.450622 -10.864221 19.021130 -102.549378 -4.359306 19.021130 -156.789784 -2.869649 -17.633558 -125.590168 0.862606 -24.270510 -160.017240 -3.909622 17.633558 1.833434 0.297887 4.755283
969.477684 442.100429 75.117150 0.000000 0.000000 0.000000 0.000000 0.000000 0.000000 54.932575 -23.378235 19.960535 180.000000 25.545910 19.960535 25.919122 -7.446697 -20.536413 154.080878 3.310404 -21.869059 12.612867 3.440267 20.536413 18.000000 -0.112014 4.648882
1480.140495 518.878891 62.524353 0.000000 0.000000 0.000000 0.000000 0.000000 0.000000 -110.621767 -71.040571 19.645745 69.378233 84.309713 19.645745 -158.235933 -2.652114 -23.115397 166.031448 5.575295 -19.122720 -155.186432 -3.074897 23.115397 2.641553 0.310989 4.524135
1271.640472 556.840560 74.471869 0.000000 0.000000 0.000000 0.000000 0.000000 0.000000 -94.404719 0.741610 18.096541 85.595281 -1.635243 18.096541 -62.417786 3.642045 -25.329838 23.992813 4.628574 -16.074804 -76.856107 -3.184041 25.329838 7.708835 0.286848 4.381533
1258.556786 530.268441 84.635719 0.000000 0.000000 0.000000 0.000000 0.000000 0.000000 78.355945 12.876384 15.410265 -101.644055 -4.179589 15.410265 35.068294 -3.276111 -27.144812 -54.090640 -4.093895 -12.773379 35.848220 9.335684 27.144812 -8.104639 -1.874941 4.221640
1250.800209 527.150567 89.485110 0.000000 0.000000 0.000000 0.000000 0.000000 0.000000 72.417769 9.545394 11.755705 -107.582231 1.660634 11.755705 24.571109 -4.685712 -28.531695 -39.196117 -2.541674 -9.270510 10.411117 -0.741861 28.531695 -9.048616 -1.560998 4.045085
1243.466148 571.776259 88.866204 0.000000 0.000000 0.000000 0.000000 0.000000 0.000000 86.301473 6.564471 7.362491 -93.698527 -5.505045 7.362491 24.553534 -0.039667 -29.468618 -153.460385 -4.209075 -5.621439 19.510484 3.675646 29.468618 -10.109500 -3.049324 3.852566
1261.883812 566.052918 92.682025 0.000000 0.000000 0.000000 0.000000 0.000000 0.000000 94.015209 6.752826 2.506665 -85.984791 -15.890247 2.506665 38.959993 8.066058 -29.940802 -154.008305 -4.306270 -1.883716 20.870951 3.436173 29.940802 -10.872440 -0.547974 3.644843
1284.436798 527.190542 96.982232 0.000000 0.000000 0.000000 0.000000 0.000000 0.000000 111.186365 18.412314 -2.506665 -68.813635 2.264837 -2.506665 58.506163 1.404135 -29.940802 -19.138727 -2.415372 1.883716 51.457372 5.068270 29.940802 -5.203198 -0.129954 3.422736
1272.860069 533.494012 111.359598 0.000000 0.000000 0.000000 0.000000 0.000000 0.000000 72.301471 -17.672776 -7.362491 -107.698529 21.218186 -7.362491 78.802573 1.071391 -29.468618 -154.772375 -3.809292 5.621439 26.927455 4.029058 29.468618 -15.307255 -0.402906 3.187120
1255.264664 498.243735 94.701268 0.000000 0.000000 0.000000 0.000000 0.000000 0.000000 164.596971 10.255837 -11.755705 -15.403029 10.738647 -11.755705 125.849126 -0.666413 -28.531695 -156.067666 -5.308253 9.270510 33.087561 4.516467 28.531695 -14.691244 -0.451647 2.938926
1259.202232 470.407684 102.631128 0.000000 0.000000 0.000000 0.000000 0.000000 0.000000 -139.980397 6.305362 -15.410265 40.019603 -15.081211 -15.410265 165.887722 3.636385 -27.144812 -157.901492 -5.547934 12.773379 35.196094 5.408337 27.144812 -14.480391 -0.540834 2.679134
1236.502075 429.951335 119.239995 0.000000 0.000000 0.000000 0.000000 0.000000 0.000000 -113.295066 2.544384 -18.096541 66.704934 -6.918337 -18.096541 -174.664169 4.641058 -25.329838 -159.007335 -5.733340 16.074804 32.868990 5.772556 25.329838 -14.713101 -0.577256 2.408768
1253.359451 413.942538 116.304893 0.000000 0.000000 0.000000 0.000000 0.000000 0.000000 -123.348580 9.642980 -19.645745 56.651420 -5.018853 -19.645745 -167.815074 1.815673 -23.115397 -159.603180 -6.382716 19.122720 32.791747 7.259961 23.115397 -14.720825 -0.725996 2.128896
1281.206589 405.664523 135.323581 0.000000 0.000000 0.000000 0.000000 0.000000 0.000000 -124.414271 0.932702 -19.960535 55.585729 -1.579180 -19.960535 -161.281803 -0.627405 -20.536413 28.568449 -1.780190 21.869059 -159.052798 -4.540239 20.536413 1.849141 0.447403 1.840623
1300.238571 418.760215 132.595490 0.000000 0.000000 0.000000 0.000000 0.000000 0.000000 -126.263092 0.022053 -19.021130 53.736908 -3.497390 -19.021130 -159.739358 3.037215 -17.633558 31.487961 2.288833 24.270510 -170.323915 -3.076956 17.633558 0.671815 0.109770 1.545085
1321.889191 413.634385 126.981502 0.000000 0.000000 0.000000 0.000000 0.000000 0.000000 -133.874471 -2.600153 -16.886559 46.125529 4.151669 -16.886559 -159.376251 -0.533148 -14.452610 30.696824 0.580190 26.289200 -164.929556 -0.350440 14.452610 1.089735 -0.026564 1.243449
1336.221428 432.881820 147.041821 0.000000 0.000000 0.000000 0.000000 0.000000 0.000000 -115.020798 3.134209 -13.690942 64.979202 -9.670354 -13.690942 -135.609544 4.278184 -11.043737 -161.321630 -6.255024 27.893295 17.353502 8.772678 11.043737 -16.264650 -0.877268 0.936907
1329.124603 416.860342 151.409589 0.000000 0.000000 0.000000 0.000000 0.000000 0.000000 -134.023347 5.189692 -9.635073 45.976653 -3.992937 -9.635073 -128.030830 5.030281 -7.460697 28.249885 2.108489 29.057495 -136.447985 -1.810841 7.460697 4.038834 0.110583 0.626666
1343.366776 427.060794 146.841083 0.000000 0.000000 0.000000 0.000000 0.000000 0.000000 -130.153347 -0.774375 -4.973798 49.846653 10.211755 -4.973798 -103.564435 -8.070279 -3.759997 27.398095 1.955508 29.763441 -115.461530 -0.912578 3.759997 5.470063 -0.056115 0.313953
1376.991005 465.829636 148.051716 0.000000 0.000000 0.000000 0.000000 0.000000 0.000000 -120.272352 -4.108906 0.000000 59.727648 6.759458 0.000000 -62.204131 -0.078359 -0.000000 27.740602 3.795193 30.000000 -80.461527 -2.931843 0.000000 7.450891 -0.041728 0.000000
1384.978867 468.790376 152.745717 0.000000 0.000000 0.000000 0.000000 0.000000 0.000000 -93.720384 -1.803608 4.973798 86.279616 -23.550560 4.973798 3.847814 -2.406858 3.759997 -160.438787 -6.600827 29.763441 15.990976 5.164344 -3.759997 7.894783 -0.036803 0.313953
1345.894547 516.257268 143.836603 0.000000 0.000000 0.000000 0.000000 0.000000 0.000000 127.577640 -6.010376 9.635073 -52.422360 2.556764 9.635073 53.096359 -6.495885 7.460697 -159.021748 -6.152310 29.057495 18.308456 5.263293 -7.460697 -4.062191 0.189228 0.626666
968.498927 441.455181 163.758951 0.000000 0.000000 0.000000 0.000000 0.000000 0.000000 47.920147 4.291622 13.690942 180.000000 5.248165 13.690942 19.641385 4.742762 11.043737 160.358615 4.544762 27.893295 13.993219 -8.167593 -11.043737 18.000000 1.276325 0.936907
1336.846733 493.527671 150.150809 0.000000 0.000000 0.000000 0.000000 0.000000 0.000000 102.681311 -9.998574 16.886559 -77.318689 -22.731912 16.886559 35.985219 2.517424 14.452610 -159.617763 -6.490096 26.289200 19.375410 5.691516 -14.452610 -16.062459 -0.569152 1.243449
968.386706 441.394956 146.063410 0.000000 0.000000 0.000000 0.000000 0.000000 0.000000 46.120581 -10.490348 19.021130 180.000000 8.418648 19.021130 19.316787 -11.594562 17.633558 160.683213 8.450208 24.270510 14.327067 -2.350546 -17.633558 18.000000 -0.363508 1.545085
1263.984947 433.341283 144.553697 0.000000 0.000000 0.000000 0.000000 0.000000 0.000000 -115.578373 -6.947155 19.960535 64.421627 1.264556 19.960535 -82.396446 -1.432092 20.536413 25.733383 -7.664962 21.869059 -77.477544 -5.437598 -20.536413 5.836928 1.221802 1.840623
1352.596436 477.564354 161.075656 0.000000 0.000000 0.000000 0.000000 0.000000 0.000000 -99.196741 -2.921799 19.645745 80.803259 5.000010 19.645745 -125.272585 -3.200730 23.115397 -162.405270 -6.140483 19.122720 17.377627 6.830727 -23.115397 -16.262237 -0.683073 2.128896
1384.326782 408.174427 157.835037 0.000000 0.000000 0.000000 0.000000 0.000000 0.000000 96.868601 -14.955041 18.096541 -83.131399 5.706220 18.096541 -160.848957 -5.857627 25.329838 -137.255583 4.871900 16.074804 -162.076720 -7.029069 -25.329838 0.000000 0.000000 0.000000
1387.580223 387.128634 163.111995 0.000000 0.000000 0.000000 0.000000 0.000000 0.000000 78.087764 -1.322601 15.410265 -101.912236 -9.655825 15.410265 -161.807915 -5.780269 27.144812 -147.504361 -1.586339 12.773379 -162.566306 -6.781313 -27.144812 1.735427 0.681497 2.679134
1345.818558 392.423122 149.852163 0.000000 0.000000 0.000000 0.000000 0.000000 0.000000 71.782984 15.168448 11.755705 -108.217016 -33.567699 11.755705 -169.469261 3.395035 28.531695 -153.903088 -3.882205 9.270510 -154.670689 -6.040379 -28.531695 15.277725 2.010551 2.938926
1331.471329 361.814139 144.305663 0.000000 0.000000 0.000000 0.000000 0.000000 0.000000 53.586100 -24.022421 7.362491 -126.413900 20.894483 7.362491 -162.290330 -6.221253 29.468618 -154.912165 -0.242191 5.621439 -162.550394 -6.438686 -29.468618 1.742175 0.843790 3.187120
1354.413986 427.213873 141.253353 0.000000 0.000000 0.000000 0.000000 0.000000 0.000000 -131.358118 -5.376521 2.506665 48.641882 11.708042 2.506665 -142.488821 0.178533 29.940802 -161.977882 -5.869605 1.883716 12.673705 7.796365 -29.940802 1.397524 0.094331 3.422736
1330.326691 347.207226 143.538485 0.000000 0.000000 0.000000 0.000000 0.000000 0.000000 52.464175 -2.681489 -2.506665 -127.535825 13.071600 -2.506665 14.270918 -0.838891 29.940802 -122.057234 0.808875 -1.883716 22.820874 1.965455 -29.940802 -15.244909 -0.079895 3.644843
1317.103271 414.475805 125.646929 0.000000 0.000000 0.000000 0.000000 0.000000 0.000000 76.170457 3.024331 -7.362491 -103.829543 -5.239349 -7.362491 -50.250674 7.105419 29.468618 -52.503744 -0.723419 -5.621439 -92.793049 6.988880 -29.468618 3.303440 -0.620493 3.852566
1331.844635 430.291482 104.855350 0.000000 0.000000 0.000000 0.000000 0.000000 0.000000 79.985160 0.292849 -11.755705 -100.014840 -4.869594 -11.755705 25.995082 6.885939 28.531695 -75.062603 2.257570 -9.270510 38.761234 -0.193217 -28.531695 -11.442229 -0.280928 4.045085
1359.462433 496.472383 117.509469 0.000000 0.000000 0.000000 0.000000 0.000000 0.000000 84.268829 1.124512 -15.410265 -95.731171 -8.636947 -15.410265 30.279153 3.464408 27.144812 -63.318008 -1.105919 -12.773379 39.457716 0.939059 -27.144812 -9.485742 -0.578120 4.221640
1323.514366 546.771398 99.964981 0.000000 0.000000 0.000000 0.000000 0.000000 0.000000 84.407325 5.810730 -18.096541 -95.592675 -3.941160 -18.096541 27.768249 -2.274586 25.329838 -47.660055 1.055731 -16.074804 28.281511 -7.534482 -25.329838 -7.827901 0.849741 4.381533
1268.535347 591.567099 86.695555 0.000000 0.000000 0.000000 0.000000 0.000000 0.000000 90.890792 -3.706970 -19.645745 -89.109208 -1.532892 -19.645745 44.654760 4.132030 23.115397 -48.200667 5.451193 -19.122720 43.369388 -6.227337 -23.115397 -8.974980 0.176674 4.524135
1303.157158 602.888768 87.978990 0.000000 0.000000 0.000000 0.000000 0.000000 0.000000 90.349289 2.052780 -19.960535 -89.650711 -6.052283 -19.960535 47.707312 0.612267 20.536413 -53.918782 -3.353288 -21.869059 40.070965 0.144035 -20.536413 -9.318632 -0.656458 4.648882
1314.841690 613.141973 87.278132 0.000000 0.000000 0.000000 0.000000 0.000000 0.000000 94.480501 -0.429812 -19.021130 -85.519499 7.920211 -19.021130 58.462862 -3.513373 17.633558 -52.020507 3.873775 -24.270510 55.276552 -3.879109 -17.633558 -7.777523 0.643307 4.755283
1327.521400 639.394319 93.855806 0.000000 0.000000 0.000000 0.000000 0.000000 0.000000 99.879576 -1.939838 -16.886559 -80.120424 6.713924 -16.886559 69.161359 -4.741336 14.452610 -46.413613 -0.234264 -26.289200 76.680143 4.264856 -14.452610 -6.257768 0.004346 4.842916
1277.812729 671.228578 71.814966 0.000000 0.000000 0.000000 0.000000 0.000000 0.000000 99.708534 -15.014952 -13.690942 -80.291466 13.448606 -13.690942 92.239140 1.103465 11.043737 -26.764021 7.899937 -27.893295 98.168457 3.451313 -11.043737 -4.372074 -0.456735 4.911436
1309.642181 690.479329 71.614853 0.000000 0.000000 0.000000 0.000000 0.000000 0.000000 117.292414 -8.793273 -9.635073 -62.707586 1.072522 -9.635073 137.002702 -0.320009 7.460697 -32.045917 5.945658 -29.057495 135.211322 -2.545868 -7.460697 -3.212944 0.011951 4.960574
1299.770966 664.126496 77.737697 0.000000 0.000000 0.000000 0.000000 0.000000 0.000000 158.531160 -5.209172 -4.973798 -21.468840 -1.284815 -4.973798 161.478323 -0.729625 3.759997 -12.838206 -2.938786 -29.763441 151.269584 0.051925 -3.759997 -2.521934 0.013004 4.990134
1313.353729 643.668108 67.117984 0.000000 0.000000 0.000000 0.000000 0.000000 0.000000 -154.315892 -2.394199 -0.000000 25.684108 10.262986 -0.000000 173.459940 -3.788619 0.000000 1.519689 2.128837 -30.000000 164.244875 -0.466013 -0.000000 -1.552244 0.077906 5.000000
1342.841377 638.982847 62.901728 0.000000 0.000000 0.000000 0.000000 0.000000 0.000000 -138.993869 -8.633095 4.973798 41.006131 -0.926438 4.973798 175.724056 3.807954 -3.759997 -151.723069 -3.066347 -29.763441 43.242568 4.511284 3.759997 -13.675743 -0.451128 4.990134
1350.000229 614.724133 55.432541 0.000000 0.000000 0.000000 0.000000 0.000000 0.000000 -144.248147 -16.792252 9.635073 35.751853 5.810991 9.635073 177.069273 4.385804 -7.460697 -152.227621 -2.610797 -29.057495 43.136563 2.822660 7.460697 -13.686344 -0.282266 4.960574
1328.535919 624.780936 67.137016 0.000000 0.000000 0.000000 0.000000 0.000000 0.000000 -165.447222 -20.917767 13.690942 14.552778 16.979574 13.690942 169.657511 -6.112728 -11.043737 -152.168050 -2.220191 -27.893295 41.929642 4.022214 11.043737 -13.807036 -0.402221 4.911436
1318.810501 615.688248 64.973899 0.000000 0.000000 0.000000 0.000000 0.000000 0.000000 -120.063657 4.070755 16.886559 59.936343 14.378485 16.886559 -165.389465 -4.688141 -14.452610 -152.866764 -2.684728 -26.289200 39.162270 2.992365 14.452610 -14.083773 -0.299237 4.842916
1321.656418 659.275410 27.078768 0.000000 0.000000 0.000000 0.000000 0.000000 0.000000 -121.435085 -12.319759 19.021130 58.564915 18.642696 19.021130 -149.190712 -3.411770 -17.633558 -151.926374 -1.744196 -24.270510 33.097066 3.245830 17.633558 -14.690293 -0.324583 4.755283
1328.445511 687.490232 55.286244 0.000000 0.000000 0.000000 0.000000 0.000000 0.000000 -104.253419 -1.656762 19.960535 75.746581 6.587137 19.960535 -110.140878 -0.703494 -20.536413 -152.911692 -2.425525 -21.869059 23.882145 2.245049 20.536413 3.694979 -0.024864 4.648882
966.534206 440.564282 71.389030 0.000000 0.000000 0.000000 0.000000 0.000000 0.000000 25.865486 12.071491 19.645745 180.000000 2.782825 19.645745 18.728337 -5.264019 -23.115397 161.271663 -4.873661 -19.122720 19.024234 -0.817685 23.115397 18.000000 0.877338 4.524135
966.454577 440.533056 47.998193 0.000000 0.000000 0.000000 0.000000 0.000000 0.000000 25.417507 -18.676245 18.096541 180.000000 2.886620 18.096541 18.825450 -3.598700 -25.329838 161.174550 2.583227 -16.074804 19.071566 3.534039 25.329838 18.000000 0.155166 4.381533
966.374240 440.501809 50.804202 0.000000 0.000000 0.000000 0.000000 0.000000 0.000000 24.990320 3.457547 15.410265 180.000000 2.611325 15.410265 18.929718 -2.462350 -27.144812 161.070282 -1.535296 -12.773379 19.102411 8.899718 27.144812 18.000000 -0.431501 4.221640
966.293204 440.470542 44.535783 0.000000 0.000000 0.000000 0.000000 0.000000 0.000000 24.583377 8.365173 11.755705 180.000000 -8.159781 11.755705 19.040946 1.011528 -28.531695 160.959054 -13.791517 -9.270510 19.116765 19.282170 28.531695 18.000000 -1.294059 4.045085
966.211478 440.439256 46.616044 0.000000 0.000000 0.000000 0.000000 0.000000 0.000000 24.196129 7.823162 7.362491 180.000000 2.957255 7.362491 19.158923 1.566471 -29.468618 160.841077 8.938722 -5.621439 19.114778 -1.516386 29.468618 18.000000 -0.116433 3.852566
644.985180 745.864069 66.994788 0.000000 0.000000 0.000000 0.000000 0.000000 0.000000 96.086415 27.247823 2.506665 -83.913585 -55.459383 2.506665 -159.662371 14.757962 -29.940802 -116.741565 -11.563208 -1.883716 -176.001217 -0.199848 29.940802 -1.006627 -0.490568 3.644843
1269.020119 699.025490 44.726643 0.000000 0.000000 0.000000 0.000000 0.000000 0.000000 83.810916 -0.445924 -2.506665 -96.189084 1.083742 -2.506665 51.932890 -0.544359 -29.940802 -149.314466 -2.151107 1.883716 27.598511 2.248283 29.940802 -15.240149 -0.224828 3.422736
573.721218 678.450201 46.474957 0.000000 0.000000 0.000000 0.000000 0.000000 0.000000 18.756393 43.824392 -7.362491 -161.243607 -25.190143 -7.362491 -174.158094 -3.538628 -29.468618 178.010322 -15.415423 5.621439 -154.394154 10.563738 29.468618 11.886524 -2.222335 3.187120
1261.580200 714.897366 40.078064 0.000000 0.000000 0.000000 0.000000 0.000000 0.000000 87.191276 -4.721183 -11.755705 -92.808724 5.476496 -11.755705 23.129119 8.291688 -28.531695 -149.376238 -2.010215 9.270510 24.545507 1.916860 28.531695 13.583501 5.068183 2.938926
1314.655838 684.171546 47.354302 0.000000 0.000000 0.000000 0.000000 0.000000 0.000000 61.219932 0.438125 -15.410265 -118.780068 -3.964585 -15.410265 25.476616 4.272797 -27.144812 -150.404247 -2.521482 12.773379 24.621454 1.811949 27.144812 -15.537855 -0.181195 2.679134
1319.638939 674.820013 67.363451 0.000000 0.000000 0.000000 0.000000 0.000000 0.000000 82.055377 -12.373421 -18.096541 -97.944623 22.194187 -18.096541 17.325085 -12.838670 -25.329838 -60.067277 3.963224 16.074804 23.747728 -3.631327 25.329838 -13.005173 0.327715 2.408768
1367.852325 659.536314 50.931783 0.000000 0.000000 0.000000 0.000000 0.000000 0.000000 -150.278430 -20.498160 -19.645745 29.721570 20.969985 -19.645745 -151.222797 -2.635538 -23.115397 18.758043 -3.586095 19.122720 -152.451920 -1.557033 23.115397 2.484143 0.226850 2.128896
1392.624664 638.981302 73.211270 0.000000 0.000000 0.000000 0.000000 0.000000 0.000000 -122.704248 9.679401 -19.960535 57.295752 -10.424976 -19.960535 -134.513385 0.031163 -20.536413 30.292627 -7.167058 21.869059 -146.694539 1.537437 20.536413 2.430965 -0.161364 1.840623
1401.291389 646.422758 85.041125 0.000000 0.000000 0.000000 0.000000 0.000000 0.000000 83.316637 0.186065 -19.021130 -96.683363 4.543806 -19.021130 29.335627 -11.629253 -17.633558 -136.281416 -0.156870 24.270510 19.119183 -0.364190 17.633558 -15.871560 0.000314 1.545085
1381.838951 663.410475 73.843969 0.000000 0.000000 0.000000 0.000000 0.000000 0.000000 79.215331 -1.410854 -16.886559 -100.784669 1.575911 -16.886559 30.640455 0.749965 -14.452610 -139.113455 -0.770911 26.289200 14.302413 0.298748 14.452610 -16.408036 0.030983 1.243449
1390.185928 664.248354 79.675798 0.000000 0.000000 0.000000 0.000000 0.000000 0.000000 75.546066 5.611567 -13.690942 -104.453934 -8.457952 -13.690942 38.995097 -0.285503 -11.043737 -142.871297 -2.917659 27.893295 14.209110 2.044375 11.043737 -16.737090 -0.245469 0.936907
1393.889923 677.551103 73.800432 0.000000 0.000000 0.000000 0.000000 0.000000 0.000000 84.293627 -0.628531 -9.635073 -95.706373 -0.055472 -9.635073 -152.700272 -3.442971 -7.460697 -143.357755 1.361526 29.057495 -148.868889 -4.416230 7.460697 3.626268 0.378221 0.626666
905.601082 693.654528 86.570247 0.000000 0.000000 0.000000 0.000000 0.000000 0.000000 -84.410869 -7.992475 -4.973798 95.589131 -1.967972 -4.973798 -139.498802 -4.067201 -3.759997 -178.556713 -18.875285 29.763441 -142.061844 -4.105076 3.759997 3.411456 0.449660 0.313953
1337.643929 680.318756 100.198383 0.000000 0.000000 0.000000 0.000000 0.000000 0.000000 78.192517 -5.466640 0.000000 -101.807483 3.594649 0.000000 48.289813 6.388183 -0.000000 -140.291980 5.480032 30.000000 13.663140 -0.643807 0.000000 -17.395561 -0.040347 0.000000
1322.670708 685.543334 99.586522 0.000000 0.000000 0.000000 0.000000 0.000000 0.000000 71.501063 11.260220 4.973798 -108.498937 13.486242 4.973798 23.648228 -4.915186 3.759997 -144.586500 -0.473574 29.763441 14.578018 0.862934 -3.759997 -16.885607 0.037377 0.313953
1305.530548 682.910864 105.953228 0.000000 0.000000 0.000000 0.000000 0.000000 0.000000 72.979287 51.006745 9.635073 -107.020713 -50.875172 9.635073 -148.728581 -3.640735 7.460697 -74.802907 2.147739 29.057495 -151.178244 -4.597970 -7.460697 2.601049 0.378007 0.626666
1359.363556 692.650115 104.519934 0.000000 0.000000 0.000000 0.000000 0.000000 0.000000 73.244804 1.090179 13.690942 -106.755196 1.730623 13.690942 13.983499 -3.879288 11.043737 -67.611809 -4.569688 27.893295 13.130547 0.364052 -11.043737 -11.004089 0.183259 0.936907
1299.495964 679.994059 128.115198 0.000000 0.000000 0.000000 0.000000 0.000000 0.000000 116.206779 0.808119 16.886559 -63.793221 -2.985062 16.886559 -150.858719 -4.345840 14.452610 -34.548592 1.385152 26.289200 60.366751 -1.272012 -14.452610 -4.627493 -0.124820 1.243449
1306.260338 711.527116 124.923137 0.000000 0.000000 0.000000 0.000000 0.000000 0.000000 -85.758672 -5.182376 19.021130 94.241328 25.596615 19.021130 -31.461750 -2.236517 17.633558 -4.237664 6.074371 24.270510 -15.215787 1.428552 -17.633558 7.867754 -1.977597 1.545085
1272.614822 704.778571 120.593244 0.000000 0.000000 0.000000 0.000000 0.000000 0.000000 -78.634637 19.332317 19.960535 101.365363 -18.164637 19.960535 -34.118569 2.782142 20.536413 22.539652 -1.739861 21.869059 -31.373170 0.898937 -20.536413 11.310693 0.285087 1.840623
1310.345650 676.427021 120.267693 0.000000 0.000000 0.000000 0.000000 0.000000 0.000000 97.572435 -6.533708 19.645745 -82.427565 -4.990858 19.645745 50.400703 2.397405 23.115397 -39.584286 2.542068 19.122720 44.966766 3.809658 -23.115397 -8.852712 -1.195795 2.128896
1315.732956 671.025095 123.380691 0.000000 0.000000 0.000000 0.000000 0.000000 0.000000 97.797337 -2.760147 18.096541 -82.202663 2.046476 18.096541 49.825934 1.949384 25.329838 -39.162923 -2.275735 16.074804 36.475631 10.624978 -25.329838 -8.191519 -1.376548 2.408768
1329.935532 653.525419 139.607248 0.000000 0.000000 0.000000 0.000000 0.000000 0.000000 96.469555 -0.698690 15.410265 -83.530445 1.593036 15.410265 63.882053 -1.151849 27.144812 -51.972064 4.208836 12.773379 58.624362 -0.272437 -27.144812 -8.239564 -0.065472 2.679134
1316.170578 674.246514 133.204717 0.000000 0.000000 0.000000 0.000000 0.000000 0.000000 -87.946330 -5.748712 11.755705 92.053670 8.359190 11.755705 -29.715798 -3.271782 28.531695 54.212796 -0.148817 9.270510 -40.560774 1.788718 -28.531695 11.008015 -0.272955 2.938926
1317.367287 678.027205 136.959800 0.000000 0.000000 0.000000 0.000000 0.000000 0.000000 95.152942 -7.049503 7.362491 -84.847058 2.754170 7.362491 98.792835 -0.000642 29.468618 -150.515547 -5.461778 5.621439 32.983753 5.479668 -29.468618 -14.701625 -0.547967 3.187120
1318.168488 670.157025 129.496442 0.000000 0.000000 0.000000 0.000000 0.000000 0.000000 -151.252255 -36.237259 2.506665 28.747745 7.817556 2.506665 138.896993 4.166605 29.940802 -151.946620 -5.740903 1.883716 38.784684 6.134095 -29.940802 -14.121532 -0.613410 3.422736
1323.412628 644.667885 144.496505 0.000000 0.000000 0.000000 0.000000 0.000000 0.000000 -97.904066 1.875268 -2.506665 82.095934 -14.805322 -2.506665 155.695030 7.434013 29.940802 -152.500978 -6.474253 -1.883716 44.721081 6.407495 -29.940802 -13.527892 -0.640750 3.644843
1312.776718 630.059459 127.784361 0.000000 0.000000 0.000000 0.000000 0.000000 0.000000 -116.637972 11.741904 -7.362491 63.362028 -16.094017 -7.362491 171.094570 2.424594 29.468618 -152.894064 -6.842751 -5.621439 43.947863 7.759602 -29.468618 -13.605214 -0.775960 3.852566
1316.420746 625.237019 161.243987 0.000000 0.000000 0.000000 0.000000 0.000000 0.000000 -136.254273 9.773927 -11.755705 43.745727 -7.690051 -11.755705 -177.663204 -1.062838 28.531695 -153.006287 -7.032446 -9.270510 42.784597 8.318762 -28.531695 -13.721540 -0.831876 4.045085
1314.719925 628.818026 146.161421 0.000000 0.000000 0.000000 0.000000 0.000000 0.000000 -114.737929 -5.800321 -15.410265 65.262071 -4.211169 -15.410265 -169.764314 0.930575 27.144812 -153.369487 -6.500817 -12.773379 41.498347 7.721360 -27.144812 -13.850165 -0.772136 4.221640
1334.396782 646.165652 138.271237 0.000000 0.000000 0.000000 0.000000 0.000000 0.000000 -116.903454 -8.338675 -18.096541 63.096546 -4.322131 -18.096541 -154.594534 2.186111 25.329838 -153.225015 -6.202596 -16.074804 37.136182 7.265365 -25.329838 -14.286382 -0.726536 4.381533
1340.823784 648.244128 153.657604 0.000000 0.000000 0.000000 0.000000 0.000000 0.000000 -116.932323 -0.791048 -19.645745 63.067677 -0.819412 -19.645745 -138.898656 0.637866 23.115397 35.335752 0.028689 -19.122720 -153.336856 -0.516443 -23.115397 2.206211 0.056683 4.524135
1330.023880 654.599032 159.746327 0.000000 0.000000 0.000000 0.000000 0.000000 0.000000 -112.150704 -10.980073 -19.960535 67.849296 6.629182 -19.960535 -118.798313 -0.839197 20.536413 -153.636372 -5.928289 -21.869059 16.691869 8.942971 -20.536413 -16.330813 -0.894297 4.648882
1337.431641 662.410698 165.244297 0.000000 0.000000 0.000000 0.000000 0.000000 0.000000 -109.111809 -1.353740 -19.021130 70.888191 0.429087 -19.021130 -91.144379 -0.751434 17.633558 -154.448144 -6.232722 -24.270510 10.298202 6.054541 -17.633558 6.642051 0.099160 4.755283
1324.339714 676.416593 147.391037 0.000000 0.000000 0.000000 0.000000 0.000000 0.000000 -104.120178 -4.751740 -16.886559 75.879822 7.100450 -16.886559 -57.095620 -1.636815 14.452610 38.799650 2.855963 -26.289200 -71.942639 -0.324731 -14.452610 8.831938 -0.418577 4.842916
962.890318 439.311049 146.883884 0.000000 0.000000 0.000000 0.000000 0.000000 0.000000 19.986963 -40.824733 -13.690942 180.000000 13.805811 -13.690942 24.297229 10.539159 11.043737 155.702771 20.609777 -27.893295 14.983342 -8.572880 -11.043737 18.000000 0.504437 4.911436
962.789911 439.279946 152.560702 0.000000 0.000000 0.000000 0.000000 0.000000 0.000000 20.089586 11.392238 -9.635073 180.000000 -2.854689 -9.635073 24.330184 -1.827082 7.460697 155.669816 -9.125614 -29.057495 14.926290 -5.132900 -7.460697 18.000000 0.303283 4.960574
641.318550 641.336324 147.959938 0.000000 0.000000 0.000000 0.000000 0.000000 0.000000 163.642929 -5.084364 -4.973798 -16.357071 -14.735161 -4.973798 -155.926011 0.078685 3.759997 -130.644608 -8.428086 -29.763441 68.679337 11.019780 -3.759997 -11.132066 -1.101978 4.990134
1305.385551 662.289033 139.808409 0.000000 0.000000 0.000000 0.000000 0.000000 0.000000 -81.949824 16.589848 -0.000000 98.050176 22.160565 -0.000000 9.536664 -3.909555 0.000000 -153.586691 -5.702109 -30.000000 24.402531 4.933164 -0.000000 -15.559747 -0.493316 5.000000
962.486899 439.186814 125.349604 0.000000 0.000000 0.000000 0.000000 0.000000 0.000000 20.465882 -15.407088 4.973798 180.000000 -6.151808 4.973798 24.357206 22.272969 -3.759997 155.642794 8.271712 -29.763441 14.800425 -6.656066 3.759997 18.000000 0.255882 4.990134
1216.314240 612.580640 137.436240 0.000000 0.000000 0.000000 0.000000 0.000000 0.000000 78.221991 -1.211629 9.635073 -101.778009 -1.505463 9.635073 46.689014 1.590041 -7.460697 -61.937558 -9.061094 -29.057495 44.546377 4.876324 7.460697 -10.771750 1.573757 4.960574
1273.897820 573.707514 127.439877 0.000000 0.000000 0.000000 0.000000 0.000000 0.000000 77.469628 8.941817 13.690942 -102.530372 -8.219340 13.690942 -155.691164 -4.992693 -11.043737 -120.750172 -0.865206 -27.893295 -156.229293 -6.146983 11.043737 2.162203 0.508945 4.911436
1337.358742 570.303276 114.107472 0.000000 0.000000 0.000000 0.000000 0.000000 0.000000 73.705918 1.610805 16.886559 -106.294082 -3.317086 16.886559 -155.918376 -5.045132 -14.452610 -149.887909 -5.023391 -26.289200 0.000000 0.000000 0.000000 0.000000 0.000000 0.000000
1342.446442 569.623497 105.159018 0.000000 0.000000 0.000000 0.000000 0.000000 0.000000 68.898287 1.602284 19.021130 -111.101713 7.341020 19.021130 39.314088 -0.946780 -17.633558 -140.912764 -2.301109 -24.270510 -153.216026 -5.176421 17.633558 2.759242 0.671555 4.755283
1335.759430 584.665475 108.647923 0.000000 0.000000 0.000000 0.000000 0.000000 0.000000 66.989329 1.476705 19.960535 -113.010671 5.635606 19.960535 -154.807077 -4.722483 -20.536413 -142.328055 4.513195 -21.869059 -153.049156 -6.120336 20.536413 2.866457 0.661594 4.648882
1337.950974 598.074245 91.724530 0.000000 0.000000 0.000000 0.000000 0.000000 0.000000 62.697633 -2.497946 19.645745 -117.302367 5.742982 19.645745 19.366736 -5.420006 -23.115397 -144.826223 -1.203662 -19.122720 9.911455 -0.294152 23.115397 -17.004209 0.223362 4.524135
1352.846489 601.043322 94.663979 0.000000 0.000000 0.000000 0.000000 0.000000 0.000000 59.083577 -11.291080 18.096541 -120.916423 -3.075361 18.096541 20.876734 5.993027 -25.329838 -142.301690 1.073606 -16.074804 13.356960 0.728078 25.329838 -16.821524 -0.005347 4.381533
1347.310982 587.475100 106.514168 0.000000 0.000000 0.000000 0.000000 0.000000 0.000000 56.169135 7.598721 15.410265 -123.830865 -10.104160 15.410265 21.172503 0.005625 -27.144812 -139.640745 -7.781800 -12.773379 14.641496 0.806880 27.144812 -16.282575 0.118320 4.221640
1326.982155 606.886139 86.254038 0.000000 0.000000 0.000000 0.000000 0.000000 0.000000 70.119981 1.927008 11.755705 -109.880019 5.158335 11.755705 26.511889 -4.211199 -28.531695 -111.264667 2.701205 -9.270510 31.153840 -0.885102 28.531695 -13.943905 0.167100 4.045085
1354.391098 626.185555 105.025500 0.000000 0.000000 0.000000 0.000000 0.000000 0.000000 88.154395 -6.887885 7.362491 -91.845605 2.231495 7.362491 30.442275 9.714052 -29.468618 -76.284233 3.902789 -5.621439 43.854867 -0.048605 29.468618 -10.818190 -0.038979 3.852566
1370.667114 610.219567 62.037841 0.000000 0.000000 0.000000 0.000000 0.000000 0.000000 89.945118 -12.013127 2.506665 -90.054882 9.242271 2.506665 44.053326 0.987846 -29.940802 -56.238091 1.276019 -1.883716 55.411270 2.540867 29.940802 -7.805659 -0.308576 3.644843
1372.834854 597.828534 55.417665 0.000000 0.000000 0.000000 0.000000 0.000000 0.000000 93.407992 8.331143 -2.506665 -86.592008 -4.365800 -2.506665 54.165845 -0.470740 -29.940802 -47.239220 -4.667193 1.883716 56.575186 4.803340 29.940802 -6.344474 -0.845705 3.422736
1336.554337 597.454848 73.096627 0.000000 0.000000 0.000000 0.000000 0.000000 0.000000 95.622643 -0.720895 -7.362491 -84.377357 6.605755 -7.362491 56.597780 -1.260519 -29.468618 -45.108662 4.438749 5.621439 55.386034 -4.307321 29.468618 -7.206870 0.291956 3.187120
1310.567093 590.844769 48.583770 0.000000 0.000000 0.000000 0.000000 0.000000 0.000000 100.193768 0.176174 -11.755705 -79.806232 9.306199 -11.755705 61.986347 -4.854004 -28.531695 -37.593815 1.650894 9.270510 62.907615 3.992212 28.531695 -6.637230 -0.236912 2.938926
1328.574371 576.493385 59.798006 0.000000 0.000000 0.000000 0.000000 0.000000 0.000000 101.943783 -5.523011 -15.410265 -78.056217 2.004551 -15.410265 61.902838 1.122993 -27.144812 -33.889586 5.064779 12.773379 55.760387 0.332582 27.144812 -7.097415 -0.444315 2.679134
1316.178360 595.500870 68.902633 0.000000 0.000000 0.000000 0.000000 0.000000 0.000000 103.792097 1.060547 -18.096541 -76.207903 0.967825 -18.096541 65.535198 -0.115226 -25.329838 -28.739437 -3.337056 16.074804 68.415337 5.461704 25.329838 -6.481753 0.304260 2.408768
1302.343140 568.138025 50.221146 0.000000 0.000000 0.000000 0.000000 0.000000 0.000000 101.222717 -9.173348 -19.645745 -78.777283 -3.051376 -19.645745 90.757296 3.319398 -23.115397 -18.578033 -0.926856 19.122720 97.909038 1.669491 23.115397 -5.050134 -0.098617 2.128896
1274.166183 540.660596 51.187107 0.000000 0.000000 0.000000 0.000000 0.000000 0.000000 -126.898591 -23.643314 -19.960535 53.101409 16.980529 -19.960535 127.276662 1.070159 -20.536413 8.808645 0.063217 21.869059 119.711272 5.465119 20.536413 -4.115393 -0.255171 1.840623
1268.557091 468.331075 43.302381 0.000000 0.000000 0.000000 0.000000 0.000000 0.000000 -124.112133 -6.875070 -19.021130 55.887867 -6.176338 -19.021130 163.344780 -0.203777 -17.633558 38.476068 -0.870289 24.270510 145.889074 1.068812 17.633558 -1.929933 0.125715 1.545085
1278.673096 454.375906 45.561792 0.000000 0.000000 0.000000 0.000000 0.000000 0.000000 -126.805061 2.229225 -16.886559 53.194939 1.462458 -16.886559 -174.009950 -0.570748 -14.452610 27.419224 3.872207 26.289200 168.192977 -3.352754 14.452610 -0.976267 0.054573 1.243449
1285.008774 434.700390 68.797978 0.000000 0.000000 0.000000 0.000000 0.000000 0.000000 -132.005120 0.772764 -13.690942 47.994880 -7.393803 -13.690942 -171.247775 4.210410 -11.043737 26.625253 -0.464174 27.893295 178.805957 1.003262 11.043737 0.023422 -0.230008 0.936907
1288.157730 426.987666 49.770159 0.000000 0.000000 0.000000 0.000000 0.000000 0.000000 -123.987926 4.418682 -9.635073 56.012074 -2.115387 -9.635073 -166.356219 -3.207434 -7.460697 35.716336 -2.140206 29.057495 -172.960762 -0.162112 7.460697 0.819533 0.067592 0.626666
1291.221657 420.425448 36.207215 0.000000 0.000000 0.000000 0.000000 0.000000 0.000000 -122.265643 -7.204638 -4.973798 57.734357 17.078952 -4.973798 -156.870161 -2.847083 -3.759997 38.220704 5.754379 29.763441 -165.716368 -0.665836 3.759997 1.405814 0.073130 0.313953
