HIERARCHY
ROOT Hips
{
    OFFSET 0.0 0.0 0.0
    CHANNELS 6 Xposition Yposition Zposition Zrotation Xrotation Yrotation
    JOINT Spine
    {
        OFFSET 0.0 5.0 0.0
        CHANNELS 3 Zrotation Xrotation Yrotation
        JOINT Chest
        {
            OFFSET 0.0 5.0 0.0
            CHANNELS 3 Zrotation Xrotation Yrotation
            JOINT Neck
            {
                OFFSET 0.0 8.0 0.0
                CHANNELS 3 Zrotation Xrotation Yrotation
                JOINT Head
                {
                    OFFSET 0.0 5.0 0.0
                    CHANNELS 3 Zrotation Xrotation Yrotation
                    End Site
                    {
                        OFFSET 0.0 3.0 0.0
                    }
                }
            }
            JOINT LeftShoulder
            {
                OFFSET -5.0 0.0 0.0
                CHANNELS 3 Zrotation Xrotation Yrotation
                JOINT LeftArm
                {
                    OFFSET 0.0 -10.0 0.0
                    CHANNELS 3 Zrotation Xrotation Yrotation
                    JOINT LeftForeArm
                    {
                        OFFSET 0.0 -10.0 0.0
                        CHANNELS 3 Zrotation Xrotation Yrotation
                        End Site
                        {
                            OFFSET 0.0 -3.0 0.0
                        }
                    }
                }
            }
        }
    }
}

MOTION
Frames: 300
Frame Time: 0.033333

960.000000 445.000000 103.910208 0.000000 0.000000 0.000000 0.000000 0.000000 0.000000 23.025492 -16.006897 0.000000 180.000000 11.204283 0.000000 21.801409 -7.870267 -0.000000 158.198591 6.170406 30.000000 15.945396 4.739192 0.000000 18.000000 -0.963247 0.000000
1691.525230 140.756605 92.007369 0.000000 0.000000 0.000000 0.000000 0.000000 0.000000 -163.376529 3.577451 4.973798 16.623471 4.992632 4.973798 -171.853121 -3.790416 3.759997 99.744051 -10.761278 29.763441 -171.126653 -3.461565 -3.759997 0.673538 0.412175 0.313953
1636.048050 128.802021 132.439470 0.000000 0.000000 0.000000 0.000000 0.000000 0.000000 157.904128 4.222891 9.635073 -22.095872 -6.978381 9.635073 -171.936471 -3.749779 7.460697 -143.675701 -2.902942 29.057495 -173.500805 -3.992671 -7.460697 0.570999 0.512411 0.626666
1578.156967 80.474526 133.108567 0.000000 0.000000 0.000000 0.000000 0.000000 0.000000 -139.519796 3.632233 13.690942 40.480204 -14.033697 13.690942 -174.507724 -3.321850 11.043737 119.111399 -3.285700 27.893295 -173.607258 -4.190621 -11.043737 0.461920 0.377180 0.936907
960.418757 444.998421 113.175049 0.000000 0.000000 0.000000 0.000000 0.000000 0.000000 25.077893 4.673912 16.886559 180.000000 -16.731486 16.886559 23.861935 23.120946 14.452610 156.138065 -3.074042 26.289200 17.903699 -0.538822 -14.452610 18.000000 -0.148253 1.243449
960.523360 444.997533 125.921099 0.000000 0.000000 0.000000 0.000000 0.000000 0.000000 25.638906 -28.130302 19.021130 180.000000 2.341087 19.021130 24.425035 -5.527187 17.633558 155.574965 6.946864 24.270510 18.452907 5.453251 -17.633558 18.000000 -0.372979 1.545085
960.627905 444.996447 119.395208 0.000000 0.000000 0.000000 0.000000 0.000000 0.000000 26.219073 -35.572117 19.960535 180.000000 4.960340 19.960535 25.006291 5.628652 20.536413 154.993709 15.002461 21.869059 19.024920 -11.424783 -20.536413 18.000000 0.917613 1.840623
1126.242828 420.359820 128.866752 0.000000 0.000000 0.000000 0.000000 0.000000 0.000000 31.410514 -1.356930 19.645745 -148.589486 -1.049025 19.645745 32.280463 -2.734486 23.115397 -131.603972 -2.626933 19.122720 45.585331 0.371914 -23.115397 -13.449727 -0.063870 2.128896
1257.895088 650.549197 140.860833 0.000000 0.000000 0.000000 0.000000 0.000000 0.000000 25.073180 12.626223 18.096541 -154.926820 -22.373883 18.096541 46.260945 5.927459 25.329838 -154.651428 -5.799601 16.074804 27.339487 5.477811 -25.329838 -13.619892 -0.436736 2.408768
960.941083 444.992008 157.569322 0.000000 0.000000 0.000000 0.000000 0.000000 0.000000 28.072001 -20.439630 15.410265 180.000000 7.251574 15.410265 26.849221 -2.468652 27.144812 153.150779 10.225152 12.773379 20.864045 -2.791689 -27.144812 18.000000 -0.026254 2.679134
1163.815842 547.748709 137.206409 0.000000 0.000000 0.000000 0.000000 0.000000 0.000000 117.162728 14.359197 11.755705 -62.837272 -7.697240 11.755705 102.363764 2.281274 28.531695 -47.376450 -1.140166 9.270510 104.768601 -0.035607 -28.531695 -6.003489 0.065065 2.938926
961.149372 444.988063 168.303204 0.000000 0.000000 0.000000 0.000000 0.000000 0.000000 29.395983 1.575230 7.362491 180.000000 -5.699479 7.362491 28.146217 -3.427886 29.468618 151.853783 -9.573622 5.621439 22.170006 -3.777726 -29.468618 18.000000 0.266563 3.187120
1136.717377 590.104480 142.156069 0.000000 0.000000 0.000000 0.000000 0.000000 0.000000 115.752126 -2.250155 2.506665 -64.247874 -2.037464 2.506665 73.638146 8.714240 29.940802 -21.842452 0.335378 1.883716 75.369282 -1.395354 -29.940802 -6.767207 -0.157615 3.422736
1163.079758 634.077559 148.841549 0.000000 0.000000 0.000000 0.000000 0.000000 0.000000 132.174340 -2.016248 -2.506665 -47.825660 4.139310 -2.506665 94.255711 0.477020 29.940802 -149.364979 -6.595483 -1.883716 30.021641 5.609402 -29.940802 -5.096180 -0.484448 3.644843
961.460830 444.980668 143.823353 0.000000 0.000000 0.000000 0.000000 0.000000 0.000000 31.497152 24.115853 -7.362491 180.000000 17.119448 -7.362491 30.152455 -16.029874 29.468618 149.847545 -8.682989 -5.621439 24.175589 0.594988 -29.468618 18.000000 -0.052480 3.852566
1097.449951 565.089898 168.243264 0.000000 0.000000 0.000000 0.000000 0.000000 0.000000 -119.219568 -6.554122 -11.755705 60.780432 5.557940 -11.755705 -150.180642 -6.475862 28.531695 48.804955 2.193992 -9.270510 -149.874178 -5.715108 -28.531695 2.713854 0.518970 4.045085
1114.140244 528.302071 172.849288 0.000000 0.000000 0.000000 0.000000 0.000000 0.000000 -142.671523 -2.694843 -15.410265 37.328477 2.321456 -15.410265 -177.395681 -2.828008 27.144812 34.687329 -0.428523 -12.773379 161.894167 -0.885836 -27.144812 -0.910956 0.079261 4.221640
1116.433640 479.728639 148.780114 0.000000 0.000000 0.000000 0.000000 0.000000 0.000000 -102.267481 -7.544876 -18.096541 77.732519 2.409411 -18.096541 -163.695626 7.150364 25.329838 38.575767 2.700193 -16.074804 -176.001122 2.217639 -25.329838 0.706594 -0.245351 4.381533
1135.931282 466.493965 145.745854 0.000000 0.000000 0.000000 0.000000 0.000000 0.000000 -112.868406 -12.344775 -19.645745 67.131594 12.185209 -19.645745 -159.517862 -1.913170 23.115397 36.204678 1.759502 -19.122720 -154.426613 -6.185554 -23.115397 2.428729 0.522595 4.524135
1141.618767 467.420679 155.211908 0.000000 0.000000 0.000000 0.000000 0.000000 0.000000 -123.086385 2.502301 -19.960535 56.913615 3.199339 -19.960535 -154.885724 -0.856963 20.536413 36.481623 -0.247781 -21.869059 -153.965441 -5.681006 -20.536413 2.446728 0.576060 4.648882
1150.647926 469.370956 149.545194 0.000000 0.000000 0.000000 0.000000 0.000000 0.000000 -43.953779 0.002455 -19.021130 136.046221 23.978920 -19.021130 -154.327268 -7.713116 17.633558 60.745168 -11.671431 -24.270510 -153.350642 -5.905832 -17.633558 2.386216 0.630404 4.755283
1151.529922 496.420240 138.569923 0.000000 0.000000 0.000000 0.000000 0.000000 0.000000 -116.362129 -6.995263 -16.886559 63.637871 4.847429 -16.886559 -149.081043 2.310121 14.452610 35.941860 0.492981 -26.289200 -156.847177 0.055093 -14.452610 2.056513 0.062602 4.842916
1148.402367 515.713574 145.975068 0.000000 0.000000 0.000000 0.000000 0.000000 0.000000 -118.252650 -1.046913 -13.690942 61.747350 -5.175789 -13.690942 -138.082896 5.711660 11.043737 -156.312677 -7.124322 -27.893295 21.649626 9.369152 -11.043737 2.962417 0.048835 4.911436
1175.363617 533.368646 147.227489 0.000000 0.000000 0.000000 0.000000 0.000000 0.000000 -95.476638 -23.739545 -9.635073 84.523362 20.885739 -9.635073 -113.907461 1.425099 7.460697 -155.995907 -5.699000 -29.057495 12.512064 9.788929 -7.460697 -16.748794 -0.978893 4.960574
1199.533310 485.991104 139.817009 0.000000 0.000000 0.000000 0.000000 0.000000 0.000000 -100.003195 8.045505 -4.973798 79.996805 -4.297208 -4.973798 -86.083188 -2.050244 3.759997 38.843754 -3.726964 -29.763441 -106.539452 -0.153465 -3.759997 6.197806 0.004178 4.990134
962.588190 444.938442 111.439134 0.000000 0.000000 0.000000 0.000000 0.000000 0.000000 39.579754 -21.580266 -0.000000 180.000000 -8.469090 -0.000000 36.680773 16.925099 0.000000 143.319227 -11.253347 -30.000000 29.388385 11.427135 -0.000000 18.000000 -0.253686 5.000000
1142.094727 445.716287 134.668601 0.000000 0.000000 0.000000 0.000000 0.000000 0.000000 -140.228454 -23.175574 4.973798 39.771546 -34.203715 4.973798 -156.118008 -5.210193 -3.759997 3.479189 0.922520 -29.763441 -158.005660 -5.798703 3.759997 2.150019 0.485845 4.990134
1164.005928 424.847746 116.844665 0.000000 0.000000 0.000000 0.000000 0.000000 0.000000 -84.241076 24.762389 9.635073 95.758924 -2.403577 9.635073 -156.181584 -5.881274 -7.460697 166.928360 -6.427347 -29.057495 -154.947270 -5.848675 7.460697 2.644196 0.653121 4.960574
1124.208755 418.286655 126.937446 0.000000 0.000000 0.000000 0.000000 0.000000 0.000000 -117.427077 -1.915118 13.690942 62.572923 13.824687 13.690942 -155.943063 -5.401023 -11.043737 14.023837 6.829345 -27.893295 -157.382674 -5.200378 11.043737 2.188130 0.462049 4.911436
962.990408 444.917226 119.725702 0.000000 0.000000 0.000000 0.000000 0.000000 0.000000 42.110883 30.308600 16.886559 180.000000 -1.040364 16.886559 37.946959 -3.188616 -14.452610 142.053041 -5.214421 -26.289200 29.293612 -9.222431 14.452610 18.000000 0.630487 4.842916
963.090170 444.911436 100.266099 0.000000 0.000000 0.000000 0.000000 0.000000 0.000000 42.659200 -21.637820 19.021130 180.000000 23.391225 19.021130 38.119107 -5.734987 -17.633558 141.880893 2.080248 -24.270510 29.068887 5.773759 17.633558 18.000000 0.084344 4.755283
1186.646461 396.272757 112.708844 0.000000 0.000000 0.000000 0.000000 0.000000 0.000000 -72.847419 -34.619656 19.960535 107.152581 20.433876 19.960535 -156.703603 -4.642157 -20.536413 178.447294 16.440501 -21.869059 -157.212393 -5.337062 20.536413 1.964058 0.450276 4.648882
1313.051605 426.636125 103.223086 0.000000 0.000000 0.000000 0.000000 0.000000 0.000000 90.994869 -32.497071 19.645745 -89.005131 1.873074 19.645745 -160.515303 -4.119316 -23.115397 -153.248861 -0.484228 -19.122720 -159.640525 -4.496195 23.115397 0.000000 0.000000 0.000000
1347.999344 420.772226 82.850886 0.000000 0.000000 0.000000 0.000000 0.000000 0.000000 90.154351 2.917673 18.096541 -89.845649 0.405342 18.096541 -162.053401 -4.388465 -25.329838 -136.198880 3.465136 -16.074804 -160.991694 -5.599006 25.329838 0.000000 0.000000 0.000000
1344.315948 421.031681 78.763916 0.000000 0.000000 0.000000 0.000000 0.000000 0.000000 69.757587 -2.831694 15.410265 -110.242413 8.897408 15.410265 25.616746 -3.147985 -27.144812 -157.821005 -3.198883 -12.773379 17.214985 2.766548 27.144812 -16.704706 0.055134 4.221640
1350.307617 440.309436 79.887183 0.000000 0.000000 0.000000 0.000000 0.000000 0.000000 71.124018 0.308289 11.755705 -108.875982 -11.482389 11.755705 42.739987 6.178346 -28.531695 -142.315466 -0.484364 -9.270510 16.600926 -0.406083 28.531695 -16.660102 -0.216718 4.045085
1357.685051 430.688889 72.070466 0.000000 0.000000 0.000000 0.000000 0.000000 0.000000 77.656077 5.766923 7.362491 -102.343923 -6.605828 7.362491 39.407151 -9.038825 -29.468618 -136.343173 -4.235533 -5.621439 22.144452 2.062624 29.468618 -16.305135 0.098997 3.852566
1369.482193 445.909406 87.257840 0.000000 0.000000 0.000000 0.000000 0.000000 0.000000 88.051188 -12.314214 2.506665 -91.948812 0.310460 2.506665 -161.283973 -2.806878 -29.940802 -119.799169 4.947352 -1.883716 -164.575400 -3.929789 29.940802 1.401013 0.374140 3.644843
963.875156 444.858159 66.744898 0.000000 0.000000 0.000000 0.000000 0.000000 0.000000 45.304844 -32.393929 -2.506665 180.000000 13.412448 -2.506665 37.252439 -11.035082 -29.940802 142.747561 -7.506581 1.883716 25.146244 13.762470 29.940802 18.000000 -0.440649 3.422736
963.971479 444.850633 60.605521 0.000000 0.000000 0.000000 0.000000 0.000000 0.000000 45.383640 7.055783 -7.362491 180.000000 -10.666628 -7.362491 36.882310 -7.970449 -29.468618 143.117690 -13.875625 5.621439 24.499789 -0.578099 29.468618 18.000000 0.280644 3.187120
1336.629524 469.010178 60.542473 0.000000 0.000000 0.000000 0.000000 0.000000 0.000000 -72.390177 6.571830 -11.755705 107.609823 -35.028613 -11.755705 -158.649984 -2.062798 -28.531695 2.583425 1.499036 9.270510 -39.658551 -15.084740 28.531695 10.837181 1.823103 2.938926
1311.966934 518.219100 63.848506 0.000000 0.000000 0.000000 0.000000 0.000000 0.000000 -63.565072 -36.697842 -15.410265 116.434928 20.320018 -15.410265 -14.840750 2.773214 -27.144812 -158.549348 -2.118462 12.773379 17.488774 2.228704 27.144812 7.174982 -3.353939 2.679134
964.257793 444.826908 46.270967 0.000000 0.000000 0.000000 0.000000 0.000000 0.000000 45.262206 -27.897046 -18.096541 180.000000 16.641436 -18.096541 35.497192 -11.432025 -25.329838 144.502808 11.276595 16.074804 22.522929 -0.914276 25.329838 18.000000 -0.217145 2.408768
1275.921364 516.836239 59.593628 0.000000 0.000000 0.000000 0.000000 0.000000 0.000000 85.186295 -2.005903 -19.645745 -94.813705 0.560354 -19.645745 52.470689 -2.436783 -23.115397 -44.513683 1.230860 19.122720 50.867598 -4.148313 23.115397 -8.717188 0.195603 2.128896
1263.254128 546.875424 50.456526 0.000000 0.000000 0.000000 0.000000 0.000000 0.000000 34.848242 54.137110 -19.960535 -145.151758 -54.233841 -19.960535 42.487561 77.422903 -20.536413 -157.415675 -2.865701 21.869059 22.420880 2.713455 20.536413 -15.757912 -0.271345 1.840623
1258.788185 528.263061 55.093770 0.000000 0.000000 0.000000 0.000000 0.000000 0.000000 118.326865 -2.200720 -19.021130 -61.673135 5.082627 -19.021130 143.214759 -5.732122 -17.633558 -156.228306 -2.432955 24.270510 28.173554 2.421297 17.633558 -15.182645 -0.242130 1.545085
1231.492081 471.383836 52.335726 0.000000 0.000000 0.000000 0.000000 0.000000 0.000000 -115.049381 -8.915575 -16.886559 64.950619 -0.208037 -16.886559 172.843704 3.760898 -14.452610 -157.842300 -2.039906 26.289200 32.851042 2.933602 14.452610 -14.714896 -0.293360 1.243449
1223.928795 435.993515 53.341591 0.000000 0.000000 0.000000 0.000000 0.000000 0.000000 -115.322532 -1.818249 -13.690942 64.677468 -13.965973 -13.690942 -168.597862 2.313309 -11.043737 -158.853816 -2.521564 27.893295 31.099266 3.044691 11.043737 -14.890073 -0.304469 0.936907
1223.669701 418.195664 40.699889 0.000000 0.000000 0.000000 0.000000 0.000000 0.000000 -102.084053 -4.068409 -9.635073 77.915947 9.847295 -9.635073 -171.103858 1.320344 -7.460697 162.056334 -0.344619 29.057495 -153.594437 -3.012670 7.460697 2.968481 0.336103 0.626666
1216.486244 414.503002 46.846246 0.000000 0.000000 0.000000 0.000000 0.000000 0.000000 69.261091 56.238029 -4.973798 -110.738909 -49.426896 -4.973798 -158.083722 -1.809826 -3.759997 -173.244581 -2.958817 29.763441 -154.635509 -2.968686 3.759997 2.928763 0.377628 0.313953
1212.090225 434.550980 48.082174 0.000000 0.000000 0.000000 0.000000 0.000000 0.000000 -112.403932 15.242213 0.000000 67.596068 -3.679129 0.000000 -157.060799 -3.085170 -0.000000 173.400765 -9.642670 30.000000 -154.473580 -2.311362 0.000000 2.734633 0.312297 0.000000
1214.024734 450.340490 53.098967 0.000000 0.000000 0.000000 0.000000 0.000000 0.000000 -110.634751 6.319284 4.973798 69.365249 -8.367421 4.973798 -137.583343 2.697986 3.759997 -158.589698 -2.808222 29.763441 20.879446 3.405042 -3.759997 -15.912055 -0.340504 0.313953
1204.271393 440.192921 56.582538 0.000000 0.000000 0.000000 0.000000 0.000000 0.000000 -99.498286 12.809310 9.635073 80.501714 -11.052308 9.635073 -156.696469 -2.647236 7.460697 -178.487725 1.251792 29.057495 -157.318323 -3.291429 -7.460697 2.108583 0.289195 0.626666
965.269558 444.725315 63.924353 0.000000 0.000000 0.000000 0.000000 0.000000 0.000000 40.845461 20.544262 13.690942 180.000000 -27.476657 13.690942 28.615377 7.747627 11.043737 151.384623 -10.693704 27.893295 16.305092 2.085681 -11.043737 18.000000 -0.047644 0.936907
1182.456551 475.103824 70.122604 0.000000 0.000000 0.000000 0.000000 0.000000 0.000000 -168.146016 -8.112717 16.886559 11.853984 -82.639125 16.886559 -63.802645 6.000705 14.452610 -61.114510 -0.639955 26.289200 -47.869281 -1.217286 -14.452610 -13.834956 7.920812 1.243449
965.446390 444.704404 71.397175 0.000000 0.000000 0.000000 0.000000 0.000000 0.000000 39.578146 -50.224354 19.021130 180.000000 19.639736 19.021130 27.338029 3.112190 17.633558 152.661971 14.751213 24.270510 15.463180 -1.163997 -17.633558 18.000000 -0.573219 1.545085
965.533915 444.693669 81.596542 0.000000 0.000000 0.000000 0.000000 0.000000 0.000000 38.916706 0.797562 19.960535 180.000000 -13.726942 19.960535 26.716768 7.597981 20.536413 153.283232 -15.860629 21.869059 15.076605 10.345243 -20.536413 18.000000 0.238354 1.840623
965.620834 444.682749 58.433506 0.000000 0.000000 0.000000 0.000000 0.000000 0.000000 38.241653 42.393056 19.645745 180.000000 -15.260779 19.645745 26.109467 2.259167 23.115397 153.890533 -5.382255 19.122720 14.712258 -1.418819 -23.115397 18.000000 -0.241044 2.128896
965.707136 444.671645 77.933061 0.000000 0.000000 0.000000 0.000000 0.000000 0.000000 37.556504 -8.786180 18.096541 180.000000 24.735488 18.096541 25.517536 -2.030212 25.329838 154.482464 10.255865 16.074804 14.369537 4.494049 -25.329838 18.000000 -0.711874 2.408768
965.792812 444.660356 72.592295 0.000000 0.000000 0.000000 0.000000 0.000000 0.000000 36.864608 6.859839 15.410265 180.000000 5.025296 15.410265 24.942131 -9.586410 27.144812 155.057869 -17.525061 12.773379 14.047797 8.365850 -27.144812 18.000000 0.113813 2.679134
965.877853 444.648882 84.287941 0.000000 0.000000 0.000000 0.000000 0.000000 0.000000 36.169118 -42.886527 11.755705 180.000000 16.544551 11.755705 24.384173 3.631679 28.531695 155.615827 12.265405 9.270510 13.746367 1.428049 -28.531695 18.000000 -0.304574 2.938926
965.962249 444.637226 82.786413 0.000000 0.000000 0.000000 0.000000 0.000000 0.000000 35.472980 20.497236 7.362491 180.000000 -2.602804 7.362491 23.844373 5.537797 29.468618 156.155627 1.366750 5.621439 13.464570 -0.798429 -29.468618 18.000000 -0.649667 3.187120
966.045991 444.625386 96.558436 0.000000 0.000000 0.000000 0.000000 0.000000 0.000000 34.778913 14.684283 2.506665 180.000000 -7.401630 2.506665 23.323250 -2.013606 29.940802 156.676750 -1.923512 1.883716 13.201728 0.638551 -29.940802 18.000000 -0.487301 3.422736
966.129071 444.613364 123.596050 0.000000 0.000000 0.000000 0.000000 0.000000 0.000000 34.089406 42.305013 -2.506665 180.000000 -12.940554 -2.506665 22.821158 8.872183 29.940802 157.178842 -3.997688 -1.883716 12.957175 -2.951315 -29.940802 18.000000 0.176308 3.644843
966.211478 444.601159 113.886534 0.000000 0.000000 0.000000 0.000000 0.000000 0.000000 33.406712 -2.660845 -7.362491 180.000000 -12.751376 -7.362491 22.338307 6.740849 29.468618 157.661693 -6.437321 -5.621439 12.730264 -1.519721 -29.468618 18.000000 -0.005906 3.852566
1171.486244 534.946783 107.921987 0.000000 0.000000 0.000000 0.000000 0.000000 0.000000 70.594720 0.651826 -11.755705 -109.405280 0.081784 -11.755705 49.953444 -4.041832 28.531695 -151.467583 -5.300913 -9.270510 0.000000 0.000000 0.000000 0.000000 0.000000 0.000000
966.374240 444.576206 108.547400 0.000000 0.000000 0.000000 0.000000 0.000000 0.000000 32.069603 7.129838 -15.410265 180.000000 -1.037709 -15.410265 21.430544 -5.462174 27.144812 158.569456 -9.019829 -12.773379 12.326901 4.723639 -27.144812 18.000000 0.041171 4.221640
1172.156410 555.047708 114.008928 0.000000 0.000000 0.000000 0.000000 0.000000 0.000000 -121.065102 24.757166 -18.096541 58.934898 2.419296 -18.096541 -151.641456 -6.290354 25.329838 -177.360623 -8.258570 -16.074804 -149.076048 -6.014172 -25.329838 0.000000 0.000000 0.000000
1161.826630 552.360713 131.372960 0.000000 0.000000 0.000000 0.000000 0.000000 0.000000 69.958407 -37.786121 -19.645745 -110.041593 42.852811 -19.645745 -152.437496 -6.071181 23.115397 -158.790607 5.134956 -19.122720 -150.591725 -7.001710 -23.115397 3.219062 0.780586 4.524135
1165.827255 569.832902 119.377418 0.000000 0.000000 0.000000 0.000000 0.000000 0.000000 25.594208 -2.413299 -19.960535 -154.405792 19.428687 -19.960535 11.723883 -0.804981 20.536413 -161.543160 3.971959 -21.869059 7.769582 -2.900967 -20.536413 -17.248199 0.227232 4.648882
1165.555573 565.067046 145.753560 0.000000 0.000000 0.000000 0.000000 0.000000 0.000000 43.355707 6.714632 -19.021130 -136.644293 -8.778880 -19.021130 15.984329 7.487854 17.633558 -140.773833 0.206025 -24.270510 13.679449 1.747772 -17.633558 -16.392157 -0.197767 4.755283
1290.255775 608.533316 139.956840 0.000000 0.000000 0.000000 0.000000 0.000000 0.000000 -153.952071 -18.102332 -16.886559 26.047929 -14.947476 -16.886559 -152.683807 -5.135298 14.452610 4.794196 2.020102 -26.289200 -154.287190 -5.673817 -14.452610 2.418080 0.519654 4.842916
1180.398903 551.817470 130.170656 0.000000 0.000000 0.000000 0.000000 0.000000 0.000000 51.640104 -16.215576 -13.690942 -128.359896 10.612973 -13.690942 14.419400 -3.923007 11.043737 -33.521359 -3.114429 -27.893295 -34.277510 8.677189 -11.043737 5.235387 2.005733 4.911436
1162.708626 619.419501 171.186000 0.000000 0.000000 0.000000 0.000000 0.000000 0.000000 -88.968325 14.443579 -9.635073 91.031675 -26.990551 -9.635073 -52.690088 -0.045853 7.460697 25.015222 -2.993509 -29.057495 -72.561734 1.823546 -7.460697 8.557489 -0.395776 4.960574
1110.899391 602.919216 144.310331 0.000000 0.000000 0.000000 0.000000 0.000000 0.000000 -86.972237 6.674930 -4.973798 93.027763 -6.471599 -4.973798 -39.551144 -1.167999 3.759997 34.838085 -2.803459 -29.763441 -44.185810 -3.651914 -3.759997 10.000609 0.981352 4.990134
1150.187302 553.686991 142.656636 0.000000 0.000000 0.000000 0.000000 0.000000 0.000000 -116.065142 2.420152 -0.000000 63.934858 5.033552 -0.000000 -151.059314 -6.739794 0.000000 -0.492058 -0.090026 -30.000000 -14.044098 -8.249779 -0.000000 1.929760 2.313749 5.000000
967.144727 444.440682 151.869498 0.000000 0.000000 0.000000 0.000000 0.000000 0.000000 26.270296 -6.445097 4.973798 180.000000 8.054430 4.973798 17.996647 4.559768 -3.759997 162.003353 5.448212 -29.763441 11.189167 -7.521017 3.759997 18.000000 0.648638 4.990134
1213.452644 620.002785 144.635970 0.000000 0.000000 0.000000 0.000000 0.000000 0.000000 140.390379 31.522461 9.635073 -39.609621 -10.867060 9.635073 77.724607 9.002526 -7.460697 -153.982965 -7.081070 -29.057495 24.142749 5.430954 7.460697 -0.833727 0.784057 4.960574
1124.373779 618.464527 150.689659 0.000000 0.000000 0.000000 0.000000 0.000000 0.000000 99.329635 -24.899985 13.690942 -80.670365 12.953550 13.690942 85.960927 2.819331 -11.043737 -150.875293 -6.616973 -27.893295 31.644098 6.148691 11.043737 -14.835590 -0.614869 4.911436
967.360971 444.396582 136.756177 0.000000 0.000000 0.000000 0.000000 0.000000 0.000000 24.874716 -3.353795 16.886559 180.000000 -4.364354 16.886559 17.291102 7.862386 -14.452610 162.708898 -5.563175 -26.289200 11.098846 1.240459 14.452610 18.000000 -0.026098 4.842916
1107.875175 542.453964 141.620609 0.000000 0.000000 0.000000 0.000000 0.000000 0.000000 -128.741314 -8.854618 19.021130 51.258686 3.318233 19.021130 -177.225595 -0.340493 -17.633558 19.954750 5.157789 -24.270510 162.677362 -2.161291 17.633558 -1.443098 0.197548 4.755283
1119.652290 522.766346 140.351149 0.000000 0.000000 0.000000 0.000000 0.000000 0.000000 -99.017754 -17.944149 19.960535 80.982246 7.739084 19.960535 -150.289603 -6.919245 -20.536413 -152.613833 -6.737488 -21.869059 0.000000 0.000000 0.000000 0.000000 0.000000 0.000000
1132.908783 538.229613 144.095994 0.000000 0.000000 0.000000 0.000000 0.000000 0.000000 -127.874185 -7.218826 19.645745 52.125815 6.663858 19.645745 -165.450188 -0.319675 -23.115397 -152.521515 -6.754004 -19.122720 40.606225 8.977892 23.115397 -13.939378 -0.897789 4.524135
1146.969337 541.828065 153.931220 0.000000 0.000000 0.000000 0.000000 0.000000 0.000000 -113.631604 0.314289 18.096541 66.368396 -11.307029 18.096541 -159.067475 12.875645 -25.329838 113.981862 1.604560 -16.074804 -145.449815 -7.435308 25.329838 0.000000 0.000000 0.000000
1165.252304 561.329677 129.400307 0.000000 0.000000 0.000000 0.000000 0.000000 0.000000 -112.861399 -7.756176 15.410265 67.138601 3.057786 15.410265 -159.396543 5.758785 -27.144812 -151.967552 -5.967781 -12.773379 38.422588 9.467143 27.144812 -14.157741 -0.946714 4.221640
1174.726181 592.839689 119.042336 0.000000 0.000000 0.000000 0.000000 0.000000 0.000000 -110.369899 6.818714 11.755705 69.630101 -11.243788 11.755705 -148.108768 8.263888 -28.531695 -151.515612 -6.925349 -9.270510 34.277732 9.514625 28.531695 -14.572227 -0.951462 4.045085
1167.352524 605.194867 118.082994 0.000000 0.000000 0.000000 0.000000 0.000000 0.000000 -113.828445 3.785437 7.362491 66.171555 -7.844876 7.362491 -131.688453 -0.251486 -29.468618 -151.045756 -7.087192 -5.621439 27.200835 8.329914 29.468618 -15.279916 -0.832991 3.852566
1139.678879 602.981014 120.689921 0.000000 0.000000 0.000000 0.000000 0.000000 0.000000 -97.599684 -7.489165 2.506665 82.400316 -14.496568 2.506665 -113.965806 7.344382 -29.940802 -121.058781 -1.228577 -1.883716 -118.492407 1.649521 29.940802 10.137620 3.436068 3.644843
1165.830002 580.020189 130.730510 0.000000 0.000000 0.000000 0.000000 0.000000 0.000000 -28.085052 24.996798 -2.506665 151.914948 34.007268 -2.506665 -150.589103 -6.852094 -29.940802 -172.678414 -6.541704 1.883716 -149.717924 -5.871133 29.940802 0.000000 0.000000 0.000000
1184.501953 619.872494 127.234717 0.000000 0.000000 0.000000 0.000000 0.000000 0.000000 -113.790307 20.334754 -7.362491 66.209693 6.156515 -7.362491 -59.272274 -13.501801 -29.468618 29.476823 -7.297792 5.621439 -88.148483 0.437636 29.468618 7.414604 0.106799 3.187120
968.090170 444.221640 119.801700 0.000000 0.000000 0.000000 0.000000 0.000000 0.000000 21.092887 14.154403 -11.755705 180.000000 -13.208329 -11.755705 15.757771 9.469477 -28.531695 164.242229 -4.170275 9.270510 11.678908 -0.674932 28.531695 18.000000 -0.282155 2.938926
968.151278 444.204723 104.362728 0.000000 0.000000 0.000000 0.000000 0.000000 0.000000 20.844337 27.569070 -15.410265 180.000000 -17.280647 -15.410265 15.691895 4.379658 -27.144812 164.308105 -8.005341 12.773379 11.804629 1.957926 27.144812 18.000000 -0.622347 2.679134
968.211492 444.187640 108.881252 0.000000 0.000000 0.000000 0.000000 0.000000 0.000000 20.610265 18.186401 -18.096541 180.000000 -14.815371 -18.096541 15.637361 11.016477 -25.329838 164.362639 -3.490851 16.074804 11.943263 -1.190148 25.329838 18.000000 0.493909 2.408768
968.270806 444.170392 109.891415 0.000000 0.000000 0.000000 0.000000 0.000000 0.000000 20.390366 -10.145280 -19.645745 180.000000 7.697232 -19.645745 15.594026 -8.426086 -23.115397 164.405974 2.560651 19.122720 12.095062 -10.442096 23.115397 18.000000 1.218014 2.128896
968.329212 444.152979 89.466393 0.000000 0.000000 0.000000 0.000000 0.000000 0.000000 20.184343 -6.467480 -19.960535 180.000000 -7.053765 -19.960535 15.561766 -1.820229 -20.536413 164.438234 -5.149165 21.869059 12.260289 2.671795 20.536413 18.000000 -0.390955 1.840623
968.386706 444.135403 90.295417 0.000000 0.000000 0.000000 0.000000 0.000000 0.000000 19.991916 -3.062903 -19.021130 180.000000 2.985287 -19.021130 15.540476 4.348857 -17.633558 164.459524 4.020617 24.270510 12.439222 -3.585582 17.633558 18.000000 0.083118 1.545085
968.443279 444.117663 89.414381 0.000000 0.000000 0.000000 0.000000 0.000000 0.000000 19.812814 1.776948 -16.886559 180.000000 -2.318862 -16.886559 15.530069 2.100496 -14.452610 164.469931 3.980213 26.289200 12.632146 -4.179517 14.452610 18.000000 0.051062 1.243449
968.498927 444.099761 91.446892 0.000000 0.000000 0.000000 0.000000 0.000000 0.000000 19.646785 7.463373 -13.690942 180.000000 -9.564204 -13.690942 15.530474 12.739758 -11.043737 164.469526 3.132741 27.893295 12.839349 -0.150491 11.043737 18.000000 -0.125423 0.936907
968.553643 444.081696 92.593540 0.000000 0.000000 0.000000 0.000000 0.000000 0.000000 19.493591 -24.638126 -9.635073 180.000000 14.700475 -9.635073 15.541640 -7.370964 -7.460697 164.458360 8.746755 29.057495 13.061119 0.911077 7.460697 18.000000 -0.549295 0.626666
1051.772690 653.004448 72.514848 0.000000 0.000000 0.000000 0.000000 0.000000 0.000000 -79.007834 -7.468279 -4.973798 100.992166 0.080167 -4.973798 -126.715299 3.823265 -3.759997 -149.991181 -4.164192 29.763441 31.772279 5.966666 3.759997 -14.822772 -0.596667 0.313953
1061.669197 624.716241 75.374181 0.000000 0.000000 0.000000 0.000000 0.000000 0.000000 -94.718359 -2.066790 0.000000 85.281641 4.516784 0.000000 -144.150484 -5.283765 -0.000000 60.155085 3.606985 30.000000 -152.711462 -1.126677 0.000000 1.815393 0.098060 0.000000
1072.053337 571.032879 65.004690 0.000000 0.000000 0.000000 0.000000 0.000000 0.000000 71.424080 4.418094 4.973798 -108.575920 20.667294 4.973798 -149.042361 -4.107595 3.759997 -149.913636 3.844893 29.763441 -145.792107 -4.068547 -3.759997 3.947623 0.466783 0.313953
1070.057373 572.884376 59.629817 0.000000 0.000000 0.000000 0.000000 0.000000 0.000000 -80.850201 -42.932505 9.635073 99.149799 29.794680 9.635073 -147.567525 -3.070925 7.460697 -164.443014 6.402275 29.057495 -145.447997 -4.217846 -7.460697 4.032371 0.468279 0.626666
968.813035 443.988972 74.114582 0.000000 0.000000 0.000000 0.000000 0.000000 0.000000 18.912944 12.608102 13.690942 180.000000 -11.782577 13.690942 15.758200 -2.090614 11.043737 164.241800 -4.951714 27.893295 14.397395 1.405840 -11.043737 18.000000 -0.595904 0.936907
968.862036 443.969952 60.977544 0.000000 0.000000 0.000000 0.000000 0.000000 0.000000 18.832684 -9.057415 16.886559 180.000000 -3.896505 16.886559 15.833735 2.636859 14.452610 164.166265 -1.249324 26.289200 14.711463 -3.140648 -14.452610 18.000000 -0.088053 1.243449
968.910065 443.950775 50.059238 0.000000 0.000000 0.000000 0.000000 0.000000 0.000000 18.764066 30.962160 19.021130 180.000000 -3.615830 19.021130 15.920102 -6.592887 17.633558 164.079898 -2.192159 24.270510 15.041323 -5.879572 -17.633558 18.000000 -0.040036 1.545085
968.957118 443.931442 53.513911 0.000000 0.000000 0.000000 0.000000 0.000000 0.000000 18.706990 28.192174 19.960535 180.000000 -2.346116 19.960535 16.017366 -3.778382 20.536413 163.982634 -9.558890 21.869059 15.386894 -2.664909 -20.536413 18.000000 1.461664 1.840623
969.003188 443.911954 54.590245 0.000000 0.000000 0.000000 0.000000 0.000000 0.000000 18.661377 7.221541 19.645745 180.000000 -1.066867 19.645745 16.125602 4.888194 23.115397 163.874398 2.984231 19.122720 15.747980 -4.406316 -23.115397 18.000000 0.713551 2.128896
969.048271 443.892312 61.716595 0.000000 0.000000 0.000000 0.000000 0.000000 0.000000 18.627165 -5.596611 18.096541 180.000000 -0.384486 18.096541 16.244896 -8.802118 25.329838 163.755104 0.164708 16.074804 16.124252 -2.714655 -25.329838 18.000000 -0.217975 2.408768
969.092361 443.872515 52.055440 0.000000 0.000000 0.000000 0.000000 0.000000 0.000000 18.604312 -10.810892 15.410265 180.000000 -0.717058 15.410265 16.375340 -5.557054 27.144812 163.624660 1.212455 12.773379 16.515224 -3.810106 -27.144812 18.000000 0.694186 2.679134
1055.186234 577.357593 65.874788 0.000000 0.000000 0.000000 0.000000 0.000000 0.000000 85.510211 -7.138221 11.755705 -94.489789 -1.693639 11.755705 37.103410 5.250533 28.531695 -148.111343 -2.206275 9.270510 24.294182 2.193967 -28.531695 -8.601915 0.267668 2.938926
1122.856522 566.714029 34.831331 0.000000 0.000000 0.000000 0.000000 0.000000 0.000000 96.216240 1.945427 7.362491 -83.783760 3.944360 7.362491 46.189625 4.417719 29.468618 -149.396962 -2.223862 5.621439 24.670091 2.434011 -29.468618 -7.107716 -0.763194 3.187120
969.218632 443.812213 58.616956 0.000000 0.000000 0.000000 0.000000 0.000000 0.000000 18.603763 -4.889409 2.506665 180.000000 10.817934 2.506665 16.834613 -8.474283 29.940802 163.165387 -2.523015 1.883716 17.768624 5.637514 -29.940802 18.000000 0.286956 3.422736
1112.757797 605.798106 54.630379 0.000000 0.000000 0.000000 0.000000 0.000000 0.000000 110.914625 -2.704249 -2.506665 -69.085375 15.217842 -2.506665 67.769469 -17.614125 29.940802 -149.822316 -2.821842 -1.883716 29.049901 2.420945 -29.940802 -3.625079 -0.245212 3.644843
1086.733246 592.557156 60.494576 0.000000 0.000000 0.000000 0.000000 0.000000 0.000000 -80.132323 48.270592 -7.362491 99.867677 -40.615575 -7.362491 36.201564 3.329242 29.468618 -13.679556 2.457097 -5.621439 78.049842 -3.976545 -29.468618 -5.127460 0.075308 3.852566
1081.109390 570.394492 56.326232 0.000000 0.000000 0.000000 0.000000 0.000000 0.000000 -175.864613 1.197774 -11.755705 4.135387 7.809204 -11.755705 134.713876 4.284424 28.531695 -10.005873 2.106213 -9.270510 135.737755 -0.516497 -28.531695 -3.389365 -0.129549 4.045085
1089.776802 536.594539 67.161965 0.000000 0.000000 0.000000 0.000000 0.000000 0.000000 -139.033903 -2.817415 -15.410265 40.966097 -16.375912 -15.410265 161.695972 4.599855 27.144812 3.114398 -2.489343 -12.773379 148.805610 2.988326 -27.144812 -2.611636 -0.068136 4.221640
1114.282036 523.965647 60.030646 0.000000 0.000000 0.000000 0.000000 0.000000 0.000000 -156.073983 -2.815108 -18.096541 23.926017 5.104522 -18.096541 174.825807 -1.302075 25.329838 5.093343 -0.045995 -16.074804 161.266817 0.290671 -25.329838 -1.814366 0.135915 4.381533
1122.145157 503.425248 60.017806 0.000000 0.000000 0.000000 0.000000 0.000000 0.000000 -144.538174 3.307081 -19.645745 35.461826 3.683087 -19.645745 174.215003 3.287532 23.115397 -151.750905 -2.852148 -19.122720 43.887064 3.972453 -23.115397 -13.611294 -0.397245 4.524135
1134.158249 484.688419 70.800617 0.000000 0.000000 0.000000 0.000000 0.000000 0.000000 -142.311443 -4.791471 -19.960535 37.688557 -5.685280 -19.960535 -174.407776 4.428185 20.536413 14.121014 -7.018283 -21.869059 176.737053 4.623226 -20.536413 -0.386439 -0.179808 4.648882
1156.756668 500.025387 67.897397 0.000000 0.000000 0.000000 0.000000 0.000000 0.000000 -140.140767 1.832776 -19.021130 39.859233 -2.404649 -19.021130 -176.866589 -4.780336 17.633558 -153.177991 -3.797848 -24.270510 40.555680 5.308571 -17.633558 -13.944432 -0.530857 4.755283
1163.818588 490.292573 82.723053 0.000000 0.000000 0.000000 0.000000 0.000000 0.000000 -126.918075 -16.277433 -16.886559 53.081925 14.659362 -16.886559 -163.374411 -2.840995 14.452610 -153.952175 -3.130513 -26.289200 36.914642 4.540417 -14.452610 0.798233 0.077013 4.842916
1176.523705 490.346003 98.386139 0.000000 0.000000 0.000000 0.000000 0.000000 0.000000 -130.072590 7.523990 -13.690942 49.927410 0.243225 -13.690942 -150.224616 1.947038 11.043737 24.749952 -2.274399 -27.893295 -162.219632 2.165382 -11.043737 1.550269 -0.144029 4.911436
1165.045052 489.521159 82.223482 0.000000 0.000000 0.000000 0.000000 0.000000 0.000000 -134.421293 4.697168 -9.635073 45.578707 12.718862 -9.635073 -138.114962 -2.096267 7.460697 20.347125 1.328992 -29.057495 -149.675125 1.703747 -7.460697 1.919618 -0.137692 4.960574
1186.003189 485.341580 93.697249 0.000000 0.000000 0.000000 0.000000 0.000000 0.000000 151.263424 80.653424 -4.973798 -28.736576 -28.614075 -4.973798 -155.571724 -4.740135 3.759997 -114.944239 1.428006 -29.763441 -157.446860 -5.072858 -3.759997 2.096391 0.509234 4.990134
1190.285912 497.609435 95.975450 0.000000 0.000000 0.000000 0.000000 0.000000 0.000000 -104.331435 -15.180197 -0.000000 75.668565 11.551582 -0.000000 -153.934692 -4.725632 0.000000 -67.465008 1.197358 -30.000000 -71.629168 3.329922 -0.000000 -13.965204 3.978412 5.000000
846.875610 502.341399 112.457163 0.000000 0.000000 0.000000 0.000000 0.000000 0.000000 -153.358185 21.572609 4.973798 26.641815 2.962304 4.973798 -147.628169 -5.199895 -3.759997 -147.401289 -5.287293 -29.763441 0.000000 0.000000 0.000000 0.000000 0.000000 0.000000
969.711343 443.490827 86.867025 0.000000 0.000000 0.000000 0.000000 0.000000 0.000000 20.204512 27.876195 9.635073 180.000000 -12.706713 9.635073 20.733157 0.550414 -7.460697 159.266843 -9.911536 -29.057495 24.065833 6.669551 7.460697 18.000000 -1.431671 4.960574
969.735789 443.468267 95.868772 0.000000 0.000000 0.000000 0.000000 0.000000 0.000000 20.415894 -14.502098 13.690942 180.000000 5.459786 13.690942 21.087741 2.465790 -11.043737 158.912259 -0.314650 -27.893295 24.320336 9.169363 11.043737 18.000000 0.146224 4.911436
969.759168 443.445569 95.724445 0.000000 0.000000 0.000000 0.000000 0.000000 0.000000 20.642061 -1.441210 16.886559 180.000000 6.766303 16.886559 21.453029 -14.701315 -14.452610 158.546971 -0.133633 -26.289200 24.533304 0.459574 14.452610 18.000000 1.135635 4.842916
585.252171 514.469179 136.127538 0.000000 0.000000 0.000000 0.000000 0.000000 0.000000 74.723181 66.104599 19.021130 -105.276819 -1.270189 19.021130 119.807175 -8.978317 -17.633558 165.825978 -13.853822 -24.270510 138.012220 10.422388 17.633558 -12.357653 -0.619354 4.755283
624.843979 517.601860 138.618249 0.000000 0.000000 0.000000 0.000000 0.000000 0.000000 103.202449 -14.463281 19.960535 -76.797551 3.569474 19.960535 114.381580 -7.218103 -20.536413 -53.015473 45.939355 -21.869059 145.467160 -3.462777 20.536413 -4.173333 1.180131 4.648882
969.822873 443.376664 135.814608 0.000000 0.000000 0.000000 0.000000 0.000000 0.000000 21.413420 8.601959 19.645745 180.000000 -5.625806 19.645745 22.607712 11.253915 -23.115397 157.392288 0.886085 -19.122720 24.899813 2.190839 23.115397 18.000000 -2.141405 4.524135
969.841956 443.353428 139.982492 0.000000 0.000000 0.000000 0.000000 0.000000 0.000000 21.702987 -11.343288 18.096541 180.000000 -8.399250 18.096541 23.009909 21.958305 -25.329838 156.990091 8.299962 -16.074804 24.926562 -5.655426 25.329838 18.000000 0.816949 4.381533
969.859960 443.330059 143.465115 0.000000 0.000000 0.000000 0.000000 0.000000 0.000000 22.009579 29.320265 15.410265 180.000000 -10.720517 15.410265 23.419334 8.801356 -27.144812 156.580666 -5.522244 -12.773379 24.904993 3.066400 27.144812 18.000000 -0.546703 4.221640
594.905148 538.048757 129.518218 0.000000 0.000000 0.000000 0.000000 0.000000 0.000000 -57.080480 0.037946 11.755705 122.919520 0.750760 11.755705 -12.750556 6.010327 -28.531695 149.841027 14.530231 -9.270510 -8.274090 -0.201178 28.531695 17.596979 -0.328122 4.045085
969.892723 443.282929 135.217637 0.000000 0.000000 0.000000 0.000000 0.000000 0.000000 22.675903 20.457700 7.362491 180.000000 6.328627 7.362491 24.255612 -4.309142 -29.468618 155.744388 1.906782 -5.621439 24.720303 5.347546 29.468618 18.000000 -0.743448 3.852566
1257.001877 499.708382 147.804888 0.000000 0.000000 0.000000 0.000000 0.000000 0.000000 52.818511 -2.415005 2.506665 -127.181489 4.065908 2.506665 25.369497 0.774122 -29.940802 -143.914951 0.555477 -1.883716 14.556766 -1.306653 29.940802 -16.686776 0.239466 3.644843
1279.050064 493.773898 148.693577 0.000000 0.000000 0.000000 0.000000 0.000000 0.000000 56.685213 -7.054087 -2.506665 -123.314787 9.114742 -2.506665 24.065452 1.400938 -29.940802 -146.540317 4.232501 1.883716 13.097461 -0.371540 29.940802 -16.716891 0.078247 3.422736
1295.108986 477.099677 172.294366 0.000000 0.000000 0.000000 0.000000 0.000000 0.000000 65.723361 15.033264 -7.362491 -114.276639 -9.661185 -7.362491 23.725299 3.788580 -29.468618 -147.984281 -4.782523 5.621439 13.187557 1.952900 29.468618 -16.751134 -0.170797 3.187120
1289.065018 496.763316 158.718769 0.000000 0.000000 0.000000 0.000000 0.000000 0.000000 61.662232 0.358302 -11.755705 -118.337768 6.154539 -11.755705 31.397757 -3.609883 -28.531695 -148.047797 5.606480 9.270510 12.491083 -3.873780 28.531695 -16.898368 0.239957 2.938926
1285.337105 480.691112 158.125203 0.000000 0.000000 0.000000 0.000000 0.000000 0.000000 58.021980 1.094263 -15.410265 -121.978020 -7.079069 -15.410265 31.705930 -1.976693 -27.144812 -157.028684 -2.799505 12.773379 11.107306 1.700326 27.144812 -17.140016 -0.063453 2.679134
1276.453171 465.093691 153.553745 0.000000 0.000000 0.000000 0.000000 0.000000 0.000000 70.157145 -7.156207 -18.096541 -109.842855 9.989103 -18.096541 40.303764 -0.383979 -25.329838 -145.293609 -0.161698 16.074804 10.431204 -2.214269 25.329838 -17.100572 0.028283 2.408768
1253.658714 472.768564 152.801359 0.000000 0.000000 0.000000 0.000000 0.000000 0.000000 65.087926 -5.899758 -19.645745 -114.912074 25.564047 -19.645745 -157.680356 -7.622205 -23.115397 -137.727082 -3.401644 19.122720 -153.053596 8.978047 23.115397 -16.054219 -0.860480 2.128896
1366.101608 507.691247 147.959866 0.000000 0.000000 0.000000 0.000000 0.000000 0.000000 108.715100 -0.908122 -19.960535 -71.284900 12.285718 -19.960535 156.661132 -14.448771 -20.536413 -158.224303 -6.285662 21.869059 0.000000 0.000000 0.000000 0.000000 0.000000 0.000000
969.986295 443.064535 148.478260 0.000000 0.000000 0.000000 0.000000 0.000000 0.000000 26.662144 23.051484 -19.021130 180.000000 -3.516668 -19.021130 28.015351 -2.462147 -17.633558 151.984649 -20.866207 24.270510 22.068935 21.243773 17.633558 18.000000 -0.749896 1.545085
1282.107124 481.511257 137.713739 0.000000 0.000000 0.000000 0.000000 0.000000 0.000000 80.650781 -37.808748 -16.886559 -99.349219 10.805274 -16.886559 1.511604 -2.214122 -14.452610 -32.896908 -2.265621 26.289200 -7.727072 4.320596 14.452610 13.531851 0.804546 1.243449
1282.921486 484.777769 136.340199 0.000000 0.000000 0.000000 0.000000 0.000000 0.000000 -81.737646 -10.257829 -13.690942 98.262354 27.089434 -13.690942 -23.867101 -4.481421 -11.043737 12.655668 10.223451 27.893295 -29.454911 -7.260357 11.043737 9.861248 1.514345 0.936907
1290.933037 513.180238 144.840063 0.000000 0.000000 0.000000 0.000000 0.000000 0.000000 -91.387864 11.887063 -9.635073 88.612136 -9.783655 -9.635073 -41.685392 -4.280561 -7.460697 -161.156957 -6.562318 29.057495 15.157863 5.658380 7.460697 10.543436 -0.758574 0.626666
969.999452 442.964284 130.269005 0.000000 0.000000 0.000000 0.000000 0.000000 0.000000 29.025427 8.336855 -4.973798 180.000000 -2.782317 -4.973798 29.437993 3.622719 -3.759997 150.562007 -13.977034 29.763441 20.404746 20.439360 3.759997 18.000000 -0.020525 0.313953
970.000000 442.938926 154.709357 0.000000 0.000000 0.000000 0.000000 0.000000 0.000000 29.678605 1.543574 0.000000 180.000000 8.818652 0.000000 29.744881 2.861534 -0.000000 150.255119 -9.854481 30.000000 19.983107 3.237616 0.000000 18.000000 0.812921 0.000000
1354.522934 467.411410 120.996991 0.000000 0.000000 0.000000 0.000000 0.000000 0.000000 150.622570 -7.305111 4.973798 -29.377430 6.012556 4.973798 140.176400 -0.141271 3.759997 -12.221629 8.187144 29.763441 132.794256 -3.899052 -3.759997 -2.626015 -0.134548 0.313953
969.997807 442.887864 145.385656 0.000000 0.000000 0.000000 0.000000 0.000000 0.000000 31.061399 12.770804 9.635073 180.000000 6.984176 9.635073 30.285790 -13.234209 7.460697 149.714210 -1.252459 29.057495 19.151579 -1.623412 -7.460697 18.000000 0.095298 0.626666
1246.736984 514.278152 122.103031 0.000000 0.000000 0.000000 0.000000 0.000000 0.000000 143.557092 -16.137293 13.690942 -36.442908 1.956754 13.690942 133.761037 -1.654745 11.043737 -156.950665 -5.471353 27.893295 0.000000 0.000000 0.000000 1.928484 0.472292 0.936907
1245.221100 458.637464 132.229642 0.000000 0.000000 0.000000 0.000000 0.000000 0.000000 160.701064 28.435322 16.886559 -19.298936 10.567549 16.886559 140.193827 -13.033431 14.452610 -157.554825 -6.042467 26.289200 29.500467 5.205400 -14.452610 -15.049953 -0.520540 1.243449
1257.365570 418.514181 108.855300 0.000000 0.000000 0.000000 0.000000 0.000000 0.000000 -143.710676 6.408184 19.021130 36.289324 -0.363361 19.021130 163.220413 -0.157616 17.633558 11.688054 1.348892 24.270510 152.038385 -2.448275 -17.633558 -2.339948 0.183069 1.545085
1275.099564 408.163741 103.720191 0.000000 0.000000 0.000000 0.000000 0.000000 0.000000 -132.929531 -6.442001 19.960535 47.070469 0.626944 19.960535 173.491912 0.799263 20.536413 -160.709681 -4.973112 21.869059 33.138793 5.985229 -20.536413 -14.686121 -0.598523 1.840623
1290.611115 384.880857 87.368559 0.000000 0.000000 0.000000 0.000000 0.000000 0.000000 -132.705235 2.042673 19.645745 47.294765 -8.244326 19.645745 -173.778854 3.969749 23.115397 20.496835 -5.195303 19.122720 -161.220290 -3.670330 -23.115397 1.723235 0.362998 2.128896
1302.817154 380.305352 98.968155 0.000000 0.000000 0.000000 0.000000 0.000000 0.000000 -131.493915 3.392866 18.096541 48.506085 -4.943586 18.096541 -165.393697 1.256829 25.329838 23.154815 -3.642461 16.074804 -178.200316 1.419683 -25.329838 0.138141 0.021064 2.408768
1304.997711 379.563582 82.949535 0.000000 0.000000 0.000000 0.000000 0.000000 0.000000 -126.727972 0.757028 15.410265 53.272028 -3.570487 15.410265 -160.219593 1.327017 27.144812 28.448880 -3.192420 12.773379 -174.368770 -0.312764 -27.144812 0.079526 0.089437 2.679134
1311.668472 386.890390 70.972101 0.000000 0.000000 0.000000 0.000000 0.000000 0.000000 -122.308728 -14.927061 11.755705 57.691272 8.881436 11.755705 -158.801130 -2.824202 28.531695 150.942637 1.185056 9.270510 -154.878332 -4.179881 -28.531695 2.695409 0.512753 2.938926
1305.131836 395.180186 73.552652 0.000000 0.000000 0.000000 0.000000 0.000000 0.000000 -125.112810 4.601799 7.362491 54.887190 9.305813 7.362491 -146.487292 -5.821644 29.468618 -175.167369 4.107894 5.621439 -159.224034 -4.686488 -29.468618 1.782042 0.593507 3.187120
1296.320457 392.734526 62.332255 0.000000 0.000000 0.000000 0.000000 0.000000 0.000000 -131.035750 14.752263 2.506665 48.964250 -17.079906 2.506665 -128.969563 6.110307 29.940802 38.856147 -0.061855 1.883716 -134.776850 -0.936122 -29.940802 3.458429 -0.192110 3.422736
1306.963577 386.612041 71.623299 0.000000 0.000000 0.000000 0.000000 0.000000 0.000000 -124.469622 0.865481 -2.506665 55.530378 -5.836192 -2.506665 -109.994856 -0.078653 29.940802 37.691309 -4.298983 -1.883716 -118.274788 2.824810 -29.940802 5.098336 -0.145037 3.644843
969.892723 442.572198 57.398867 0.000000 0.000000 0.000000 0.000000 0.000000 0.000000 41.287575 8.054821 -7.362491 180.000000 0.488381 -7.362491 30.974696 -8.241915 29.468618 149.025304 -14.750781 -5.621439 15.072869 7.264305 -29.468618 18.000000 -0.291514 3.852566
969.876883 442.545207 66.643860 0.000000 0.000000 0.000000 0.000000 0.000000 0.000000 42.241956 19.714317 -11.755705 180.000000 5.286709 -11.755705 30.826133 -0.910831 28.531695 149.173867 -9.136633 -9.270510 14.823070 0.517364 -28.531695 18.000000 -0.040764 4.045085
969.859960 442.518116 62.431129 0.000000 0.000000 0.000000 0.000000 0.000000 0.000000 43.199779 -2.712040 -15.410265 180.000000 9.338942 -15.410265 30.649504 13.512259 27.144812 149.350496 -6.332837 -12.773379 14.587557 2.552310 -27.144812 18.000000 -0.029803 4.221640
969.841956 442.490926 62.839600 0.000000 0.000000 0.000000 0.000000 0.000000 0.000000 44.157210 -4.004077 -18.096541 180.000000 6.272609 -18.096541 30.446417 -7.344665 25.329838 149.553583 1.978344 -16.074804 14.366154 -3.918408 -25.329838 18.000000 0.343520 4.381533
969.822873 442.463637 60.105607 0.000000 0.000000 0.000000 0.000000 0.000000 0.000000 45.110117 -27.157720 -19.645745 180.000000 -0.665401 -19.645745 30.218633 3.511861 23.115397 149.781367 -2.385002 -19.122720 14.158653 9.103277 -23.115397 18.000000 -0.247964 4.524135
969.802712 442.436251 56.858969 0.000000 0.000000 0.000000 0.000000 0.000000 0.000000 46.054109 -25.355537 -19.960535 180.000000 10.966153 -19.960535 29.968037 8.270700 20.536413 150.031963 8.781266 -21.869059 13.964823 0.178438 -20.536413 18.000000 0.110555 4.648882
1187.040939 541.658249 51.008459 0.000000 0.000000 0.000000 0.000000 0.000000 0.000000 82.806623 30.218970 -19.021130 -97.193377 4.957485 -19.021130 45.395981 -4.117117 17.633558 -156.144455 -3.121884 -24.270510 0.000000 0.000000 0.000000 0.000000 0.000000 0.000000
1182.242889 522.024286 47.294133 0.000000 0.000000 0.000000 0.000000 0.000000 0.000000 -105.721938 -8.905300 -16.886559 74.278062 29.677924 -16.886559 -155.708006 -3.421654 14.452610 -157.302521 -2.316875 -26.289200 0.000000 0.000000 0.000000 2.684983 0.296661 4.842916
1180.914459 527.065626 57.667525 0.000000 0.000000 0.000000 0.000000 0.000000 0.000000 88.055617 0.898556 -13.690942 -91.944383 5.429410 -13.690942 -158.862018 -2.875369 11.043737 -151.747289 -1.969763 -27.893295 0.000000 0.000000 0.000000 0.000000 0.000000 0.000000
1236.800194 541.387432 63.646662 0.000000 0.000000 0.000000 0.000000 0.000000 0.000000 -85.588400 -5.236417 -9.635073 94.411600 17.894365 -9.635073 -159.297106 -8.627275 7.460697 -157.915391 -1.862625 -29.057495 26.607362 1.833397 -7.460697 14.926890 1.037686 4.960574
1161.066513 575.006626 46.380833 0.000000 0.000000 0.000000 0.000000 0.000000 0.000000 -81.021168 -18.058704 -4.973798 98.978832 11.301561 -4.973798 -102.851701 5.411713 3.759997 -157.041007 -1.160086 -29.763441 21.429890 2.763728 -3.759997 10.859432 -0.097998 4.990134
1255.636253 512.645942 54.150750 0.000000 0.000000 0.000000 0.000000 0.000000 0.000000 77.832564 -2.091105 -0.000000 -102.167436 4.184800 -0.000000 -158.264834 -2.518125 0.000000 -130.745502 4.567180 -30.000000 -157.699225 -3.326060 -0.000000 0.000000 0.000000 0.000000
1265.118484 521.473864 49.372517 0.000000 0.000000 0.000000 0.000000 0.000000 0.000000 64.078276 -3.296167 4.973798 -115.921724 7.028565 4.973798 41.397952 -3.309026 -3.759997 -139.329851 3.321462 -29.763441 20.223252 0.474455 3.759997 -16.047574 0.050344 4.990134
1228.099480 522.138258 57.420014 0.000000 0.000000 0.000000 0.000000 0.000000 0.000000 71.050901 -1.121627 9.635073 -108.949099 2.180204 9.635073 150.099970 5.224251 -7.460697 -139.894702 1.810085 -29.057495 -156.275691 -2.936570 7.460697 0.000000 0.000000 0.000000
1240.357246 528.695873 80.472554 0.000000 0.000000 0.000000 0.000000 0.000000 0.000000 65.413351 -4.719117 13.690942 -114.586649 13.585617 13.690942 147.242328 3.563875 -11.043737 -154.470720 -1.595359 -27.893295 25.557225 3.294902 11.043737 -15.444278 -0.329490 4.911436
1231.815262 551.380248 42.941576 0.000000 0.000000 0.000000 0.000000 0.000000 0.000000 56.412506 6.462750 16.886559 -123.587494 -1.521245 16.886559 -153.392336 0.271162 -14.452610 -154.784582 -2.466912 -26.289200 24.191555 4.368963 14.452610 -15.580844 -0.436896 4.842916
1221.475182 508.360147 67.525811 0.000000 0.000000 0.000000 0.000000 0.000000 0.000000 77.450622 -13.249779 19.021130 -102.549378 11.027069 19.021130 -156.789784 -2.991651 -17.633558 -125.590168 3.356076 -24.270510 -160.017240 -3.312306 17.633558 1.833434 0.403558 4.755283
969.477684 442.100429 69.358540 0.000000 0.000000 0.000000 0.000000 0.000000 0.000000 54.932575 13.721728 19.960535 180.000000 4.499111 19.960535 25.919122 -13.399737 -20.536413 154.080878 -2.760789 -21.869059 12.612867 -4.872480 20.536413 18.000000 0.176826 4.648882
1480.140495 518.878891 68.961530 0.000000 0.000000 0.000000 0.000000 0.000000 0.000000 -110.621767 -77.145311 19.645745 69.378233 -86.362712 19.645745 -158.235933 -2.675322 -23.115397 166.031448 -6.234395 -19.122720 -155.186432 -2.742459 23.115397 2.641553 0.317850 4.524135
1271.640472 556.840560 73.518864 0.000000 0.000000 0.000000 0.000000 0.000000 0.000000 -94.404719 6.632676 18.096541 85.595281 -6.235519 18.096541 -62.417786 3.488954 -25.329838 23.992813 -2.348442 -16.074804 -76.856107 0.673037 25.329838 7.708835 0.149206 4.381533
1258.556786 530.268441 72.601553 0.000000 0.000000 0.000000 0.000000 0.000000 0.000000 78.355945 -4.676009 15.410265 -101.644055 5.122561 15.410265 35.068294 2.593876 -27.144812 -54.090640 6.261915 -12.773379 35.848220 -1.815583 27.144812 -8.104639 -0.852178 4.221640
1250.800209 527.150567 79.916757 0.000000 0.000000 0.000000 0.000000 0.000000 0.000000 72.417769 -2.938854 11.755705 -107.582231 -7.242351 11.755705 24.571109 1.645949 -28.531695 -39.196117 2.084481 -9.270510 10.411117 -4.679497 28.531695 -9.048616 1.058446 4.045085
1243.466148 571.776259 105.624541 0.000000 0.000000 0.000000 0.000000 0.000000 0.000000 86.301473 11.659841 7.362491 -93.698527 -4.221438 7.362491 24.553534 -3.998651 -29.468618 -153.460385 -4.266063 -5.621439 19.510484 3.595504 29.468618 -10.109500 -4.561649 3.852566
1261.883812 566.052918 89.785453 0.000000 0.000000 0.000000 0.000000 0.000000 0.000000 94.015209 4.504643 2.506665 -85.984791 -7.906327 2.506665 38.959993 -1.725734 -29.940802 -154.008305 -4.571827 -1.883716 20.870951 3.738848 29.940802 -10.872440 -0.202883 3.644843
1284.436798 527.190542 99.449757 0.000000 0.000000 0.000000 0.000000 0.000000 0.000000 111.186365 -6.739837 -2.506665 -68.813635 3.972157 -2.506665 58.506163 -5.840476 -29.940802 -19.138727 -0.675660 1.883716 51.457372 10.877817 29.940802 -5.203198 -1.581295 3.422736
1272.860069 533.494012 105.193391 0.000000 0.000000 0.000000 0.000000 0.000000 0.000000 72.301471 -15.493749 -7.362491 -107.698529 -16.512265 -7.362491 78.802573 1.548863 -29.468618 -154.772375 -5.069724 5.621439 26.927455 4.087962 29.468618 -15.307255 -0.408796 3.187120
1255.264664 498.243735 89.511990 0.000000 0.000000 0.000000 0.000000 0.000000 0.000000 164.596971 -30.804144 -11.755705 -15.403029 3.844137 -11.755705 125.849126 0.152732 -28.531695 -156.067666 -5.116418 9.270510 33.087561 5.171930 28.531695 -14.691244 -0.517193 2.938926
1259.202232 470.407684 117.181210 0.000000 0.000000 0.000000 0.000000 0.000000 0.000000 -139.980397 -12.816217 -15.410265 40.019603 11.499728 -15.410265 165.887722 -0.526549 -27.144812 -157.901492 -5.384056 12.773379 35.196094 5.457839 27.144812 -14.480391 -0.545784 2.679134
1236.502075 429.951335 124.097507 0.000000 0.000000 0.000000 0.000000 0.000000 0.000000 -113.295066 -14.081853 -18.096541 66.704934 -11.186458 -18.096541 -174.664169 9.730322 -25.329838 -159.007335 -5.262987 16.074804 32.868990 5.460281 25.329838 -14.713101 -0.546028 2.408768
1253.359451 413.942538 132.793027 0.000000 0.000000 0.000000 0.000000 0.000000 0.000000 -123.348580 -2.645383 -19.645745 56.651420 0.002005 -19.645745 -167.815074 0.874482 -23.115397 -159.603180 -5.556938 19.122720 32.791747 7.485928 23.115397 -14.720825 -0.748593 2.128896
1281.206589 405.664523 128.467084 0.000000 0.000000 0.000000 0.000000 0.000000 0.000000 -124.414271 -8.665670 -19.960535 55.585729 0.230513 -19.960535 -161.281803 2.984722 -20.536413 28.568449 0.816389 21.869059 -159.052798 -4.752873 20.536413 1.849141 0.447185 1.840623
1300.238571 418.760215 119.152407 0.000000 0.000000 0.000000 0.000000 0.000000 0.000000 -126.263092 -1.020516 -19.021130 53.736908 -4.113649 -19.021130 -159.739358 -3.101824 -17.633558 31.487961 -2.921357 24.270510 -170.323915 0.977961 17.633558 0.671815 -0.175046 1.545085
1321.889191 413.634385 139.795520 0.000000 0.000000 0.000000 0.000000 0.000000 0.000000 -133.874471 1.906810 -16.886559 46.125529 -16.396336 -16.886559 -159.376251 2.636266 -14.452610 30.696824 -6.756351 26.289200 -164.929556 0.718136 14.452610 1.089735 0.204070 1.243449
1336.221428 432.881820 139.061939 0.000000 0.000000 0.000000 0.000000 0.000000 0.000000 -115.020798 3.603038 -13.690942 64.979202 6.390917 -13.690942 -135.609544 -5.368178 -11.043737 -161.321630 -6.381171 27.893295 17.353502 7.320579 11.043737 -16.264650 -0.732058 0.936907
1329.124603 416.860342 132.174476 0.000000 0.000000 0.000000 0.000000 0.000000 0.000000 -134.023347 7.371029 -9.635073 45.976653 -5.746002 -9.635073 -128.030830 -0.785067 -7.460697 28.249885 -5.829755 29.057495 -136.447985 2.167910 7.460697 4.038834 -0.335664 0.626666
1343.366776 427.060794 138.976844 0.000000 0.000000 0.000000 0.000000 0.000000 0.000000 -130.153347 -5.073174 -4.973798 49.846653 3.664985 -4.973798 -103.564435 -1.088592 -3.759997 27.398095 2.067760 29.763441 -115.461530 1.884225 3.759997 5.470063 -0.075115 0.313953
1376.991005 465.829636 131.521403 0.000000 0.000000 0.000000 0.000000 0.000000 0.000000 -120.272352 -12.449512 0.000000 59.727648 -6.445956 0.000000 -62.204131 4.228077 -0.000000 27.740602 0.528819 30.000000 -80.461527 -1.557787 0.000000 7.450891 0.200141 0.000000
1384.978867 468.790376 129.347937 0.000000 0.000000 0.000000 0.000000 0.000000 0.000000 -93.720384 -23.572073 4.973798 86.279616 -48.211935 4.973798 3.847814 11.018744 3.759997 -160.438787 -6.396196 29.763441 15.990976 4.977379 -3.759997 7.894783 1.115072 0.313953
1345.894547 516.257268 151.436015 0.000000 0.000000 0.000000 0.000000 0.000000 0.000000 127.577640 -23.758055 9.635073 -52.422360 2.905854 9.635073 53.096359 13.070799 7.460697 -159.021748 -5.681943 29.057495 18.308456 5.444897 -7.460697 -4.062191 0.963535 0.626666
968.498927 441.455181 162.447007 0.000000 0.000000 0.000000 0.000000 0.000000 0.000000 47.920147 -24.819854 13.690942 180.000000 15.965861 13.690942 19.641385 -3.756581 11.043737 160.358615 0.560347 27.893295 13.993219 -1.119351 -11.043737 18.000000 0.286278 0.936907
1336.846733 493.527671 159.699138 0.000000 0.000000 0.000000 0.000000 0.000000 0.000000 102.681311 -6.493859 16.886559 -77.318689 1.351662 16.886559 35.985219 11.512336 14.452610 -159.617763 -6.404996 26.289200 19.375410 5.308804 -14.452610 -16.062459 -0.530880 1.243449
968.386706 441.394956 141.151686 0.000000 0.000000 0.000000 0.000000 0.000000 0.000000 46.120581 14.804237 19.021130 180.000000 -20.549175 19.021130 19.316787 6.605444 17.633558 160.683213 -0.362673 24.270510 14.327067 0.844526 -17.633558 18.000000 -0.066492 1.545085
1263.984947 433.341283 157.618863 0.000000 0.000000 0.000000 0.000000 0.000000 0.000000 -115.578373 -14.093005 19.960535 64.421627 7.124064 19.960535 -82.396446 -3.252558 20.536413 25.733383 8.397386 21.869059 -77.477544 -3.713779 -20.536413 5.836928 -0.595143 1.840623
1352.596436 477.564354 151.089243 0.000000 0.000000 0.000000 0.000000 0.000000 0.000000 -99.196741 -1.690685 19.645745 80.803259 6.926261 19.645745 -125.272585 -1.334652 23.115397 -162.405270 -5.937812 19.122720 17.377627 6.998854 -23.115397 -16.262237 -0.699885 2.128896
1384.326782 408.174427 155.175171 0.000000 0.000000 0.000000 0.000000 0.000000 0.000000 96.868601 40.187340 18.096541 -83.131399 -28.215072 18.096541 -160.848957 -6.035704 25.329838 -137.255583 -6.669661 16.074804 -162.076720 -6.901105 -25.329838 0.000000 0.000000 0.000000
1387.580223 387.128634 134.110481 0.000000 0.000000 0.000000 0.000000 0.000000 0.000000 78.087764 -18.635298 15.410265 -101.912236 6.453881 15.410265 -161.807915 -6.032529 27.144812 -147.504361 5.774686 12.773379 -162.566306 -7.821754 -27.144812 1.735427 0.868657 2.679134
1345.818558 392.423122 155.404215 0.000000 0.000000 0.000000 0.000000 0.000000 0.000000 71.782984 14.491109 11.755705 -108.217016 -3.650049 11.755705 -169.469261 -5.570599 28.531695 -153.903088 -1.400859 9.270510 -154.670689 0.375288 -28.531695 15.277725 -1.185458 2.938926
1331.471329 361.814139 138.107798 0.000000 0.000000 0.000000 0.000000 0.000000 0.000000 53.586100 6.333917 7.362491 -126.413900 10.553029 7.362491 -162.290330 -6.259911 29.468618 -154.912165 1.783727 5.621439 -162.550394 -7.421116 -29.468618 1.742175 0.874248 3.187120
1354.413986 427.213873 139.340288 0.000000 0.000000 0.000000 0.000000 0.000000 0.000000 -131.358118 4.780572 2.506665 48.641882 -22.395299 2.506665 -142.488821 1.103068 29.940802 -161.977882 -6.200739 1.883716 12.673705 6.953350 -29.940802 1.397524 0.295482 3.422736
1330.326691 347.207226 135.387536 0.000000 0.000000 0.000000 0.000000 0.000000 0.000000 52.464175 0.029648 -2.506665 -127.535825 4.249284 -2.506665 14.270918 -1.047401 29.940802 -122.057234 0.317668 -1.883716 22.820874 -0.401206 -29.940802 -15.244909 -0.049631 3.644843
1317.103271 414.475805 135.657358 0.000000 0.000000 0.000000 0.000000 0.000000 0.000000 76.170457 4.376913 -7.362491 -103.829543 -3.963127 -7.362491 -50.250674 3.933325 29.468618 -52.503744 -3.781803 -5.621439 -92.793049 -2.238845 -29.468618 3.303440 1.056039 3.852566
1331.844635 430.291482 127.492478 0.000000 0.000000 0.000000 0.000000 0.000000 0.000000 79.985160 -0.912045 -11.755705 -100.014840 1.147950 -11.755705 25.995082 -6.191784 28.531695 -75.062603 0.258518 -9.270510 38.761234 -1.493955 -28.531695 -11.442229 0.177957 4.045085
1359.462433 496.472383 122.373203 0.000000 0.000000 0.000000 0.000000 0.000000 0.000000 84.268829 -9.418363 -15.410265 -95.731171 3.185065 -15.410265 30.279153 0.208512 27.144812 -63.318008 3.618725 -12.773379 39.457716 -1.875804 -27.144812 -9.485742 0.156087 4.221640
1323.514366 546.771398 107.634886 0.000000 0.000000 0.000000 0.000000 0.000000 0.000000 84.407325 1.790543 -18.096541 -95.592675 7.259929 -18.096541 27.768249 -8.114543 25.329838 -47.660055 0.024553 -16.074804 28.281511 -3.719241 -25.329838 -7.827901 0.435191 4.381533
1268.535347 591.567099 107.085488 0.000000 0.000000 0.000000 0.000000 0.000000 0.000000 90.890792 -3.818095 -19.645745 -89.109208 -2.514865 -19.645745 44.654760 -2.929069 23.115397 -48.200667 -6.031775 -19.122720 43.369388 6.143507 -23.115397 -8.974980 -0.773696 4.524135
1303.157158 602.888768 111.019720 0.000000 0.000000 0.000000 0.000000 0.000000 0.000000 90.349289 1.193299 -19.960535 -89.650711 1.259870 -19.960535 47.707312 -4.021165 20.536413 -53.918782 -3.099871 -21.869059 40.070965 2.578657 -20.536413 -9.318632 -0.142581 4.648882
1314.841690 613.141973 114.486005 0.000000 0.000000 0.000000 0.000000 0.000000 0.000000 94.480501 5.678632 -19.021130 -85.519499 -0.663107 -19.021130 58.462862 0.443420 17.633558 -52.020507 -0.571996 -24.270510 55.276552 -2.767193 -17.633558 -7.777523 0.516033 4.755283
1327.521400 639.394319 103.637357 0.000000 0.000000 0.000000 0.000000 0.000000 0.000000 99.879576 -0.787417 -16.886559 -80.120424 1.067824 -16.886559 69.161359 -0.660323 14.452610 -46.413613 0.342369 -26.289200 76.680143 -2.041248 -14.452610 -6.257768 0.319268 4.842916
1277.812729 671.228578 93.188909 0.000000 0.000000 0.000000 0.000000 0.000000 0.000000 99.708534 7.728943 -13.690942 -80.291466 3.439208 -13.690942 92.239140 -5.110857 11.043737 -26.764021 -3.596903 -27.893295 98.168457 4.985036 -11.043737 -4.372074 -0.191665 4.911436
1309.642181 690.479329 68.056372 0.000000 0.000000 0.000000 0.000000 0.000000 0.000000 117.292414 -0.525798 -9.635073 -62.707586 -2.395012 -9.635073 137.002702 1.605961 7.460697 -32.045917 -1.269134 -29.057495 135.211322 0.815629 -7.460697 -3.212944 0.208291 4.960574
1299.770966 664.126496 83.882067 0.000000 0.000000 0.000000 0.000000 0.000000 0.000000 158.531160 -5.244334 -4.973798 -21.468840 12.131202 -4.973798 161.478323 -5.749825 3.759997 -12.838206 -0.997872 -29.763441 151.269584 -0.410247 -3.759997 -2.521934 0.127760 4.990134
1313.353729 643.668108 77.594693 0.000000 0.000000 0.000000 0.000000 0.000000 0.000000 -154.315892 -1.060809 -0.000000 25.684108 -2.757452 -0.000000 173.459940 -0.362289 0.000000 1.519689 -1.661999 -30.000000 164.244875 0.681478 -0.000000 -1.552244 -0.062162 5.000000
1342.841377 638.982847 64.938610 0.000000 0.000000 0.000000 0.000000 0.000000 0.000000 -138.993869 -19.472610 4.973798 41.006131 17.786647 4.973798 175.724056 0.493983 -3.759997 -151.723069 -2.809679 -29.763441 43.242568 4.223825 3.759997 -13.675743 -0.422383 4.990134
1350.000229 614.724133 72.784835 0.000000 0.000000 0.000000 0.000000 0.000000 0.000000 -144.248147 -9.572947 9.635073 35.751853 11.229650 9.635073 177.069273 0.124744 -7.460697 -152.227621 -2.019169 -29.057495 43.136563 4.253822 7.460697 -13.686344 -0.425382 4.960574
1328.535919 624.780936 57.462402 0.000000 0.000000 0.000000 0.000000 0.000000 0.000000 -165.447222 2.432650 13.690942 14.552778 -18.232540 13.690942 169.657511 3.500971 -11.043737 -152.168050 -3.091192 -27.893295 41.929642 3.222347 11.043737 -13.807036 -0.322235 4.911436
1318.810501 615.688248 60.063902 0.000000 0.000000 0.000000 0.000000 0.000000 0.000000 -120.063657 -4.372243 16.886559 59.936343 -4.127616 16.886559 -165.389465 -0.251180 -14.452610 -152.866764 -2.638284 -26.289200 39.162270 3.758777 14.452610 -14.083773 -0.375878 4.842916
1321.656418 659.275410 50.067000 0.000000 0.000000 0.000000 0.000000 0.000000 0.000000 -121.435085 -0.063438 19.021130 58.564915 -1.456060 19.021130 -149.190712 -1.682463 -17.633558 -151.926374 -2.867717 -24.270510 33.097066 2.652652 17.633558 -14.690293 -0.265265 4.755283
1328.445511 687.490232 53.022359 0.000000 0.000000 0.000000 0.000000 0.000000 0.000000 -104.253419 2.102796 19.960535 75.746581 -9.323658 19.960535 -110.140878 -1.491647 -20.536413 -152.911692 -2.671883 -21.869059 23.882145 3.339609 20.536413 3.694979 -0.049661 4.648882
966.534206 440.564282 59.876976 0.000000 0.000000 0.000000 0.000000 0.000000 0.000000 25.865486 -7.822489 19.645745 180.000000 5.271438 19.645745 18.728337 3.936992 -23.115397 161.271663 -2.478864 -19.122720 19.024234 3.728737 23.115397 18.000000 -0.048882 4.524135
966.454577 440.533056 71.968213 0.000000 0.000000 0.000000 0.000000 0.000000 0.000000 25.417507 -23.245554 18.096541 180.000000 0.152175 18.096541 18.825450 2.875879 -25.329838 161.174550 4.832899 -16.074804 19.071566 2.633412 25.329838 18.000000 -0.094796 4.381533
966.374240 440.501809 63.546599 0.000000 0.000000 0.000000 0.000000 0.000000 0.000000 24.990320 -25.286385 15.410265 180.000000 1.151479 15.410265 18.929718 6.212598 -27.144812 161.070282 7.510341 -12.773379 19.102411 -12.295002 27.144812 18.000000 1.510919 4.221640
966.293204 440.470542 45.396717 0.000000 0.000000 0.000000 0.000000 0.000000 0.000000 24.583377 10.042351 11.755705 180.000000 -8.622861 11.755705 19.040946 5.351182 -28.531695 160.959054 -7.668781 -9.270510 19.116765 5.822933 28.531695 18.000000 -1.166017 4.045085
966.211478 440.439256 59.762333 0.000000 0.000000 0.000000 0.000000 0.000000 0.000000 24.196129 -3.821768 7.362491 180.000000 -5.720948 7.362491 19.158923 6.086680 -29.468618 160.841077 -2.583875 -5.621439 19.114778 5.605244 29.468618 18.000000 -0.591504 3.852566
644.985180 745.864069 66.992041 0.000000 0.000000 0.000000 0.000000 0.000000 0.000000 96.086415 3.453498 2.506665 -83.913585 4.102694 2.506665 -159.662371 2.868476 -29.940802 -116.741565 4.500184 -1.883716 -176.001217 1.436454 29.940802 -1.006627 -0.031389 3.644843
1269.020119 699.025490 49.859997 0.000000 0.000000 0.000000 0.000000 0.000000 0.000000 83.810916 -8.956535 -2.506665 -96.189084 -1.252959 -2.506665 51.932890 2.087681 -29.940802 -149.314466 -1.873471 1.883716 27.598511 1.737266 29.940802 -15.240149 -0.173727 3.422736
573.721218 678.450201 54.999313 0.000000 0.000000 0.000000 0.000000 0.000000 0.000000 18.756393 -23.701213 -7.362491 -161.243607 13.092397 -7.362491 -174.158094 -5.146130 -29.468618 178.010322 -0.602806 5.621439 -154.394154 0.277628 29.468618 11.886524 3.503920 3.187120
1261.580200 714.897366 49.481966 0.000000 0.000000 0.000000 0.000000 0.000000 0.000000 87.191276 -4.654802 -11.755705 -92.808724 8.758655 -11.755705 23.129119 -7.680414 -28.531695 -149.376238 -1.778508 9.270510 24.545507 1.930411 28.531695 13.583501 2.960551 2.938926
1314.655838 684.171546 56.656162 0.000000 0.000000 0.000000 0.000000 0.000000 0.000000 61.219932 8.688145 -15.410265 -118.780068 0.175293 -15.410265 25.476616 3.641756 -27.144812 -150.404247 -2.375263 12.773379 24.621454 2.379149 27.144812 -15.537855 -0.237915 2.679134
1319.638939 674.820013 75.754489 0.000000 0.000000 0.000000 0.000000 0.000000 0.000000 82.055377 -12.278482 -18.096541 -97.944623 17.760295 -18.096541 17.325085 -3.047973 -25.329838 -60.067277 8.969321 16.074804 23.747728 0.405839 25.329838 -13.005173 0.493958 2.408768
1367.852325 659.536314 44.762814 0.000000 0.000000 0.000000 0.000000 0.000000 0.000000 -150.278430 28.369415 -19.645745 29.721570 -6.844229 -19.645745 -151.222797 -2.590813 -23.115397 18.758043 4.429097 19.122720 -152.451920 -2.978603 23.115397 2.484143 0.224392 2.128896
1392.624664 638.981302 59.421956 0.000000 0.000000 0.000000 0.000000 0.000000 0.000000 -122.704248 -7.458341 -19.960535 57.295752 10.792121 -19.960535 -134.513385 0.884399 -20.536413 30.292627 1.929391 21.869059 -146.694539 1.578968 20.536413 2.430965 -0.126165 1.840623
1401.291389 646.422758 64.153244 0.000000 0.000000 0.000000 0.000000 0.000000 0.000000 83.316637 3.707082 -19.021130 -96.683363 3.989145 -19.021130 29.335627 -3.273797 -17.633558 -136.281416 5.349631 24.270510 19.119183 -4.354323 17.633558 -15.871560 -0.007016 1.545085
1381.838951 663.410475 62.358130 0.000000 0.000000 0.000000 0.000000 0.000000 0.000000 79.215331 -1.670825 -16.886559 -100.784669 -0.405095 -16.886559 30.640455 2.374967 -14.452610 -139.113455 -1.129834 26.289200 14.302413 -0.365018 14.452610 -16.408036 0.024692 1.243449
1390.185928 664.248354 78.580764 0.000000 0.000000 0.000000 0.000000 0.000000 0.000000 75.546066 -3.719704 -13.690942 -104.453934 1.692226 -13.690942 38.995097 -4.196627 -11.043737 -142.871297 -0.986096 27.893295 14.209110 1.042211 11.043737 -16.737090 0.002076 0.936907
1393.889923 677.551103 93.485170 0.000000 0.000000 0.000000 0.000000 0.000000 0.000000 84.293627 -3.962566 -9.635073 -95.706373 1.639721 -9.635073 -152.700272 -3.120540 -7.460697 -143.357755 0.787885 29.057495 -148.868889 -3.671749 7.460697 3.626268 0.397568 0.626666
905.601082 693.654528 89.408498 0.000000 0.000000 0.000000 0.000000 0.000000 0.000000 -84.410869 6.129622 -4.973798 95.589131 11.716291 -4.973798 -139.498802 -5.135473 -3.759997 -178.556713 39.345507 29.763441 -142.061844 -5.288398 3.759997 3.411456 0.448713 0.313953
1337.643929 680.318756 104.716524 0.000000 0.000000 0.000000 0.000000 0.000000 0.000000 78.192517 -4.386033 0.000000 -101.807483 -2.072187 0.000000 48.289813 0.135616 -0.000000 -140.291980 0.302394 30.000000 13.663140 -0.020916 0.000000 -17.395561 -0.038301 0.000000
1322.670708 685.543334 91.676588 0.000000 0.000000 0.000000 0.000000 0.000000 0.000000 71.501063 -7.312740 4.973798 -108.498937 5.934501 4.973798 23.648228 0.717691 3.759997 -144.586500 3.255701 29.763441 14.578018 -2.569202 -3.759997 -16.885607 0.092416 0.313953
1305.530548 682.910864 119.404624 0.000000 0.000000 0.000000 0.000000 0.000000 0.000000 72.979287 8.120543 9.635073 -107.020713 -25.443272 9.635073 -148.728581 -3.690975 7.460697 -74.802907 1.896674 29.057495 -151.178244 -4.128504 -7.460697 2.601049 0.421272 0.626666
1359.363556 692.650115 110.660216 0.000000 0.000000 0.000000 0.000000 0.000000 0.000000 73.244804 -5.156265 13.690942 -106.755196 8.216283 13.690942 13.983499 1.789616 11.043737 -67.611809 8.637460 27.893295 13.130547 -6.132025 -11.043737 -11.004089 0.578277 0.936907
1299.495964 679.994059 113.982508 0.000000 0.000000 0.000000 0.000000 0.000000 0.000000 116.206779 2.729642 16.886559 -63.793221 1.780079 16.886559 -150.858719 -4.741607 14.452610 -34.548592 0.129676 26.289200 60.366751 -2.276106 -14.452610 -4.627493 0.069470 1.243449
1306.260338 711.527116 116.889677 0.000000 0.000000 0.000000 0.000000 0.000000 0.000000 -85.758672 22.763439 19.021130 94.241328 -32.586543 19.021130 -31.461750 5.490913 17.633558 -4.237664 -6.067974 24.270510 -15.215787 1.531114 -17.633558 7.867754 -1.326202 1.545085
1272.614822 704.778571 116.524574 0.000000 0.000000 0.000000 0.000000 0.000000 0.000000 -78.634637 11.035286 19.960535 101.365363 -13.492132 19.960535 -34.118569 -3.678972 20.536413 22.539652 -2.547231 21.869059 -31.373170 -0.058521 -20.536413 11.310693 1.923039 1.840623
1310.345650 676.427021 98.716865 0.000000 0.000000 0.000000 0.000000 0.000000 0.000000 97.572435 3.261283 19.645745 -82.427565 1.959787 19.645745 50.400703 2.370236 23.115397 -39.584286 -0.038706 19.122720 44.966766 0.041571 -23.115397 -8.852712 -0.831655 2.128896
1315.732956 671.025095 111.820807 0.000000 0.000000 0.000000 0.000000 0.000000 0.000000 97.797337 -8.362563 18.096541 -82.202663 2.442885 18.096541 49.825934 0.730294 25.329838 -39.162923 3.845959 16.074804 36.475631 -2.463689 -25.329838 -8.191519 1.556572 2.408768
1329.935532 653.525419 143.735246 0.000000 0.000000 0.000000 0.000000 0.000000 0.000000 96.469555 -1.991980 15.410265 -83.530445 -2.408994 15.410265 63.882053 -2.426270 27.144812 -51.972064 2.255010 12.773379 58.624362 -4.216321 -27.144812 -8.239564 0.008123 2.679134
1316.170578 674.246514 151.594340 0.000000 0.000000 0.000000 0.000000 0.000000 0.000000 -87.946330 -2.330292 11.755705 92.053670 8.932496 11.755705 -29.715798 -1.005183 28.531695 54.212796 -1.129070 9.270510 -40.560774 1.595781 -28.531695 11.008015 0.386928 2.938926
1317.367287 678.027205 145.379206 0.000000 0.000000 0.000000 0.000000 0.000000 0.000000 95.152942 -0.079871 7.362491 -84.847058 -4.072933 7.362491 98.792835 -0.245181 29.468618 -150.515547 -5.986712 5.621439 32.983753 5.766541 -29.468618 -14.701625 -0.576654 3.187120
1318.168488 670.157025 121.596879 0.000000 0.000000 0.000000 0.000000 0.000000 0.000000 -151.252255 -53.886056 2.506665 28.747745 45.231499 2.506665 138.896993 -1.161392 29.940802 -151.946620 -5.728325 1.883716 38.784684 6.079486 -29.940802 -14.121532 -0.607949 3.422736
1323.412628 644.667885 143.920290 0.000000 0.000000 0.000000 0.000000 0.000000 0.000000 -97.904066 -16.215286 -2.506665 82.095934 -1.568766 -2.506665 155.695030 1.451276 29.940802 -152.500978 -6.075490 -1.883716 44.721081 6.527364 -29.940802 -13.527892 -0.652736 3.644843
1312.776718 630.059459 147.994477 0.000000 0.000000 0.000000 0.000000 0.000000 0.000000 -116.637972 -14.105826 -7.362491 63.362028 13.706903 -7.362491 171.094570 -1.773654 29.468618 -152.894064 -6.084730 -5.621439 43.947863 7.412240 -29.468618 -13.605214 -0.741224 3.852566
1316.420746 625.237019 134.365749 0.000000 0.000000 0.000000 0.000000 0.000000 0.000000 -136.254273 10.171299 -11.755705 43.745727 4.139748 -11.755705 -177.663204 0.355998 28.531695 -153.006287 -6.567874 -9.270510 42.784597 7.949006 -28.531695 -13.721540 -0.794901 4.045085
1314.719925 628.818026 147.204162 0.000000 0.000000 0.000000 0.000000 0.000000 0.000000 -114.737929 6.597513 -15.410265 65.262071 -2.064288 -15.410265 -169.764314 -1.143215 27.144812 -153.369487 -6.741710 -12.773379 41.498347 9.300886 -27.144812 -13.850165 -0.930089 4.221640
1334.396782 646.165652 154.136541 0.000000 0.000000 0.000000 0.000000 0.000000 0.000000 -116.903454 3.132362 -18.096541 63.096546 3.605306 -18.096541 -154.594534 1.684987 25.329838 -153.225015 -5.916388 -16.074804 37.136182 8.647686 -25.329838 -14.286382 -0.864769 4.381533
1340.823784 648.244128 147.568785 0.000000 0.000000 0.000000 0.000000 0.000000 0.000000 -116.932323 -0.027912 -19.645745 63.067677 -0.235813 -19.645745 -138.898656 -1.543689 23.115397 35.335752 -5.761872 -19.122720 -153.336856 1.598604 -23.115397 2.206211 0.092963 4.524135
1330.023880 654.599032 143.309376 0.000000 0.000000 0.000000 0.000000 0.000000 0.000000 -112.150704 -5.302160 -19.960535 67.849296 5.065763 -19.960535 -118.798313 -0.529855 20.536413 -153.636372 -6.009390 -21.869059 16.691869 8.020250 -20.536413 -16.330813 -0.802025 4.648882
1337.431641 662.410698 147.303043 0.000000 0.000000 0.000000 0.000000 0.000000 0.000000 -109.111809 -0.413403 -19.021130 70.888191 3.130226 -19.021130 -91.144379 -0.964592 17.633558 -154.448144 -6.042823 -24.270510 10.298202 5.791476 -17.633558 6.642051 0.380903 4.755283
1324.339714 676.416593 145.499054 0.000000 0.000000 0.000000 0.000000 0.000000 0.000000 -104.120178 1.629481 -16.886559 75.879822 -7.387788 -16.886559 -57.095620 6.624412 14.452610 38.799650 0.445234 -26.289200 -71.942639 -0.859072 -14.452610 8.831938 0.046141 4.842916
962.890318 439.311049 143.706504 0.000000 0.000000 0.000000 0.000000 0.000000 0.000000 19.986963 -1.732672 -13.690942 180.000000 -2.000065 -13.690942 24.297229 -6.216289 11.043737 155.702771 -3.816044 -27.893295 14.983342 -3.148907 -11.043737 18.000000 -0.006456 4.911436
962.789911 439.279946 139.136805 0.000000 0.000000 0.000000 0.000000 0.000000 0.000000 20.089586 -24.721550 -9.635073 180.000000 4.862641 -9.635073 24.330184 -10.487792 7.460697 155.669816 -0.932786 -29.057495 14.926290 4.015289 -7.460697 18.000000 -0.145163 4.960574
641.318550 641.336324 133.126905 0.000000 0.000000 0.000000 0.000000 0.000000 0.000000 163.642929 15.495517 -4.973798 -16.357071 -5.121413 -4.973798 -155.926011 -0.037330 3.759997 -130.644608 -8.843092 -29.763441 68.679337 10.088701 -3.759997 -11.132066 -1.008870 4.990134
1305.385551 662.289033 132.591184 0.000000 0.000000 0.000000 0.000000 0.000000 0.000000 -81.949824 7.454238 -0.000000 98.050176 14.218595 -0.000000 9.536664 1.197275 0.000000 -153.586691 -5.526670 -30.000000 24.402531 5.332919 -0.000000 -15.559747 -0.533292 5.000000
962.486899 439.186814 128.769956 0.000000 0.000000 0.000000 0.000000 0.000000 0.000000 20.465882 1.379573 4.973798 180.000000 -2.066630 4.973798 24.357206 5.714379 -3.759997 155.642794 -8.646720 -29.763441 14.800425 6.251064 3.759997 18.000000 -0.316519 4.990134
1216.314240 612.580640 115.276328 0.000000 0.000000 0.000000 0.000000 0.000000 0.000000 78.221991 -14.988370 9.635073 -101.778009 10.943247 9.635073 46.689014 1.911116 -7.460697 -61.937558 12.827437 -29.057495 44.546377 -4.237455 7.460697 -10.771750 0.430109 4.960574
1273.897820 573.707514 104.392428 0.000000 0.000000 0.000000 0.000000 0.000000 0.000000 77.469628 -0.572277 13.690942 -102.530372 8.231144 13.690942 -155.691164 -6.272845 -11.043737 -120.750172 -3.916820 -27.893295 -156.229293 -5.131462 11.043737 2.162203 0.631405 4.911436
1337.358742 570.303276 122.770273 0.000000 0.000000 0.000000 0.000000 0.000000 0.000000 73.705918 -1.394139 16.886559 -106.294082 -0.120640 16.886559 -155.918376 -5.394034 -14.452610 -149.887909 -4.901434 -26.289200 0.000000 0.000000 0.000000 0.000000 0.000000 0.000000
1342.446442 569.623497 136.553090 0.000000 0.000000 0.000000 0.000000 0.000000 0.000000 68.898287 2.312797 19.021130 -111.101713 -8.732367 19.021130 39.314088 0.198393 -17.633558 -140.912764 1.176221 -24.270510 -153.216026 -6.998056 17.633558 2.759242 0.734022 4.755283
1335.759430 584.665475 117.679542 0.000000 0.000000 0.000000 0.000000 0.000000 0.000000 66.989329 5.688957 19.960535 -113.010671 2.062294 19.960535 -154.807077 -5.096981 -20.536413 -142.328055 1.450547 -21.869059 -153.049156 -6.163996 20.536413 2.866457 0.687799 4.648882
1337.950974 598.074245 101.903306 0.000000 0.000000 0.000000 0.000000 0.000000 0.000000 62.697633 1.559770 19.645745 -117.302367 4.110914 19.645745 19.366736 1.987539 -23.115397 -144.826223 0.354244 -19.122720 9.911455 0.179696 23.115397 -17.004209 -0.002636 4.524135
1352.846489 601.043322 91.972717 0.000000 0.000000 0.000000 0.000000 0.000000 0.000000 59.083577 1.538987 18.096541 -120.916423 3.511143 18.096541 20.876734 0.337281 -25.329838 -142.301690 0.046255 -16.074804 13.356960 -0.655878 25.329838 -16.821524 -0.033040 4.381533
1347.310982 587.475100 86.208784 0.000000 0.000000 0.000000 0.000000 0.000000 0.000000 56.169135 -8.060434 15.410265 -123.830865 -3.125426 15.410265 21.172503 2.384301 -27.144812 -139.640745 -0.740007 -12.773379 14.641496 -1.142774 27.144812 -16.282575 0.282006 4.221640
1326.982155 606.886139 92.672895 0.000000 0.000000 0.000000 0.000000 0.000000 0.000000 70.119981 5.282464 11.755705 -109.880019 5.512424 11.755705 26.511889 -4.020320 -28.531695 -111.264667 -1.183974 -9.270510 31.153840 -1.900690 28.531695 -13.943905 0.295624 4.045085
1354.391098 626.185555 106.291575 0.000000 0.000000 0.000000 0.000000 0.000000 0.000000 88.154395 -3.546859 7.362491 -91.845605 6.434421 7.362491 30.442275 5.111541 -29.468618 -76.284233 4.718214 -5.621439 43.854867 -0.145752 29.468618 -10.818190 -0.102162 3.852566
1370.667114 610.219567 66.960482 0.000000 0.000000 0.000000 0.000000 0.000000 0.000000 89.945118 0.730403 2.506665 -90.054882 3.809061 2.506665 44.053326 1.271309 -29.940802 -56.238091 2.957405 -1.883716 55.411270 2.901439 29.940802 -7.805659 -0.326866 3.644843
1372.834854 597.828534 74.044380 0.000000 0.000000 0.000000 0.000000 0.000000 0.000000 93.407992 2.644303 -2.506665 -86.592008 2.466042 -2.506665 54.165845 -4.942062 -29.940802 -47.239220 1.762372 1.883716 56.575186 -3.879243 29.940802 -6.344474 0.128873 3.422736
1336.554337 597.454848 75.422598 0.000000 0.000000 0.000000 0.000000 0.000000 0.000000 95.622643 3.806987 -7.362491 -84.377357 -7.735120 -7.362491 56.597780 3.562250 -29.468618 -45.108662 -5.658749 5.621439 55.386034 0.626782 29.468618 -7.206870 0.037009 3.187120
1310.567093 590.844769 75.011447 0.000000 0.000000 0.000000 0.000000 0.000000 0.000000 100.193768 3.475698 -11.755705 -79.806232 0.151467 -11.755705 61.986347 -0.753493 -28.531695 -37.593815 1.742659 9.270510 62.907615 -1.903875 28.531695 -6.637230 0.026205 2.938926
1328.574371 576.493385 59.571217 0.000000 0.000000 0.000000 0.000000 0.000000 0.000000 101.943783 2.650384 -15.410265 -78.056217 1.132163 -15.410265 61.902838 1.599535 -27.144812 -33.889586 -2.782273 12.773379 55.760387 4.968172 27.144812 -7.097415 -0.971339 2.679134
1316.178360 595.500870 43.627471 0.000000 0.000000 0.000000 0.000000 0.000000 0.000000 103.792097 -11.003124 -18.096541 -76.207903 4.897432 -18.096541 65.535198 1.033758 -25.329838 -28.739437 -1.424678 16.074804 68.415337 6.107493 25.329838 -6.481753 -0.270789 2.408768
1302.343140 568.138025 68.678812 0.000000 0.000000 0.000000 0.000000 0.000000 0.000000 101.222717 -10.228239 -19.645745 -78.777283 15.786562 -19.645745 90.757296 -4.566035 -23.115397 -18.578033 -4.642202 19.122720 97.909038 5.601468 23.115397 -5.050134 0.179958 2.128896
1274.166183 540.660596 43.764184 0.000000 0.000000 0.000000 0.000000 0.000000 0.000000 -126.898591 20.839611 -19.960535 53.101409 -31.455944 -19.960535 127.276662 1.931886 -20.536413 8.808645 -8.285257 21.869059 119.711272 3.226151 20.536413 -4.115393 -0.058954 1.840623
1268.557091 468.331075 44.861399 0.000000 0.000000 0.000000 0.000000 0.000000 0.000000 -124.112133 -0.353615 -19.021130 55.887867 2.691701 -19.021130 163.344780 4.894034 -17.633558 38.476068 3.009567 24.270510 145.889074 -0.464030 17.633558 -1.929933 -0.269692 1.545085
1278.673096 454.375906 41.947833 0.000000 0.000000 0.000000 0.000000 0.000000 0.000000 -126.805061 -0.087296 -16.886559 53.194939 -8.333205 -16.886559 -174.009950 -0.899303 -14.452610 27.419224 -2.435715 26.289200 168.192977 1.745200 14.452610 -0.976267 -0.027887 1.243449
1285.008774 434.700390 42.849011 0.000000 0.000000 0.000000 0.000000 0.000000 0.000000 -132.005120 -5.277642 -13.690942 47.994880 1.110136 -13.690942 -171.247775 -1.346617 -11.043737 26.625253 1.474867 27.893295 178.805957 1.830244 11.043737 0.023422 -0.130876 0.936907
1288.157730 426.987666 46.034172 0.000000 0.000000 0.000000 0.000000 0.000000 0.000000 -123.987926 -2.938258 -9.635073 56.012074 -0.450817 -9.635073 -166.356219 0.091855 -7.460697 35.716336 -1.224278 29.057495 -172.960762 1.585300 7.460697 0.819533 -0.082811 0.626666
1291.221657 420.425448 48.792975 0.000000 0.000000 0.000000 0.000000 0.000000 0.000000 -122.265643 2.994126 -4.973798 57.734357 3.590905 -4.973798 -156.870161 -2.497886 -3.759997 38.220704 2.561611 29.763441 -165.716368 -1.967958 3.759997 1.405814 0.111028 0.313953
