HIERARCHY
ROOT Hips
{
    OFFSET 0.0 0.0 0.0
    CHANNELS 6 Xposition Yposition Zposition Zrotation Xrotation Yrotation
    JOINT Spine
    {
        OFFSET 0.0 5.0 0.0
        CHANNELS 3 Zrotation Xrotation Yrotation
        JOINT Chest
        {
            OFFSET 0.0 5.0 0.0
            CHANNELS 3 Zrotation Xrotation Yrotation
            JOINT Neck
            {
                OFFSET 0.0 8.0 0.0
                CHANNELS 3 Zrotation Xrotation Yrotation
                JOINT Head
                {
                    OFFSET 0.0 5.0 0.0
                    CHANNELS 3 Zrotation Xrotation Yrotation
                    End Site
                    {
                        OFFSET 0.0 3.0 0.0
                    }
                }
            }
            JOINT LeftShoulder
            {
                OFFSET -5.0 0.0 0.0
                CHANNELS 3 Zrotation Xrotation Yrotation
                JOINT LeftArm
                {
                    OFFSET 0.0 -10.0 0.0
                    CHANNELS 3 Zrotation Xrotation Yrotation
                    JOINT LeftForeArm
                    {
                        OFFSET 0.0 -10.0 0.0
                        CHANNELS 3 Zrotation Xrotation Yrotation
                        End Site
                        {
                            OFFSET 0.0 -3.0 0.0
                        }
                    }
                }
            }
        }
    }
}

MOTION
Frames: 300
Frame Time: 0.033333

960.000000 445.000000 106.297045 0.000000 0.000000 0.000000 0.000000 0.000000 0.000000 23.025492 -37.910861 0.000000 180.000000 16.345900 0.000000 21.801409 1.448403 -0.000000 158.198591 10.870327 30.000000 15.945396 1.741633 0.000000 18.000000 -0.821326 0.000000
1691.525230 140.756605 102.418196 0.000000 0.000000 0.000000 0.000000 0.000000 0.000000 -163.376529 -0.781538 4.973798 16.623471 -3.179768 4.973798 -171.853121 -2.881143 3.759997 99.744051 16.764701 29.763441 -171.126653 -3.682165 -3.759997 0.673538 0.350351 0.313953
1636.048050 128.802021 118.642633 0.000000 0.000000 0.000000 0.000000 0.000000 0.000000 157.904128 25.125732 9.635073 -22.095872 -24.349903 9.635073 -171.936471 -3.729404 7.460697 -143.675701 -14.345826 29.057495 -173.500805 -3.429601 -7.460697 0.570999 0.446983 0.626666
1578.156967 80.474526 133.778380 0.000000 0.000000 0.000000 0.000000 0.000000 0.000000 -139.519796 -10.984413 13.690942 40.480204 3.553473 13.690942 -174.507724 -3.771229 11.043737 119.111399 -4.766310 27.893295 -173.607258 -3.571966 -11.043737 0.461920 0.453566 0.936907
960.418757 444.998421 124.643566 0.000000 0.000000 0.000000 0.000000 0.000000 0.000000 25.077893 26.427320 16.886559 180.000000 3.312369 16.886559 23.861935 -3.820756 14.452610 156.138065 -0.953115 26.289200 17.903699 -1.248992 -14.452610 18.000000 0.091547 1.243449
960.523360 444.997533 117.512692 0.000000 0.000000 0.000000 0.000000 0.000000 0.000000 25.638906 -4.029439 19.021130 180.000000 -2.439824 19.021130 24.425035 10.669381 17.633558 155.574965 0.747066 24.270510 18.452907 -4.112489 -17.633558 18.000000 0.362706 1.545085
960.627905 444.996447 144.572288 0.000000 0.000000 0.000000 0.000000 0.000000 0.000000 26.219073 -8.607400 19.960535 180.000000 24.209670 19.960535 25.006291 -21.937768 20.536413 154.993709 3.512439 21.869059 19.024920 -2.081511 -20.536413 18.000000 0.542069 1.840623
1126.242828 420.359820 135.599877 0.000000 0.000000 0.000000 0.000000 0.000000 0.000000 31.410514 2.113886 19.645745 -148.589486 -9.022116 19.645745 32.280463 -1.867814 23.115397 -131.603972 -2.275346 19.122720 45.585331 0.934361 -23.115397 -13.449727 -0.190837 2.128896
1257.895088 650.549197 143.721201 0.000000 0.000000 0.000000 0.000000 0.000000 0.000000 25.073180 1.020231 18.096541 -154.926820 13.848719 18.096541 46.260945 -8.380910 25.329838 -154.651428 -5.478858 16.074804 27.339487 4.344970 -25.329838 -13.619892 2.539191 2.408768
960.941083 444.992008 130.984953 0.000000 0.000000 0.000000 0.000000 0.000000 0.000000 28.072001 10.128741 15.410265 180.000000 6.512927 15.410265 26.849221 -14.285939 27.144812 153.150779 -5.869788 12.773379 20.864045 2.079970 -27.144812 18.000000 0.914372 2.679134
1163.815842 547.748709 144.281023 0.000000 0.000000 0.000000 0.000000 0.000000 0.000000 117.162728 5.935872 11.755705 -62.837272 -10.390581 11.755705 102.363764 8.016133 28.531695 -47.376450 1.870938 9.270510 104.768601 -2.884440 -28.531695 -6.003489 0.024015 2.938926
961.149372 444.988063 147.817787 0.000000 0.000000 0.000000 0.000000 0.000000 0.000000 29.395983 0.571245 7.362491 180.000000 4.530998 7.362491 28.146217 7.714654 29.468618 151.853783 13.499911 5.621439 22.170006 -0.848911 -29.468618 18.000000 -1.134277 3.187120
1136.717377 590.104480 143.787583 0.000000 0.000000 0.000000 0.000000 0.000000 0.000000 115.752126 3.989422 2.506665 -64.247874 -5.891400 2.506665 73.638146 2.461359 29.940802 -21.842452 -6.588682 1.883716 75.369282 4.352972 -29.940802 -6.767207 -0.123318 3.422736
1163.079758 634.077559 146.290702 0.000000 0.000000 0.000000 0.000000 0.000000 0.000000 132.174340 -0.445039 -2.506665 -47.825660 -2.417419 -2.506665 94.255711 3.367315 29.940802 -149.364979 -6.627900 -1.883716 30.021641 6.144934 -29.940802 -5.096180 -0.436147 3.644843
961.460830 444.980668 147.786534 0.000000 0.000000 0.000000 0.000000 0.000000 0.000000 31.497152 8.220164 -7.362491 180.000000 -3.755188 -7.362491 30.152455 4.774587 29.468618 149.847545 -5.311564 -5.621439 24.175589 6.236976 -29.468618 18.000000 -0.223262 3.852566
1097.449951 565.089898 159.409092 0.000000 0.000000 0.000000 0.000000 0.000000 0.000000 -119.219568 1.815836 -11.755705 60.780432 2.089776 -11.755705 -150.180642 -6.578260 28.531695 48.804955 2.997533 -9.270510 -149.874178 -6.351899 -28.531695 2.713854 0.566712 4.045085
1114.140244 528.302071 141.334582 0.000000 0.000000 0.000000 0.000000 0.000000 0.000000 -142.671523 -13.972677 -15.410265 37.328477 4.373950 -15.410265 -177.395681 -2.652919 27.144812 34.687329 3.065125 -12.773379 161.894167 -4.768959 -27.144812 -0.910956 0.412128 4.221640
1116.433640 479.728639 139.123340 0.000000 0.000000 0.000000 0.000000 0.000000 0.000000 -102.267481 0.994366 -18.096541 77.732519 9.661935 -18.096541 -163.695626 -7.750866 25.329838 38.575767 0.836679 -16.074804 -176.001122 0.356180 -25.329838 0.706594 -0.050609 4.381533
1135.931282 466.493965 154.948719 0.000000 0.000000 0.000000 0.000000 0.000000 0.000000 -112.868406 2.149591 -19.645745 67.131594 -18.867179 -19.645745 -159.517862 0.388486 23.115397 36.204678 -3.824754 -19.122720 -154.426613 -5.625791 -23.115397 2.428729 0.546904 4.524135
1141.618767 467.420679 142.511895 0.000000 0.000000 0.000000 0.000000 0.000000 0.000000 -123.086385 5.234070 -19.960535 56.913615 -7.811880 -19.960535 -154.885724 0.282296 20.536413 36.481623 2.623008 -21.869059 -153.965441 -6.619495 -20.536413 2.446728 0.516803 4.648882
1150.647926 469.370956 162.793675 0.000000 0.000000 0.000000 0.000000 0.000000 0.000000 -43.953779 23.373824 -19.021130 136.046221 -31.483794 -19.021130 -154.327268 -6.487177 17.633558 60.745168 -10.538147 -24.270510 -153.350642 -6.166270 -17.633558 2.386216 0.583146 4.755283
1151.529922 496.420240 150.836128 0.000000 0.000000 0.000000 0.000000 0.000000 0.000000 -116.362129 -1.225050 -16.886559 63.637871 -0.606906 -16.886559 -149.081043 -0.362090 14.452610 35.941860 0.473872 -26.289200 -156.847177 -1.132529 -14.452610 2.056513 0.007067 4.842916
1148.402367 515.713574 128.636044 0.000000 0.000000 0.000000 0.000000 0.000000 0.000000 -118.252650 -4.645801 -13.690942 61.747350 0.980612 -13.690942 -138.082896 0.245188 11.043737 -156.312677 -6.957861 -27.893295 21.649626 8.758833 -11.043737 2.962417 0.008756 4.911436
1175.363617 533.368646 146.117711 0.000000 0.000000 0.000000 0.000000 0.000000 0.000000 -95.476638 14.426707 -9.635073 84.523362 2.255466 -9.635073 -113.907461 -3.832476 7.460697 -155.995907 -7.138221 -29.057495 12.512064 9.078392 -7.460697 -16.748794 -0.907839 4.960574
1199.533310 485.991104 128.036276 0.000000 0.000000 0.000000 0.000000 0.000000 0.000000 -100.003195 18.205213 -4.973798 79.996805 -5.430606 -4.973798 -86.083188 3.016268 3.759997 38.843754 2.970479 -29.763441 -106.539452 -3.508991 -3.759997 6.197806 -0.032349 4.990134
962.588190 444.938442 110.454870 0.000000 0.000000 0.000000 0.000000 0.000000 0.000000 39.579754 -1.546303 -0.000000 180.000000 5.333823 -0.000000 36.680773 -0.316513 0.000000 143.319227 4.100899 -30.000000 29.388385 -6.626686 -0.000000 18.000000 0.772632 5.000000
1142.094727 445.716287 118.071065 0.000000 0.000000 0.000000 0.000000 0.000000 0.000000 -140.228454 -32.984162 4.973798 39.771546 43.838948 4.973798 -156.118008 -6.078642 -3.759997 3.479189 10.358177 -29.763441 -158.005660 -5.439030 3.759997 2.150019 0.517992 4.990134
1164.005928 424.847746 115.326991 0.000000 0.000000 0.000000 0.000000 0.000000 0.000000 -84.241076 45.543754 9.635073 95.758924 -50.007972 9.635073 -156.181584 -4.899058 -7.460697 166.928360 8.062455 -29.057495 -154.947270 -7.136131 7.460697 2.644196 0.645848 4.960574
1124.208755 418.286655 98.443338 0.000000 0.000000 0.000000 0.000000 0.000000 0.000000 -117.427077 -37.170074 13.690942 62.572923 3.170326 13.690942 -155.943063 -5.260837 -11.043737 14.023837 6.535218 -27.893295 -157.382674 -5.347601 11.043737 2.188130 0.554501 4.911436
962.990408 444.917226 111.679844 0.000000 0.000000 0.000000 0.000000 0.000000 0.000000 42.110883 40.050600 16.886559 180.000000 -9.752926 16.886559 37.946959 19.174043 -14.452610 142.053041 -8.223956 -26.289200 29.293612 6.619138 14.452610 18.000000 -1.754953 4.842916
963.090170 444.911436 94.181689 0.000000 0.000000 0.000000 0.000000 0.000000 0.000000 42.659200 -21.529327 19.021130 180.000000 37.359787 19.021130 38.119107 -1.712278 -17.633558 141.880893 19.870621 -24.270510 29.068887 0.906091 17.633558 18.000000 -0.605015 4.755283
1186.646461 396.272757 100.059521 0.000000 0.000000 0.000000 0.000000 0.000000 0.000000 -72.847419 11.485212 19.960535 107.152581 24.447247 19.960535 -156.703603 -5.785749 -20.536413 178.447294 -0.148173 -21.869059 -157.212393 -5.159162 20.536413 1.964058 0.494518 4.648882
1313.051605 426.636125 107.895581 0.000000 0.000000 0.000000 0.000000 0.000000 0.000000 90.994869 2.852030 19.645745 -89.005131 8.862034 19.645745 -160.515303 -4.798761 -23.115397 -153.248861 0.362212 -19.122720 -159.640525 -5.132982 23.115397 0.000000 0.000000 0.000000
1347.999344 420.772226 94.923691 0.000000 0.000000 0.000000 0.000000 0.000000 0.000000 90.154351 6.645967 18.096541 -89.845649 -6.010612 18.096541 -162.053401 -3.598732 -25.329838 -136.198880 -0.510063 -16.074804 -160.991694 -4.633898 25.329838 0.000000 0.000000 0.000000
1344.315948 421.031681 83.808310 0.000000 0.000000 0.000000 0.000000 0.000000 0.000000 69.757587 -5.284643 15.410265 -110.242413 3.836355 15.410265 25.616746 1.754403 -27.144812 -157.821005 -3.272085 -12.773379 17.214985 3.262628 27.144812 -16.704706 -0.063933 4.221640
1350.307617 440.309436 63.330255 0.000000 0.000000 0.000000 0.000000 0.000000 0.000000 71.124018 -1.102544 11.755705 -108.875982 -2.123416 11.755705 42.739987 -3.477483 -28.531695 -142.315466 -1.323236 -9.270510 16.600926 3.061852 28.531695 -16.660102 -0.140196 4.045085
1357.685051 430.688889 76.946892 0.000000 0.000000 0.000000 0.000000 0.000000 0.000000 77.656077 -16.431344 7.362491 -102.343923 18.174760 7.362491 39.407151 -1.854587 -29.468618 -136.343173 5.485501 -5.621439 22.144452 -0.673903 29.468618 -16.305135 0.141669 3.852566
1369.482193 445.909406 83.804066 0.000000 0.000000 0.000000 0.000000 0.000000 0.000000 88.051188 -12.361216 2.506665 -91.948812 14.612096 2.506665 -161.283973 -3.599441 -29.940802 -119.799169 3.839640 -1.883716 -164.575400 -3.743478 29.940802 1.401013 0.380232 3.644843
963.875156 444.858159 66.467321 0.000000 0.000000 0.000000 0.000000 0.000000 0.000000 45.304844 0.428863 -2.506665 180.000000 -9.859411 -2.506665 37.252439 9.727317 -29.940802 142.747561 -8.690704 1.883716 25.146244 9.689098 29.940802 18.000000 -0.440980 3.422736
963.971479 444.850633 74.970960 0.000000 0.000000 0.000000 0.000000 0.000000 0.000000 45.383640 -47.155054 -7.362491 180.000000 17.376096 -7.362491 36.882310 -2.321255 -29.468618 143.117690 8.103978 5.621439 24.499789 -4.932142 29.468618 18.000000 1.738874 3.187120
1336.629524 469.010178 63.521692 0.000000 0.000000 0.000000 0.000000 0.000000 0.000000 -72.390177 41.220523 -11.755705 107.609823 -23.413697 -11.755705 -158.649984 -2.636573 -28.531695 2.583425 -11.438334 9.270510 -39.658551 2.081381 28.531695 10.837181 0.654546 2.938926
1311.966934 518.219100 40.012458 0.000000 0.000000 0.000000 0.000000 0.000000 0.000000 -63.565072 -22.351694 -15.410265 116.434928 57.611844 -15.410265 -14.840750 -9.279630 -27.144812 -158.549348 -2.079749 12.773379 17.488774 1.767528 27.144812 7.174982 1.480199 2.679134
964.257793 444.826908 41.478820 0.000000 0.000000 0.000000 0.000000 0.000000 0.000000 45.262206 24.862095 -18.096541 180.000000 -1.600347 -18.096541 35.497192 -2.630231 -25.329838 144.502808 -8.738985 16.074804 22.522929 -0.208316 25.329838 18.000000 1.082549 2.408768
1275.921364 516.836239 74.355583 0.000000 0.000000 0.000000 0.000000 0.000000 0.000000 85.186295 -7.539606 -19.645745 -94.813705 2.291533 -19.645745 52.470689 0.783803 -23.115397 -44.513683 5.538572 19.122720 50.867598 -3.454129 23.115397 -8.717188 -0.282075 2.128896
1263.254128 546.875424 47.034103 0.000000 0.000000 0.000000 0.000000 0.000000 0.000000 34.848242 56.061457 -19.960535 -145.151758 -5.265779 -19.960535 42.487561 -5.521249 -20.536413 -157.415675 -2.542313 21.869059 22.420880 2.540503 20.536413 -15.757912 -0.254050 1.840623
1258.788185 528.263061 52.665086 0.000000 0.000000 0.000000 0.000000 0.000000 0.000000 118.326865 -37.754363 -19.021130 -61.673135 10.745995 -19.021130 143.214759 0.194765 -17.633558 -156.228306 -1.868627 24.270510 28.173554 1.610021 17.633558 -15.182645 -0.161002 1.545085
1231.492081 471.383836 61.588058 0.000000 0.000000 0.000000 0.000000 0.000000 0.000000 -115.049381 1.408518 -16.886559 64.950619 3.353502 -16.886559 172.843704 0.758872 -14.452610 -157.842300 -1.893634 26.289200 32.851042 2.356619 14.452610 -14.714896 -0.235662 1.243449
1223.928795 435.993515 20.501151 0.000000 0.000000 0.000000 0.000000 0.000000 0.000000 -115.322532 4.314147 -13.690942 64.677468 6.940195 -13.690942 -168.597862 -5.402845 -11.043737 -158.853816 -2.827118 27.893295 31.099266 2.722200 11.043737 -14.890073 -0.272220 0.936907
1223.669701 418.195664 53.599283 0.000000 0.000000 0.000000 0.000000 0.000000 0.000000 -102.084053 1.647550 -9.635073 77.915947 -12.320330 -9.635073 -171.103858 0.212211 -7.460697 162.056334 6.203748 29.057495 -153.594437 -4.031062 7.460697 2.968481 0.242148 0.626666
1216.486244 414.503002 53.823215 0.000000 0.000000 0.000000 0.000000 0.000000 0.000000 69.261091 11.166494 -4.973798 -110.738909 9.111045 -4.973798 -158.083722 -2.626792 -3.759997 -173.244581 -1.681615 29.763441 -154.635509 -2.539481 3.759997 2.928763 0.235054 0.313953
1212.090225 434.550980 52.797685 0.000000 0.000000 0.000000 0.000000 0.000000 0.000000 -112.403932 7.237182 0.000000 67.596068 -7.315833 0.000000 -157.060799 -2.844718 -0.000000 173.400765 -3.165528 30.000000 -154.473580 -3.033974 0.000000 2.734633 0.372596 0.000000
1214.024734 450.340490 70.761133 0.000000 0.000000 0.000000 0.000000 0.000000 0.000000 -110.634751 -5.919244 4.973798 69.365249 -8.432025 4.973798 -137.583343 0.834873 3.759997 -158.589698 -2.968870 29.763441 20.879446 3.614686 -3.759997 -15.912055 -0.361469 0.313953
1204.271393 440.192921 51.871501 0.000000 0.000000 0.000000 0.000000 0.000000 0.000000 -99.498286 -30.466469 9.635073 80.501714 30.848945 9.635073 -156.696469 -2.736810 7.460697 -178.487725 5.128074 29.057495 -157.318323 -1.962982 -7.460697 2.108583 0.267501 0.626666
965.269558 444.725315 46.978354 0.000000 0.000000 0.000000 0.000000 0.000000 0.000000 40.845461 8.774732 13.690942 180.000000 2.249212 13.690942 28.615377 -5.924714 11.043737 151.384623 -6.283203 27.893295 16.305092 -2.886190 -11.043737 18.000000 -0.163361 0.936907
1182.456551 475.103824 56.282674 0.000000 0.000000 0.000000 0.000000 0.000000 0.000000 -168.146016 22.901646 16.886559 11.853984 -4.842983 16.886559 -63.802645 2.079315 14.452610 -61.114510 -4.590475 26.289200 -47.869281 16.116393 -14.452610 -13.834956 -7.318968 1.243449
965.446390 444.704404 62.479792 0.000000 0.000000 0.000000 0.000000 0.000000 0.000000 39.578146 -8.404818 19.021130 180.000000 0.332486 19.021130 27.338029 16.682945 17.633558 152.661971 3.566939 24.270510 15.463180 -1.759731 -17.633558 18.000000 0.020498 1.545085
965.533915 444.693669 62.763294 0.000000 0.000000 0.000000 0.000000 0.000000 0.000000 38.916706 -44.229285 19.960535 180.000000 -0.393155 19.960535 26.716768 6.415241 20.536413 153.283232 -3.798572 21.869059 15.076605 4.494972 -20.536413 18.000000 0.339497 1.840623
965.620834 444.682749 74.552000 0.000000 0.000000 0.000000 0.000000 0.000000 0.000000 38.241653 39.042945 19.645745 180.000000 -20.196474 19.645745 26.109467 0.309507 23.115397 153.890533 -7.977085 19.122720 14.712258 4.147660 -23.115397 18.000000 -0.248018 2.128896
965.707136 444.671645 71.201235 0.000000 0.000000 0.000000 0.000000 0.000000 0.000000 37.556504 -37.761476 18.096541 180.000000 12.525250 18.096541 25.517536 4.773506 25.329838 154.482464 13.829419 16.074804 14.369537 -6.135988 -25.329838 18.000000 0.259043 2.408768
965.792812 444.660356 72.702269 0.000000 0.000000 0.000000 0.000000 0.000000 0.000000 36.864608 -0.220517 15.410265 180.000000 16.625309 15.410265 24.942131 4.589551 27.144812 155.057869 4.165537 12.773379 14.047797 2.663518 -27.144812 18.000000 0.394246 2.679134
965.877853 444.648882 87.363010 0.000000 0.000000 0.000000 0.000000 0.000000 0.000000 36.169118 -16.299605 11.755705 180.000000 -6.327165 11.755705 24.384173 12.634054 28.531695 155.615827 -2.039780 9.270510 13.746367 0.342437 -28.531695 18.000000 0.404647 2.938926
965.962249 444.637226 93.247207 0.000000 0.000000 0.000000 0.000000 0.000000 0.000000 35.472980 10.581164 7.362491 180.000000 -2.304745 7.362491 23.844373 -4.908865 29.468618 156.155627 -8.441551 5.621439 13.464570 8.528319 -29.468618 18.000000 -0.284804 3.187120
966.045991 444.625386 92.356086 0.000000 0.000000 0.000000 0.000000 0.000000 0.000000 34.778913 -14.920355 2.506665 180.000000 6.622408 2.506665 23.323250 -5.076012 29.940802 156.676750 2.976467 1.883716 13.201728 -0.822869 -29.940802 18.000000 -0.054361 3.422736
966.129071 444.613364 112.948672 0.000000 0.000000 0.000000 0.000000 0.000000 0.000000 34.089406 5.085785 -2.506665 180.000000 7.095563 -2.506665 22.821158 -5.649980 29.940802 157.178842 10.201706 -1.883716 12.957175 -5.847637 -29.940802 18.000000 0.422014 3.644843
966.211478 444.601159 119.498669 0.000000 0.000000 0.000000 0.000000 0.000000 0.000000 33.406712 -1.177089 -7.362491 180.000000 -10.141163 -7.362491 22.338307 1.055775 29.468618 157.661693 -7.602179 -5.621439 12.730264 1.876894 -29.468618 18.000000 -0.086623 3.852566
1171.486244 534.946783 101.521804 0.000000 0.000000 0.000000 0.000000 0.000000 0.000000 70.594720 3.736516 -11.755705 -109.405280 -2.959287 -11.755705 49.953444 -4.382736 28.531695 -151.467583 -5.059289 -9.270510 0.000000 0.000000 0.000000 0.000000 0.000000 0.000000
966.374240 444.576206 90.724112 0.000000 0.000000 0.000000 0.000000 0.000000 0.000000 32.069603 -37.919259 -15.410265 180.000000 18.586851 -15.410265 21.430544 3.661198 27.144812 158.569456 10.596867 -12.773379 12.326901 -0.715475 -27.144812 18.000000 -0.133483 4.221640
1172.156410 555.047708 132.794444 0.000000 0.000000 0.000000 0.000000 0.000000 0.000000 -121.065102 -12.214999 -18.096541 58.934898 -20.536318 -18.096541 -151.641456 -5.042597 25.329838 -177.360623 6.650745 -16.074804 -149.076048 -7.551880 -25.329838 0.000000 0.000000 0.000000
1161.826630 552.360713 129.562751 0.000000 0.000000 0.000000 0.000000 0.000000 0.000000 69.958407 39.497594 -19.645745 -110.041593 -38.753066 -19.645745 -152.437496 -5.770672 23.115397 -158.790607 -2.078459 -19.122720 -150.591725 -7.174570 -23.115397 3.219062 0.761516 4.524135
1165.827255 569.832902 129.457558 0.000000 0.000000 0.000000 0.000000 0.000000 0.000000 25.594208 -7.647738 -19.960535 -154.405792 8.390881 -19.960535 11.723883 0.552233 20.536413 -161.543160 0.922037 -21.869059 7.769582 -1.021456 -20.536413 -17.248199 0.009359 4.648882
1165.555573 565.067046 129.714668 0.000000 0.000000 0.000000 0.000000 0.000000 0.000000 43.355707 -8.056812 -19.021130 -136.644293 3.198765 -19.021130 15.984329 -0.784285 17.633558 -140.773833 -0.053859 -24.270510 13.679449 1.486460 -17.633558 -16.392157 -0.089983 4.755283
1290.255775 608.533316 145.009618 0.000000 0.000000 0.000000 0.000000 0.000000 0.000000 -153.952071 38.037843 -16.886559 26.047929 -27.626282 -16.886559 -152.683807 -5.593019 14.452610 4.794196 -12.128200 -26.289200 -154.287190 -5.583341 -14.452610 2.418080 0.512771 4.842916
1180.398903 551.817470 125.641683 0.000000 0.000000 0.000000 0.000000 0.000000 0.000000 51.640104 18.298081 -13.690942 -128.359896 -28.266769 -13.690942 14.419400 18.373782 11.043737 -33.521359 -5.722349 -27.893295 -34.277510 -2.688506 -11.043737 5.235387 -0.010887 4.911436
1162.708626 619.419501 128.411609 0.000000 0.000000 0.000000 0.000000 0.000000 0.000000 -88.968325 -1.056546 -9.635073 91.031675 -2.734409 -9.635073 -52.690088 -1.546212 7.460697 25.015222 -3.329082 -29.057495 -72.561734 0.956846 -7.460697 8.557489 0.054004 4.960574
1110.899391 602.919216 147.012285 0.000000 0.000000 0.000000 0.000000 0.000000 0.000000 -86.972237 3.333842 -4.973798 93.027763 -10.117818 -4.973798 -39.551144 0.769136 3.759997 34.838085 -6.083252 -29.763441 -44.185810 1.144036 -3.759997 10.000609 0.309409 4.990134
1150.187302 553.686991 151.327675 0.000000 0.000000 0.000000 0.000000 0.000000 0.000000 -116.065142 17.236328 -0.000000 63.934858 5.332532 -0.000000 -151.059314 -6.932486 0.000000 -0.492058 4.255116 -30.000000 -14.044098 -15.625837 -0.000000 1.929760 1.444926 5.000000
967.144727 444.440682 154.351661 0.000000 0.000000 0.000000 0.000000 0.000000 0.000000 26.270296 7.675377 4.973798 180.000000 8.678524 4.973798 17.996647 1.013815 -3.759997 162.003353 -3.290118 -29.763441 11.189167 4.104206 3.759997 18.000000 0.282956 4.990134
1213.452644 620.002785 173.091842 0.000000 0.000000 0.000000 0.000000 0.000000 0.000000 140.390379 -16.225325 9.635073 -39.609621 45.767252 9.635073 77.724607 0.378735 -7.460697 -153.982965 -5.895117 -29.057495 24.142749 5.104898 7.460697 -0.833727 1.971449 4.960574
1124.373779 618.464527 139.051102 0.000000 0.000000 0.000000 0.000000 0.000000 0.000000 99.329635 -14.002283 13.690942 -80.670365 -31.179965 13.690942 85.960927 3.635107 -11.043737 -150.875293 -7.404022 -27.893295 31.644098 6.039019 11.043737 -14.835590 -0.603902 4.911436
967.360971 444.396582 147.483029 0.000000 0.000000 0.000000 0.000000 0.000000 0.000000 24.874716 12.347875 16.886559 180.000000 3.420877 16.886559 17.291102 0.878167 -14.452610 162.708898 -3.297017 -26.289200 11.098846 0.730605 14.452610 18.000000 0.014276 4.842916
1107.875175 542.453964 161.224040 0.000000 0.000000 0.000000 0.000000 0.000000 0.000000 -128.741314 -15.900432 19.021130 51.258686 15.681607 19.021130 -177.225595 -1.750583 -17.633558 19.954750 5.568775 -24.270510 162.677362 -1.309828 17.633558 -1.443098 0.205896 4.755283
1119.652290 522.766346 144.724893 0.000000 0.000000 0.000000 0.000000 0.000000 0.000000 -99.017754 -9.500362 19.960535 80.982246 0.940694 19.960535 -150.289603 -6.858050 -20.536413 -152.613833 -7.025114 -21.869059 0.000000 0.000000 0.000000 0.000000 0.000000 0.000000
1132.908783 538.229613 146.421543 0.000000 0.000000 0.000000 0.000000 0.000000 0.000000 -127.874185 6.876615 19.645745 52.125815 -12.489866 19.645745 -165.450188 1.711175 -23.115397 -152.521515 -7.939493 -19.122720 40.606225 8.747106 23.115397 -13.939378 -0.874711 4.524135
1146.969337 541.828065 135.678289 0.000000 0.000000 0.000000 0.000000 0.000000 0.000000 -113.631604 -6.777920 18.096541 66.368396 10.821047 18.096541 -159.067475 -1.244363 -25.329838 113.981862 14.523506 -16.074804 -145.449815 -7.450363 25.329838 0.000000 0.000000 0.000000
1165.252304 561.329677 149.196774 0.000000 0.000000 0.000000 0.000000 0.000000 0.000000 -112.861399 9.788469 15.410265 67.138601 0.213623 15.410265 -159.396543 5.614543 -27.144812 -151.967552 -6.892628 -12.773379 38.422588 8.672228 27.144812 -14.157741 -0.867223 4.221640
1174.726181 592.839689 147.218441 0.000000 0.000000 0.000000 0.000000 0.000000 0.000000 -110.369899 -7.123090 11.755705 69.630101 5.770817 11.755705 -148.108768 -1.200621 -28.531695 -151.515612 -6.557581 -9.270510 34.277732 8.337999 28.531695 -14.572227 -0.833800 4.045085
1167.352524 605.194867 153.201098 0.000000 0.000000 0.000000 0.000000 0.000000 0.000000 -113.828445 -2.577182 7.362491 66.171555 -1.664165 7.362491 -131.688453 3.164287 -29.468618 -151.045756 -6.684262 -5.621439 27.200835 10.429950 29.468618 -15.279916 -1.042995 3.852566
1139.678879 602.981014 146.171642 0.000000 0.000000 0.000000 0.000000 0.000000 0.000000 -97.599684 4.948572 2.506665 82.400316 2.692491 2.506665 -113.965806 -6.870842 -29.940802 -121.058781 -2.812351 -1.883716 -118.492407 6.274508 29.940802 10.137620 -2.180034 3.644843
1165.830002 580.020189 121.521344 0.000000 0.000000 0.000000 0.000000 0.000000 0.000000 -28.085052 -36.650799 -2.506665 151.914948 13.940867 -2.506665 -150.589103 -5.623814 -29.940802 -172.678414 7.311286 1.883716 -149.717924 -6.375589 29.940802 0.000000 0.000000 0.000000
1184.501953 619.872494 145.828216 0.000000 0.000000 0.000000 0.000000 0.000000 0.000000 -113.790307 29.002504 -7.362491 66.209693 -18.457796 -7.362491 -59.272274 -1.605013 -29.468618 29.476823 -4.610939 5.621439 -88.148483 1.326374 29.468618 7.414604 -0.155528 3.187120
968.090170 444.221640 111.101627 0.000000 0.000000 0.000000 0.000000 0.000000 0.000000 21.092887 -15.883199 -11.755705 180.000000 -5.151542 -11.755705 15.757771 -1.356405 -28.531695 164.242229 -1.962678 9.270510 11.678908 -0.052919 28.531695 18.000000 0.277817 2.938926
968.151278 444.204723 107.528465 0.000000 0.000000 0.000000 0.000000 0.000000 0.000000 20.844337 30.206786 -15.410265 180.000000 -11.119028 -15.410265 15.691895 0.074277 -27.144812 164.308105 -6.679440 12.773379 11.804629 -0.419857 27.144812 18.000000 0.370698 2.679134
968.211492 444.187640 95.975791 0.000000 0.000000 0.000000 0.000000 0.000000 0.000000 20.610265 -7.716681 -18.096541 180.000000 6.092282 -18.096541 15.637361 -6.391865 -25.329838 164.362639 6.029819 16.074804 11.943263 -0.969674 25.329838 18.000000 -0.171890 2.408768
968.270806 444.170392 117.960398 0.000000 0.000000 0.000000 0.000000 0.000000 0.000000 20.390366 -6.141553 -19.645745 180.000000 -1.994816 -19.645745 15.594026 2.293028 -23.115397 164.405974 -2.073751 19.122720 12.095062 -0.865457 23.115397 18.000000 0.292619 2.128896
968.329212 444.152979 93.461965 0.000000 0.000000 0.000000 0.000000 0.000000 0.000000 20.184343 -31.760456 -19.960535 180.000000 15.958671 -19.960535 15.561766 -1.208235 -20.536413 164.438234 10.549662 21.869059 12.260289 -0.205447 20.536413 18.000000 -0.656172 1.840623
968.386706 444.135403 108.149003 0.000000 0.000000 0.000000 0.000000 0.000000 0.000000 19.991916 -26.637070 -19.021130 180.000000 -2.906923 -19.021130 15.540476 1.783146 -17.633558 164.459524 6.318568 24.270510 12.439222 0.499190 17.633558 18.000000 -0.396619 1.545085
968.443279 444.117663 94.898963 0.000000 0.000000 0.000000 0.000000 0.000000 0.000000 19.812814 -23.111050 -16.886559 180.000000 10.388823 -16.886559 15.530069 -2.403717 -14.452610 164.469931 9.684793 26.289200 12.632146 -5.662726 14.452610 18.000000 -0.209161 1.243449
968.498927 444.099761 85.301929 0.000000 0.000000 0.000000 0.000000 0.000000 0.000000 19.646785 -4.326832 -13.690942 180.000000 5.818627 -13.690942 15.530474 -1.744024 -11.043737 164.469526 1.851478 27.893295 12.839349 4.868850 11.043737 18.000000 -0.213921 0.936907
968.553643 444.081696 95.598969 0.000000 0.000000 0.000000 0.000000 0.000000 0.000000 19.493591 -19.257510 -9.635073 180.000000 -2.380090 -9.635073 15.541640 4.660862 -7.460697 164.458360 1.522290 29.057495 13.061119 5.187271 7.460697 18.000000 -0.565138 0.626666
1051.772690 653.004448 63.809226 0.000000 0.000000 0.000000 0.000000 0.000000 0.000000 -79.007834 10.885995 -4.973798 100.992166 -17.694685 -4.973798 -126.715299 -2.330551 -3.759997 -149.991181 -4.546401 29.763441 31.772279 4.527287 3.759997 -14.822772 -0.452729 0.313953
1061.669197 624.716241 62.402319 0.000000 0.000000 0.000000 0.000000 0.000000 0.000000 -94.718359 7.356181 0.000000 85.281641 -16.768203 0.000000 -144.150484 9.196105 -0.000000 60.155085 -1.272119 30.000000 -152.711462 -3.709346 0.000000 1.815393 0.004054 0.000000
1072.053337 571.032879 61.261121 0.000000 0.000000 0.000000 0.000000 0.000000 0.000000 71.424080 7.139449 4.973798 -108.575920 10.063717 4.973798 -149.042361 -3.758781 3.759997 -149.913636 2.514695 29.763441 -145.792107 -4.252608 -3.759997 3.947623 0.434036 0.313953
1070.057373 572.884376 65.084982 0.000000 0.000000 0.000000 0.000000 0.000000 0.000000 -80.850201 13.679134 9.635073 99.149799 -0.845944 9.635073 -147.567525 -3.559799 7.460697 -164.443014 0.849661 29.057495 -145.447997 -4.421361 -7.460697 4.032371 0.420582 0.626666
968.813035 443.988972 64.173629 0.000000 0.000000 0.000000 0.000000 0.000000 0.000000 18.912944 -16.684547 13.690942 180.000000 8.685043 13.690942 15.758200 0.069673 11.043737 164.241800 8.398763 27.893295 14.397395 2.446393 -11.043737 18.000000 0.003382 0.936907
968.862036 443.969952 58.887086 0.000000 0.000000 0.000000 0.000000 0.000000 0.000000 18.832684 -24.869918 16.886559 180.000000 1.798528 16.886559 15.833735 -1.473094 14.452610 164.166265 5.873606 26.289200 14.711463 4.722212 -14.452610 18.000000 -0.745931 1.243449
968.910065 443.950775 50.617513 0.000000 0.000000 0.000000 0.000000 0.000000 0.000000 18.764066 -9.042452 19.021130 180.000000 7.262086 19.021130 15.920102 -7.226013 17.633558 164.079898 7.196854 24.270510 15.041323 -12.345474 -17.633558 18.000000 0.339317 1.545085
968.957118 443.931442 54.194265 0.000000 0.000000 0.000000 0.000000 0.000000 0.000000 18.706990 -6.002058 19.960535 180.000000 5.115651 19.960535 16.017366 -0.751899 20.536413 163.982634 -1.259384 21.869059 15.386894 -8.416987 -20.536413 18.000000 1.158377 1.840623
969.003188 443.911954 41.063394 0.000000 0.000000 0.000000 0.000000 0.000000 0.000000 18.661377 10.193373 19.645745 180.000000 6.107275 19.645745 16.125602 2.310976 23.115397 163.874398 0.054256 19.122720 15.747980 4.758061 -23.115397 18.000000 0.425600 2.128896
969.048271 443.892312 66.790696 0.000000 0.000000 0.000000 0.000000 0.000000 0.000000 18.627165 2.134148 18.096541 180.000000 -0.843929 18.096541 16.244896 0.078055 25.329838 163.755104 1.802716 16.074804 16.124252 -2.245854 -25.329838 18.000000 -0.110531 2.408768
969.092361 443.872515 43.509227 0.000000 0.000000 0.000000 0.000000 0.000000 0.000000 18.604312 7.882830 15.410265 180.000000 -2.185410 15.410265 16.375340 0.562004 27.144812 163.624660 -12.369563 12.773379 16.515224 11.847961 -27.144812 18.000000 0.106803 2.679134
1055.186234 577.357593 52.986786 0.000000 0.000000 0.000000 0.000000 0.000000 0.000000 85.510211 -8.068697 11.755705 -94.489789 0.427679 11.755705 37.103410 -3.655374 28.531695 -148.111343 -2.045039 9.270510 24.294182 2.449567 -28.531695 -8.601915 -2.242174 2.938926
1122.856522 566.714029 54.463325 0.000000 0.000000 0.000000 0.000000 0.000000 0.000000 96.216240 -6.725139 7.362491 -83.783760 6.379479 7.362491 46.189625 -2.572535 29.468618 -149.396962 -1.861402 5.621439 24.670091 2.549088 -29.468618 -7.107716 -0.718022 3.187120
969.218632 443.812213 61.854598 0.000000 0.000000 0.000000 0.000000 0.000000 0.000000 18.603763 -19.815760 2.506665 180.000000 8.984353 2.506665 16.834613 -3.468414 29.940802 163.165387 6.076333 1.883716 17.768624 5.693314 -29.940802 18.000000 -0.388948 3.422736
1112.757797 605.798106 41.035420 0.000000 0.000000 0.000000 0.000000 0.000000 0.000000 110.914625 -15.529276 -2.506665 -69.085375 7.989240 -2.506665 67.769469 3.005952 29.940802 -149.822316 -2.290988 -1.883716 29.049901 2.623294 -29.940802 -3.625079 0.359202 3.644843
1086.733246 592.557156 67.938761 0.000000 0.000000 0.000000 0.000000 0.000000 0.000000 -80.132323 -15.348670 -7.362491 99.867677 39.296757 -7.362491 36.201564 9.106176 29.468618 -13.679556 5.198827 -5.621439 78.049842 3.777282 -29.468618 -5.127460 -0.702724 3.852566
1081.109390 570.394492 61.427850 0.000000 0.000000 0.000000 0.000000 0.000000 0.000000 -175.864613 -8.532942 -11.755705 4.135387 -1.414133 -11.755705 134.713876 -3.809908 28.531695 -10.005873 0.928255 -9.270510 135.737755 -2.931203 -28.531695 -3.389365 -0.001323 4.045085
1089.776802 536.594539 58.785787 0.000000 0.000000 0.000000 0.000000 0.000000 0.000000 -139.033903 2.420109 -15.410265 40.966097 -1.424861 -15.410265 161.695972 1.606289 27.144812 3.114398 -4.281835 -12.773379 148.805610 2.303229 -27.144812 -2.611636 0.131916 4.221640
1114.282036 523.965647 54.249472 0.000000 0.000000 0.000000 0.000000 0.000000 0.000000 -156.073983 -1.763227 -18.096541 23.926017 -3.909994 -18.096541 174.825807 4.451116 25.329838 5.093343 -2.431186 -16.074804 161.266817 2.581387 -25.329838 -1.814366 -0.174106 4.381533
1122.145157 503.425248 70.728600 0.000000 0.000000 0.000000 0.000000 0.000000 0.000000 -144.538174 19.500693 -19.645745 35.461826 -6.966501 -19.645745 174.215003 1.480700 23.115397 -151.750905 -3.267810 -19.122720 43.887064 3.403764 -23.115397 -13.611294 -0.340376 4.524135
1134.158249 484.688419 60.546046 0.000000 0.000000 0.000000 0.000000 0.000000 0.000000 -142.311443 -4.220600 -19.960535 37.688557 11.835995 -19.960535 -174.407776 -1.915014 20.536413 14.121014 4.497556 -21.869059 176.737053 -1.222865 -20.536413 -0.386439 0.067675 4.648882
1156.756668 500.025387 62.972743 0.000000 0.000000 0.000000 0.000000 0.000000 0.000000 -140.140767 3.036270 -19.021130 39.859233 -8.152298 -19.021130 -176.866589 4.815814 17.633558 -153.177991 -3.515804 -24.270510 40.555680 4.739912 -17.633558 -13.944432 -0.473991 4.755283
1163.818588 490.292573 66.600056 0.000000 0.000000 0.000000 0.000000 0.000000 0.000000 -126.918075 -11.472697 -16.886559 53.081925 7.940919 -16.886559 -163.374411 -0.910539 14.452610 -153.952175 -3.788186 -26.289200 36.914642 4.203463 -14.452610 0.798233 0.332255 4.842916
1176.523705 490.346003 91.397548 0.000000 0.000000 0.000000 0.000000 0.000000 0.000000 -130.072590 8.973977 -13.690942 49.927410 2.987782 -13.690942 -150.224616 -2.202012 11.043737 24.749952 -1.536367 -27.893295 -162.219632 -0.528156 -11.043737 1.550269 -0.017582 4.911436
1165.045052 489.521159 79.022315 0.000000 0.000000 0.000000 0.000000 0.000000 0.000000 -134.421293 -9.329469 -9.635073 45.578707 -2.728007 -9.635073 -138.114962 4.703465 7.460697 20.347125 4.616179 -29.057495 -149.675125 1.103309 -7.460697 1.919618 0.069442 4.960574
1186.003189 485.341580 74.712549 0.000000 0.000000 0.000000 0.000000 0.000000 0.000000 151.263424 64.185040 -4.973798 -28.736576 80.837581 -4.973798 -155.571724 -4.585956 3.759997 -114.944239 10.291646 -29.763441 -157.446860 -4.576251 -3.759997 2.096391 0.342686 4.990134
1190.285912 497.609435 95.036183 0.000000 0.000000 0.000000 0.000000 0.000000 0.000000 -104.331435 7.679911 -0.000000 75.668565 32.907776 -0.000000 -153.934692 -5.135404 0.000000 -67.465008 6.107429 -30.000000 -71.629168 -0.497450 -0.000000 -13.965204 7.476696 5.000000
846.875610 502.341399 99.553573 0.000000 0.000000 0.000000 0.000000 0.000000 0.000000 -153.358185 6.471371 4.973798 26.641815 8.066371 4.973798 -147.628169 -5.555976 -3.759997 -147.401289 -5.454766 -29.763441 0.000000 0.000000 0.000000 0.000000 0.000000 0.000000
969.711343 443.490827 107.316573 0.000000 0.000000 0.000000 0.000000 0.000000 0.000000 20.204512 25.684892 9.635073 180.000000 -0.078572 9.635073 20.733157 -9.211990 -7.460697 159.266843 -6.878016 -29.057495 24.065833 10.239965 7.460697 18.000000 -1.478920 4.960574
969.735789 443.468267 111.692834 0.000000 0.000000 0.000000 0.000000 0.000000 0.000000 20.415894 5.573816 13.690942 180.000000 1.040520 13.690942 21.087741 -4.344331 -11.043737 158.912259 -2.982390 -27.893295 24.320336 4.443221 11.043737 18.000000 -0.316399 4.911436
969.759168 443.445569 119.972723 0.000000 0.000000 0.000000 0.000000 0.000000 0.000000 20.642061 25.631813 16.886559 180.000000 -10.230365 16.886559 21.453029 17.002292 -14.452610 158.546971 1.532561 -26.289200 24.533304 -7.263255 14.452610 18.000000 0.750650 4.842916
585.252171 514.469179 121.943112 0.000000 0.000000 0.000000 0.000000 0.000000 0.000000 74.723181 -45.392265 19.021130 -105.276819 71.276645 19.021130 119.807175 6.386915 -17.633558 165.825978 24.020974 -24.270510 138.012220 -11.295899 17.633558 -12.357653 0.880589 4.755283
624.843979 517.601860 100.210225 0.000000 0.000000 0.000000 0.000000 0.000000 0.000000 103.202449 -11.362834 19.960535 -76.797551 23.961698 19.960535 114.381580 -15.475415 -20.536413 -53.015473 -17.825337 -21.869059 145.467160 -0.019372 20.536413 -4.173333 -0.201561 4.648882
969.822873 443.376664 108.349771 0.000000 0.000000 0.000000 0.000000 0.000000 0.000000 21.413420 8.036542 19.645745 180.000000 -2.065864 19.645745 22.607712 8.491270 -23.115397 157.392288 -6.747080 -19.122720 24.899813 13.543564 23.115397 18.000000 -1.452247 4.524135
969.841956 443.353428 135.809920 0.000000 0.000000 0.000000 0.000000 0.000000 0.000000 21.702987 -15.151469 18.096541 180.000000 -3.292125 18.096541 23.009909 10.412486 -25.329838 156.990091 8.497415 -16.074804 24.926562 8.268788 25.329838 18.000000 -0.911891 4.381533
969.859960 443.330059 127.662313 0.000000 0.000000 0.000000 0.000000 0.000000 0.000000 22.009579 -1.015438 15.410265 180.000000 2.029353 15.410265 23.419334 5.888069 -27.144812 156.580666 -5.438631 -12.773379 24.904993 6.955007 27.144812 18.000000 0.814380 4.221640
594.905148 538.048757 142.952950 0.000000 0.000000 0.000000 0.000000 0.000000 0.000000 -57.080480 22.974647 11.755705 122.919520 -21.622551 11.755705 -12.750556 -6.484237 -28.531695 149.841027 -9.851789 -9.270510 -8.274090 0.026359 28.531695 17.596979 -0.121875 4.045085
969.892723 443.282929 150.179381 0.000000 0.000000 0.000000 0.000000 0.000000 0.000000 22.675903 -0.960081 7.362491 180.000000 -3.862257 7.362491 24.255612 9.883093 -29.468618 155.744388 6.950793 -5.621439 24.720303 -1.685692 29.468618 18.000000 -0.322737 3.852566
1257.001877 499.708382 137.657971 0.000000 0.000000 0.000000 0.000000 0.000000 0.000000 52.818511 -6.909458 2.506665 -127.181489 0.676113 2.506665 25.369497 3.510347 -29.940802 -143.914951 1.226571 -1.883716 14.556766 -0.754192 29.940802 -16.686776 0.023835 3.644843
1279.050064 493.773898 149.611297 0.000000 0.000000 0.000000 0.000000 0.000000 0.000000 56.685213 1.892826 -2.506665 -123.314787 11.958109 -2.506665 24.065452 -4.474406 -29.940802 -146.540317 -0.124168 1.883716 13.097461 1.226993 29.940802 -16.716891 0.143856 3.422736
1295.108986 477.099677 160.570440 0.000000 0.000000 0.000000 0.000000 0.000000 0.000000 65.723361 -7.345037 -7.362491 -114.276639 0.176644 -7.362491 23.725299 2.439717 -29.468618 -147.984281 3.302942 5.621439 13.187557 -3.000636 29.468618 -16.751134 0.024640 3.187120
1289.065018 496.763316 158.082227 0.000000 0.000000 0.000000 0.000000 0.000000 0.000000 61.662232 2.410655 -11.755705 -118.337768 -1.733484 -11.755705 31.397757 2.482570 -28.531695 -148.047797 0.588322 9.270510 12.491083 0.238781 28.531695 -16.898368 0.128491 2.938926
1285.337105 480.691112 141.771608 0.000000 0.000000 0.000000 0.000000 0.000000 0.000000 58.021980 -0.486305 -15.410265 -121.978020 3.026309 -15.410265 31.705930 -1.199610 -27.144812 -157.028684 1.297833 12.773379 11.107306 1.211765 27.144812 -17.140016 0.039320 2.679134
1276.453171 465.093691 149.200171 0.000000 0.000000 0.000000 0.000000 0.000000 0.000000 70.157145 -19.088222 -18.096541 -109.842855 8.205274 -18.096541 40.303764 0.599195 -25.329838 -145.293609 13.182547 16.074804 10.431204 -3.790277 25.329838 -17.100572 -0.001940 2.408768
1253.658714 472.768564 145.433694 0.000000 0.000000 0.000000 0.000000 0.000000 0.000000 65.087926 18.812760 -19.645745 -114.912074 -1.757409 -19.645745 -157.680356 -7.147198 -23.115397 -137.727082 -2.020647 19.122720 -153.053596 -6.999367 23.115397 -16.054219 -0.794030 2.128896
1366.101608 507.691247 150.060832 0.000000 0.000000 0.000000 0.000000 0.000000 0.000000 108.715100 29.084500 -19.960535 -71.284900 -43.633885 -19.960535 156.661132 7.769934 -20.536413 -158.224303 -6.359048 21.869059 0.000000 0.000000 0.000000 0.000000 0.000000 0.000000
969.986295 443.064535 144.478131 0.000000 0.000000 0.000000 0.000000 0.000000 0.000000 26.662144 -1.634998 -19.021130 180.000000 15.801134 -19.021130 28.015351 -5.885737 -17.633558 151.984649 12.205121 24.270510 22.068935 -5.760018 17.633558 18.000000 1.087889 1.545085
1282.107124 481.511257 138.294065 0.000000 0.000000 0.000000 0.000000 0.000000 0.000000 80.650781 -14.706682 -16.886559 -99.349219 -24.408495 -16.886559 1.511604 4.856938 -14.452610 -32.896908 -4.106990 26.289200 -7.727072 5.421819 14.452610 13.531851 -4.593387 1.243449
1282.921486 484.777769 161.384562 0.000000 0.000000 0.000000 0.000000 0.000000 0.000000 -81.737646 -33.419226 -13.690942 98.262354 -5.271673 -13.690942 -23.867101 3.058977 -11.043737 12.655668 2.084423 27.893295 -29.454911 -0.556697 11.043737 9.861248 0.921277 0.936907
1290.933037 513.180238 137.809166 0.000000 0.000000 0.000000 0.000000 0.000000 0.000000 -91.387864 -8.482648 -9.635073 88.612136 14.508765 -9.635073 -41.685392 -8.335888 -7.460697 -161.156957 -5.471809 29.057495 15.157863 5.193192 7.460697 10.543436 -1.380923 0.626666
969.999452 442.964284 125.022888 0.000000 0.000000 0.000000 0.000000 0.000000 0.000000 29.025427 16.090806 -4.973798 180.000000 -4.083616 -4.973798 29.437993 -3.421237 -3.759997 150.562007 -7.004314 29.763441 20.404746 1.719450 3.759997 18.000000 -0.802819 0.313953
970.000000 442.938926 128.714475 0.000000 0.000000 0.000000 0.000000 0.000000 0.000000 29.678605 1.506761 0.000000 180.000000 -9.036196 0.000000 29.744881 16.359268 -0.000000 150.255119 -6.023014 30.000000 19.983107 0.538601 0.000000 18.000000 -0.309319 0.000000
1354.522934 467.411410 124.981282 0.000000 0.000000 0.000000 0.000000 0.000000 0.000000 150.622570 0.547476 4.973798 -29.377430 0.893846 4.973798 140.176400 0.940292 3.759997 -12.221629 -0.187582 29.763441 132.794256 0.455600 -3.759997 -2.626015 0.141262 0.313953
969.997807 442.887864 134.135735 0.000000 0.000000 0.000000 0.000000 0.000000 0.000000 31.061399 -3.208038 9.635073 180.000000 15.584563 9.635073 30.285790 -11.131940 7.460697 149.714210 1.397227 29.057495 19.151579 -0.988838 -7.460697 18.000000 0.345053 0.626666
1246.736984 514.278152 131.069035 0.000000 0.000000 0.000000 0.000000 0.000000 0.000000 143.557092 22.328907 13.690942 -36.442908 -7.737818 13.690942 133.761037 3.052349 11.043737 -156.950665 -5.889385 27.893295 0.000000 0.000000 0.000000 1.928484 0.517417 0.936907
1245.221100 458.637464 119.114382 0.000000 0.000000 0.000000 0.000000 0.000000 0.000000 160.701064 15.064781 16.886559 -19.298936 -17.277145 16.886559 140.193827 -0.008610 14.452610 -157.554825 -5.911074 26.289200 29.500467 5.979660 -14.452610 -15.049953 -0.597966 1.243449
1257.365570 418.514181 96.422025 0.000000 0.000000 0.000000 0.000000 0.000000 0.000000 -143.710676 -0.549943 19.021130 36.289324 2.671462 19.021130 163.220413 -3.094192 17.633558 11.688054 1.054186 24.270510 152.038385 0.310775 -17.633558 -2.339948 0.062908 1.545085
1275.099564 408.163741 111.516750 0.000000 0.000000 0.000000 0.000000 0.000000 0.000000 -132.929531 -15.110981 19.960535 47.070469 -12.263494 19.960535 173.491912 0.601085 20.536413 -160.709681 -5.029864 21.869059 33.138793 5.135762 -20.536413 -14.686121 -0.513576 1.840623
1290.611115 384.880857 92.754433 0.000000 0.000000 0.000000 0.000000 0.000000 0.000000 -132.705235 4.928362 19.645745 47.294765 -3.776539 19.645745 -173.778854 -0.830461 23.115397 20.496835 -3.334222 19.122720 -161.220290 -3.477365 -23.115397 1.723235 0.400860 2.128896
1302.817154 380.305352 94.716481 0.000000 0.000000 0.000000 0.000000 0.000000 0.000000 -131.493915 -7.991494 18.096541 48.506085 0.520886 18.096541 -165.393697 1.053299 25.329838 23.154815 2.785396 16.074804 -178.200316 -1.804853 -25.329838 0.138141 0.204113 2.408768
1304.997711 379.563582 94.910606 0.000000 0.000000 0.000000 0.000000 0.000000 0.000000 -126.727972 4.048835 15.410265 53.272028 1.936628 15.410265 -160.219593 2.537178 27.144812 28.448880 -2.987406 12.773379 -174.368770 2.471862 -27.144812 0.079526 0.005120 2.679134
1311.668472 386.890390 74.805082 0.000000 0.000000 0.000000 0.000000 0.000000 0.000000 -122.308728 0.222959 11.755705 57.691272 -12.134602 11.755705 -158.801130 -0.144779 28.531695 150.942637 2.800556 9.270510 -154.878332 -5.191962 -28.531695 2.695409 0.516353 2.938926
1305.131836 395.180186 72.519844 0.000000 0.000000 0.000000 0.000000 0.000000 0.000000 -125.112810 -3.913377 7.362491 54.887190 -13.102875 7.362491 -146.487292 5.011575 29.468618 -175.167369 -0.252596 5.621439 -159.224034 -4.278975 -29.468618 1.782042 0.471001 3.187120
1296.320457 392.734526 79.340347 0.000000 0.000000 0.000000 0.000000 0.000000 0.000000 -131.035750 2.043284 2.506665 48.964250 2.832801 2.506665 -128.969563 -2.882081 29.940802 38.856147 -0.934858 1.883716 -134.776850 0.228867 -29.940802 3.458429 -0.225812 3.422736
1306.963577 386.612041 71.629716 0.000000 0.000000 0.000000 0.000000 0.000000 0.000000 -124.469622 -10.495448 -2.506665 55.530378 10.073507 -2.506665 -109.994856 0.717850 29.940802 37.691309 4.323182 -1.883716 -118.274788 -0.116083 -29.940802 5.098336 -0.034551 3.644843
969.892723 442.572198 65.614322 0.000000 0.000000 0.000000 0.000000 0.000000 0.000000 41.287575 -32.226976 -7.362491 180.000000 26.255530 -7.362491 30.974696 -16.102290 29.468618 149.025304 2.205166 -5.621439 15.072869 5.677045 -29.468618 18.000000 -0.158205 3.852566
969.876883 442.545207 59.840885 0.000000 0.000000 0.000000 0.000000 0.000000 0.000000 42.241956 32.588933 -11.755705 180.000000 2.333789 -11.755705 30.826133 -3.888999 28.531695 149.173867 -4.999753 -9.270510 14.823070 -0.646430 -28.531695 18.000000 -0.286324 4.045085
969.859960 442.518116 75.616846 0.000000 0.000000 0.000000 0.000000 0.000000 0.000000 43.199779 14.060823 -15.410265 180.000000 3.179310 -15.410265 30.649504 -18.978876 27.144812 149.350496 -4.263134 -12.773379 14.587557 -2.741428 -27.144812 18.000000 0.356083 4.221640
969.841956 442.490926 66.843500 0.000000 0.000000 0.000000 0.000000 0.000000 0.000000 44.157210 -22.456174 -18.096541 180.000000 -7.519546 -18.096541 30.446417 2.559824 25.329838 149.553583 12.084547 -16.074804 14.366154 1.603483 -25.329838 18.000000 -0.530140 4.381533
969.822873 442.463637 54.166901 0.000000 0.000000 0.000000 0.000000 0.000000 0.000000 45.110117 18.628325 -19.645745 180.000000 0.405092 -19.645745 30.218633 2.259598 23.115397 149.781367 9.498282 -19.122720 14.158653 -6.378602 -23.115397 18.000000 0.213425 4.524135
969.802712 442.436251 58.567098 0.000000 0.000000 0.000000 0.000000 0.000000 0.000000 46.054109 -9.954926 -19.960535 180.000000 -7.416992 -19.960535 29.968037 21.650071 20.536413 150.031963 -6.192030 -21.869059 13.964823 -1.478055 -20.536413 18.000000 0.301294 4.648882
1187.040939 541.658249 75.002555 0.000000 0.000000 0.000000 0.000000 0.000000 0.000000 82.806623 4.519611 -19.021130 -97.193377 -21.800603 -19.021130 45.395981 12.861667 17.633558 -156.144455 -2.653991 -24.270510 0.000000 0.000000 0.000000 0.000000 0.000000 0.000000
1182.242889 522.024286 67.059116 0.000000 0.000000 0.000000 0.000000 0.000000 0.000000 -105.721938 12.369058 -16.886559 74.278062 0.769803 -16.886559 -155.708006 -2.422321 14.452610 -157.302521 -2.449983 -26.289200 0.000000 0.000000 0.000000 2.684983 0.240216 4.842916
1180.914459 527.065626 46.629750 0.000000 0.000000 0.000000 0.000000 0.000000 0.000000 88.055617 -0.190451 -13.690942 -91.944383 -5.292520 -13.690942 -158.862018 -2.369566 11.043737 -151.747289 -2.939526 -27.893295 0.000000 0.000000 0.000000 0.000000 0.000000 0.000000
1236.800194 541.387432 62.068381 0.000000 0.000000 0.000000 0.000000 0.000000 0.000000 -85.588400 -11.636049 -9.635073 94.411600 10.705634 -9.635073 -159.297106 4.918597 7.460697 -157.915391 -1.781187 -29.057495 26.607362 3.375607 -7.460697 14.926890 -1.710551 4.960574
1161.066513 575.006626 56.736047 0.000000 0.000000 0.000000 0.000000 0.000000 0.000000 -81.021168 -8.044006 -4.973798 98.978832 16.658499 -4.973798 -102.851701 -7.644364 3.759997 -157.041007 -1.550867 -29.763441 21.429890 2.711004 -3.759997 10.859432 -0.644651 4.990134
1255.636253 512.645942 49.369650 0.000000 0.000000 0.000000 0.000000 0.000000 0.000000 77.832564 4.594892 -0.000000 -102.167436 0.112773 -0.000000 -158.264834 -2.299338 0.000000 -130.745502 -0.493694 -30.000000 -157.699225 -2.464891 -0.000000 0.000000 0.000000 0.000000
1265.118484 521.473864 63.171266 0.000000 0.000000 0.000000 0.000000 0.000000 0.000000 64.078276 -6.045945 4.973798 -115.921724 1.216772 4.973798 41.397952 -1.048562 -3.759997 -139.329851 -1.803365 -29.763441 20.223252 1.004055 3.759997 -16.047574 -0.101113 4.990134
1228.099480 522.138258 70.906241 0.000000 0.000000 0.000000 0.000000 0.000000 0.000000 71.050901 -3.330543 9.635073 -108.949099 -0.452003 9.635073 150.099970 -3.248438 -7.460697 -139.894702 2.492714 -29.057495 -156.275691 -3.830559 7.460697 0.000000 0.000000 0.000000
1240.357246 528.695873 56.395000 0.000000 0.000000 0.000000 0.000000 0.000000 0.000000 65.413351 5.147621 13.690942 -114.586649 8.457559 13.690942 147.242328 -3.384262 -11.043737 -154.470720 -2.358387 -27.893295 25.557225 3.059043 11.043737 -15.444278 -0.305904 4.911436
1231.815262 551.380248 62.831322 0.000000 0.000000 0.000000 0.000000 0.000000 0.000000 56.412506 21.661058 16.886559 -123.587494 -14.567689 16.886559 -153.392336 -4.854221 -14.452610 -154.784582 -3.090844 -26.289200 24.191555 3.749204 14.452610 -15.580844 -0.374920 4.842916
1221.475182 508.360147 74.966829 0.000000 0.000000 0.000000 0.000000 0.000000 0.000000 77.450622 8.352698 19.021130 -102.549378 3.948279 19.021130 -156.789784 -3.185536 -17.633558 -125.590168 1.101046 -24.270510 -160.017240 -3.610763 17.633558 1.833434 0.425384 4.755283
969.477684 442.100429 46.518734 0.000000 0.000000 0.000000 0.000000 0.000000 0.000000 54.932575 28.897931 19.960535 180.000000 -22.295904 19.960535 25.919122 -6.031059 -20.536413 154.080878 0.155648 -21.869059 12.612867 -5.568121 20.536413 18.000000 -0.333017 4.648882
1480.140495 518.878891 73.331792 0.000000 0.000000 0.000000 0.000000 0.000000 0.000000 -110.621767 -83.797006 19.645745 69.378233 -31.136867 19.645745 -158.235933 -2.365641 -23.115397 166.031448 0.188430 -19.122720 -155.186432 -2.573285 23.115397 2.641553 0.340130 4.524135
1271.640472 556.840560 69.669230 0.000000 0.000000 0.000000 0.000000 0.000000 0.000000 -94.404719 2.132252 18.096541 85.595281 21.104636 18.096541 -62.417786 -7.771858 -25.329838 23.992813 0.997202 -16.074804 -76.856107 0.332790 25.329838 7.708835 0.200336 4.381533
1258.556786 530.268441 85.737347 0.000000 0.000000 0.000000 0.000000 0.000000 0.000000 78.355945 -3.987575 15.410265 -101.644055 3.803351 15.410265 35.068294 -0.181202 -27.144812 -54.090640 1.316947 -12.773379 35.848220 2.454474 27.144812 -8.104639 -0.984906 4.221640
1250.800209 527.150567 67.634980 0.000000 0.000000 0.000000 0.000000 0.000000 0.000000 72.417769 7.007297 11.755705 -107.582231 7.921730 11.755705 24.571109 -5.627360 -28.531695 -39.196117 3.652717 -9.270510 10.411117 0.305053 28.531695 -9.048616 -0.473770 4.045085
1243.466148 571.776259 85.974022 0.000000 0.000000 0.000000 0.000000 0.000000 0.000000 86.301473 -2.730489 7.362491 -93.698527 15.724621 7.362491 24.553534 -6.254044 -29.468618 -153.460385 -3.699727 -5.621439 19.510484 2.922295 29.468618 -10.109500 1.572907 3.852566
1261.883812 566.052918 113.005830 0.000000 0.000000 0.000000 0.000000 0.000000 0.000000 94.015209 -11.608761 2.506665 -85.984791 15.650385 2.506665 38.959993 -0.834452 -29.940802 -154.008305 -3.531939 -1.883716 20.870951 2.890787 29.940802 -10.872440 0.109759 3.644843
1284.436798 527.190542 99.036964 0.000000 0.000000 0.000000 0.000000 0.000000 0.000000 111.186365 -8.821093 -2.506665 -68.813635 2.937132 -2.506665 58.506163 2.065648 -29.940802 -19.138727 -0.008101 1.883716 51.457372 -1.744465 29.940802 -5.203198 0.252813 3.422736
1272.860069 533.494012 103.179929 0.000000 0.000000 0.000000 0.000000 0.000000 0.000000 72.301471 4.937626 -7.362491 -107.698529 -25.429100 -7.362491 78.802573 -1.424323 -29.468618 -154.772375 -5.319195 5.621439 26.927455 3.510084 29.468618 -15.307255 -0.351008 3.187120
1255.264664 498.243735 113.496581 0.000000 0.000000 0.000000 0.000000 0.000000 0.000000 164.596971 58.307083 -11.755705 -15.403029 -44.859865 -11.755705 125.849126 -4.649064 -28.531695 -156.067666 -5.564469 9.270510 33.087561 4.838948 28.531695 -14.691244 -0.483895 2.938926
1259.202232 470.407684 99.496403 0.000000 0.000000 0.000000 0.000000 0.000000 0.000000 -139.980397 1.361752 -15.410265 40.019603 20.469041 -15.410265 165.887722 -4.161516 -27.144812 -157.901492 -5.175068 12.773379 35.196094 5.528425 27.144812 -14.480391 -0.552842 2.679134
1236.502075 429.951335 120.341535 0.000000 0.000000 0.000000 0.000000 0.000000 0.000000 -113.295066 8.850459 -18.096541 66.704934 -7.885594 -18.096541 -174.664169 1.963187 -25.329838 -159.007335 -6.332906 16.074804 32.868990 6.065179 25.329838 -14.713101 -0.606518 2.408768
1253.359451 413.942538 126.584835 0.000000 0.000000 0.000000 0.000000 0.000000 0.000000 -123.348580 9.827780 -19.645745 56.651420 -1.739083 -19.645745 -167.815074 0.908972 -23.115397 -159.603180 -6.112191 19.122720 32.791747 6.432952 23.115397 -14.720825 -0.643295 2.128896
1281.206589 405.664523 122.905442 0.000000 0.000000 0.000000 0.000000 0.000000 0.000000 -124.414271 6.366086 -19.960535 55.585729 -9.935204 -19.960535 -161.281803 4.338260 -20.536413 28.568449 -1.148499 21.869059 -159.052798 -5.133475 20.536413 1.849141 0.460839 1.840623
1300.238571 418.760215 129.080617 0.000000 0.000000 0.000000 0.000000 0.000000 0.000000 -126.263092 0.340368 -19.021130 53.736908 3.772263 -19.021130 -159.739358 -3.360774 -17.633558 31.487961 -1.898983 24.270510 -170.323915 0.665441 17.633558 0.671815 -0.156105 1.545085
1321.889191 413.634385 122.196845 0.000000 0.000000 0.000000 0.000000 0.000000 0.000000 -133.874471 -2.361567 -16.886559 46.125529 -0.309678 -16.886559 -159.376251 2.238957 -14.452610 30.696824 -1.407164 26.289200 -164.929556 -0.495847 14.452610 1.089735 -0.040647 1.243449
1336.221428 432.881820 136.249716 0.000000 0.000000 0.000000 0.000000 0.000000 0.000000 -115.020798 2.627547 -13.690942 64.979202 -5.264371 -13.690942 -135.609544 3.755944 -11.043737 -161.321630 -6.191705 27.893295 17.353502 7.956139 11.043737 -16.264650 -0.795614 0.936907
1329.124603 416.860342 149.241628 0.000000 0.000000 0.000000 0.000000 0.000000 0.000000 -134.023347 0.207630 -9.635073 45.976653 -1.741808 -9.635073 -128.030830 2.553317 -7.460697 28.249885 4.662363 29.057495 -136.447985 -2.364581 7.460697 4.038834 -0.057330 0.626666
1343.366776 427.060794 148.749401 0.000000 0.000000 0.000000 0.000000 0.000000 0.000000 -130.153347 12.187776 -4.973798 49.846653 -12.643613 -4.973798 -103.564435 3.515312 -3.759997 27.398095 -2.859602 29.763441 -115.461530 -0.031129 3.759997 5.470063 -0.142763 0.313953
1376.991005 465.829636 156.827915 0.000000 0.000000 0.000000 0.000000 0.000000 0.000000 -120.272352 8.327352 0.000000 59.727648 -17.306234 0.000000 -62.204131 -4.864717 -0.000000 27.740602 -8.918144 30.000000 -80.461527 4.437904 0.000000 7.450891 0.194746 0.000000
1384.978867 468.790376 137.685914 0.000000 0.000000 0.000000 0.000000 0.000000 0.000000 -93.720384 -63.397723 4.973798 86.279616 45.021273 4.973798 3.847814 -5.769291 3.759997 -160.438787 -5.497467 29.763441 15.990976 5.272812 -3.759997 7.894783 0.948512 0.313953
1345.894547 516.257268 144.491978 0.000000 0.000000 0.000000 0.000000 0.000000 0.000000 127.577640 3.903346 9.635073 -52.422360 -10.173556 9.635073 53.096359 -11.995076 7.460697 -159.021748 -6.801926 29.057495 18.308456 5.621764 -7.460697 -4.062191 -1.411327 0.626666
968.498927 441.455181 133.988941 0.000000 0.000000 0.000000 0.000000 0.000000 0.000000 47.920147 4.315828 13.690942 180.000000 5.964271 13.690942 19.641385 -6.284445 11.043737 160.358615 -0.226000 27.893295 13.993219 -2.502100 -11.043737 18.000000 -0.109851 0.936907
1336.846733 493.527671 148.143351 0.000000 0.000000 0.000000 0.000000 0.000000 0.000000 102.681311 2.263985 16.886559 -77.318689 -27.438345 16.886559 35.985219 -0.747463 14.452610 -159.617763 -6.679532 26.289200 19.375410 5.699421 -14.452610 -16.062459 -0.569942 1.243449
968.386706 441.394956 154.568055 0.000000 0.000000 0.000000 0.000000 0.000000 0.000000 46.120581 24.757524 19.021130 180.000000 -2.927221 19.021130 19.316787 2.983316 17.633558 160.683213 -1.286385 24.270510 14.327067 3.429349 -17.633558 18.000000 -0.519508 1.545085
1263.984947 433.341283 129.058582 0.000000 0.000000 0.000000 0.000000 0.000000 0.000000 -115.578373 11.151017 19.960535 64.421627 1.536499 19.960535 -82.396446 -5.011721 20.536413 25.733383 -5.661639 21.869059 -77.477544 -7.853666 -20.536413 5.836928 1.819219 1.840623
1352.596436 477.564354 141.416675 0.000000 0.000000 0.000000 0.000000 0.000000 0.000000 -99.196741 8.011142 19.645745 80.803259 -2.059580 19.645745 -125.272585 -0.269303 23.115397 -162.405270 -6.898050 19.122720 17.377627 5.934508 -23.115397 -16.262237 -0.593451 2.128896
1384.326782 408.174427 140.379188 0.000000 0.000000 0.000000 0.000000 0.000000 0.000000 96.868601 -17.220265 18.096541 -83.131399 -2.919586 18.096541 -160.848957 -6.380145 25.329838 -137.255583 3.150691 16.074804 -162.076720 -7.673739 -25.329838 0.000000 0.000000 0.000000
1387.580223 387.128634 143.082024 0.000000 0.000000 0.000000 0.000000 0.000000 0.000000 78.087764 3.826774 15.410265 -101.912236 10.793817 15.410265 -161.807915 -6.362777 27.144812 -147.504361 0.235643 12.773379 -162.566306 -7.016221 -27.144812 1.735427 0.856882 2.679134
1345.818558 392.423122 148.089567 0.000000 0.000000 0.000000 0.000000 0.000000 0.000000 71.782984 0.026438 11.755705 -108.217016 -10.967988 11.755705 -169.469261 3.013999 28.531695 -153.903088 -0.433596 9.270510 -154.670689 -0.060270 -28.531695 15.277725 1.783772 2.938926
1331.471329 361.814139 142.364100 0.000000 0.000000 0.000000 0.000000 0.000000 0.000000 53.586100 10.397904 7.362491 -126.413900 -5.224715 7.362491 -162.290330 -5.950096 29.468618 -154.912165 1.113232 5.621439 -162.550394 -7.572638 -29.468618 1.742175 0.835415 3.187120
1354.413986 427.213873 142.710400 0.000000 0.000000 0.000000 0.000000 0.000000 0.000000 -131.358118 -19.605868 2.506665 48.641882 26.434714 2.506665 -142.488821 -2.679346 29.940802 -161.977882 -5.255906 1.883716 12.673705 8.425551 -29.940802 1.397524 -0.027447 3.422736
1330.326691 347.207226 110.846428 0.000000 0.000000 0.000000 0.000000 0.000000 0.000000 52.464175 -10.582706 -2.506665 -127.535825 -8.975444 -2.506665 14.270918 1.404424 29.940802 -122.057234 -3.457635 -1.883716 22.820874 1.600984 -29.940802 -15.244909 0.010605 3.644843
1317.103271 414.475805 117.310981 0.000000 0.000000 0.000000 0.000000 0.000000 0.000000 76.170457 29.087599 -7.362491 -103.829543 -25.929169 -7.362491 -50.250674 7.510864 29.468618 -52.503744 -7.383616 -5.621439 -92.793049 6.320079 -29.468618 3.303440 -0.158632 3.852566
1331.844635 430.291482 126.156800 0.000000 0.000000 0.000000 0.000000 0.000000 0.000000 79.985160 0.886658 -11.755705 -100.014840 -3.911625 -11.755705 25.995082 -2.845337 28.531695 -75.062603 -0.065660 -9.270510 38.761234 -1.801927 -28.531695 -11.442229 -0.040604 4.045085
1359.462433 496.472383 110.796789 0.000000 0.000000 0.000000 0.000000 0.000000 0.000000 84.268829 4.877393 -15.410265 -95.731171 -1.664669 -15.410265 30.279153 -1.055698 27.144812 -63.318008 -6.946158 -12.773379 39.457716 3.072031 -27.144812 -9.485742 -0.005157 4.221640
1323.514366 546.771398 116.352017 0.000000 0.000000 0.000000 0.000000 0.000000 0.000000 84.407325 3.331899 -18.096541 -95.592675 6.188398 -18.096541 27.768249 -3.418474 25.329838 -47.660055 -1.591150 -16.074804 28.281511 4.574553 -25.329838 -7.827901 -0.233366 4.381533
1268.535347 591.567099 127.910495 0.000000 0.000000 0.000000 0.000000 0.000000 0.000000 90.890792 4.605057 -19.645745 -89.109208 -2.141407 -19.645745 44.654760 -3.100465 23.115397 -48.200667 -1.658290 -19.122720 43.369388 3.919904 -23.115397 -8.974980 -0.564026 4.524135
1303.157158 602.888768 94.659469 0.000000 0.000000 0.000000 0.000000 0.000000 0.000000 90.349289 4.026776 -19.960535 -89.650711 -7.163530 -19.960535 47.707312 2.378669 20.536413 -53.918782 -0.826944 -21.869059 40.070965 2.210368 -20.536413 -9.318632 -0.402796 4.648882
1314.841690 613.141973 93.626757 0.000000 0.000000 0.000000 0.000000 0.000000 0.000000 94.480501 -2.632543 -19.021130 -85.519499 3.230193 -19.021130 58.462862 -1.592197 17.633558 -52.020507 3.852319 -24.270510 55.276552 -2.937379 -17.633558 -7.777523 0.077101 4.755283
1327.521400 639.394319 92.915205 0.000000 0.000000 0.000000 0.000000 0.000000 0.000000 99.879576 2.102584 -16.886559 -80.120424 -0.413708 -16.886559 69.161359 2.733269 14.452610 -46.413613 -0.931440 -26.289200 76.680143 1.026840 -14.452610 -6.257768 0.046452 4.842916
1277.812729 671.228578 99.242049 0.000000 0.000000 0.000000 0.000000 0.000000 0.000000 99.708534 9.737173 -13.690942 -80.291466 -9.729718 -13.690942 92.239140 0.998752 11.043737 -26.764021 -6.562598 -27.893295 98.168457 0.760239 -11.043737 -4.372074 0.131929 4.911436
1309.642181 690.479329 82.084581 0.000000 0.000000 0.000000 0.000000 0.000000 0.000000 117.292414 -7.163313 -9.635073 -62.707586 12.171311 -9.635073 137.002702 -3.123898 7.460697 -32.045917 2.609094 -29.057495 135.211322 -0.722416 -7.460697 -3.212944 -0.036991 4.960574
1299.770966 664.126496 98.999927 0.000000 0.000000 0.000000 0.000000 0.000000 0.000000 158.531160 -2.392194 -4.973798 -21.468840 6.063545 -4.973798 161.478323 -0.320071 3.759997 -12.838206 6.525031 -29.763441 151.269584 -3.705782 -3.759997 -2.521934 0.191799 4.990134
1313.353729 643.668108 75.785355 0.000000 0.000000 0.000000 0.000000 0.000000 0.000000 -154.315892 -2.421581 -0.000000 25.684108 20.958406 -0.000000 173.459940 -2.760587 0.000000 1.519689 -0.920533 -30.000000 164.244875 1.008527 -0.000000 -1.552244 0.093916 5.000000
1342.841377 638.982847 64.450618 0.000000 0.000000 0.000000 0.000000 0.000000 0.000000 -138.993869 -0.158133 4.973798 41.006131 -23.329432 4.973798 175.724056 2.875314 -3.759997 -151.723069 -3.199774 -29.763441 43.242568 4.017667 3.759997 -13.675743 -0.401767 4.990134
1350.000229 614.724133 53.272272 0.000000 0.000000 0.000000 0.000000 0.000000 0.000000 -144.248147 -13.123602 9.635073 35.751853 2.762780 9.635073 177.069273 3.379667 -7.460697 -152.227621 -2.843304 -29.057495 43.136563 3.922273 7.460697 -13.686344 -0.392227 4.960574
1328.535919 624.780936 57.333648 0.000000 0.000000 0.000000 0.000000 0.000000 0.000000 -165.447222 3.473080 13.690942 14.552778 -3.958228 13.690942 169.657511 -0.397254 -11.043737 -152.168050 -3.140761 -27.893295 41.929642 3.540415 11.043737 -13.807036 -0.354042 4.911436
1318.810501 615.688248 50.434283 0.000000 0.000000 0.000000 0.000000 0.000000 0.000000 -120.063657 -3.007236 16.886559 59.936343 6.069639 16.886559 -165.389465 -3.903719 -14.452610 -152.866764 -2.165795 -26.289200 39.162270 3.771399 14.452610 -14.083773 -0.377140 4.842916
1321.656418 659.275410 62.321115 0.000000 0.000000 0.000000 0.000000 0.000000 0.000000 -121.435085 19.864121 19.021130 58.564915 -18.759534 19.021130 -149.190712 2.555768 -17.633558 -151.926374 -3.143125 -24.270510 33.097066 3.673527 17.633558 -14.690293 -0.367353 4.755283
1328.445511 687.490232 49.661446 0.000000 0.000000 0.000000 0.000000 0.000000 0.000000 -104.253419 10.246092 19.960535 75.746581 -2.237591 19.960535 -110.140878 -1.398737 -20.536413 -152.911692 -2.732483 -21.869059 23.882145 2.354314 20.536413 3.694979 -0.022315 4.648882
966.534206 440.564282 70.562394 0.000000 0.000000 0.000000 0.000000 0.000000 0.000000 25.865486 -8.900444 19.645745 180.000000 4.320467 19.645745 18.728337 4.767820 -23.115397 161.271663 3.848804 -19.122720 19.024234 -2.845140 23.115397 18.000000 0.870858 4.524135
966.454577 440.533056 42.516450 0.000000 0.000000 0.000000 0.000000 0.000000 0.000000 25.417507 29.022639 18.096541 180.000000 -24.582908 18.096541 18.825450 11.039949 -25.329838 161.174550 -15.781700 -16.074804 19.071566 3.020167 25.329838 18.000000 0.328515 4.381533
966.374240 440.501809 48.110156 0.000000 0.000000 0.000000 0.000000 0.000000 0.000000 24.990320 17.499533 15.410265 180.000000 -13.326320 15.410265 18.929718 7.797073 -27.144812 161.070282 -2.163247 -12.773379 19.102411 -1.169856 27.144812 18.000000 -0.115594 4.221640
966.293204 440.470542 41.578786 0.000000 0.000000 0.000000 0.000000 0.000000 0.000000 24.583377 -8.398832 11.755705 180.000000 4.055237 11.755705 19.040946 -5.731384 -28.531695 160.959054 -2.453253 -9.270510 19.116765 8.630772 28.531695 18.000000 -0.750296 4.045085
966.211478 440.439256 60.903266 0.000000 0.000000 0.000000 0.000000 0.000000 0.000000 24.196129 14.356813 7.362491 180.000000 7.015652 7.362491 19.158923 -8.487786 -29.468618 160.841077 -1.151661 -5.621439 19.114778 1.236878 29.468618 18.000000 -1.138532 3.852566
644.985180 745.864069 74.721836 0.000000 0.000000 0.000000 0.000000 0.000000 0.000000 96.086415 11.598899 2.506665 -83.913585 -10.561124 2.506665 -159.662371 -1.488303 -29.940802 -116.741565 -12.945358 -1.883716 -176.001217 9.674641 29.940802 -1.006627 -1.075590 3.644843
1269.020119 699.025490 42.002326 0.000000 0.000000 0.000000 0.000000 0.000000 0.000000 83.810916 10.460036 -2.506665 -96.189084 -0.179905 -2.506665 51.932890 0.417023 -29.940802 -149.314466 -2.630648 1.883716 27.598511 1.416076 29.940802 -15.240149 -0.141608 3.422736
573.721218 678.450201 50.276248 0.000000 0.000000 0.000000 0.000000 0.000000 0.000000 18.756393 -54.042945 -7.362491 -161.243607 28.589358 -7.362491 -174.158094 10.832063 -29.468618 178.010322 -1.096114 5.621439 -154.394154 3.763560 29.468618 11.886524 -2.161826 3.187120
1261.580200 714.897366 53.609027 0.000000 0.000000 0.000000 0.000000 0.000000 0.000000 87.191276 -11.722582 -11.755705 -92.808724 9.004857 -11.755705 23.129119 -2.250762 -28.531695 -149.376238 -2.022098 9.270510 24.545507 1.677721 28.531695 13.583501 -3.643492 2.938926
1314.655838 684.171546 54.081956 0.000000 0.000000 0.000000 0.000000 0.000000 0.000000 61.219932 -4.574102 -15.410265 -118.780068 6.046728 -15.410265 25.476616 -3.348590 -27.144812 -150.404247 -1.847819 12.773379 24.621454 2.003566 27.144812 -15.537855 -0.200357 2.679134
1319.638939 674.820013 63.581521 0.000000 0.000000 0.000000 0.000000 0.000000 0.000000 82.055377 -3.206343 -18.096541 -97.944623 5.126584 -18.096541 17.325085 5.856054 -25.329838 -60.067277 -2.169179 16.074804 23.747728 3.057065 25.329838 -13.005173 -0.676575 2.408768
1367.852325 659.536314 53.032076 0.000000 0.000000 0.000000 0.000000 0.000000 0.000000 -150.278430 -39.554384 -19.645745 29.721570 -1.458964 -19.645745 -151.222797 -2.366035 -23.115397 18.758043 -2.320300 19.122720 -152.451920 -1.864571 23.115397 2.484143 0.210346 2.128896
1392.624664 638.981302 76.215600 0.000000 0.000000 0.000000 0.000000 0.000000 0.000000 -122.704248 -7.955612 -19.960535 57.295752 3.201250 -19.960535 -134.513385 -0.386860 -20.536413 30.292627 1.042105 21.869059 -146.694539 1.473399 20.536413 2.430965 -0.011587 1.840623
1401.291389 646.422758 57.033864 0.000000 0.000000 0.000000 0.000000 0.000000 0.000000 83.316637 4.388045 -19.021130 -96.683363 -3.685674 -19.021130 29.335627 -5.205271 -17.633558 -136.281416 -4.747623 24.270510 19.119183 0.896707 17.633558 -15.871560 0.123197 1.545085
1381.838951 663.410475 81.808052 0.000000 0.000000 0.000000 0.000000 0.000000 0.000000 79.215331 4.130893 -16.886559 -100.784669 -11.720450 -16.886559 30.640455 0.578405 -14.452610 -139.113455 -2.589009 26.289200 14.302413 0.109451 14.452610 -16.408036 -0.041736 1.243449
1390.185928 664.248354 88.719759 0.000000 0.000000 0.000000 0.000000 0.000000 0.000000 75.546066 -7.746475 -13.690942 -104.453934 -3.212814 -13.690942 38.995097 7.788370 -11.043737 -142.871297 6.169022 27.893295 14.209110 0.006950 11.043737 -16.737090 -0.171722 0.936907
1393.889923 677.551103 88.604495 0.000000 0.000000 0.000000 0.000000 0.000000 0.000000 84.293627 3.349133 -9.635073 -95.706373 -4.098533 -9.635073 -152.700272 -3.315846 -7.460697 -143.357755 -4.119733 29.057495 -148.868889 -3.386977 7.460697 3.626268 0.454704 0.626666
905.601082 693.654528 102.372381 0.000000 0.000000 0.000000 0.000000 0.000000 0.000000 -84.410869 -18.035044 -4.973798 95.589131 3.372624 -4.973798 -139.498802 -4.287333 -3.759997 -178.556713 11.329447 29.763441 -142.061844 -4.438936 3.759997 3.411456 0.454509 0.313953
1337.643929 680.318756 86.869780 0.000000 0.000000 0.000000 0.000000 0.000000 0.000000 78.192517 3.455185 0.000000 -101.807483 -2.142567 0.000000 48.289813 -3.112442 -0.000000 -140.291980 -1.873371 30.000000 13.663140 0.907369 0.000000 -17.395561 -0.058723 0.000000
1322.670708 685.543334 96.707624 0.000000 0.000000 0.000000 0.000000 0.000000 0.000000 71.501063 -7.906000 4.973798 -108.498937 10.337541 4.973798 23.648228 0.312897 3.759997 -144.586500 2.695719 29.763441 14.578018 -1.622232 -3.759997 -16.885607 -0.054721 0.313953
1305.530548 682.910864 100.070465 0.000000 0.000000 0.000000 0.000000 0.000000 0.000000 72.979287 -37.563675 9.635073 -107.020713 8.085184 9.635073 -148.728581 -4.192145 7.460697 -74.802907 3.164967 29.057495 -151.178244 -4.282779 -7.460697 2.601049 0.383614 0.626666
1359.363556 692.650115 112.375692 0.000000 0.000000 0.000000 0.000000 0.000000 0.000000 73.244804 -4.941820 13.690942 -106.755196 -3.040866 13.690942 13.983499 4.750203 11.043737 -67.611809 -0.893806 27.893295 13.130547 3.388129 -11.043737 -11.004089 0.250673 0.936907
1299.495964 679.994059 134.809660 0.000000 0.000000 0.000000 0.000000 0.000000 0.000000 116.206779 -3.901485 16.886559 -63.793221 9.559242 16.886559 -150.858719 -5.166097 14.452610 -34.548592 -0.679983 26.289200 60.366751 6.645807 -14.452610 -4.627493 -0.798830 1.243449
1306.260338 711.527116 136.334593 0.000000 0.000000 0.000000 0.000000 0.000000 0.000000 -85.758672 1.205089 19.021130 94.241328 2.343214 19.021130 -31.461750 3.630548 17.633558 -4.237664 1.610119 24.270510 -15.215787 -3.677607 -17.633558 7.867754 3.034669 1.545085
1272.614822 704.778571 113.970243 0.000000 0.000000 0.000000 0.000000 0.000000 0.000000 -78.634637 -4.768186 19.960535 101.365363 -2.034990 19.960535 -34.118569 2.383625 20.536413 22.539652 1.032911 21.869059 -31.373170 0.658786 -20.536413 11.310693 -0.459904 1.840623
1310.345650 676.427021 142.830755 0.000000 0.000000 0.000000 0.000000 0.000000 0.000000 97.572435 7.573834 19.645745 -82.427565 -3.217435 19.645745 50.400703 0.411074 23.115397 -39.584286 -2.307389 19.122720 44.966766 -2.414334 -23.115397 -8.852712 1.424075 2.128896
1315.732956 671.025095 138.795395 0.000000 0.000000 0.000000 0.000000 0.000000 0.000000 97.797337 9.566491 18.096541 -82.202663 -13.182867 18.096541 49.825934 3.898863 25.329838 -39.162923 -8.483159 16.074804 36.475631 4.996504 -25.329838 -8.191519 -0.892182 2.408768
1329.935532 653.525419 122.119246 0.000000 0.000000 0.000000 0.000000 0.000000 0.000000 96.469555 5.198164 15.410265 -83.530445 -7.875188 15.410265 63.882053 2.315306 27.144812 -51.972064 -2.026740 12.773379 58.624362 0.881364 -27.144812 -8.239564 0.147787 2.679134
1316.170578 674.246514 144.253309 0.000000 0.000000 0.000000 0.000000 0.000000 0.000000 -87.946330 9.211651 11.755705 92.053670 -3.810944 11.755705 -29.715798 -4.253211 28.531695 54.212796 -8.486155 9.270510 -40.560774 4.752444 -28.531695 11.008015 -0.641559 2.938926
1317.367287 678.027205 135.384097 0.000000 0.000000 0.000000 0.000000 0.000000 0.000000 95.152942 -13.030357 7.362491 -84.847058 9.590248 7.362491 98.792835 6.072463 29.468618 -150.515547 -5.045829 5.621439 32.983753 6.110298 -29.468618 -14.701625 -0.611030 3.187120
1318.168488 670.157025 134.032627 0.000000 0.000000 0.000000 0.000000 0.000000 0.000000 -151.252255 56.540673 2.506665 28.747745 -15.804367 2.506665 138.896993 -5.762585 29.940802 -151.946620 -6.411356 1.883716 38.784684 5.424762 -29.940802 -14.121532 -0.542476 3.422736
1323.412628 644.667885 152.555030 0.000000 0.000000 0.000000 0.000000 0.000000 0.000000 -97.904066 0.454648 -2.506665 82.095934 -30.676491 -2.506665 155.695030 3.148814 29.940802 -152.500978 -6.561817 -1.883716 44.721081 6.411682 -29.940802 -13.527892 -0.641168 3.644843
1312.776718 630.059459 144.971425 0.000000 0.000000 0.000000 0.000000 0.000000 0.000000 -116.637972 9.767972 -7.362491 63.362028 -34.866260 -7.362491 171.094570 1.989483 29.468618 -152.894064 -7.110248 -5.621439 43.947863 6.376265 -29.468618 -13.605214 -0.637626 3.852566
1316.420746 625.237019 143.280434 0.000000 0.000000 0.000000 0.000000 0.000000 0.000000 -136.254273 14.877149 -11.755705 43.745727 -5.565393 -11.755705 -177.663204 -1.272452 28.531695 -153.006287 -6.518551 -9.270510 42.784597 8.191794 -28.531695 -13.721540 -0.819179 4.045085
1314.719925 628.818026 151.348597 0.000000 0.000000 0.000000 0.000000 0.000000 0.000000 -114.737929 -7.935493 -15.410265 65.262071 -4.869041 -15.410265 -169.764314 -0.234657 27.144812 -153.369487 -6.187474 -12.773379 41.498347 8.466383 -27.144812 -13.850165 -0.846638 4.221640
1334.396782 646.165652 151.437579 0.000000 0.000000 0.000000 0.000000 0.000000 0.000000 -116.903454 7.387514 -18.096541 63.096546 -9.096489 -18.096541 -154.594534 2.224675 25.329838 -153.225015 -6.588750 -16.074804 37.136182 9.584450 -25.329838 -14.286382 -0.958445 4.381533
1340.823784 648.244128 150.537140 0.000000 0.000000 0.000000 0.000000 0.000000 0.000000 -116.932323 -7.494589 -19.645745 63.067677 -2.850396 -19.645745 -138.898656 3.847576 23.115397 35.335752 -0.699268 -19.122720 -153.336856 2.212743 -23.115397 2.206211 -0.207046 4.524135
1330.023880 654.599032 142.630260 0.000000 0.000000 0.000000 0.000000 0.000000 0.000000 -112.150704 13.127366 -19.960535 67.849296 0.754661 -19.960535 -118.798313 -2.868965 20.536413 -153.636372 -6.567348 -21.869059 16.691869 8.205692 -20.536413 -16.330813 -0.820569 4.648882
1337.431641 662.410698 150.018883 0.000000 0.000000 0.000000 0.000000 0.000000 0.000000 -109.111809 0.792862 -19.021130 70.888191 0.484660 -19.021130 -91.144379 -3.003722 17.633558 -154.448144 -6.577040 -24.270510 10.298202 7.027403 -17.633558 6.642051 -0.020146 4.755283
1324.339714 676.416593 158.260122 0.000000 0.000000 0.000000 0.000000 0.000000 0.000000 -104.120178 -16.331595 -16.886559 75.879822 12.574352 -16.886559 -57.095620 -2.377568 14.452610 38.799650 2.127220 -26.289200 -71.942639 -2.089243 -14.452610 8.831938 0.052439 4.842916
962.890318 439.311049 138.340187 0.000000 0.000000 0.000000 0.000000 0.000000 0.000000 19.986963 -21.180738 -13.690942 180.000000 10.169111 -13.690942 24.297229 -6.709903 11.043737 155.702771 7.466503 -27.893295 14.983342 -0.141129 -11.043737 18.000000 0.175416 4.911436
962.789911 439.279946 145.724030 0.000000 0.000000 0.000000 0.000000 0.000000 0.000000 20.089586 11.976812 -9.635073 180.000000 -5.335398 -9.635073 24.330184 5.428123 7.460697 155.669816 -15.538773 -29.057495 14.926290 6.501210 -7.460697 18.000000 -0.306501 4.960574
641.318550 641.336324 143.991122 0.000000 0.000000 0.000000 0.000000 0.000000 0.000000 163.642929 30.559372 -4.973798 -16.357071 -13.090136 -4.973798 -155.926011 -0.490209 3.759997 -130.644608 -9.189471 -29.763441 68.679337 11.876231 -3.759997 -11.132066 -1.187623 4.990134
1305.385551 662.289033 146.696783 0.000000 0.000000 0.000000 0.000000 0.000000 0.000000 -81.949824 13.340092 -0.000000 98.050176 -5.505054 -0.000000 9.536664 -8.796898 0.000000 -153.586691 -6.142767 -30.000000 24.402531 4.653246 -0.000000 -15.559747 -0.465325 5.000000
962.486899 439.186814 138.585915 0.000000 0.000000 0.000000 0.000000 0.000000 0.000000 20.465882 -15.823059 4.973798 180.000000 -3.447197 4.973798 24.357206 11.288801 -3.759997 155.642794 6.100941 -29.763441 14.800425 -4.063605 3.759997 18.000000 0.160951 4.990134
1216.314240 612.580640 144.040439 0.000000 0.000000 0.000000 0.000000 0.000000 0.000000 78.221991 8.869460 9.635073 -101.778009 -9.351027 9.635073 46.689014 3.660020 -7.460697 -61.937558 -9.920506 -29.057495 44.546377 10.086184 7.460697 -10.771750 -1.255795 4.960574
1273.897820 573.707514 135.066423 0.000000 0.000000 0.000000 0.000000 0.000000 0.000000 77.469628 -1.568626 13.690942 -102.530372 -6.632308 13.690942 -155.691164 -4.158114 -11.043737 -120.750172 0.287652 -27.893295 -156.229293 -5.271073 11.043737 2.162203 0.604679 4.911436
1337.358742 570.303276 126.986979 0.000000 0.000000 0.000000 0.000000 0.000000 0.000000 73.705918 1.716680 16.886559 -106.294082 -2.914665 16.886559 -155.918376 -5.328999 -14.452610 -149.887909 -5.225163 -26.289200 0.000000 0.000000 0.000000 0.000000 0.000000 0.000000
1342.446442 569.623497 107.218103 0.000000 0.000000 0.000000 0.000000 0.000000 0.000000 68.898287 -2.284799 19.021130 -111.101713 3.830314 19.021130 39.314088 2.533073 -17.633558 -140.912764 -0.837331 -24.270510 -153.216026 -5.329997 17.633558 2.759242 0.593510 4.755283
1335.759430 584.665475 121.160207 0.000000 0.000000 0.000000 0.000000 0.000000 0.000000 66.989329 9.673082 19.960535 -113.010671 -7.967872 19.960535 -154.807077 -4.320512 -20.536413 -142.328055 -0.015321 -21.869059 -153.049156 -6.238268 20.536413 2.866457 0.723922 4.648882
1337.950974 598.074245 103.877068 0.000000 0.000000 0.000000 0.000000 0.000000 0.000000 62.697633 -5.539263 19.645745 -117.302367 -2.157522 19.645745 19.366736 3.111315 -23.115397 -144.826223 1.318455 -19.122720 9.911455 1.100186 23.115397 -17.004209 -0.218758 4.524135
1352.846489 601.043322 105.146107 0.000000 0.000000 0.000000 0.000000 0.000000 0.000000 59.083577 4.014621 18.096541 -120.916423 -9.786403 18.096541 20.876734 2.837247 -25.329838 -142.301690 2.438865 -16.074804 13.356960 -0.171938 25.329838 -16.821524 -0.123581 4.381533
1347.310982 587.475100 106.567870 0.000000 0.000000 0.000000 0.000000 0.000000 0.000000 56.169135 -2.950492 15.410265 -123.830865 0.897875 15.410265 21.172503 -0.172881 -27.144812 -139.640745 1.255502 -12.773379 14.641496 0.030764 27.144812 -16.282575 -0.025309 4.221640
1326.982155 606.886139 78.118562 0.000000 0.000000 0.000000 0.000000 0.000000 0.000000 70.119981 6.812495 11.755705 -109.880019 -11.507737 11.755705 26.511889 3.030537 -28.531695 -111.264667 -4.365819 -9.270510 31.153840 1.065196 28.531695 -13.943905 0.049015 4.045085
1354.391098 626.185555 72.872637 0.000000 0.000000 0.000000 0.000000 0.000000 0.000000 88.154395 -9.453840 7.362491 -91.845605 8.168576 7.362491 30.442275 -2.989161 -29.468618 -76.284233 5.500094 -5.621439 43.854867 -3.389171 29.468618 -10.818190 -0.057688 3.852566
1370.667114 610.219567 56.901721 0.000000 0.000000 0.000000 0.000000 0.000000 0.000000 89.945118 8.645391 2.506665 -90.054882 -3.391423 2.506665 44.053326 -0.370000 -29.940802 -56.238091 -1.351382 -1.883716 55.411270 -4.046467 29.940802 -7.805659 0.294707 3.644843
1372.834854 597.828534 82.201308 0.000000 0.000000 0.000000 0.000000 0.000000 0.000000 93.407992 -2.340056 -2.506665 -86.592008 -3.955455 -2.506665 54.165845 -0.245686 -29.940802 -47.239220 -1.581522 1.883716 56.575186 -4.073802 29.940802 -6.344474 0.069628 3.422736
1336.554337 597.454848 55.387432 0.000000 0.000000 0.000000 0.000000 0.000000 0.000000 95.622643 -0.391049 -7.362491 -84.377357 -1.390424 -7.362491 56.597780 -5.973658 -29.468618 -45.108662 -3.530805 5.621439 55.386034 2.353324 29.468618 -7.206870 0.082339 3.187120
1310.567093 590.844769 61.314979 0.000000 0.000000 0.000000 0.000000 0.000000 0.000000 100.193768 0.025160 -11.755705 -79.806232 3.788803 -11.755705 61.986347 1.225528 -28.531695 -37.593815 -1.463461 9.270510 62.907615 2.242611 28.531695 -6.637230 -0.466617 2.938926
1328.574371 576.493385 53.468933 0.000000 0.000000 0.000000 0.000000 0.000000 0.000000 101.943783 -1.166804 -15.410265 -78.056217 9.675710 -15.410265 61.902838 -4.764317 -27.144812 -33.889586 -1.329725 12.773379 55.760387 6.734877 27.144812 -7.097415 -0.631180 2.679134
1316.178360 595.500870 48.193433 0.000000 0.000000 0.000000 0.000000 0.000000 0.000000 103.792097 4.388256 -18.096541 -76.207903 -4.140450 -18.096541 65.535198 3.814187 -25.329838 -28.739437 2.463680 16.074804 68.415337 -4.046325 25.329838 -6.481753 0.388261 2.408768
1302.343140 568.138025 64.296854 0.000000 0.000000 0.000000 0.000000 0.000000 0.000000 101.222717 8.445346 -19.645745 -78.777283 16.271427 -19.645745 90.757296 -8.034490 -23.115397 -18.578033 1.908209 19.122720 97.909038 -1.048564 23.115397 -5.050134 -0.172919 2.128896
1274.166183 540.660596 51.058131 0.000000 0.000000 0.000000 0.000000 0.000000 0.000000 -126.898591 3.134610 -19.960535 53.101409 -14.657226 -19.960535 127.276662 3.294608 -20.536413 8.808645 0.819709 21.869059 119.711272 1.242347 20.536413 -4.115393 -0.135720 1.840623
1268.557091 468.331075 51.074520 0.000000 0.000000 0.000000 0.000000 0.000000 0.000000 -124.112133 1.593393 -19.021130 55.887867 -7.110644 -19.021130 163.344780 4.995406 -17.633558 38.476068 -2.458807 24.270510 145.889074 2.451677 17.633558 -1.929933 0.121580 1.545085
1278.673096 454.375906 50.702597 0.000000 0.000000 0.000000 0.000000 0.000000 0.000000 -126.805061 -3.680915 -16.886559 53.194939 -4.085993 -16.886559 -174.009950 -4.643075 -14.452610 27.419224 -2.288385 26.289200 168.192977 0.718822 14.452610 -0.976267 -0.035542 1.243449
1285.008774 434.700390 51.783061 0.000000 0.000000 0.000000 0.000000 0.000000 0.000000 -132.005120 -2.700257 -13.690942 47.994880 -0.932749 -13.690942 -171.247775 0.336707 -11.043737 26.625253 2.199278 27.893295 178.805957 -0.886345 11.043737 0.023422 0.072583 0.936907
1288.157730 426.987666 53.457530 0.000000 0.000000 0.000000 0.000000 0.000000 0.000000 -123.987926 -9.178288 -9.635073 56.012074 1.901199 -9.635073 -166.356219 -0.386004 -7.460697 35.716336 1.339865 29.057495 -172.960762 -2.157052 7.460697 0.819533 0.236552 0.626666
1291.221657 420.425448 64.264279 0.000000 0.000000 0.000000 0.000000 0.000000 0.000000 -122.265643 -6.801215 -4.973798 57.734357 9.132386 -4.973798 -156.870161 -2.749503 -3.759997 38.220704 3.614304 29.763441 -165.716368 -1.892391 3.759997 1.405814 0.038410 0.313953
