HIERARCHY
ROOT Hips
{
    OFFSET 0.0 0.0 0.0
    CHANNELS 6 Xposition Yposition Zposition Zrotation Xrotation Yrotation
    JOINT Spine
    {
        OFFSET 0.0 5.0 0.0
        CHANNELS 3 Zrotation Xrotation Yrotation
        JOINT Chest
        {
            OFFSET 0.0 5.0 0.0
            CHANNELS 3 Zrotation Xrotation Yrotation
            JOINT Neck
            {
                OFFSET 0.0 8.0 0.0
                CHANNELS 3 Zrotation Xrotation Yrotation
                JOINT Head
                {
                    OFFSET 0.0 5.0 0.0
                    CHANNELS 3 Zrotation Xrotation Yrotation
                    End Site
                    {
                        OFFSET 0.0 3.0 0.0
                    }
                }
            }
            JOINT LeftShoulder
            {
                OFFSET -5.0 0.0 0.0
                CHANNELS 3 Zrotation Xrotation Yrotation
                JOINT LeftArm
                {
                    OFFSET 0.0 -10.0 0.0
                    CHANNELS 3 Zrotation Xrotation Yrotation
                    JOINT LeftForeArm
                    {
                        OFFSET 0.0 -10.0 0.0
                        CHANNELS 3 Zrotation Xrotation Yrotation
                        End Site
                        {
                            OFFSET 0.0 -3.0 0.0
                        }
                    }
                }
            }
        }
    }
}

MOTION
Frames: 300
Frame Time: 0.033333

960.000000 445.000000 101.663296 0.000000 0.000000 0.000000 0.000000 0.000000 0.000000 23.025492 12.630457 0.000000 180.000000 -0.934285 0.000000 21.801409 0.948655 -0.000000 158.198591 5.186207 30.000000 15.945396 -6.071058 0.000000 18.000000 -0.005545 0.000000
1691.525230 140.756605 107.867694 0.000000 0.000000 0.000000 0.000000 0.000000 0.000000 -163.376529 -3.122240 4.973798 16.623471 -4.017798 4.973798 -171.853121 -3.564772 3.759997 99.744051 -22.901259 29.763441 -171.126653 -3.530748 -3.759997 0.673538 0.349628 0.313953
1636.048050 128.802021 123.249989 0.000000 0.000000 0.000000 0.000000 0.000000 0.000000 157.904128 -4.857229 9.635073 -22.095872 -17.667784 9.635073 -171.936471 -3.769760 7.460697 -143.675701 2.910444 29.057495 -173.500805 -4.707861 -7.460697 0.570999 0.451837 0.626666
1578.156967 80.474526 119.489411 0.000000 0.000000 0.000000 0.000000 0.000000 0.000000 -139.519796 9.073210 13.690942 40.480204 -7.079288 13.690942 -174.507724 -3.670115 11.043737 119.111399 1.915293 27.893295 -173.607258 -4.425714 -11.043737 0.461920 0.434027 0.936907
960.418757 444.998421 119.863928 0.000000 0.000000 0.000000 0.000000 0.000000 0.000000 25.077893 -13.856707 16.886559 180.000000 18.119440 16.886559 23.861935 -8.559307 14.452610 156.138065 14.818564 26.289200 17.903699 -18.698546 -14.452610 18.000000 1.840819 1.243449
960.523360 444.997533 120.561095 0.000000 0.000000 0.000000 0.000000 0.000000 0.000000 25.638906 12.059742 19.021130 180.000000 -14.116607 19.021130 24.425035 -2.145264 17.633558 155.574965 -8.763873 24.270510 18.452907 -0.146765 -17.633558 18.000000 -0.238693 1.545085
960.627905 444.996447 129.609640 0.000000 0.000000 0.000000 0.000000 0.000000 0.000000 26.219073 7.581575 19.960535 180.000000 -7.241957 19.960535 25.006291 -2.236949 20.536413 154.993709 -5.988285 21.869059 19.024920 6.988376 -20.536413 18.000000 -0.710495 1.840623
1126.242828 420.359820 118.880896 0.000000 0.000000 0.000000 0.000000 0.000000 0.000000 31.410514 -3.734896 19.645745 -148.589486 0.888931 19.645745 32.280463 1.402181 23.115397 -131.603972 0.478920 19.122720 45.585331 -0.014942 -23.115397 -13.449727 -0.023666 2.128896
1257.895088 650.549197 129.736403 0.000000 0.000000 0.000000 0.000000 0.000000 0.000000 25.073180 -28.805969 18.096541 -154.926820 -3.039964 18.096541 46.260945 -2.365165 25.329838 -154.651428 -4.835493 16.074804 27.339487 5.482373 -25.329838 -13.619892 -0.336429 2.408768
960.941083 444.992008 150.675735 0.000000 0.000000 0.000000 0.000000 0.000000 0.000000 28.072001 8.718086 15.410265 180.000000 11.421715 15.410265 26.849221 -3.079433 27.144812 153.150779 -1.276119 12.773379 20.864045 -6.230373 -27.144812 18.000000 1.120082 2.679134
1163.815842 547.748709 128.617102 0.000000 0.000000 0.000000 0.000000 0.000000 0.000000 117.162728 7.957782 11.755705 -62.837272 -7.501713 11.755705 102.363764 0.392173 28.531695 -47.376450 -1.448895 9.270510 104.768601 -0.012120 -28.531695 -6.003489 0.016604 2.938926
961.149372 444.988063 136.048931 0.000000 0.000000 0.000000 0.000000 0.000000 0.000000 29.395983 14.303117 7.362491 180.000000 -22.330716 7.362491 28.146217 7.581527 29.468618 151.853783 2.455562 5.621439 22.170006 -7.163761 -29.468618 18.000000 -1.052157 3.187120
1136.717377 590.104480 141.999617 0.000000 0.000000 0.000000 0.000000 0.000000 0.000000 115.752126 13.218600 2.506665 -64.247874 -3.601246 2.506665 73.638146 -4.051827 29.940802 -21.842452 -4.201163 1.883716 75.369282 -1.352277 -29.940802 -6.767207 0.035782 3.422736
1163.079758 634.077559 131.885600 0.000000 0.000000 0.000000 0.000000 0.000000 0.000000 132.174340 2.727807 -2.506665 -47.825660 -2.314566 -2.506665 94.255711 2.670363 29.940802 -149.364979 -6.914857 -1.883716 30.021641 5.806169 -29.940802 -5.096180 -0.348936 3.644843
961.460830 444.980668 161.261744 0.000000 0.000000 0.000000 0.000000 0.000000 0.000000 31.497152 10.172361 -7.362491 180.000000 -1.276389 -7.362491 30.152455 -20.538504 29.468618 149.847545 -7.567691 -5.621439 24.175589 -2.075898 -29.468618 18.000000 0.186817 3.852566
1097.449951 565.089898 165.963488 0.000000 0.000000 0.000000 0.000000 0.000000 0.000000 -119.219568 -4.035229 -11.755705 60.780432 -3.411189 -11.755705 -150.180642 -6.209281 28.531695 48.804955 1.203199 -9.270510 -149.874178 -6.282407 -28.531695 2.713854 0.581626 4.045085
1114.140244 528.302071 146.905158 0.000000 0.000000 0.000000 0.000000 0.000000 0.000000 -142.671523 -3.326029 -15.410265 37.328477 -1.748149 -15.410265 -177.395681 0.624821 27.144812 34.687329 2.188026 -12.773379 161.894167 -5.889825 -27.144812 -0.910956 0.323590 4.221640
1116.433640 479.728639 161.412283 0.000000 0.000000 0.000000 0.000000 0.000000 0.000000 -102.267481 5.421808 -18.096541 77.732519 -16.477556 -18.096541 -163.695626 3.606337 25.329838 38.575767 -0.565278 -16.074804 -176.001122 -0.996632 -25.329838 0.706594 0.011544 4.381533
1135.931282 466.493965 125.866970 0.000000 0.000000 0.000000 0.000000 0.000000 0.000000 -112.868406 16.950560 -19.645745 67.131594 8.571279 -19.645745 -159.517862 -3.146057 23.115397 36.204678 0.720211 -19.122720 -154.426613 -6.339026 -23.115397 2.428729 0.472508 4.524135
1141.618767 467.420679 130.990492 0.000000 0.000000 0.000000 0.000000 0.000000 0.000000 -123.086385 -6.195712 -19.960535 56.913615 2.857944 -19.960535 -154.885724 -2.901152 20.536413 36.481623 1.013676 -21.869059 -153.965441 -6.404695 -20.536413 2.446728 0.554701 4.648882
1150.647926 469.370956 151.652429 0.000000 0.000000 0.000000 0.000000 0.000000 0.000000 -43.953779 10.517041 -19.021130 136.046221 -41.234086 -19.021130 -154.327268 -6.552749 17.633558 60.745168 -5.163453 -24.270510 -153.350642 -6.919072 -17.633558 2.386216 0.593260 4.755283
1151.529922 496.420240 130.369163 0.000000 0.000000 0.000000 0.000000 0.000000 0.000000 -116.362129 -7.329166 -16.886559 63.637871 6.541834 -16.886559 -149.081043 0.333839 14.452610 35.941860 0.512983 -26.289200 -156.847177 -0.748605 -14.452610 2.056513 0.177435 4.842916
1148.402367 515.713574 135.219665 0.000000 0.000000 0.000000 0.000000 0.000000 0.000000 -118.252650 5.845386 -13.690942 61.747350 -6.206560 -13.690942 -138.082896 3.247897 11.043737 -156.312677 -7.191260 -27.893295 21.649626 10.504602 -11.043737 2.962417 -0.400369 4.911436
1175.363617 533.368646 137.318336 0.000000 0.000000 0.000000 0.000000 0.000000 0.000000 -95.476638 12.790273 -9.635073 84.523362 7.184420 -9.635073 -113.907461 -0.339720 7.460697 -155.995907 -6.829415 -29.057495 12.512064 9.348045 -7.460697 -16.748794 -0.934805 4.960574
1199.533310 485.991104 142.692207 0.000000 0.000000 0.000000 0.000000 0.000000 0.000000 -100.003195 0.151810 -4.973798 79.996805 14.001220 -4.973798 -86.083188 -8.667616 3.759997 38.843754 -2.807311 -29.763441 -106.539452 1.685176 -3.759997 6.197806 -0.031994 4.990134
962.588190 444.938442 119.212006 0.000000 0.000000 0.000000 0.000000 0.000000 0.000000 39.579754 5.826941 -0.000000 180.000000 -2.171984 -0.000000 36.680773 1.643044 0.000000 143.319227 -2.838940 -30.000000 29.388385 11.422204 -0.000000 18.000000 -1.433821 5.000000
1142.094727 445.716287 140.209179 0.000000 0.000000 0.000000 0.000000 0.000000 0.000000 -140.228454 -36.889802 4.973798 39.771546 -12.501110 4.973798 -156.118008 -5.356474 -3.759997 3.479189 12.844508 -29.763441 -158.005660 -6.340633 3.759997 2.150019 0.510438 4.990134
1164.005928 424.847746 133.484413 0.000000 0.000000 0.000000 0.000000 0.000000 0.000000 -84.241076 46.345623 9.635073 95.758924 -30.807399 9.635073 -156.181584 -5.737367 -7.460697 166.928360 -11.135229 -29.057495 -154.947270 -6.016382 7.460697 2.644196 0.623103 4.960574
1124.208755 418.286655 117.042141 0.000000 0.000000 0.000000 0.000000 0.000000 0.000000 -117.427077 -8.322485 13.690942 62.572923 -2.401994 13.690942 -155.943063 -5.091094 -11.043737 14.023837 -2.435456 -27.893295 -157.382674 -4.923243 11.043737 2.188130 0.526886 4.911436
962.990408 444.917226 101.669120 0.000000 0.000000 0.000000 0.000000 0.000000 0.000000 42.110883 5.940913 16.886559 180.000000 -14.923274 16.886559 37.946959 20.242470 -14.452610 142.053041 0.716970 -26.289200 29.293612 0.132912 14.452610 18.000000 -1.051704 4.842916
963.090170 444.911436 105.637160 0.000000 0.000000 0.000000 0.000000 0.000000 0.000000 42.659200 54.250453 19.021130 180.000000 -27.036088 19.021130 38.119107 19.001841 -17.633558 141.880893 -9.192395 -24.270510 29.068887 -7.986311 17.633558 18.000000 0.173015 4.755283
1186.646461 396.272757 91.693821 0.000000 0.000000 0.000000 0.000000 0.000000 0.000000 -72.847419 -8.879081 19.960535 107.152581 16.771847 19.960535 -156.703603 -5.157717 -20.536413 178.447294 -0.719751 -21.869059 -157.212393 -4.788504 20.536413 1.964058 0.485022 4.648882
1313.051605 426.636125 74.226329 0.000000 0.000000 0.000000 0.000000 0.000000 0.000000 90.994869 -6.194217 19.645745 -89.005131 -14.983845 19.645745 -160.515303 -4.157152 -23.115397 -153.248861 -2.534612 -19.122720 -159.640525 -4.846481 23.115397 0.000000 0.000000 0.000000
1347.999344 420.772226 90.245303 0.000000 0.000000 0.000000 0.000000 0.000000 0.000000 90.154351 -1.040752 18.096541 -89.845649 1.869438 18.096541 -162.053401 -4.079584 -25.329838 -136.198880 2.765648 -16.074804 -160.991694 -4.962684 25.329838 0.000000 0.000000 0.000000
1344.315948 421.031681 93.169627 0.000000 0.000000 0.000000 0.000000 0.000000 0.000000 69.757587 -4.655422 15.410265 -110.242413 1.857263 15.410265 25.616746 0.594487 -27.144812 -157.821005 -3.418560 -12.773379 17.214985 3.304686 27.144812 -16.704706 -0.165371 4.221640
1350.307617 440.309436 83.894366 0.000000 0.000000 0.000000 0.000000 0.000000 0.000000 71.124018 -7.903438 11.755705 -108.875982 6.114103 11.755705 42.739987 1.369542 -28.531695 -142.315466 1.477583 -9.270510 16.600926 1.087044 28.531695 -16.660102 -0.210067 4.045085
1357.685051 430.688889 76.797652 0.000000 0.000000 0.000000 0.000000 0.000000 0.000000 77.656077 -4.718276 7.362491 -102.343923 -10.032831 7.362491 39.407151 6.036231 -29.468618 -136.343173 -0.966691 -5.621439 22.144452 -1.941455 29.468618 -16.305135 0.298965 3.852566
1369.482193 445.909406 71.988098 0.000000 0.000000 0.000000 0.000000 0.000000 0.000000 88.051188 1.076064 2.506665 -91.948812 -3.082665 2.506665 -161.283973 -3.055421 -29.940802 -119.799169 -1.744609 -1.883716 -164.575400 -3.263272 29.940802 1.401013 0.344966 3.644843
963.875156 444.858159 64.995252 0.000000 0.000000 0.000000 0.000000 0.000000 0.000000 45.304844 26.559481 -2.506665 180.000000 38.072013 -2.506665 37.252439 -29.804516 -29.940802 142.747561 16.621765 1.883716 25.146244 -9.682888 29.940802 18.000000 0.570392 3.422736
963.971479 444.850633 70.231820 0.000000 0.000000 0.000000 0.000000 0.000000 0.000000 45.383640 30.479106 -7.362491 180.000000 -26.678919 -7.362491 36.882310 10.469967 -29.468618 143.117690 -5.157575 5.621439 24.499789 -1.082735 29.468618 18.000000 -0.711706 3.187120
1336.629524 469.010178 68.755855 0.000000 0.000000 0.000000 0.000000 0.000000 0.000000 -72.390177 -15.458630 -11.755705 107.609823 15.853624 -11.755705 -158.649984 -2.535060 -28.531695 2.583425 2.259097 9.270510 -39.658551 -1.485698 28.531695 10.837181 -0.643000 2.938926
1311.966934 518.219100 57.782633 0.000000 0.000000 0.000000 0.000000 0.000000 0.000000 -63.565072 -4.035050 -15.410265 116.434928 18.647007 -15.410265 -14.840750 4.719856 -27.144812 -158.549348 -2.286447 12.773379 17.488774 2.729244 27.144812 7.174982 -0.428717 2.679134
964.257793 444.826908 78.851069 0.000000 0.000000 0.000000 0.000000 0.000000 0.000000 45.262206 10.569381 -18.096541 180.000000 21.661332 -18.096541 35.497192 -20.119689 -25.329838 144.502808 -6.349809 16.074804 22.522929 4.592621 25.329838 18.000000 -0.042792 2.408768
1275.921364 516.836239 61.076753 0.000000 0.000000 0.000000 0.000000 0.000000 0.000000 85.186295 -8.871314 -19.645745 -94.813705 -0.460555 -19.645745 52.470689 4.627484 -23.115397 -44.513683 3.589214 19.122720 50.867598 1.032889 23.115397 -8.717188 -0.051092 2.128896
1263.254128 546.875424 57.916521 0.000000 0.000000 0.000000 0.000000 0.000000 0.000000 34.848242 43.509161 -19.960535 -145.151758 -30.785309 -19.960535 42.487561 61.747561 -20.536413 -157.415675 -2.502285 21.869059 22.420880 1.887238 20.536413 -15.757912 -0.188724 1.840623
1258.788185 528.263061 65.980543 0.000000 0.000000 0.000000 0.000000 0.000000 0.000000 118.326865 31.708416 -19.021130 -61.673135 13.035747 -19.021130 143.214759 -8.346004 -17.633558 -156.228306 -2.474479 24.270510 28.173554 2.422560 17.633558 -15.182645 -0.242256 1.545085
1231.492081 471.383836 41.227204 0.000000 0.000000 0.000000 0.000000 0.000000 0.000000 -115.049381 8.039185 -16.886559 64.950619 -22.926900 -16.886559 172.843704 5.219686 -14.452610 -157.842300 -2.614372 26.289200 32.851042 2.563092 14.452610 -14.714896 -0.256309 1.243449
1223.928795 435.993515 49.984890 0.000000 0.000000 0.000000 0.000000 0.000000 0.000000 -115.322532 15.201951 -13.690942 64.677468 7.023059 -13.690942 -168.597862 -1.389292 -11.043737 -158.853816 -2.699382 27.893295 31.099266 2.867485 11.043737 -14.890073 -0.286748 0.936907
1223.669701 418.195664 46.941365 0.000000 0.000000 0.000000 0.000000 0.000000 0.000000 -102.084053 -14.245555 -9.635073 77.915947 -14.573204 -9.635073 -171.103858 0.744856 -7.460697 162.056334 -6.468089 29.057495 -153.594437 -1.859473 7.460697 2.968481 0.295137 0.626666
1216.486244 414.503002 35.362108 0.000000 0.000000 0.000000 0.000000 0.000000 0.000000 69.261091 27.363779 -4.973798 -110.738909 9.267575 -4.973798 -158.083722 -2.740686 -3.759997 -173.244581 -0.542709 29.763441 -154.635509 -2.861699 3.759997 2.928763 0.379889 0.313953
1212.090225 434.550980 57.803870 0.000000 0.000000 0.000000 0.000000 0.000000 0.000000 -112.403932 -33.655625 0.000000 67.596068 21.589055 0.000000 -157.060799 -2.376842 -0.000000 173.400765 2.446373 30.000000 -154.473580 -2.344635 0.000000 2.734633 0.210755 0.000000
1214.024734 450.340490 50.718730 0.000000 0.000000 0.000000 0.000000 0.000000 0.000000 -110.634751 -2.152585 4.973798 69.365249 3.454351 4.973798 -137.583343 3.534926 3.759997 -158.589698 -1.940128 29.763441 20.879446 3.595047 -3.759997 -15.912055 -0.359505 0.313953
1204.271393 440.192921 52.419521 0.000000 0.000000 0.000000 0.000000 0.000000 0.000000 -99.498286 27.194157 9.635073 80.501714 -33.415326 9.635073 -156.696469 -2.098102 7.460697 -178.487725 -11.289096 29.057495 -157.318323 -2.999856 -7.460697 2.108583 0.280233 0.626666
965.269558 444.725315 72.615865 0.000000 0.000000 0.000000 0.000000 0.000000 0.000000 40.845461 26.780381 13.690942 180.000000 -19.968654 13.690942 28.615377 7.310443 11.043737 151.384623 -0.312817 27.893295 16.305092 4.384513 -11.043737 18.000000 -0.476035 0.936907
1182.456551 475.103824 56.995416 0.000000 0.000000 0.000000 0.000000 0.000000 0.000000 -168.146016 -76.651209 16.886559 11.853984 75.701611 16.886559 -63.802645 1.178968 14.452610 -61.114510 -4.615260 26.289200 -47.869281 1.069696 -14.452610 -13.834956 8.225601 1.243449
965.446390 444.704404 69.535620 0.000000 0.000000 0.000000 0.000000 0.000000 0.000000 39.578146 -29.317827 19.021130 180.000000 13.420746 19.021130 27.338029 -9.133280 17.633558 152.661971 18.895750 24.270510 15.463180 -4.801553 -17.633558 18.000000 0.175685 1.545085
965.533915 444.693669 66.882487 0.000000 0.000000 0.000000 0.000000 0.000000 0.000000 38.916706 10.185269 19.960535 180.000000 -6.097121 19.960535 26.716768 4.909171 20.536413 153.283232 -4.927519 21.869059 15.076605 1.315152 -20.536413 18.000000 -0.276757 1.840623
965.620834 444.682749 63.009556 0.000000 0.000000 0.000000 0.000000 0.000000 0.000000 38.241653 -28.872026 19.645745 180.000000 -1.149072 19.645745 26.109467 11.678385 23.115397 153.890533 -8.797241 19.122720 14.712258 0.918785 -23.115397 18.000000 0.057499 2.128896
965.707136 444.671645 90.626818 0.000000 0.000000 0.000000 0.000000 0.000000 0.000000 37.556504 -32.610223 18.096541 180.000000 -3.817143 18.096541 25.517536 9.697881 25.329838 154.482464 1.847832 16.074804 14.369537 -4.247412 -25.329838 18.000000 0.457804 2.408768
965.792812 444.660356 74.739471 0.000000 0.000000 0.000000 0.000000 0.000000 0.000000 36.864608 -6.796151 15.410265 180.000000 -21.667270 15.410265 24.942131 0.792001 27.144812 155.057869 -6.704739 12.773379 14.047797 0.102495 -27.144812 18.000000 0.010710 2.679134
965.877853 444.648882 79.844384 0.000000 0.000000 0.000000 0.000000 0.000000 0.000000 36.169118 32.801066 11.755705 180.000000 2.992370 11.755705 24.384173 -4.652476 28.531695 155.615827 1.467882 9.270510 13.746367 -5.612239 -28.531695 18.000000 0.746740 2.938926
965.962249 444.637226 90.070734 0.000000 0.000000 0.000000 0.000000 0.000000 0.000000 35.472980 -58.473014 7.362491 180.000000 30.466153 7.362491 23.844373 -0.370292 29.468618 156.155627 11.917178 5.621439 13.464570 2.816903 -29.468618 18.000000 -0.262264 3.187120
966.045991 444.625386 92.632318 0.000000 0.000000 0.000000 0.000000 0.000000 0.000000 34.778913 -34.570614 2.506665 180.000000 2.209059 2.506665 23.323250 -4.642959 29.940802 156.676750 -0.133701 1.883716 13.201728 3.637535 -29.940802 18.000000 0.053754 3.422736
966.129071 444.613364 95.604476 0.000000 0.000000 0.000000 0.000000 0.000000 0.000000 34.089406 8.173884 -2.506665 180.000000 -3.668760 -2.506665 22.821158 6.611437 29.940802 157.178842 6.469304 -1.883716 12.957175 -4.410014 -29.940802 18.000000 -0.116793 3.644843
966.211478 444.601159 96.294450 0.000000 0.000000 0.000000 0.000000 0.000000 0.000000 33.406712 -31.564473 -7.362491 180.000000 15.023217 -7.362491 22.338307 -6.019905 29.468618 157.661693 1.387936 -5.621439 12.730264 5.801290 -29.468618 18.000000 0.095760 3.852566
1171.486244 534.946783 93.373770 0.000000 0.000000 0.000000 0.000000 0.000000 0.000000 70.594720 -3.352676 -11.755705 -109.405280 -9.795597 -11.755705 49.953444 3.690578 28.531695 -151.467583 -5.390059 -9.270510 0.000000 0.000000 0.000000 0.000000 0.000000 0.000000
966.374240 444.576206 120.396471 0.000000 0.000000 0.000000 0.000000 0.000000 0.000000 32.069603 17.202319 -15.410265 180.000000 8.708294 -15.410265 21.430544 -2.316343 27.144812 158.569456 4.589962 -12.773379 12.326901 -4.078724 -27.144812 18.000000 0.158911 4.221640
1172.156410 555.047708 112.799676 0.000000 0.000000 0.000000 0.000000 0.000000 0.000000 -121.065102 -3.793549 -18.096541 58.934898 -6.927376 -18.096541 -151.641456 -5.547874 25.329838 -177.360623 -0.355483 -16.074804 -149.076048 -6.622686 -25.329838 0.000000 0.000000 0.000000
1161.826630 552.360713 129.414429 0.000000 0.000000 0.000000 0.000000 0.000000 0.000000 69.958407 -4.323075 -19.645745 -110.041593 1.263461 -19.645745 -152.437496 -6.589685 23.115397 -158.790607 -5.645235 -19.122720 -150.591725 -6.636261 -23.115397 3.219062 0.842364 4.524135
1165.827255 569.832902 135.923933 0.000000 0.000000 0.000000 0.000000 0.000000 0.000000 25.594208 -20.268769 -19.960535 -154.405792 27.058005 -19.960535 11.723883 1.120459 20.536413 -161.543160 4.262616 -21.869059 7.769582 -1.775580 -20.536413 -17.248199 0.117666 4.648882
1165.555573 565.067046 126.298088 0.000000 0.000000 0.000000 0.000000 0.000000 0.000000 43.355707 2.558741 -19.021130 -136.644293 13.489956 -19.021130 15.984329 -7.630348 17.633558 -140.773833 -1.673093 -24.270510 13.679449 0.556690 -17.633558 -16.392157 0.014034 4.755283
1290.255775 608.533316 143.539544 0.000000 0.000000 0.000000 0.000000 0.000000 0.000000 -153.952071 5.478084 -16.886559 26.047929 -15.813658 -16.886559 -152.683807 -5.116830 14.452610 4.794196 -5.569134 -26.289200 -154.287190 -5.123082 -14.452610 2.418080 0.420887 4.842916
1180.398903 551.817470 155.207702 0.000000 0.000000 0.000000 0.000000 0.000000 0.000000 51.640104 26.692079 -13.690942 -128.359896 -6.136231 -13.690942 14.419400 -3.376240 11.043737 -33.521359 -10.683596 -27.893295 -34.277510 2.389887 -11.043737 5.235387 -1.303586 4.911436
1162.708626 619.419501 122.923910 0.000000 0.000000 0.000000 0.000000 0.000000 0.000000 -88.968325 -27.787657 -9.635073 91.031675 -14.461299 -9.635073 -52.690088 4.370186 7.460697 25.015222 4.574723 -29.057495 -72.561734 0.861591 -7.460697 8.557489 0.064890 4.960574
1110.899391 602.919216 158.363131 0.000000 0.000000 0.000000 0.000000 0.000000 0.000000 -86.972237 1.528642 -4.973798 93.027763 -13.018692 -4.973798 -39.551144 4.401779 3.759997 34.838085 0.016170 -29.763441 -44.185810 -3.632813 -3.759997 10.000609 0.593375 4.990134
1150.187302 553.686991 140.192630 0.000000 0.000000 0.000000 0.000000 0.000000 0.000000 -116.065142 12.591637 -0.000000 63.934858 -7.139160 -0.000000 -151.059314 -6.772793 0.000000 -0.492058 3.582182 -30.000000 -14.044098 -4.783885 -0.000000 1.929760 -1.352152 5.000000
967.144727 444.440682 139.099071 0.000000 0.000000 0.000000 0.000000 0.000000 0.000000 26.270296 -2.675130 4.973798 180.000000 -5.667035 4.973798 17.996647 -1.506962 -3.759997 162.003353 -3.640605 -29.763441 11.189167 -0.480737 3.759997 18.000000 -0.176495 4.990134
1213.452644 620.002785 164.587447 0.000000 0.000000 0.000000 0.000000 0.000000 0.000000 140.390379 23.067936 9.635073 -39.609621 -42.386831 9.635073 77.724607 23.987999 -7.460697 -153.982965 -7.433139 -29.057495 24.142749 6.107356 7.460697 -0.833727 -0.806588 4.960574
1124.373779 618.464527 151.135633 0.000000 0.000000 0.000000 0.000000 0.000000 0.000000 99.329635 24.975167 13.690942 -80.670365 -14.121497 13.690942 85.960927 6.080238 -11.043737 -150.875293 -7.356260 -27.893295 31.644098 6.081173 11.043737 -14.835590 -0.608117 4.911436
967.360971 444.396582 155.309632 0.000000 0.000000 0.000000 0.000000 0.000000 0.000000 24.874716 -14.189936 16.886559 180.000000 -6.457256 16.886559 17.291102 2.721878 -14.452610 162.708898 -0.614084 -26.289200 11.098846 1.380976 14.452610 18.000000 0.382222 4.842916
1107.875175 542.453964 161.601776 0.000000 0.000000 0.000000 0.000000 0.000000 0.000000 -128.741314 11.863802 19.021130 51.258686 3.392916 19.021130 -177.225595 -5.267944 -17.633558 19.954750 -5.979086 -24.270510 162.677362 -0.124855 17.633558 -1.443098 -0.072291 4.755283
1119.652290 522.766346 156.878459 0.000000 0.000000 0.000000 0.000000 0.000000 0.000000 -99.017754 -34.857499 19.960535 80.982246 20.733051 19.960535 -150.289603 -7.151244 -20.536413 -152.613833 -6.263972 -21.869059 0.000000 0.000000 0.000000 0.000000 0.000000 0.000000
1132.908783 538.229613 162.177646 0.000000 0.000000 0.000000 0.000000 0.000000 0.000000 -127.874185 16.304560 19.645745 52.125815 -2.121823 19.645745 -165.450188 -3.965092 -23.115397 -152.521515 -7.865641 -19.122720 40.606225 8.169809 23.115397 -13.939378 -0.816981 4.524135
1146.969337 541.828065 140.894658 0.000000 0.000000 0.000000 0.000000 0.000000 0.000000 -113.631604 1.632645 18.096541 66.368396 -10.145071 18.096541 -159.067475 -0.267120 -25.329838 113.981862 0.062774 -16.074804 -145.449815 -7.458990 25.329838 0.000000 0.000000 0.000000
1165.252304 561.329677 141.314251 0.000000 0.000000 0.000000 0.000000 0.000000 0.000000 -112.861399 -7.331374 15.410265 67.138601 6.215781 15.410265 -159.396543 2.541213 -27.144812 -151.967552 -6.699366 -12.773379 38.422588 8.815426 27.144812 -14.157741 -0.881543 4.221640
1174.726181 592.839689 141.635022 0.000000 0.000000 0.000000 0.000000 0.000000 0.000000 -110.369899 -5.241652 11.755705 69.630101 -1.012012 11.755705 -148.108768 4.099840 -28.531695 -151.515612 -6.482607 -9.270510 34.277732 9.709514 28.531695 -14.572227 -0.970951 4.045085
1167.352524 605.194867 140.884691 0.000000 0.000000 0.000000 0.000000 0.000000 0.000000 -113.828445 -10.474765 7.362491 66.171555 8.994163 7.362491 -131.688453 -5.743790 -29.468618 -151.045756 -6.161510 -5.621439 27.200835 8.440528 29.468618 -15.279916 -0.844053 3.852566
1139.678879 602.981014 146.804165 0.000000 0.000000 0.000000 0.000000 0.000000 0.000000 -97.599684 -33.599955 2.506665 82.400316 -4.772553 2.506665 -113.965806 5.605502 -29.940802 -121.058781 7.109443 -1.883716 -118.492407 0.405684 29.940802 10.137620 -7.966612 3.644843
1165.830002 580.020189 120.895558 0.000000 0.000000 0.000000 0.000000 0.000000 0.000000 -28.085052 5.555073 -2.506665 151.914948 -3.660471 -2.506665 -150.589103 -5.799371 -29.940802 -172.678414 2.869930 1.883716 -149.717924 -6.562832 29.940802 0.000000 0.000000 0.000000
1184.501953 619.872494 103.553320 0.000000 0.000000 0.000000 0.000000 0.000000 0.000000 -113.790307 -7.661202 -7.362491 66.209693 1.233653 -7.362491 -59.272274 9.935634 -29.468618 29.476823 4.454762 5.621439 -88.148483 -4.643088 29.468618 7.414604 0.229709 3.187120
968.090170 444.221640 117.908731 0.000000 0.000000 0.000000 0.000000 0.000000 0.000000 21.092887 -10.510005 -11.755705 180.000000 8.516065 -11.755705 15.757771 -5.130643 -28.531695 164.242229 1.155914 9.270510 11.678908 2.111446 28.531695 18.000000 0.104662 2.938926
968.151278 444.204723 110.063733 0.000000 0.000000 0.000000 0.000000 0.000000 0.000000 20.844337 15.025400 -15.410265 180.000000 -8.790014 -15.410265 15.691895 2.065361 -27.144812 164.308105 -1.658952 12.773379 11.804629 -2.575687 27.144812 18.000000 0.052513 2.679134
968.211492 444.187640 119.892973 0.000000 0.000000 0.000000 0.000000 0.000000 0.000000 20.610265 4.446692 -18.096541 180.000000 -7.699783 -18.096541 15.637361 3.382517 -25.329838 164.362639 -1.318090 16.074804 11.943263 1.204261 25.329838 18.000000 0.071649 2.408768
968.270806 444.170392 106.627087 0.000000 0.000000 0.000000 0.000000 0.000000 0.000000 20.390366 -23.871645 -19.645745 180.000000 15.347435 -19.645745 15.594026 -1.617083 -23.115397 164.405974 8.149681 19.122720 12.095062 -0.784118 23.115397 18.000000 -0.212746 2.128896
968.329212 444.152979 100.270237 0.000000 0.000000 0.000000 0.000000 0.000000 0.000000 20.184343 -21.446456 -19.960535 180.000000 13.122185 -19.960535 15.561766 2.190635 -20.536413 164.438234 13.306950 21.869059 12.260289 2.442184 20.536413 18.000000 -0.794352 1.840623
968.386706 444.135403 84.361749 0.000000 0.000000 0.000000 0.000000 0.000000 0.000000 19.991916 8.256123 -19.021130 180.000000 2.381692 -19.021130 15.540476 1.189010 -17.633558 164.459524 1.336673 24.270510 12.439222 2.628588 17.633558 18.000000 -0.479513 1.545085
968.443279 444.117663 91.453040 0.000000 0.000000 0.000000 0.000000 0.000000 0.000000 19.812814 -31.340273 -16.886559 180.000000 5.504066 -16.886559 15.530069 2.969870 -14.452610 164.469931 4.829204 26.289200 12.632146 -6.518520 14.452610 18.000000 0.541094 1.243449
968.498927 444.099761 93.726384 0.000000 0.000000 0.000000 0.000000 0.000000 0.000000 19.646785 -5.728198 -13.690942 180.000000 6.041204 -13.690942 15.530474 2.470960 -11.043737 164.469526 -4.828911 27.893295 12.839349 8.971527 11.043737 18.000000 -0.355989 0.936907
968.553643 444.081696 80.079776 0.000000 0.000000 0.000000 0.000000 0.000000 0.000000 19.493591 -16.432461 -9.635073 180.000000 0.908523 -9.635073 15.541640 3.152729 -7.460697 164.458360 4.206420 29.057495 13.061119 -2.717733 7.460697 18.000000 0.367694 0.626666
1051.772690 653.004448 59.482915 0.000000 0.000000 0.000000 0.000000 0.000000 0.000000 -79.007834 26.322701 -4.973798 100.992166 -6.722293 -4.973798 -126.715299 3.492732 -3.759997 -149.991181 -4.409279 29.763441 31.772279 5.497394 3.759997 -14.822772 -0.549739 0.313953
1061.669197 624.716241 77.038186 0.000000 0.000000 0.000000 0.000000 0.000000 0.000000 -94.718359 -18.353190 0.000000 85.281641 17.417852 0.000000 -144.150484 1.393257 -0.000000 60.155085 11.162518 30.000000 -152.711462 0.069401 0.000000 1.815393 -0.172168 0.000000
1072.053337 571.032879 66.932468 0.000000 0.000000 0.000000 0.000000 0.000000 0.000000 71.424080 14.648412 4.973798 -108.575920 1.348213 4.973798 -149.042361 -4.087822 3.759997 -149.913636 -5.699200 29.763441 -145.792107 -3.316007 -3.759997 3.947623 0.423094 0.313953
1070.057373 572.884376 78.884197 0.000000 0.000000 0.000000 0.000000 0.000000 0.000000 -80.850201 22.581304 9.635073 99.149799 6.395499 9.635073 -147.567525 -2.903083 7.460697 -164.443014 4.193202 29.057495 -145.447997 -4.133540 -7.460697 4.032371 0.421991 0.626666
968.813035 443.988972 74.780660 0.000000 0.000000 0.000000 0.000000 0.000000 0.000000 18.912944 -15.073664 13.690942 180.000000 13.720282 13.690942 15.758200 -7.450783 11.043737 164.241800 4.950014 27.893295 14.397395 0.325516 -11.043737 18.000000 0.240487 0.936907
968.862036 443.969952 55.234355 0.000000 0.000000 0.000000 0.000000 0.000000 0.000000 18.832684 -4.532210 16.886559 180.000000 5.480081 16.886559 15.833735 -5.218114 14.452610 164.166265 7.598502 26.289200 14.711463 -6.124986 -14.452610 18.000000 0.341200 1.243449
968.910065 443.950775 53.300978 0.000000 0.000000 0.000000 0.000000 0.000000 0.000000 18.764066 12.382150 19.021130 180.000000 -1.997882 19.021130 15.920102 3.733469 17.633558 164.079898 -5.656888 24.270510 15.041323 0.431444 -17.633558 18.000000 0.640055 1.545085
968.957118 443.931442 54.850730 0.000000 0.000000 0.000000 0.000000 0.000000 0.000000 18.706990 17.486771 19.960535 180.000000 -12.617148 19.960535 16.017366 4.699152 20.536413 163.982634 -7.594736 21.869059 15.386894 0.823157 -20.536413 18.000000 0.359127 1.840623
969.003188 443.911954 51.627430 0.000000 0.000000 0.000000 0.000000 0.000000 0.000000 18.661377 -5.433923 19.645745 180.000000 7.225457 19.645745 16.125602 -5.886105 23.115397 163.874398 -0.758806 19.122720 15.747980 8.433609 -23.115397 18.000000 -0.416468 2.128896
969.048271 443.892312 46.724209 0.000000 0.000000 0.000000 0.000000 0.000000 0.000000 18.627165 -10.506168 18.096541 180.000000 5.305754 18.096541 16.244896 -2.063373 25.329838 163.755104 5.746229 16.074804 16.124252 0.001508 -25.329838 18.000000 -0.852430 2.408768
969.092361 443.872515 46.789193 0.000000 0.000000 0.000000 0.000000 0.000000 0.000000 18.604312 -5.754524 15.410265 180.000000 -1.996594 15.410265 16.375340 4.005058 27.144812 163.624660 -0.939639 12.773379 16.515224 6.402226 -27.144812 18.000000 -0.449062 2.679134
1055.186234 577.357593 57.995445 0.000000 0.000000 0.000000 0.000000 0.000000 0.000000 85.510211 13.328237 11.755705 -94.489789 4.637819 11.755705 37.103410 -3.868640 28.531695 -148.111343 -2.136970 9.270510 24.294182 2.533848 -28.531695 -8.601915 -1.339248 2.938926
1122.856522 566.714029 56.916774 0.000000 0.000000 0.000000 0.000000 0.000000 0.000000 96.216240 3.324789 7.362491 -83.783760 -6.217473 7.362491 46.189625 3.969836 29.468618 -149.396962 -2.421324 5.621439 24.670091 1.704929 -29.468618 -7.107716 1.275418 3.187120
969.218632 443.812213 59.318933 0.000000 0.000000 0.000000 0.000000 0.000000 0.000000 18.603763 24.005287 2.506665 180.000000 -7.014001 2.506665 16.834613 0.355146 29.940802 163.165387 -5.854308 1.883716 17.768624 5.896249 -29.940802 18.000000 0.693324 3.422736
1112.757797 605.798106 59.677216 0.000000 0.000000 0.000000 0.000000 0.000000 0.000000 110.914625 6.214640 -2.506665 -69.085375 14.445384 -2.506665 67.769469 -0.505279 29.940802 -149.822316 -2.788806 -1.883716 29.049901 2.551828 -29.940802 -3.625079 0.233912 3.644843
1086.733246 592.557156 70.203809 0.000000 0.000000 0.000000 0.000000 0.000000 0.000000 -80.132323 -10.517776 -7.362491 99.867677 -65.406162 -7.362491 36.201564 -13.003411 29.468618 -13.679556 -8.393201 -5.621439 78.049842 9.795739 -29.468618 -5.127460 -0.047648 3.852566
1081.109390 570.394492 60.751680 0.000000 0.000000 0.000000 0.000000 0.000000 0.000000 -175.864613 5.794508 -11.755705 4.135387 6.647236 -11.755705 134.713876 6.139486 28.531695 -10.005873 2.055842 -9.270510 135.737755 0.463831 -28.531695 -3.389365 -0.016367 4.045085
1089.776802 536.594539 61.481898 0.000000 0.000000 0.000000 0.000000 0.000000 0.000000 -139.033903 -1.647095 -15.410265 40.966097 -0.897242 -15.410265 161.695972 7.614543 27.144812 3.114398 -4.845999 -12.773379 148.805610 3.564860 -27.144812 -2.611636 -0.246689 4.221640
1114.282036 523.965647 52.682400 0.000000 0.000000 0.000000 0.000000 0.000000 0.000000 -156.073983 -6.818635 -18.096541 23.926017 2.826081 -18.096541 174.825807 4.322424 25.329838 5.093343 7.020370 -16.074804 161.266817 -2.304506 -25.329838 -1.814366 0.158947 4.381533
1122.145157 503.425248 71.118425 0.000000 0.000000 0.000000 0.000000 0.000000 0.000000 -144.538174 -9.236549 -19.645745 35.461826 -20.844484 -19.645745 174.215003 6.481141 23.115397 -151.750905 -3.560671 -19.122720 43.887064 4.127597 -23.115397 -13.611294 -0.412760 4.524135
1134.158249 484.688419 70.486688 0.000000 0.000000 0.000000 0.000000 0.000000 0.000000 -142.311443 -5.249557 -19.960535 37.688557 1.953458 -19.960535 -174.407776 3.413833 20.536413 14.121014 2.676591 -21.869059 176.737053 -0.196244 -20.536413 -0.386439 -0.129699 4.648882
1156.756668 500.025387 75.235306 0.000000 0.000000 0.000000 0.000000 0.000000 0.000000 -140.140767 22.268483 -19.021130 39.859233 -1.069838 -19.021130 -176.866589 -10.080294 17.633558 -153.177991 -4.823306 -24.270510 40.555680 4.553790 -17.633558 -13.944432 -0.455379 4.755283
1163.818588 490.292573 80.114860 0.000000 0.000000 0.000000 0.000000 0.000000 0.000000 -126.918075 1.442636 -16.886559 53.081925 -11.437155 -16.886559 -163.374411 -0.871518 14.452610 -153.952175 -4.835253 -26.289200 36.914642 5.867208 -14.452610 0.798233 -0.439062 4.842916
1176.523705 490.346003 76.746523 0.000000 0.000000 0.000000 0.000000 0.000000 0.000000 -130.072590 -9.789342 -13.690942 49.927410 1.717923 -13.690942 -150.224616 3.980497 11.043737 24.749952 3.173802 -27.893295 -162.219632 0.965638 -11.043737 1.550269 -0.060265 4.911436
1165.045052 489.521159 91.984530 0.000000 0.000000 0.000000 0.000000 0.000000 0.000000 -134.421293 3.569146 -9.635073 45.578707 1.593781 -9.635073 -138.114962 -2.495368 7.460697 20.347125 -2.835728 -29.057495 -149.675125 0.446796 -7.460697 1.919618 0.019652 4.960574
1186.003189 485.341580 86.798400 0.000000 0.000000 0.000000 0.000000 0.000000 0.000000 151.263424 77.304608 -4.973798 -28.736576 -82.204090 -4.973798 -155.571724 -3.999135 3.759997 -114.944239 -19.792104 -29.763441 -157.446860 -3.953601 -3.759997 2.096391 0.360374 4.990134
1190.285912 497.609435 102.668102 0.000000 0.000000 0.000000 0.000000 0.000000 0.000000 -104.331435 2.481752 -0.000000 75.668565 -28.393915 -0.000000 -153.934692 -3.565512 0.000000 -67.465008 7.274651 -30.000000 -71.629168 -12.993434 -0.000000 -13.965204 7.334047 5.000000
846.875610 502.341399 105.237594 0.000000 0.000000 0.000000 0.000000 0.000000 0.000000 -153.358185 -19.614403 4.973798 26.641815 4.403595 4.973798 -147.628169 -4.892204 -3.759997 -147.401289 -4.910565 -29.763441 0.000000 0.000000 0.000000 0.000000 0.000000 0.000000
969.711343 443.490827 118.438304 0.000000 0.000000 0.000000 0.000000 0.000000 0.000000 20.204512 -4.958241 9.635073 180.000000 4.796901 9.635073 20.733157 2.153346 -7.460697 159.266843 8.602155 -29.057495 24.065833 6.891374 7.460697 18.000000 -1.022868 4.960574
969.735789 443.468267 107.493317 0.000000 0.000000 0.000000 0.000000 0.000000 0.000000 20.415894 24.449174 13.690942 180.000000 -10.855726 13.690942 21.087741 12.997169 -11.043737 158.912259 -4.123897 -27.893295 24.320336 2.724065 11.043737 18.000000 0.220683 4.911436
969.759168 443.445569 103.640254 0.000000 0.000000 0.000000 0.000000 0.000000 0.000000 20.642061 -11.033222 16.886559 180.000000 -2.481239 16.886559 21.453029 8.073049 -14.452610 158.546971 -7.278091 -26.289200 24.533304 3.801109 14.452610 18.000000 0.847188 4.842916
585.252171 514.469179 125.746602 0.000000 0.000000 0.000000 0.000000 0.000000 0.000000 74.723181 -11.308642 19.021130 -105.276819 20.668123 19.021130 119.807175 -27.954777 -17.633558 165.825978 0.580808 -24.270510 138.012220 -1.504796 17.633558 -12.357653 -3.391962 4.755283
624.843979 517.601860 111.185803 0.000000 0.000000 0.000000 0.000000 0.000000 0.000000 103.202449 -17.351844 19.960535 -76.797551 9.181687 19.960535 114.381580 -2.988978 -20.536413 -53.015473 -79.075979 -21.869059 145.467160 9.928041 20.536413 -4.173333 -1.083170 4.648882
969.822873 443.376664 121.197940 0.000000 0.000000 0.000000 0.000000 0.000000 0.000000 21.413420 6.271209 19.645745 180.000000 -14.061842 19.645745 22.607712 16.915153 -23.115397 157.392288 -3.467922 -19.122720 24.899813 -0.573725 23.115397 18.000000 -0.089721 4.524135
969.841956 443.353428 136.692354 0.000000 0.000000 0.000000 0.000000 0.000000 0.000000 21.702987 -2.239577 18.096541 180.000000 -6.156391 18.096541 23.009909 -5.393971 -25.329838 156.990091 -4.555686 -16.074804 24.926562 10.099949 25.329838 18.000000 -0.968274 4.381533
969.859960 443.330059 128.303226 0.000000 0.000000 0.000000 0.000000 0.000000 0.000000 22.009579 -21.119132 15.410265 180.000000 -2.208728 15.410265 23.419334 9.464368 -27.144812 156.580666 8.680013 -12.773379 24.904993 -5.403838 27.144812 18.000000 0.291237 4.221640
594.905148 538.048757 143.222516 0.000000 0.000000 0.000000 0.000000 0.000000 0.000000 -57.080480 17.534242 11.755705 122.919520 16.383532 11.755705 -12.750556 -4.488236 -28.531695 149.841027 -8.584488 -9.270510 -8.274090 8.966145 28.531695 17.596979 -0.171903 4.045085
969.892723 443.282929 150.046387 0.000000 0.000000 0.000000 0.000000 0.000000 0.000000 22.675903 -18.996367 7.362491 180.000000 -4.306998 7.362491 24.255612 7.440507 -29.468618 155.744388 0.187520 -5.621439 24.720303 5.950743 29.468618 18.000000 -0.592292 3.852566
1257.001877 499.708382 139.086121 0.000000 0.000000 0.000000 0.000000 0.000000 0.000000 52.818511 -2.588145 2.506665 -127.181489 8.967873 2.506665 25.369497 2.368332 -29.940802 -143.914951 3.342313 -1.883716 14.556766 0.264831 29.940802 -16.686776 -0.004567 3.644843
1279.050064 493.773898 147.658302 0.000000 0.000000 0.000000 0.000000 0.000000 0.000000 56.685213 -5.634857 -2.506665 -123.314787 0.438927 -2.506665 24.065452 0.733328 -29.940802 -146.540317 -2.901101 1.883716 13.097461 2.029984 29.940802 -16.716891 -0.061421 3.422736
1295.108986 477.099677 148.093604 0.000000 0.000000 0.000000 0.000000 0.000000 0.000000 65.723361 1.328721 -7.362491 -114.276639 4.941853 -7.362491 23.725299 3.858735 -29.468618 -147.984281 1.931766 5.621439 13.187557 -1.191820 29.468618 -16.751134 0.044319 3.187120
1289.065018 496.763316 163.663063 0.000000 0.000000 0.000000 0.000000 0.000000 0.000000 61.662232 -7.170618 -11.755705 -118.337768 4.482784 -11.755705 31.397757 0.314507 -28.531695 -148.047797 1.176755 9.270510 12.491083 0.861855 28.531695 -16.898368 -0.177032 2.938926
1285.337105 480.691112 146.781417 0.000000 0.000000 0.000000 0.000000 0.000000 0.000000 58.021980 0.883031 -15.410265 -121.978020 2.249136 -15.410265 31.705930 -1.656622 -27.144812 -157.028684 -3.663027 12.773379 11.107306 0.738023 27.144812 -17.140016 -0.187279 2.679134
1276.453171 465.093691 150.345382 0.000000 0.000000 0.000000 0.000000 0.000000 0.000000 70.157145 2.444843 -18.096541 -109.842855 -4.364837 -18.096541 40.303764 1.232494 -25.329838 -145.293609 -2.407419 16.074804 10.431204 1.551669 25.329838 -17.100572 -0.080681 2.408768
1253.658714 472.768564 151.537130 0.000000 0.000000 0.000000 0.000000 0.000000 0.000000 65.087926 1.116640 -19.645745 -114.912074 21.912743 -19.645745 -157.680356 -7.128530 -23.115397 -137.727082 1.509201 19.122720 -153.053596 -4.597409 23.115397 -16.054219 -0.794041 2.128896
1366.101608 507.691247 132.029554 0.000000 0.000000 0.000000 0.000000 0.000000 0.000000 108.715100 -7.261996 -19.960535 -71.284900 3.097476 -19.960535 156.661132 -22.421887 -20.536413 -158.224303 -6.230708 21.869059 0.000000 0.000000 0.000000 0.000000 0.000000 0.000000
969.986295 443.064535 142.461217 0.000000 0.000000 0.000000 0.000000 0.000000 0.000000 26.662144 13.427550 -19.021130 180.000000 1.908598 -19.021130 28.015351 0.140691 -17.633558 151.984649 1.741002 24.270510 22.068935 -1.491566 17.633558 18.000000 0.555348 1.545085
1282.107124 481.511257 165.575826 0.000000 0.000000 0.000000 0.000000 0.000000 0.000000 80.650781 -2.753468 -16.886559 -99.349219 -4.496859 -16.886559 1.511604 0.821882 -14.452610 -32.896908 2.998589 26.289200 -7.727072 -3.220960 14.452610 13.531851 1.267992 1.243449
1282.921486 484.777769 148.861384 0.000000 0.000000 0.000000 0.000000 0.000000 0.000000 -81.737646 -10.637594 -13.690942 98.262354 30.120307 -13.690942 -23.867101 -1.594387 -11.043737 12.655668 1.875688 27.893295 -29.454911 -1.566987 11.043737 9.861248 -1.621488 0.936907
1290.933037 513.180238 151.123316 0.000000 0.000000 0.000000 0.000000 0.000000 0.000000 -91.387864 1.757200 -9.635073 88.612136 4.163204 -9.635073 -41.685392 -2.038400 -7.460697 -161.156957 -6.056792 29.057495 15.157863 5.113182 7.460697 10.543436 0.809781 0.626666
969.999452 442.964284 147.622914 0.000000 0.000000 0.000000 0.000000 0.000000 0.000000 29.025427 11.475679 -4.973798 180.000000 3.634717 -4.973798 29.437993 -0.211262 -3.759997 150.562007 -3.161454 29.763441 20.404746 -0.105635 3.759997 18.000000 0.668960 0.313953
970.000000 442.938926 137.541231 0.000000 0.000000 0.000000 0.000000 0.000000 0.000000 29.678605 -6.885915 0.000000 180.000000 -3.139872 0.000000 29.744881 14.908108 -0.000000 150.255119 19.153532 30.000000 19.983107 -2.318645 0.000000 18.000000 -0.171382 0.000000
1354.522934 467.411410 138.707120 0.000000 0.000000 0.000000 0.000000 0.000000 0.000000 150.622570 2.696600 4.973798 -29.377430 8.753512 4.973798 140.176400 -4.948858 3.759997 -12.221629 0.957035 29.763441 132.794256 -1.397467 -3.759997 -2.626015 0.242248 0.313953
969.997807 442.887864 137.271349 0.000000 0.000000 0.000000 0.000000 0.000000 0.000000 31.061399 14.939215 9.635073 180.000000 7.800110 9.635073 30.285790 -2.405670 7.460697 149.714210 11.015673 29.057495 19.151579 -5.866081 -7.460697 18.000000 -0.322380 0.626666
1246.736984 514.278152 96.240197 0.000000 0.000000 0.000000 0.000000 0.000000 0.000000 143.557092 -3.392164 13.690942 -36.442908 4.259429 13.690942 133.761037 -6.485284 11.043737 -156.950665 -5.810551 27.893295 0.000000 0.000000 0.000000 1.928484 0.500537 0.936907
1245.221100 458.637464 106.201954 0.000000 0.000000 0.000000 0.000000 0.000000 0.000000 160.701064 1.849396 16.886559 -19.298936 -9.159413 16.886559 140.193827 -5.367867 14.452610 -157.554825 -5.904536 26.289200 29.500467 5.257189 -14.452610 -15.049953 -0.525719 1.243449
1257.365570 418.514181 115.502573 0.000000 0.000000 0.000000 0.000000 0.000000 0.000000 -143.710676 8.502681 19.021130 36.289324 -6.074507 19.021130 163.220413 -2.144748 17.633558 11.688054 2.354707 24.270510 152.038385 -4.592046 -17.633558 -2.339948 0.147833 1.545085
1275.099564 408.163741 123.274850 0.000000 0.000000 0.000000 0.000000 0.000000 0.000000 -132.929531 1.209940 19.960535 47.070469 9.369438 19.960535 173.491912 -5.836863 20.536413 -160.709681 -5.007562 21.869059 33.138793 6.464894 -20.536413 -14.686121 -0.646489 1.840623
1290.611115 384.880857 98.137466 0.000000 0.000000 0.000000 0.000000 0.000000 0.000000 -132.705235 0.667520 19.645745 47.294765 -0.658332 19.645745 -173.778854 -1.095514 23.115397 20.496835 -1.846919 19.122720 -161.220290 -3.667120 -23.115397 1.723235 0.465655 2.128896
1302.817154 380.305352 108.404064 0.000000 0.000000 0.000000 0.000000 0.000000 0.000000 -131.493915 9.659025 18.096541 48.506085 -6.387306 18.096541 -165.393697 2.682533 25.329838 23.154815 -1.567818 16.074804 -178.200316 -1.252417 -25.329838 0.138141 -0.044979 2.408768
1304.997711 379.563582 100.561333 0.000000 0.000000 0.000000 0.000000 0.000000 0.000000 -126.727972 -3.008649 15.410265 53.272028 -4.732633 15.410265 -160.219593 3.396627 27.144812 28.448880 2.041503 12.773379 -174.368770 0.212885 -27.144812 0.079526 -0.021189 2.679134
1311.668472 386.890390 74.656434 0.000000 0.000000 0.000000 0.000000 0.000000 0.000000 -122.308728 -19.618307 11.755705 57.691272 16.923689 11.755705 -158.801130 -6.323403 28.531695 150.942637 6.081021 9.270510 -154.878332 -4.265487 -28.531695 2.695409 0.468150 2.938926
1305.131836 395.180186 71.178955 0.000000 0.000000 0.000000 0.000000 0.000000 0.000000 -125.112810 0.662025 7.362491 54.887190 -1.541270 7.362491 -146.487292 4.383147 29.468618 -175.167369 2.614820 5.621439 -159.224034 -4.280656 -29.468618 1.782042 0.471473 3.187120
1296.320457 392.734526 66.199374 0.000000 0.000000 0.000000 0.000000 0.000000 0.000000 -131.035750 -0.951028 2.506665 48.964250 0.550235 2.506665 -128.969563 -1.826862 29.940802 38.856147 -6.099578 1.883716 -134.776850 2.523234 -29.940802 3.458429 0.070771 3.422736
1306.963577 386.612041 72.547760 0.000000 0.000000 0.000000 0.000000 0.000000 0.000000 -124.469622 11.816727 -2.506665 55.530378 -9.861445 -2.506665 -109.994856 -0.915839 29.940802 37.691309 -5.148872 -1.883716 -118.274788 -1.219532 -29.940802 5.098336 0.230639 3.644843
969.892723 442.572198 57.339160 0.000000 0.000000 0.000000 0.000000 0.000000 0.000000 41.287575 12.872231 -7.362491 180.000000 -1.377245 -7.362491 30.974696 0.672762 29.468618 149.025304 -16.715060 -5.621439 15.072869 5.563686 -29.468618 18.000000 0.274869 3.852566
969.876883 442.545207 69.259792 0.000000 0.000000 0.000000 0.000000 0.000000 0.000000 42.241956 -24.349283 -11.755705 180.000000 14.338054 -11.755705 30.826133 -7.832455 28.531695 149.173867 11.313866 -9.270510 14.823070 3.120438 -28.531695 18.000000 -0.314336 4.045085
969.859960 442.518116 69.156691 0.000000 0.000000 0.000000 0.000000 0.000000 0.000000 43.199779 -23.545128 -15.410265 180.000000 -1.954620 -15.410265 30.649504 4.040425 27.144812 149.350496 5.980805 -12.773379 14.587557 2.349104 -27.144812 18.000000 -0.329935 4.221640
969.841956 442.490926 49.924316 0.000000 0.000000 0.000000 0.000000 0.000000 0.000000 44.157210 -52.660606 -18.096541 180.000000 -3.177900 -18.096541 30.446417 11.487165 25.329838 149.553583 11.843689 -16.074804 14.366154 -2.021692 -25.329838 18.000000 -0.256079 4.381533
969.822873 442.463637 59.304160 0.000000 0.000000 0.000000 0.000000 0.000000 0.000000 45.110117 -47.958198 -19.645745 180.000000 0.367271 -19.645745 30.218633 3.539771 23.115397 149.781367 2.094931 -19.122720 14.158653 4.474811 -23.115397 18.000000 -0.219277 4.524135
969.802712 442.436251 70.551372 0.000000 0.000000 0.000000 0.000000 0.000000 0.000000 46.054109 -9.874742 -19.960535 180.000000 -14.101521 -19.960535 29.968037 9.647758 20.536413 150.031963 -0.298172 -21.869059 13.964823 -8.385655 -20.536413 18.000000 0.423486 4.648882
1187.040939 541.658249 38.327605 0.000000 0.000000 0.000000 0.000000 0.000000 0.000000 82.806623 -13.048459 -19.021130 -97.193377 13.408474 -19.021130 45.395981 -9.599953 17.633558 -156.144455 -2.588211 -24.270510 0.000000 0.000000 0.000000 0.000000 0.000000 0.000000
1182.242889 522.024286 48.097774 0.000000 0.000000 0.000000 0.000000 0.000000 0.000000 -105.721938 -32.838067 -16.886559 74.278062 26.678052 -16.886559 -155.708006 -2.640117 14.452610 -157.302521 -1.656259 -26.289200 0.000000 0.000000 0.000000 2.684983 0.233801 4.842916
1180.914459 527.065626 51.475247 0.000000 0.000000 0.000000 0.000000 0.000000 0.000000 88.055617 -3.117323 -13.690942 -91.944383 4.202250 -13.690942 -158.862018 -2.619314 11.043737 -151.747289 -1.895124 -27.893295 0.000000 0.000000 0.000000 0.000000 0.000000 0.000000
1236.800194 541.387432 53.667521 0.000000 0.000000 0.000000 0.000000 0.000000 0.000000 -85.588400 -12.190044 -9.635073 94.411600 1.922551 -9.635073 -159.297106 -5.165928 7.460697 -157.915391 -2.445141 -29.057495 26.607362 2.645357 -7.460697 14.926890 -0.578888 4.960574
1161.066513 575.006626 39.943754 0.000000 0.000000 0.000000 0.000000 0.000000 0.000000 -81.021168 -2.289604 -4.973798 98.978832 -1.938166 -4.973798 -102.851701 -4.602340 3.759997 -157.041007 -2.782887 -29.763441 21.429890 2.181950 -3.759997 10.859432 0.117106 4.990134
1255.636253 512.645942 43.011625 0.000000 0.000000 0.000000 0.000000 0.000000 0.000000 77.832564 5.477601 -0.000000 -102.167436 -2.494157 -0.000000 -158.264834 -2.717611 0.000000 -130.745502 -6.233366 -30.000000 -157.699225 -1.947146 -0.000000 0.000000 0.000000 0.000000
1265.118484 521.473864 32.313421 0.000000 0.000000 0.000000 0.000000 0.000000 0.000000 64.078276 -1.293942 4.973798 -115.921724 -1.621117 4.973798 41.397952 -0.610433 -3.759997 -139.329851 -0.701418 -29.763441 20.223252 -0.807093 3.759997 -16.047574 0.131284 4.990134
1228.099480 522.138258 51.277652 0.000000 0.000000 0.000000 0.000000 0.000000 0.000000 71.050901 -8.143440 9.635073 -108.949099 7.646093 9.635073 150.099970 5.702321 -7.460697 -139.894702 7.386010 -29.057495 -156.275691 -3.828372 7.460697 0.000000 0.000000 0.000000
1240.357246 528.695873 64.045416 0.000000 0.000000 0.000000 0.000000 0.000000 0.000000 65.413351 1.604385 13.690942 -114.586649 14.765431 13.690942 147.242328 -11.951782 -11.043737 -154.470720 -2.307550 -27.893295 25.557225 3.381126 11.043737 -15.444278 -0.338113 4.911436
1231.815262 551.380248 77.436878 0.000000 0.000000 0.000000 0.000000 0.000000 0.000000 56.412506 20.664558 16.886559 -123.587494 -10.010576 16.886559 -153.392336 -0.785204 -14.452610 -154.784582 -2.753838 -26.289200 24.191555 4.488588 14.452610 -15.580844 -0.448859 4.842916
1221.475182 508.360147 76.388007 0.000000 0.000000 0.000000 0.000000 0.000000 0.000000 77.450622 -0.285514 19.021130 -102.549378 -2.092490 19.021130 -156.789784 -2.815866 -17.633558 -125.590168 0.466761 -24.270510 -160.017240 -3.553493 17.633558 1.833434 0.398762 4.755283
969.477684 442.100429 59.898126 0.000000 0.000000 0.000000 0.000000 0.000000 0.000000 54.932575 48.885559 19.960535 180.000000 -28.992367 19.960535 25.919122 -1.416573 -20.536413 154.080878 -5.812410 -21.869059 12.612867 -7.507727 20.536413 18.000000 0.125749 4.648882
1480.140495 518.878891 83.258688 0.000000 0.000000 0.000000 0.000000 0.000000 0.000000 -110.621767 86.698012 19.645745 69.378233 79.944453 19.645745 -158.235933 -2.887684 -23.115397 166.031448 -3.977209 -19.122720 -155.186432 -2.575575 23.115397 2.641553 0.324148 4.524135
1271.640472 556.840560 68.368717 0.000000 0.000000 0.000000 0.000000 0.000000 0.000000 -94.404719 -5.541256 18.096541 85.595281 3.316883 18.096541 -62.417786 2.622482 -25.329838 23.992813 7.254122 -16.074804 -76.856107 -5.040091 25.329838 7.708835 0.153786 4.381533
1258.556786 530.268441 88.965927 0.000000 0.000000 0.000000 0.000000 0.000000 0.000000 78.355945 2.257526 15.410265 -101.644055 1.219767 15.410265 35.068294 -2.398889 -27.144812 -54.090640 0.730246 -12.773379 35.848220 -8.140922 27.144812 -8.104639 1.162253 4.221640
1250.800209 527.150567 82.484646 0.000000 0.000000 0.000000 0.000000 0.000000 0.000000 72.417769 0.749343 11.755705 -107.582231 9.658809 11.755705 24.571109 -3.607583 -28.531695 -39.196117 8.663448 -9.270510 10.411117 7.186491 28.531695 -9.048616 -4.243005 4.045085
1243.466148 571.776259 76.294252 0.000000 0.000000 0.000000 0.000000 0.000000 0.000000 86.301473 -0.790059 7.362491 -93.698527 8.610221 7.362491 24.553534 -4.390725 -29.468618 -153.460385 -4.015300 -5.621439 19.510484 3.110371 29.468618 -10.109500 2.123750 3.852566
1261.883812 566.052918 113.356476 0.000000 0.000000 0.000000 0.000000 0.000000 0.000000 94.015209 19.949622 2.506665 -85.984791 -25.643600 2.506665 38.959993 5.423619 -29.940802 -154.008305 -5.498763 -1.883716 20.870951 3.454838 29.940802 -10.872440 1.431429 3.644843
1284.436798 527.190542 98.709338 0.000000 0.000000 0.000000 0.000000 0.000000 0.000000 111.186365 1.712199 -2.506665 -68.813635 13.589319 -2.506665 58.506163 -3.033138 -29.940802 -19.138727 8.655413 1.883716 51.457372 -0.390390 29.940802 -5.203198 -0.422910 3.422736
1272.860069 533.494012 107.979864 0.000000 0.000000 0.000000 0.000000 0.000000 0.000000 72.301471 -7.002112 -7.362491 -107.698529 -8.045272 -7.362491 78.802573 -0.610869 -29.468618 -154.772375 -4.828341 5.621439 26.927455 3.558871 29.468618 -15.307255 -0.355887 3.187120
1255.264664 498.243735 84.404000 0.000000 0.000000 0.000000 0.000000 0.000000 0.000000 164.596971 -7.923432 -11.755705 -15.403029 14.160295 -11.755705 125.849126 9.706125 -28.531695 -156.067666 -4.743342 9.270510 33.087561 3.492138 28.531695 -14.691244 -0.349214 2.938926
1259.202232 470.407684 119.556235 0.000000 0.000000 0.000000 0.000000 0.000000 0.000000 -139.980397 4.580292 -15.410265 40.019603 -2.235004 -15.410265 165.887722 3.477927 -27.144812 -157.901492 -5.207035 12.773379 35.196094 5.156886 27.144812 -14.480391 -0.515689 2.679134
1236.502075 429.951335 128.096782 0.000000 0.000000 0.000000 0.000000 0.000000 0.000000 -113.295066 -20.480384 -18.096541 66.704934 -1.751503 -18.096541 -174.664169 1.861493 -25.329838 -159.007335 -5.437984 16.074804 32.868990 5.367284 25.329838 -14.713101 -0.536728 2.408768
1253.359451 413.942538 113.403444 0.000000 0.000000 0.000000 0.000000 0.000000 0.000000 -123.348580 9.003293 -19.645745 56.651420 -2.233377 -19.645745 -167.815074 -2.346949 -23.115397 -159.603180 -6.520700 19.122720 32.791747 7.657585 23.115397 -14.720825 -0.765758 2.128896
1281.206589 405.664523 136.507149 0.000000 0.000000 0.000000 0.000000 0.000000 0.000000 -124.414271 6.699214 -19.960535 55.585729 -2.565951 -19.960535 -161.281803 4.107946 -20.536413 28.568449 1.654061 21.869059 -159.052798 -5.004593 20.536413 1.849141 0.424395 1.840623
1300.238571 418.760215 128.151662 0.000000 0.000000 0.000000 0.000000 0.000000 0.000000 -126.263092 -4.611944 -19.021130 53.736908 -4.135650 -19.021130 -159.739358 4.457215 -17.633558 31.487961 0.117617 24.270510 -170.323915 -1.271616 17.633558 0.671815 0.002584 1.545085
1321.889191 413.634385 141.280562 0.000000 0.000000 0.000000 0.000000 0.000000 0.000000 -133.874471 13.252848 -16.886559 46.125529 -1.171956 -16.886559 -159.376251 -3.241598 -14.452610 30.696824 -6.756129 26.289200 -164.929556 1.012449 14.452610 1.089735 0.087734 1.243449
1336.221428 432.881820 138.087015 0.000000 0.000000 0.000000 0.000000 0.000000 0.000000 -115.020798 -4.279578 -13.690942 64.979202 3.705103 -13.690942 -135.609544 -3.710025 -11.043737 -161.321630 -6.162999 27.893295 17.353502 8.528696 11.043737 -16.264650 -0.852870 0.936907
1329.124603 416.860342 145.435598 0.000000 0.000000 0.000000 0.000000 0.000000 0.000000 -134.023347 2.213868 -9.635073 45.976653 2.311126 -9.635073 -128.030830 -1.955459 -7.460697 28.249885 1.464848 29.057495 -136.447985 0.803561 7.460697 4.038834 -0.159921 0.626666
1343.366776 427.060794 137.177119 0.000000 0.000000 0.000000 0.000000 0.000000 0.000000 -130.153347 6.119847 -4.973798 49.846653 2.867120 -4.973798 -103.564435 -2.845915 -3.759997 27.398095 1.942828 29.763441 -115.461530 -4.010401 3.759997 5.470063 0.182743 0.313953
1376.991005 465.829636 146.094491 0.000000 0.000000 0.000000 0.000000 0.000000 0.000000 -120.272352 0.524881 0.000000 59.727648 -11.154208 0.000000 -62.204131 2.403226 -0.000000 27.740602 2.975044 30.000000 -80.461527 -3.660282 0.000000 7.450891 0.314572 0.000000
1384.978867 468.790376 143.209786 0.000000 0.000000 0.000000 0.000000 0.000000 0.000000 -93.720384 10.017449 4.973798 86.279616 -51.289845 4.973798 3.847814 8.310830 3.759997 -160.438787 -6.255233 29.763441 15.990976 4.412531 -3.759997 7.894783 1.197668 0.313953
1345.894547 516.257268 163.357670 0.000000 0.000000 0.000000 0.000000 0.000000 0.000000 127.577640 3.727050 9.635073 -52.422360 12.855164 9.635073 53.096359 -2.957584 7.460697 -159.021748 -5.996749 29.057495 18.308456 5.113729 -7.460697 -4.062191 1.152205 0.626666
968.498927 441.455181 147.322449 0.000000 0.000000 0.000000 0.000000 0.000000 0.000000 47.920147 -10.902820 13.690942 180.000000 -8.045156 13.690942 19.641385 3.378162 11.043737 160.358615 -11.121941 27.893295 13.993219 5.362487 -11.043737 18.000000 -0.060495 0.936907
1336.846733 493.527671 152.512087 0.000000 0.000000 0.000000 0.000000 0.000000 0.000000 102.681311 -40.807173 16.886559 -77.318689 39.955263 16.886559 35.985219 3.613481 14.452610 -159.617763 -5.772925 26.289200 19.375410 5.798830 -14.452610 -16.062459 -0.579883 1.243449
968.386706 441.394956 142.555895 0.000000 0.000000 0.000000 0.000000 0.000000 0.000000 46.120581 25.305755 19.021130 180.000000 6.087017 19.021130 19.316787 -9.285175 17.633558 160.683213 -2.968450 24.270510 14.327067 -7.052401 -17.633558 18.000000 1.302312 1.545085
1263.984947 433.341283 155.102805 0.000000 0.000000 0.000000 0.000000 0.000000 0.000000 -115.578373 3.054118 19.960535 64.421627 -1.371846 19.960535 -82.396446 -1.969821 20.536413 25.733383 -1.950852 21.869059 -77.477544 3.873936 -20.536413 5.836928 -1.186194 1.840623
1352.596436 477.564354 142.418400 0.000000 0.000000 0.000000 0.000000 0.000000 0.000000 -99.196741 5.420659 19.645745 80.803259 -10.580146 19.645745 -125.272585 5.639198 23.115397 -162.405270 -6.863481 19.122720 17.377627 6.558511 -23.115397 -16.262237 -0.655851 2.128896
1384.326782 408.174427 134.477174 0.000000 0.000000 0.000000 0.000000 0.000000 0.000000 96.868601 -24.281690 18.096541 -83.131399 30.597558 18.096541 -160.848957 -6.613704 25.329838 -137.255583 2.939397 16.074804 -162.076720 -6.628326 -25.329838 0.000000 0.000000 0.000000
1387.580223 387.128634 157.977575 0.000000 0.000000 0.000000 0.000000 0.000000 0.000000 78.087764 -23.846038 15.410265 -101.912236 5.101075 15.410265 -161.807915 -6.092998 27.144812 -147.504361 -0.180352 12.773379 -162.566306 -6.844885 -27.144812 1.735427 0.790531 2.679134
1345.818558 392.423122 148.517698 0.000000 0.000000 0.000000 0.000000 0.000000 0.000000 71.782984 -12.921975 11.755705 -108.217016 -11.829358 11.755705 -169.469261 0.670871 28.531695 -153.903088 -2.110029 9.270510 -154.670689 4.066042 -28.531695 15.277725 1.809274 2.938926
1331.471329 361.814139 152.224676 0.000000 0.000000 0.000000 0.000000 0.000000 0.000000 53.586100 12.427127 7.362491 -126.413900 6.305995 7.362491 -162.290330 -6.500639 29.468618 -154.912165 -4.616678 5.621439 -162.550394 -6.429783 -29.468618 1.742175 0.817337 3.187120
1354.413986 427.213873 140.079935 0.000000 0.000000 0.000000 0.000000 0.000000 0.000000 -131.358118 -6.704858 2.506665 48.641882 -24.151353 2.506665 -142.488821 4.207846 29.940802 -161.977882 -6.154231 1.883716 12.673705 7.908800 -29.940802 1.397524 -0.102871 3.422736
1330.326691 347.207226 130.069077 0.000000 0.000000 0.000000 0.000000 0.000000 0.000000 52.464175 8.280123 -2.506665 -127.535825 -6.548720 -2.506665 14.270918 1.858103 29.940802 -122.057234 3.235964 -1.883716 22.820874 -1.113600 -29.940802 -15.244909 -0.031740 3.644843
1317.103271 414.475805 129.053118 0.000000 0.000000 0.000000 0.000000 0.000000 0.000000 76.170457 -6.426208 -7.362491 -103.829543 20.795350 -7.362491 -50.250674 0.672926 29.468618 -52.503744 0.809446 -5.621439 -92.793049 3.194898 -29.468618 3.303440 0.159194 3.852566
1331.844635 430.291482 112.080068 0.000000 0.000000 0.000000 0.000000 0.000000 0.000000 79.985160 0.316464 -11.755705 -100.014840 3.992552 -11.755705 25.995082 -0.557030 28.531695 -75.062603 3.004331 -9.270510 38.761234 -4.742214 -28.531695 -11.442229 0.168883 4.045085
1359.462433 496.472383 119.230782 0.000000 0.000000 0.000000 0.000000 0.000000 0.000000 84.268829 -1.919513 -15.410265 -95.731171 3.325278 -15.410265 30.279153 -2.361726 27.144812 -63.318008 -4.068775 -12.773379 39.457716 10.042796 -27.144812 -9.485742 -0.384476 4.221640
1323.514366 546.771398 109.531210 0.000000 0.000000 0.000000 0.000000 0.000000 0.000000 84.407325 7.727642 -18.096541 -95.592675 -5.684883 -18.096541 27.768249 2.380918 25.329838 -47.660055 -4.534714 -16.074804 28.281511 3.503653 -25.329838 -7.827901 -1.266074 4.381533
1268.535347 591.567099 119.350179 0.000000 0.000000 0.000000 0.000000 0.000000 0.000000 90.890792 4.353855 -19.645745 -89.109208 -1.728421 -19.645745 44.654760 -0.511667 23.115397 -48.200667 -3.243794 -19.122720 43.369388 -3.817819 -23.115397 -8.974980 0.350104 4.524135
1303.157158 602.888768 107.019175 0.000000 0.000000 0.000000 0.000000 0.000000 0.000000 90.349289 5.828074 -19.960535 -89.650711 -2.952940 -19.960535 47.707312 -1.323581 20.536413 -53.918782 1.866916 -21.869059 40.070965 -4.342856 -20.536413 -9.318632 0.432266 4.648882
1314.841690 613.141973 90.868832 0.000000 0.000000 0.000000 0.000000 0.000000 0.000000 94.480501 -1.205968 -19.021130 -85.519499 -2.551961 -19.021130 58.462862 0.482705 17.633558 -52.020507 -3.077687 -24.270510 55.276552 5.010592 -17.633558 -7.777523 -0.687218 4.755283
1327.521400 639.394319 116.188593 0.000000 0.000000 0.000000 0.000000 0.000000 0.000000 99.879576 -2.704254 -16.886559 -80.120424 1.940074 -16.886559 69.161359 -6.393418 14.452610 -46.413613 -3.099498 -26.289200 76.680143 6.047005 -14.452610 -6.257768 -0.148227 4.842916
1277.812729 671.228578 87.262288 0.000000 0.000000 0.000000 0.000000 0.000000 0.000000 99.708534 8.471374 -13.690942 -80.291466 -4.615376 -13.690942 92.239140 -4.200820 11.043737 -26.764021 -7.779564 -27.893295 98.168457 0.465832 -11.043737 -4.372074 0.180611 4.911436
1309.642181 690.479329 94.928102 0.000000 0.000000 0.000000 0.000000 0.000000 0.000000 117.292414 -7.874363 -9.635073 -62.707586 6.453382 -9.635073 137.002702 -5.780063 7.460697 -32.045917 -1.363993 -29.057495 135.211322 -1.167374 -7.460697 -3.212944 0.170129 4.960574
1299.770966 664.126496 80.771742 0.000000 0.000000 0.000000 0.000000 0.000000 0.000000 158.531160 1.303623 -4.973798 -21.468840 -8.270665 -4.973798 161.478323 3.467020 3.759997 -12.838206 0.114072 -29.763441 151.269584 -0.199472 -3.759997 -2.521934 -0.099533 4.990134
1313.353729 643.668108 89.004969 0.000000 0.000000 0.000000 0.000000 0.000000 0.000000 -154.315892 12.330995 -0.000000 25.684108 3.200121 -0.000000 173.459940 1.020881 0.000000 1.519689 -1.059168 -30.000000 164.244875 0.230167 -0.000000 -1.552244 -0.055072 5.000000
1342.841377 638.982847 62.347373 0.000000 0.000000 0.000000 0.000000 0.000000 0.000000 -138.993869 23.276514 4.973798 41.006131 -6.301309 4.973798 175.724056 0.408785 -3.759997 -151.723069 -3.285197 -29.763441 43.242568 4.519246 3.759997 -13.675743 -0.451925 4.990134
1350.000229 614.724133 79.059706 0.000000 0.000000 0.000000 0.000000 0.000000 0.000000 -144.248147 13.685431 9.635073 35.751853 3.983392 9.635073 177.069273 3.130895 -7.460697 -152.227621 -2.893953 -29.057495 43.136563 4.098388 7.460697 -13.686344 -0.409839 4.960574
1328.535919 624.780936 41.788805 0.000000 0.000000 0.000000 0.000000 0.000000 0.000000 -165.447222 2.165177 13.690942 14.552778 -4.054110 13.690942 169.657511 1.941524 -11.043737 -152.168050 -2.912644 -27.893295 41.929642 2.055585 11.043737 -13.807036 -0.205558 4.911436
1318.810501 615.688248 47.546523 0.000000 0.000000 0.000000 0.000000 0.000000 0.000000 -120.063657 -7.959502 16.886559 59.936343 7.281920 16.886559 -165.389465 -0.063593 -14.452610 -152.866764 -2.622807 -26.289200 39.162270 3.349293 14.452610 -14.083773 -0.334929 4.842916
1321.656418 659.275410 76.232941 0.000000 0.000000 0.000000 0.000000 0.000000 0.000000 -121.435085 10.838382 19.021130 58.564915 -3.573169 19.021130 -149.190712 1.476448 -17.633558 -151.926374 -2.892515 -24.270510 33.097066 3.034714 17.633558 -14.690293 -0.303471 4.755283
1328.445511 687.490232 75.918071 0.000000 0.000000 0.000000 0.000000 0.000000 0.000000 -104.253419 -6.018421 19.960535 75.746581 2.049205 19.960535 -110.140878 -0.892145 -20.536413 -152.911692 -2.173315 -21.869059 23.882145 2.308610 20.536413 3.694979 0.228071 4.648882
966.534206 440.564282 52.986437 0.000000 0.000000 0.000000 0.000000 0.000000 0.000000 25.865486 -11.364681 19.645745 180.000000 14.838113 19.645745 18.728337 -5.872049 -23.115397 161.271663 7.958278 -19.122720 19.024234 0.943601 23.115397 18.000000 -0.691238 4.524135
966.454577 440.533056 66.482974 0.000000 0.000000 0.000000 0.000000 0.000000 0.000000 25.417507 0.590397 18.096541 180.000000 -2.380995 18.096541 18.825450 -9.347597 -25.329838 161.174550 -3.792208 -16.074804 19.071566 2.802572 25.329838 18.000000 0.118315 4.381533
966.374240 440.501809 44.744951 0.000000 0.000000 0.000000 0.000000 0.000000 0.000000 24.990320 -1.208722 15.410265 180.000000 -2.609033 15.410265 18.929718 0.302068 -27.144812 161.070282 -2.199587 -12.773379 19.102411 -1.917348 27.144812 18.000000 0.171522 4.221640
966.293204 440.470542 35.796917 0.000000 0.000000 0.000000 0.000000 0.000000 0.000000 24.583377 4.253356 11.755705 180.000000 -10.264837 11.755705 19.040946 4.563695 -28.531695 160.959054 3.366419 -9.270510 19.116765 -7.411010 28.531695 18.000000 0.757714 4.045085
966.211478 440.439256 54.769323 0.000000 0.000000 0.000000 0.000000 0.000000 0.000000 24.196129 -10.161001 7.362491 180.000000 2.134156 7.362491 19.158923 1.802995 -29.468618 160.841077 8.141812 -5.621439 19.114778 -0.659789 29.468618 18.000000 -0.298337 3.852566
644.985180 745.864069 59.800098 0.000000 0.000000 0.000000 0.000000 0.000000 0.000000 96.086415 -44.853175 2.506665 -83.913585 39.345552 2.506665 -159.662371 -3.484192 -29.940802 -116.741565 12.320171 -1.883716 -176.001217 0.151710 29.940802 -1.006627 0.195627 3.644843
1269.020119 699.025490 53.461251 0.000000 0.000000 0.000000 0.000000 0.000000 0.000000 83.810916 2.670946 -2.506665 -96.189084 4.885011 -2.506665 51.932890 -4.247619 -29.940802 -149.314466 -1.863868 1.883716 27.598511 1.994401 29.940802 -15.240149 -0.199440 3.422736
573.721218 678.450201 56.086959 0.000000 0.000000 0.000000 0.000000 0.000000 0.000000 18.756393 -7.698408 -7.362491 -161.243607 -1.928843 -7.362491 -174.158094 -20.884834 -29.468618 178.010322 -4.646586 5.621439 -154.394154 -6.468294 29.468618 11.886524 3.405216 3.187120
1261.580200 714.897366 63.133734 0.000000 0.000000 0.000000 0.000000 0.000000 0.000000 87.191276 -9.289689 -11.755705 -92.808724 5.071041 -11.755705 23.129119 3.817771 -28.531695 -149.376238 -2.138814 9.270510 24.545507 2.045156 28.531695 13.583501 1.454652 2.938926
1314.655838 684.171546 50.034712 0.000000 0.000000 0.000000 0.000000 0.000000 0.000000 61.219932 1.998212 -15.410265 -118.780068 -2.617433 -15.410265 25.476616 -2.354919 -27.144812 -150.404247 -2.338487 12.773379 24.621454 1.890037 27.144812 -15.537855 -0.189004 2.679134
1319.638939 674.820013 53.194674 0.000000 0.000000 0.000000 0.000000 0.000000 0.000000 82.055377 -4.792333 -18.096541 -97.944623 -4.887507 -18.096541 17.325085 0.437484 -25.329838 -60.067277 7.427889 16.074804 23.747728 -4.877542 25.329838 -13.005173 0.218033 2.408768
1367.852325 659.536314 67.722772 0.000000 0.000000 0.000000 0.000000 0.000000 0.000000 -150.278430 14.599473 -19.645745 29.721570 -36.685544 -19.645745 -151.222797 -2.020357 -23.115397 18.758043 -9.408182 19.122720 -152.451920 -1.377930 23.115397 2.484143 0.197549 2.128896
1392.624664 638.981302 82.092785 0.000000 0.000000 0.000000 0.000000 0.000000 0.000000 -122.704248 3.793298 -19.960535 57.295752 -3.680769 -19.960535 -134.513385 -0.393487 -20.536413 30.292627 0.864825 21.869059 -146.694539 -1.487447 20.536413 2.430965 -0.029722 1.840623
1401.291389 646.422758 74.684614 0.000000 0.000000 0.000000 0.000000 0.000000 0.000000 83.316637 -10.872930 -19.021130 -96.683363 1.895468 -19.021130 29.335627 -2.843630 -17.633558 -136.281416 1.254159 24.270510 19.119183 -0.485154 17.633558 -15.871560 0.012636 1.545085
1381.838951 663.410475 80.828531 0.000000 0.000000 0.000000 0.000000 0.000000 0.000000 79.215331 -4.333685 -16.886559 -100.784669 4.855517 -16.886559 30.640455 -4.712689 -14.452610 -139.113455 -1.041594 26.289200 14.302413 1.746705 14.452610 -16.408036 0.007077 1.243449
1390.185928 664.248354 73.650981 0.000000 0.000000 0.000000 0.000000 0.000000 0.000000 75.546066 4.098827 -13.690942 -104.453934 3.511769 -13.690942 38.995097 -5.303238 -11.043737 -142.871297 -1.129357 27.893295 14.209110 -0.031845 11.043737 -16.737090 -0.050779 0.936907
1393.889923 677.551103 80.985823 0.000000 0.000000 0.000000 0.000000 0.000000 0.000000 84.293627 1.083195 -9.635073 -95.706373 1.728673 -9.635073 -152.700272 -4.117932 -7.460697 -143.357755 -5.238273 29.057495 -148.868889 -3.294811 7.460697 3.626268 0.614592 0.626666
905.601082 693.654528 76.822414 0.000000 0.000000 0.000000 0.000000 0.000000 0.000000 -84.410869 -16.682355 -4.973798 95.589131 -6.923326 -4.973798 -139.498802 -3.771457 -3.759997 -178.556713 42.855072 29.763441 -142.061844 -5.181326 3.759997 3.411456 0.437188 0.313953
1337.643929 680.318756 77.972001 0.000000 0.000000 0.000000 0.000000 0.000000 0.000000 78.192517 -4.607727 0.000000 -101.807483 1.305453 0.000000 48.289813 5.006708 -0.000000 -140.291980 1.385924 30.000000 13.663140 2.359987 0.000000 -17.395561 -0.209173 0.000000
1322.670708 685.543334 102.487426 0.000000 0.000000 0.000000 0.000000 0.000000 0.000000 71.501063 -12.585754 4.973798 -108.498937 25.714134 4.973798 23.648228 -2.876734 3.759997 -144.586500 0.981761 29.763441 14.578018 0.955011 -3.759997 -16.885607 -0.007553 0.313953
1305.530548 682.910864 96.047243 0.000000 0.000000 0.000000 0.000000 0.000000 0.000000 72.979287 22.263099 9.635073 -107.020713 0.075531 9.635073 -148.728581 -4.301571 7.460697 -74.802907 -8.916512 29.057495 -151.178244 -3.850581 -7.460697 2.601049 0.356519 0.626666
1359.363556 692.650115 107.203285 0.000000 0.000000 0.000000 0.000000 0.000000 0.000000 73.244804 1.543309 13.690942 -106.755196 12.447793 13.690942 13.983499 -9.955366 11.043737 -67.611809 0.988318 27.893295 13.130547 7.524162 -11.043737 -11.004089 -0.697760 0.936907
1299.495964 679.994059 109.516384 0.000000 0.000000 0.000000 0.000000 0.000000 0.000000 116.206779 6.311884 16.886559 -63.793221 -4.060894 16.886559 -150.858719 -4.528063 14.452610 -34.548592 -2.846520 26.289200 60.366751 -1.291841 -14.452610 -4.627493 0.045619 1.243449
1306.260338 711.527116 124.885498 0.000000 0.000000 0.000000 0.000000 0.000000 0.000000 -85.758672 -3.640797 19.021130 94.241328 28.390100 19.021130 -31.461750 -5.935085 17.633558 -4.237664 3.214245 24.270510 -15.215787 -0.595281 -17.633558 7.867754 0.095170 1.545085
1272.614822 704.778571 113.155357 0.000000 0.000000 0.000000 0.000000 0.000000 0.000000 -78.634637 13.850948 19.960535 101.365363 0.216001 19.960535 -34.118569 1.795111 20.536413 22.539652 6.372497 21.869059 -31.373170 -5.550628 -20.536413 11.310693 0.647755 1.840623
1310.345650 676.427021 123.062464 0.000000 0.000000 0.000000 0.000000 0.000000 0.000000 97.572435 10.347223 19.645745 -82.427565 -7.146425 19.645745 50.400703 -2.384724 23.115397 -39.584286 -4.534429 19.122720 44.966766 1.708359 -23.115397 -8.852712 -0.170084 2.128896
1315.732956 671.025095 142.768460 0.000000 0.000000 0.000000 0.000000 0.000000 0.000000 97.797337 -11.286561 18.096541 -82.202663 4.938400 18.096541 49.825934 1.714614 25.329838 -39.162923 0.249634 16.074804 36.475631 5.004957 -25.329838 -8.191519 -0.489052 2.408768
1329.935532 653.525419 145.891117 0.000000 0.000000 0.000000 0.000000 0.000000 0.000000 96.469555 1.268119 15.410265 -83.530445 4.596507 15.410265 63.882053 -4.686837 27.144812 -51.972064 0.009826 12.773379 58.624362 0.540022 -27.144812 -8.239564 -0.660118 2.679134
1316.170578 674.246514 148.420702 0.000000 0.000000 0.000000 0.000000 0.000000 0.000000 -87.946330 3.140667 11.755705 92.053670 -0.124788 11.755705 -29.715798 -1.768718 28.531695 54.212796 -0.538493 9.270510 -40.560774 -0.002530 -28.531695 11.008015 -0.088381 2.938926
1317.367287 678.027205 146.174675 0.000000 0.000000 0.000000 0.000000 0.000000 0.000000 95.152942 9.848180 7.362491 -84.847058 -7.300247 7.362491 98.792835 4.126415 29.468618 -150.515547 -5.989667 5.621439 32.983753 5.422535 -29.468618 -14.701625 -0.542254 3.187120
1318.168488 670.157025 130.379162 0.000000 0.000000 0.000000 0.000000 0.000000 0.000000 -151.252255 -50.442599 2.506665 28.747745 69.749946 2.506665 138.896993 -4.994308 29.940802 -151.946620 -5.907930 1.883716 38.784684 5.125883 -29.940802 -14.121532 -0.512588 3.422736
1323.412628 644.667885 158.176427 0.000000 0.000000 0.000000 0.000000 0.000000 0.000000 -97.904066 -3.319145 -2.506665 82.095934 -20.046772 -2.506665 155.695030 3.480061 29.940802 -152.500978 -6.632459 -1.883716 44.721081 6.145146 -29.940802 -13.527892 -0.614515 3.644843
1312.776718 630.059459 176.589366 0.000000 0.000000 0.000000 0.000000 0.000000 0.000000 -116.637972 -4.098324 -7.362491 63.362028 -13.459773 -7.362491 171.094570 2.189095 29.468618 -152.894064 -6.363712 -5.621439 43.947863 7.412631 -29.468618 -13.605214 -0.741263 3.852566
1316.420746 625.237019 146.187145 0.000000 0.000000 0.000000 0.000000 0.000000 0.000000 -136.254273 -5.042385 -11.755705 43.745727 -10.366138 -11.755705 -177.663204 2.301136 28.531695 -153.006287 -6.711680 -9.270510 42.784597 8.681922 -28.531695 -13.721540 -0.868192 4.045085
1314.719925 628.818026 153.052707 0.000000 0.000000 0.000000 0.000000 0.000000 0.000000 -114.737929 -4.612619 -15.410265 65.262071 2.423294 -15.410265 -169.764314 -1.224426 27.144812 -153.369487 -6.249731 -12.773379 41.498347 8.136953 -27.144812 -13.850165 -0.813695 4.221640
1334.396782 646.165652 145.248742 0.000000 0.000000 0.000000 0.000000 0.000000 0.000000 -116.903454 -6.106239 -18.096541 63.096546 -6.595018 -18.096541 -154.594534 -0.872364 25.329838 -153.225015 -6.499687 -16.074804 37.136182 8.538290 -25.329838 -14.286382 -0.853829 4.381533
1340.823784 648.244128 165.464240 0.000000 0.000000 0.000000 0.000000 0.000000 0.000000 -116.932323 -6.179432 -19.645745 63.067677 5.100495 -19.645745 -138.898656 0.997067 23.115397 35.335752 -2.538061 -19.122720 -153.336856 2.071982 -23.115397 2.206211 0.012080 4.524135
1330.023880 654.599032 159.958619 0.000000 0.000000 0.000000 0.000000 0.000000 0.000000 -112.150704 -11.595145 -19.960535 67.849296 19.002630 -19.960535 -118.798313 -6.753312 20.536413 -153.636372 -5.566548 -21.869059 16.691869 8.469677 -20.536413 -16.330813 -0.846968 4.648882
1337.431641 662.410698 143.812821 0.000000 0.000000 0.000000 0.000000 0.000000 0.000000 -109.111809 11.030435 -19.021130 70.888191 -11.428064 -19.021130 -91.144379 -2.113206 17.633558 -154.448144 -7.311904 -24.270510 10.298202 6.484329 -17.633558 6.642051 0.054730 4.755283
1324.339714 676.416593 139.993423 0.000000 0.000000 0.000000 0.000000 0.000000 0.000000 -104.120178 -9.928057 -16.886559 75.879822 -4.481635 -16.886559 -57.095620 5.804459 14.452610 38.799650 0.984031 -26.289200 -71.942639 0.734264 -14.452610 8.831938 -0.312798 4.842916
962.890318 439.311049 148.724490 0.000000 0.000000 0.000000 0.000000 0.000000 0.000000 19.986963 -6.017963 -13.690942 180.000000 -7.706948 -13.690942 24.297229 10.925552 11.043737 155.702771 -2.105103 -27.893295 14.983342 -4.534977 -11.043737 18.000000 0.981180 4.911436
962.789911 439.279946 142.536316 0.000000 0.000000 0.000000 0.000000 0.000000 0.000000 20.089586 -13.111280 -9.635073 180.000000 2.786648 -9.635073 24.330184 -6.533947 7.460697 155.669816 -5.473055 -29.057495 14.926290 8.169238 -7.460697 18.000000 -0.592565 4.960574
641.318550 641.336324 138.763384 0.000000 0.000000 0.000000 0.000000 0.000000 0.000000 163.642929 2.471825 -4.973798 -16.357071 7.690800 -4.973798 -155.926011 1.659520 3.759997 -130.644608 -8.704745 -29.763441 68.679337 11.704546 -3.759997 -11.132066 -1.170455 4.990134
1305.385551 662.289033 145.710162 0.000000 0.000000 0.000000 0.000000 0.000000 0.000000 -81.949824 -17.283653 -0.000000 98.050176 5.507845 -0.000000 9.536664 -0.513062 0.000000 -153.586691 -5.305129 -30.000000 24.402531 5.117108 -0.000000 -15.559747 -0.511711 5.000000
962.486899 439.186814 134.791319 0.000000 0.000000 0.000000 0.000000 0.000000 0.000000 20.465882 -3.956034 4.973798 180.000000 1.774900 4.973798 24.357206 7.237822 -3.759997 155.642794 1.562354 -29.763441 14.800425 0.529086 3.759997 18.000000 -0.394921 4.990134
1216.314240 612.580640 141.060335 0.000000 0.000000 0.000000 0.000000 0.000000 0.000000 78.221991 0.402861 9.635073 -101.778009 -6.987746 9.635073 46.689014 3.760995 -7.460697 -61.937558 2.624685 -29.057495 44.546377 -6.109588 7.460697 -10.771750 0.800055 4.960574
1273.897820 573.707514 123.547546 0.000000 0.000000 0.000000 0.000000 0.000000 0.000000 77.469628 -2.577828 13.690942 -102.530372 -2.142927 13.690942 -155.691164 -5.038421 -11.043737 -120.750172 -2.601617 -27.893295 -156.229293 -5.205516 11.043737 2.162203 0.528544 4.911436
1337.358742 570.303276 123.510698 0.000000 0.000000 0.000000 0.000000 0.000000 0.000000 73.705918 0.254749 16.886559 -106.294082 3.688392 16.886559 -155.918376 -5.567085 -14.452610 -149.887909 -4.536016 -26.289200 0.000000 0.000000 0.000000 0.000000 0.000000 0.000000
1342.446442 569.623497 91.158229 0.000000 0.000000 0.000000 0.000000 0.000000 0.000000 68.898287 10.003064 19.021130 -111.101713 -2.981385 19.021130 39.314088 2.423887 -17.633558 -140.912764 -2.726989 -24.270510 -153.216026 -4.818233 17.633558 2.759242 0.653532 4.755283
1335.759430 584.665475 117.904806 0.000000 0.000000 0.000000 0.000000 0.000000 0.000000 66.989329 -6.491914 19.960535 -113.010671 7.069842 19.960535 -154.807077 -4.900621 -20.536413 -142.328055 -0.481590 -21.869059 -153.049156 -4.649576 20.536413 2.866457 0.645513 4.648882
1337.950974 598.074245 114.500487 0.000000 0.000000 0.000000 0.000000 0.000000 0.000000 62.697633 5.987767 19.645745 -117.302367 2.470356 19.645745 19.366736 -3.461437 -23.115397 -144.826223 -2.002392 -19.122720 9.911455 0.689644 23.115397 -17.004209 -0.001957 4.524135
1352.846489 601.043322 92.178197 0.000000 0.000000 0.000000 0.000000 0.000000 0.000000 59.083577 7.576232 18.096541 -120.916423 -8.801115 18.096541 20.876734 0.130763 -25.329838 -142.301690 -1.122236 -16.074804 13.356960 0.158405 25.329838 -16.821524 0.047194 4.381533
1347.310982 587.475100 92.078611 0.000000 0.000000 0.000000 0.000000 0.000000 0.000000 56.169135 0.916079 15.410265 -123.830865 -1.946479 15.410265 21.172503 -0.503089 -27.144812 -139.640745 -5.727536 -12.773379 14.641496 2.320762 27.144812 -16.282575 -0.014221 4.221640
1326.982155 606.886139 81.307220 0.000000 0.000000 0.000000 0.000000 0.000000 0.000000 70.119981 -0.774580 11.755705 -109.880019 -0.259712 11.755705 26.511889 0.698368 -28.531695 -111.264667 2.942293 -9.270510 31.153840 -1.992378 28.531695 -13.943905 -0.005928 4.045085
1354.391098 626.185555 77.925567 0.000000 0.000000 0.000000 0.000000 0.000000 0.000000 88.154395 -6.062869 7.362491 -91.845605 8.241544 7.362491 30.442275 0.382100 -29.468618 -76.284233 4.330163 -5.621439 43.854867 -1.193633 29.468618 -10.818190 -0.093535 3.852566
1370.667114 610.219567 83.805825 0.000000 0.000000 0.000000 0.000000 0.000000 0.000000 89.945118 -0.003011 2.506665 -90.054882 -3.985355 2.506665 44.053326 -4.178291 -29.940802 -56.238091 -0.319587 -1.883716 55.411270 -2.196165 29.940802 -7.805659 0.219645 3.644843
1372.834854 597.828534 78.546741 0.000000 0.000000 0.000000 0.000000 0.000000 0.000000 93.407992 4.526329 -2.506665 -86.592008 -4.725424 -2.506665 54.165845 5.037755 -29.940802 -47.239220 -3.059462 1.883716 56.575186 2.963542 29.940802 -6.344474 -0.162837 3.422736
1336.554337 597.454848 79.689939 0.000000 0.000000 0.000000 0.000000 0.000000 0.000000 95.622643 3.175161 -7.362491 -84.377357 -5.082035 -7.362491 56.597780 -2.665895 -29.468618 -45.108662 -6.326474 5.621439 55.386034 5.498661 29.468618 -7.206870 -1.247702 3.187120
1310.567093 590.844769 69.494149 0.000000 0.000000 0.000000 0.000000 0.000000 0.000000 100.193768 2.575971 -11.755705 -79.806232 0.749956 -11.755705 61.986347 0.318484 -28.531695 -37.593815 -3.132047 9.270510 62.907615 4.060138 28.531695 -6.637230 -0.666464 2.938926
1328.574371 576.493385 48.829675 0.000000 0.000000 0.000000 0.000000 0.000000 0.000000 101.943783 -1.305419 -15.410265 -78.056217 5.712099 -15.410265 61.902838 -7.812728 -27.144812 -33.889586 -1.892485 12.773379 55.760387 2.329872 27.144812 -7.097415 0.545247 2.679134
1316.178360 595.500870 58.220307 0.000000 0.000000 0.000000 0.000000 0.000000 0.000000 103.792097 -9.120391 -18.096541 -76.207903 -11.566549 -18.096541 65.535198 6.068089 -25.329838 -28.739437 -0.431277 16.074804 68.415337 -0.189998 25.329838 -6.481753 0.265163 2.408768
1302.343140 568.138025 45.731771 0.000000 0.000000 0.000000 0.000000 0.000000 0.000000 101.222717 6.634291 -19.645745 -78.777283 7.905552 -19.645745 90.757296 0.733797 -23.115397 -18.578033 3.134180 19.122720 97.909038 -4.032973 23.115397 -5.050134 0.707086 2.128896
1274.166183 540.660596 48.437716 0.000000 0.000000 0.000000 0.000000 0.000000 0.000000 -126.898591 7.755022 -19.960535 53.101409 -10.982694 -19.960535 127.276662 2.345312 -20.536413 8.808645 -0.156781 21.869059 119.711272 1.607382 20.536413 -4.115393 -0.129241 1.840623
1268.557091 468.331075 46.468872 0.000000 0.000000 0.000000 0.000000 0.000000 0.000000 -124.112133 -1.670031 -19.021130 55.887867 6.003312 -19.021130 163.344780 -1.234248 -17.633558 38.476068 1.160369 24.270510 145.889074 -0.934519 17.633558 -1.929933 0.167846 1.545085
1278.673096 454.375906 53.937121 0.000000 0.000000 0.000000 0.000000 0.000000 0.000000 -126.805061 10.174448 -16.886559 53.194939 2.422999 -16.886559 -174.009950 -6.910923 -14.452610 27.419224 -4.111477 26.289200 168.192977 -0.350373 14.452610 -0.976267 -0.043883 1.243449
1285.008774 434.700390 54.893974 0.000000 0.000000 0.000000 0.000000 0.000000 0.000000 -132.005120 6.478398 -13.690942 47.994880 2.180776 -13.690942 -171.247775 -3.281327 -11.043737 26.625253 -1.476459 27.893295 178.805957 -0.583338 11.043737 0.023422 -0.078530 0.936907
1288.157730 426.987666 46.895534 0.000000 0.000000 0.000000 0.000000 0.000000 0.000000 -123.987926 -0.423311 -9.635073 56.012074 -5.429137 -9.635073 -166.356219 2.863578 -7.460697 35.716336 -3.268510 29.057495 -172.960762 2.230095 7.460697 0.819533 -0.176314 0.626666
1291.221657 420.425448 61.735760 0.000000 0.000000 0.000000 0.000000 0.000000 0.000000 -122.265643 -12.584163 -4.973798 57.734357 8.532080 -4.973798 -156.870161 -1.062022 -3.759997 38.220704 3.998357 29.763441 -165.716368 -0.047247 3.759997 1.405814 -0.024072 0.313953
