HIERARCHY
ROOT Hips
{
    OFFSET 0.0 0.0 0.0
    CHANNELS 6 Xposition Yposition Zposition Zrotation Xrotation Yrotation
    JOINT Spine
    {
        OFFSET 0.0 5.0 0.0
        CHANNELS 3 Zrotation Xrotation Yrotation
        JOINT Chest
        {
            OFFSET 0.0 5.0 0.0
            CHANNELS 3 Zrotation Xrotation Yrotation
            JOINT Neck
            {
                OFFSET 0.0 8.0 0.0
                CHANNELS 3 Zrotation Xrotation Yrotation
                JOINT Head
                {
                    OFFSET 0.0 5.0 0.0
                    CHANNELS 3 Zrotation Xrotation Yrotation
                    End Site
                    {
                        OFFSET 0.0 3.0 0.0
                    }
                }
            }
            JOINT LeftShoulder
            {
                OFFSET -5.0 0.0 0.0
                CHANNELS 3 Zrotation Xrotation Yrotation
                JOINT LeftArm
                {
                    OFFSET 0.0 -10.0 0.0
                    CHANNELS 3 Zrotation Xrotation Yrotation
                    JOINT LeftForeArm
                    {
                        OFFSET 0.0 -10.0 0.0
                        CHANNELS 3 Zrotation Xrotation Yrotation
                        End Site
                        {
                            OFFSET 0.0 -3.0 0.0
                        }
                    }
                }
            }
        }
    }
}

MOTION
Frames: 300
Frame Time: 0.033333

960.000000 445.000000 98.460975 0.000000 0.000000 0.000000 0.000000 0.000000 0.000000 23.025492 -9.657446 0.000000 180.000000 -0.625349 0.000000 21.801409 -11.946472 -0.000000 158.198591 -2.974737 30.000000 15.945396 -2.413015 0.000000 18.000000 0.182525 0.000000
1691.525230 140.756605 115.195490 0.000000 0.000000 0.000000 0.000000 0.000000 0.000000 -163.376529 1.721399 4.973798 16.623471 5.606431 4.973798 -171.853121 -3.674048 3.759997 99.744051 6.446620 29.763441 -171.126653 -3.688078 -3.759997 0.673538 0.430519 0.313953
1636.048050 128.802021 122.303233 0.000000 0.000000 0.000000 0.000000 0.000000 0.000000 157.904128 6.433305 9.635073 -22.095872 6.611546 9.635073 -171.936471 -3.999333 7.460697 -143.675701 6.269658 29.057495 -173.500805 -4.710741 -7.460697 0.570999 0.406288 0.626666
1578.156967 80.474526 116.563481 0.000000 0.000000 0.000000 0.000000 0.000000 0.000000 -139.519796 -9.196945 13.690942 40.480204 12.684224 13.690942 -174.507724 -4.081103 11.043737 119.111399 -3.040383 27.893295 -173.607258 -3.461813 -11.043737 0.461920 0.450154 0.936907
960.418757 444.998421 106.832415 0.000000 0.000000 0.000000 0.000000 0.000000 0.000000 25.077893 -29.964298 16.886559 180.000000 12.479883 16.886559 23.861935 3.470325 14.452610 156.138065 11.820035 26.289200 17.903699 2.442380 -14.452610 18.000000 -0.064518 1.243449
960.523360 444.997533 131.944265 0.000000 0.000000 0.000000 0.000000 0.000000 0.000000 25.638906 3.199330 19.021130 180.000000 12.285690 19.021130 24.425035 -8.343721 17.633558 155.574965 11.887040 24.270510 18.452907 -8.056244 -17.633558 18.000000 0.711275 1.545085
960.627905 444.996447 128.861396 0.000000 0.000000 0.000000 0.000000 0.000000 0.000000 26.219073 15.860501 19.960535 180.000000 -11.621799 19.960535 25.006291 14.958811 20.536413 154.993709 -5.085872 21.869059 19.024920 4.823148 -20.536413 18.000000 0.139317 1.840623
1126.242828 420.359820 150.026798 0.000000 0.000000 0.000000 0.000000 0.000000 0.000000 31.410514 3.041876 19.645745 -148.589486 -9.676079 19.645745 32.280463 8.691356 23.115397 -131.603972 -0.525387 19.122720 45.585331 -2.346312 -23.115397 -13.449727 0.275992 2.128896
1257.895088 650.549197 128.516343 0.000000 0.000000 0.000000 0.000000 0.000000 0.000000 25.073180 23.005611 18.096541 -154.926820 -9.759694 18.096541 46.260945 -2.091900 25.329838 -154.651428 -5.783054 16.074804 27.339487 5.954767 -25.329838 -13.619892 -1.829063 2.408768
960.941083 444.992008 136.960869 0.000000 0.000000 0.000000 0.000000 0.000000 0.000000 28.072001 -17.684122 15.410265 180.000000 6.966157 15.410265 26.849221 -5.327318 27.144812 153.150779 2.899024 12.773379 20.864045 1.045824 -27.144812 18.000000 0.068631 2.679134
1163.815842 547.748709 126.119097 0.000000 0.000000 0.000000 0.000000 0.000000 0.000000 117.162728 -11.806391 11.755705 -62.837272 -9.508905 11.755705 102.363764 1.766599 28.531695 -47.376450 0.050982 9.270510 104.768601 0.129575 -28.531695 -6.003489 0.229324 2.938926
961.149372 444.988063 141.858978 0.000000 0.000000 0.000000 0.000000 0.000000 0.000000 29.395983 -34.043572 7.362491 180.000000 -3.542775 7.362491 28.146217 17.068450 29.468618 151.853783 6.302120 5.621439 22.170006 -0.564768 -29.468618 18.000000 0.122837 3.187120
1136.717377 590.104480 137.211581 0.000000 0.000000 0.000000 0.000000 0.000000 0.000000 115.752126 3.864369 2.506665 -64.247874 -2.409428 2.506665 73.638146 -0.254864 29.940802 -21.842452 -4.340284 1.883716 75.369282 -4.001853 -29.940802 -6.767207 1.176545 3.422736
1163.079758 634.077559 151.622689 0.000000 0.000000 0.000000 0.000000 0.000000 0.000000 132.174340 -6.994684 -2.506665 -47.825660 5.263011 -2.506665 94.255711 -0.081347 29.940802 -149.364979 -6.585485 -1.883716 30.021641 5.657576 -29.940802 -5.096180 0.164266 3.644843
961.460830 444.980668 153.511035 0.000000 0.000000 0.000000 0.000000 0.000000 0.000000 31.497152 -23.929349 -7.362491 180.000000 20.354467 -7.362491 30.152455 -4.095500 29.468618 149.847545 11.816563 -5.621439 24.175589 -4.462509 -29.468618 18.000000 -0.156853 3.852566
1097.449951 565.089898 147.269523 0.000000 0.000000 0.000000 0.000000 0.000000 0.000000 -119.219568 -0.534613 -11.755705 60.780432 -4.199808 -11.755705 -150.180642 -6.477242 28.531695 48.804955 1.211244 -9.270510 -149.874178 -6.616498 -28.531695 2.713854 0.512872 4.045085
1114.140244 528.302071 161.531971 0.000000 0.000000 0.000000 0.000000 0.000000 0.000000 -142.671523 -1.775961 -15.410265 37.328477 -2.886270 -15.410265 -177.395681 4.016088 27.144812 34.687329 -5.054330 -12.773379 161.894167 5.019274 -27.144812 -0.910956 -0.144248 4.221640
1116.433640 479.728639 156.398340 0.000000 0.000000 0.000000 0.000000 0.000000 0.000000 -102.267481 -0.654820 -18.096541 77.732519 15.312341 -18.096541 -163.695626 -4.254470 25.329838 38.575767 3.118648 -16.074804 -176.001122 -1.523791 -25.329838 0.706594 0.026259 4.381533
1135.931282 466.493965 151.499356 0.000000 0.000000 0.000000 0.000000 0.000000 0.000000 -112.868406 5.374709 -19.645745 67.131594 13.269985 -19.645745 -159.517862 -3.950009 23.115397 36.204678 -2.358903 -19.122720 -154.426613 -5.418123 -23.115397 2.428729 0.517631 4.524135
1141.618767 467.420679 134.123381 0.000000 0.000000 0.000000 0.000000 0.000000 0.000000 -123.086385 0.876340 -19.960535 56.913615 -2.397060 -19.960535 -154.885724 0.334537 20.536413 36.481623 1.720691 -21.869059 -153.965441 -6.323472 -20.536413 2.446728 0.561913 4.648882
1150.647926 469.370956 137.658698 0.000000 0.000000 0.000000 0.000000 0.000000 0.000000 -43.953779 50.483553 -19.021130 136.046221 -17.850814 -19.021130 -154.327268 -7.391392 17.633558 60.745168 -18.655278 -24.270510 -153.350642 -6.082057 -17.633558 2.386216 0.595474 4.755283
1151.529922 496.420240 151.113344 0.000000 0.000000 0.000000 0.000000 0.000000 0.000000 -116.362129 4.144816 -16.886559 63.637871 -0.874433 -16.886559 -149.081043 -2.148130 14.452610 35.941860 -0.052470 -26.289200 -156.847177 -0.538906 -14.452610 2.056513 -0.089963 4.842916
1148.402367 515.713574 128.653252 0.000000 0.000000 0.000000 0.000000 0.000000 0.000000 -118.252650 21.000301 -13.690942 61.747350 2.417076 -13.690942 -138.082896 -8.471643 11.043737 -156.312677 -7.859606 -27.893295 21.649626 9.468522 -11.043737 2.962417 -0.039207 4.911436
1175.363617 533.368646 146.174848 0.000000 0.000000 0.000000 0.000000 0.000000 0.000000 -95.476638 3.098508 -9.635073 84.523362 -1.121022 -9.635073 -113.907461 0.151100 7.460697 -155.995907 -6.511437 -29.057495 12.512064 7.803730 -7.460697 -16.748794 -0.780373 4.960574
1199.533310 485.991104 131.939504 0.000000 0.000000 0.000000 0.000000 0.000000 0.000000 -100.003195 13.767164 -4.973798 79.996805 -0.577315 -4.973798 -86.083188 -4.125791 3.759997 38.843754 -2.783867 -29.763441 -106.539452 4.282479 -3.759997 6.197806 -0.417616 4.990134
962.588190 444.938442 152.208621 0.000000 0.000000 0.000000 0.000000 0.000000 0.000000 39.579754 14.537777 -0.000000 180.000000 -2.128969 -0.000000 36.680773 14.683212 0.000000 143.319227 2.328827 -30.000000 29.388385 -4.210202 -0.000000 18.000000 0.976157 5.000000
1142.094727 445.716287 108.574335 0.000000 0.000000 0.000000 0.000000 0.000000 0.000000 -140.228454 -25.139517 4.973798 39.771546 -32.845006 4.973798 -156.118008 -5.529341 -3.759997 3.479189 -10.881430 -29.763441 -158.005660 -5.134687 3.759997 2.150019 0.508985 4.990134
1164.005928 424.847746 138.419808 0.000000 0.000000 0.000000 0.000000 0.000000 0.000000 -84.241076 -42.805760 9.635073 95.758924 38.814913 9.635073 -156.181584 -6.001579 -7.460697 166.928360 14.089809 -29.057495 -154.947270 -6.399807 7.460697 2.644196 0.604730 4.960574
1124.208755 418.286655 108.950212 0.000000 0.000000 0.000000 0.000000 0.000000 0.000000 -117.427077 22.243543 13.690942 62.572923 11.872247 13.690942 -155.943063 -6.066336 -11.043737 14.023837 -1.838141 -27.893295 -157.382674 -5.509716 11.043737 2.188130 0.444333 4.911436
962.990408 444.917226 94.019737 0.000000 0.000000 0.000000 0.000000 0.000000 0.000000 42.110883 49.606712 16.886559 180.000000 -13.977726 16.886559 37.946959 0.347103 -14.452610 142.053041 -24.488777 -26.289200 29.293612 16.033023 14.452610 18.000000 -1.160516 4.842916
963.090170 444.911436 101.266146 0.000000 0.000000 0.000000 0.000000 0.000000 0.000000 42.659200 -37.156094 19.021130 180.000000 24.080267 19.021130 38.119107 -18.347266 -17.633558 141.880893 13.904741 -24.270510 29.068887 -17.356746 17.633558 18.000000 0.864991 4.755283
1186.646461 396.272757 117.815249 0.000000 0.000000 0.000000 0.000000 0.000000 0.000000 -72.847419 12.368600 19.960535 107.152581 -20.160926 19.960535 -156.703603 -4.024381 -20.536413 178.447294 2.407953 -21.869059 -157.212393 -5.297313 20.536413 1.964058 0.470084 4.648882
1313.051605 426.636125 108.292905 0.000000 0.000000 0.000000 0.000000 0.000000 0.000000 90.994869 3.971420 19.645745 -89.005131 5.600476 19.645745 -160.515303 -4.622995 -23.115397 -153.248861 0.330325 -19.122720 -159.640525 -5.043775 23.115397 0.000000 0.000000 0.000000
1347.999344 420.772226 81.265971 0.000000 0.000000 0.000000 0.000000 0.000000 0.000000 90.154351 6.793869 18.096541 -89.845649 -14.176296 18.096541 -162.053401 -3.366989 -25.329838 -136.198880 -5.075445 -16.074804 -160.991694 -4.399895 25.329838 0.000000 0.000000 0.000000
1344.315948 421.031681 100.059382 0.000000 0.000000 0.000000 0.000000 0.000000 0.000000 69.757587 -7.192787 15.410265 -110.242413 -1.256620 15.410265 25.616746 -2.574034 -27.144812 -157.821005 -3.706167 -12.773379 17.214985 2.865000 27.144812 -16.704706 0.208516 4.221640
1350.307617 440.309436 71.440841 0.000000 0.000000 0.000000 0.000000 0.000000 0.000000 71.124018 -3.879303 11.755705 -108.875982 -3.272485 11.755705 42.739987 0.910976 -28.531695 -142.315466 1.478411 -9.270510 16.600926 -0.796313 28.531695 -16.660102 -0.025409 4.045085
1357.685051 430.688889 90.940979 0.000000 0.000000 0.000000 0.000000 0.000000 0.000000 77.656077 4.078638 7.362491 -102.343923 -2.805401 7.362491 39.407151 0.794924 -29.468618 -136.343173 -0.654512 -5.621439 22.144452 -0.950152 29.468618 -16.305135 -0.249956 3.852566
1369.482193 445.909406 87.624175 0.000000 0.000000 0.000000 0.000000 0.000000 0.000000 88.051188 2.228946 2.506665 -91.948812 7.386170 2.506665 -161.283973 -3.725080 -29.940802 -119.799169 -4.221797 -1.883716 -164.575400 -2.952657 29.940802 1.401013 0.484245 3.644843
963.875156 444.858159 67.938185 0.000000 0.000000 0.000000 0.000000 0.000000 0.000000 45.304844 25.402460 -2.506665 180.000000 -23.042750 -2.506665 37.252439 17.826658 -29.940802 142.747561 -7.159917 1.883716 25.146244 15.237066 29.940802 18.000000 -1.016708 3.422736
963.971479 444.850633 77.797978 0.000000 0.000000 0.000000 0.000000 0.000000 0.000000 45.383640 -15.954593 -7.362491 180.000000 40.379685 -7.362491 36.882310 -27.276414 -29.468618 143.117690 15.921550 5.621439 24.499789 2.622679 29.468618 18.000000 0.968932 3.187120
1336.629524 469.010178 71.526511 0.000000 0.000000 0.000000 0.000000 0.000000 0.000000 -72.390177 42.691169 -11.755705 107.609823 5.377238 -11.755705 -158.649984 -2.877153 -28.531695 2.583425 -13.264394 9.270510 -39.658551 5.608641 28.531695 10.837181 0.215732 2.938926
1311.966934 518.219100 62.337289 0.000000 0.000000 0.000000 0.000000 0.000000 0.000000 -63.565072 -51.066990 -15.410265 116.434928 24.975849 -15.410265 -14.840750 -0.242780 -27.144812 -158.549348 -2.075881 12.773379 17.488774 2.383632 27.144812 7.174982 0.813875 2.679134
964.257793 444.826908 61.169105 0.000000 0.000000 0.000000 0.000000 0.000000 0.000000 45.262206 23.756692 -18.096541 180.000000 6.256048 -18.096541 35.497192 4.787014 -25.329838 144.502808 14.225119 16.074804 22.522929 -5.933014 25.329838 18.000000 -0.773765 2.408768
1275.921364 516.836239 43.976477 0.000000 0.000000 0.000000 0.000000 0.000000 0.000000 85.186295 -0.676483 -19.645745 -94.813705 10.390145 -19.645745 52.470689 -0.027995 -23.115397 -44.513683 5.780225 19.122720 50.867598 -4.062773 23.115397 -8.717188 0.863027 2.128896
1263.254128 546.875424 59.418288 0.000000 0.000000 0.000000 0.000000 0.000000 0.000000 34.848242 -41.331164 -19.960535 -145.151758 34.089982 -19.960535 42.487561 3.845223 -20.536413 -157.415675 -1.533117 21.869059 22.420880 2.456144 20.536413 -15.757912 -0.245614 1.840623
1258.788185 528.263061 46.993867 0.000000 0.000000 0.000000 0.000000 0.000000 0.000000 118.326865 -10.835734 -19.021130 -61.673135 -9.150296 -19.021130 143.214759 10.313844 -17.633558 -156.228306 -1.559399 24.270510 28.173554 2.095692 17.633558 -15.182645 -0.209569 1.545085
1231.492081 471.383836 33.998920 0.000000 0.000000 0.000000 0.000000 0.000000 0.000000 -115.049381 -21.077907 -16.886559 64.950619 17.458646 -16.886559 172.843704 1.575592 -14.452610 -157.842300 -2.063852 26.289200 32.851042 1.967750 14.452610 -14.714896 -0.196775 1.243449
1223.928795 435.993515 41.717672 0.000000 0.000000 0.000000 0.000000 0.000000 0.000000 -115.322532 -8.104911 -13.690942 64.677468 16.411861 -13.690942 -168.597862 -10.458915 -11.043737 -158.853816 -1.811419 27.893295 31.099266 3.182457 11.043737 -14.890073 -0.318246 0.936907
1223.669701 418.195664 60.995182 0.000000 0.000000 0.000000 0.000000 0.000000 0.000000 -102.084053 -0.389867 -9.635073 77.915947 -7.366257 -9.635073 -171.103858 4.323645 -7.460697 162.056334 5.241496 29.057495 -153.594437 -3.234011 7.460697 2.968481 0.290446 0.626666
1216.486244 414.503002 57.874480 0.000000 0.000000 0.000000 0.000000 0.000000 0.000000 69.261091 -19.364895 -4.973798 -110.738909 11.105064 -4.973798 -158.083722 -2.759955 -3.759997 -173.244581 -4.112576 29.763441 -154.635509 -2.233017 3.759997 2.928763 0.284524 0.313953
1212.090225 434.550980 55.041641 0.000000 0.000000 0.000000 0.000000 0.000000 0.000000 -112.403932 -27.676804 0.000000 67.596068 11.929002 0.000000 -157.060799 -2.468359 -0.000000 173.400765 2.262919 30.000000 -154.473580 -2.745632 0.000000 2.734633 0.263732 0.000000
1214.024734 450.340490 57.659418 0.000000 0.000000 0.000000 0.000000 0.000000 0.000000 -110.634751 -12.450528 4.973798 69.365249 1.299794 4.973798 -137.583343 0.099398 3.759997 -158.589698 -2.158474 29.763441 20.879446 3.929858 -3.759997 -15.912055 -0.392986 0.313953
1204.271393 440.192921 52.082792 0.000000 0.000000 0.000000 0.000000 0.000000 0.000000 -99.498286 -23.052511 9.635073 80.501714 30.095842 9.635073 -156.696469 -3.120533 7.460697 -178.487725 0.608136 29.057495 -157.318323 -2.174068 -7.460697 2.108583 0.245081 0.626666
965.269558 444.725315 59.918619 0.000000 0.000000 0.000000 0.000000 0.000000 0.000000 40.845461 -9.132128 13.690942 180.000000 -7.070233 13.690942 28.615377 14.358649 11.043737 151.384623 1.717841 27.893295 16.305092 -2.925445 -11.043737 18.000000 -0.057169 0.936907
1182.456551 475.103824 59.577362 0.000000 0.000000 0.000000 0.000000 0.000000 0.000000 -168.146016 40.310451 16.886559 11.853984 -32.710657 16.886559 -63.802645 -7.147606 14.452610 -61.114510 -1.782208 26.289200 -47.869281 -4.314834 -14.452610 -13.834956 8.496108 1.243449
965.446390 444.704404 59.212477 0.000000 0.000000 0.000000 0.000000 0.000000 0.000000 39.578146 -9.966655 19.021130 180.000000 -18.301511 19.021130 27.338029 19.421698 17.633558 152.661971 0.546065 24.270510 15.463180 -8.770865 -17.633558 18.000000 0.756006 1.545085
965.533915 444.693669 79.245103 0.000000 0.000000 0.000000 0.000000 0.000000 0.000000 38.916706 27.789557 19.960535 180.000000 -14.948034 19.960535 26.716768 6.166357 20.536413 153.283232 -7.289577 21.869059 15.076605 2.015398 -20.536413 18.000000 0.124909 1.840623
965.620834 444.682749 65.765937 0.000000 0.000000 0.000000 0.000000 0.000000 0.000000 38.241653 34.793089 19.645745 180.000000 -4.435135 19.645745 26.109467 9.667469 23.115397 153.890533 2.801689 19.122720 14.712258 1.741492 -23.115397 18.000000 -0.504655 2.128896
965.707136 444.671645 76.413993 0.000000 0.000000 0.000000 0.000000 0.000000 0.000000 37.556504 -40.528132 18.096541 180.000000 21.047212 18.096541 25.517536 12.774391 25.329838 154.482464 13.031001 16.074804 14.369537 0.728182 -25.329838 18.000000 -0.401154 2.408768
965.792812 444.660356 82.870809 0.000000 0.000000 0.000000 0.000000 0.000000 0.000000 36.864608 25.688602 15.410265 180.000000 -27.546177 15.410265 24.942131 8.666429 27.144812 155.057869 -2.645737 12.773379 14.047797 -1.377886 -27.144812 18.000000 0.124875 2.679134
965.877853 444.648882 96.470901 0.000000 0.000000 0.000000 0.000000 0.000000 0.000000 36.169118 -37.059660 11.755705 180.000000 23.798483 11.755705 24.384173 4.493078 28.531695 155.615827 12.082505 9.270510 13.746367 5.645486 -28.531695 18.000000 -0.485581 2.938926
965.962249 444.637226 89.102753 0.000000 0.000000 0.000000 0.000000 0.000000 0.000000 35.472980 27.662901 7.362491 180.000000 -7.954509 7.362491 23.844373 -7.114721 29.468618 156.155627 -6.774094 5.621439 13.464570 3.613738 -29.468618 18.000000 -0.788497 3.187120
966.045991 444.625386 88.535973 0.000000 0.000000 0.000000 0.000000 0.000000 0.000000 34.778913 0.952969 2.506665 180.000000 -1.485649 2.506665 23.323250 5.707164 29.940802 156.676750 -10.207226 1.883716 13.201728 4.990618 -29.940802 18.000000 -0.324284 3.422736
966.129071 444.613364 109.099617 0.000000 0.000000 0.000000 0.000000 0.000000 0.000000 34.089406 32.055703 -2.506665 180.000000 -6.403577 -2.506665 22.821158 -6.533602 29.940802 157.178842 -13.600771 -1.883716 12.957175 1.042526 -29.940802 18.000000 -0.285468 3.644843
966.211478 444.601159 103.186050 0.000000 0.000000 0.000000 0.000000 0.000000 0.000000 33.406712 34.571586 -7.362491 180.000000 -1.535632 -7.362491 22.338307 1.848082 29.468618 157.661693 1.706258 -5.621439 12.730264 -4.710181 -29.468618 18.000000 -0.195834 3.852566
1171.486244 534.946783 131.684714 0.000000 0.000000 0.000000 0.000000 0.000000 0.000000 70.594720 -0.062052 -11.755705 -109.405280 -0.823519 -11.755705 49.953444 3.312365 28.531695 -151.467583 -5.289636 -9.270510 0.000000 0.000000 0.000000 0.000000 0.000000 0.000000
966.374240 444.576206 121.211895 0.000000 0.000000 0.000000 0.000000 0.000000 0.000000 32.069603 -16.251434 -15.410265 180.000000 2.246348 -15.410265 21.430544 3.087278 27.144812 158.569456 3.023318 -12.773379 12.326901 1.055318 -27.144812 18.000000 -0.320499 4.221640
1172.156410 555.047708 114.613740 0.000000 0.000000 0.000000 0.000000 0.000000 0.000000 -121.065102 -28.618234 -18.096541 58.934898 3.831766 -18.096541 -151.641456 -5.160375 25.329838 -177.360623 6.274525 -16.074804 -149.076048 -6.747321 -25.329838 0.000000 0.000000 0.000000
1161.826630 552.360713 131.608417 0.000000 0.000000 0.000000 0.000000 0.000000 0.000000 69.958407 17.543171 -19.645745 -110.041593 -1.796622 -19.645745 -152.437496 -5.787135 23.115397 -158.790607 2.839306 -19.122720 -150.591725 -7.260929 -23.115397 3.219062 0.892659 4.524135
1165.827255 569.832902 121.978275 0.000000 0.000000 0.000000 0.000000 0.000000 0.000000 25.594208 -30.226022 -19.960535 -154.405792 23.201434 -19.960535 11.723883 -4.449943 20.536413 -161.543160 1.155597 -21.869059 7.769582 -0.832330 -20.536413 -17.248199 -0.033363 4.648882
1165.555573 565.067046 132.051891 0.000000 0.000000 0.000000 0.000000 0.000000 0.000000 43.355707 -7.964151 -19.021130 -136.644293 -9.252441 -19.021130 15.984329 3.595064 17.633558 -140.773833 -0.076914 -24.270510 13.679449 0.818178 -17.633558 -16.392157 0.002582 4.755283
1290.255775 608.533316 126.950975 0.000000 0.000000 0.000000 0.000000 0.000000 0.000000 -153.952071 3.313121 -16.886559 26.047929 -26.595144 -16.886559 -152.683807 -4.844897 14.452610 4.794196 -3.624868 -26.289200 -154.287190 -5.459998 -14.452610 2.418080 0.455078 4.842916
1180.398903 551.817470 135.150296 0.000000 0.000000 0.000000 0.000000 0.000000 0.000000 51.640104 -16.718024 -13.690942 -128.359896 4.173105 -13.690942 14.419400 7.549382 11.043737 -33.521359 11.799655 -27.893295 -34.277510 13.074364 -11.043737 5.235387 -1.254897 4.911436
1162.708626 619.419501 124.868923 0.000000 0.000000 0.000000 0.000000 0.000000 0.000000 -88.968325 -8.788607 -9.635073 91.031675 -8.775876 -9.635073 -52.690088 -0.833121 7.460697 25.015222 -8.893415 -29.057495 -72.561734 2.622677 -7.460697 8.557489 0.086511 4.960574
1110.899391 602.919216 149.155686 0.000000 0.000000 0.000000 0.000000 0.000000 0.000000 -86.972237 1.631771 -4.973798 93.027763 2.953463 -4.973798 -39.551144 1.005594 3.759997 34.838085 1.180919 -29.763441 -44.185810 -6.241130 -3.759997 10.000609 0.867249 4.990134
1150.187302 553.686991 135.869446 0.000000 0.000000 0.000000 0.000000 0.000000 0.000000 -116.065142 15.782573 -0.000000 63.934858 -25.117202 -0.000000 -151.059314 -6.329437 0.000000 -0.492058 -15.507191 -30.000000 -14.044098 -0.822196 -0.000000 1.929760 2.635679 5.000000
967.144727 444.440682 160.883923 0.000000 0.000000 0.000000 0.000000 0.000000 0.000000 26.270296 -21.344172 4.973798 180.000000 10.652728 4.973798 17.996647 -5.064644 -3.759997 162.003353 -6.415018 -29.763441 11.189167 5.624961 3.759997 18.000000 0.018382 4.990134
1213.452644 620.002785 141.079458 0.000000 0.000000 0.000000 0.000000 0.000000 0.000000 140.390379 -28.188641 9.635073 -39.609621 -23.336368 9.635073 77.724607 17.341139 -7.460697 -153.982965 -6.395994 -29.057495 24.142749 6.609002 7.460697 -0.833727 -1.640750 4.960574
1124.373779 618.464527 161.786417 0.000000 0.000000 0.000000 0.000000 0.000000 0.000000 99.329635 31.704524 13.690942 -80.670365 -0.361395 13.690942 85.960927 2.528202 -11.043737 -150.875293 -6.989310 -27.893295 31.644098 6.331498 11.043737 -14.835590 -0.633150 4.911436
967.360971 444.396582 157.127583 0.000000 0.000000 0.000000 0.000000 0.000000 0.000000 24.874716 12.139485 16.886559 180.000000 7.086734 16.886559 17.291102 -2.666493 -14.452610 162.708898 -0.897816 -26.289200 11.098846 -2.246645 14.452610 18.000000 0.421365 4.842916
1107.875175 542.453964 168.714349 0.000000 0.000000 0.000000 0.000000 0.000000 0.000000 -128.741314 -15.900746 19.021130 51.258686 -10.779992 19.021130 -177.225595 6.294219 -17.633558 19.954750 4.545094 -24.270510 162.677362 -3.921688 17.633558 -1.443098 0.113766 4.755283
1119.652290 522.766346 168.566934 0.000000 0.000000 0.000000 0.000000 0.000000 0.000000 -99.017754 -24.621787 19.960535 80.982246 8.123395 19.960535 -150.289603 -6.877497 -20.536413 -152.613833 -6.674294 -21.869059 0.000000 0.000000 0.000000 0.000000 0.000000 0.000000
1132.908783 538.229613 151.316127 0.000000 0.000000 0.000000 0.000000 0.000000 0.000000 -127.874185 -0.917487 19.645745 52.125815 -7.413683 19.645745 -165.450188 -1.100950 -23.115397 -152.521515 -7.776209 -19.122720 40.606225 9.108651 23.115397 -13.939378 -0.910865 4.524135
1146.969337 541.828065 139.543798 0.000000 0.000000 0.000000 0.000000 0.000000 0.000000 -113.631604 -1.624431 18.096541 66.368396 -0.915511 18.096541 -159.067475 -0.553711 -25.329838 113.981862 0.962809 -16.074804 -145.449815 -7.401597 25.329838 0.000000 0.000000 0.000000
1165.252304 561.329677 146.352667 0.000000 0.000000 0.000000 0.000000 0.000000 0.000000 -112.861399 -4.379470 15.410265 67.138601 8.480505 15.410265 -159.396543 0.224816 -27.144812 -151.967552 -6.264362 -12.773379 38.422588 9.282959 27.144812 -14.157741 -0.928296 4.221640
1174.726181 592.839689 132.455298 0.000000 0.000000 0.000000 0.000000 0.000000 0.000000 -110.369899 3.121679 11.755705 69.630101 13.299320 11.755705 -148.108768 0.251886 -28.531695 -151.515612 -6.318677 -9.270510 34.277732 9.367805 28.531695 -14.572227 -0.936780 4.045085
1167.352524 605.194867 134.118395 0.000000 0.000000 0.000000 0.000000 0.000000 0.000000 -113.828445 6.733559 7.362491 66.171555 -9.875505 7.362491 -131.688453 3.462476 -29.468618 -151.045756 -7.354531 -5.621439 27.200835 10.235321 29.468618 -15.279916 -1.023532 3.852566
1139.678879 602.981014 124.378661 0.000000 0.000000 0.000000 0.000000 0.000000 0.000000 -97.599684 -19.254571 2.506665 82.400316 17.376536 2.506665 -113.965806 -2.824181 -29.940802 -121.058781 1.285137 -1.883716 -118.492407 -2.225917 29.940802 10.137620 1.327284 3.644843
1165.830002 580.020189 127.008161 0.000000 0.000000 0.000000 0.000000 0.000000 0.000000 -28.085052 -48.297673 -2.506665 151.914948 10.193069 -2.506665 -150.589103 -5.383316 -29.940802 -172.678414 8.993253 1.883716 -149.717924 -6.363576 29.940802 0.000000 0.000000 0.000000
1184.501953 619.872494 110.986139 0.000000 0.000000 0.000000 0.000000 0.000000 0.000000 -113.790307 -2.073490 -7.362491 66.209693 14.802334 -7.362491 -59.272274 -0.687353 -29.468618 29.476823 -0.807905 5.621439 -88.148483 1.728154 29.468618 7.414604 -0.146551 3.187120
968.090170 444.221640 137.985983 0.000000 0.000000 0.000000 0.000000 0.000000 0.000000 21.092887 -9.523137 -11.755705 180.000000 2.334755 -11.755705 15.757771 3.242940 -28.531695 164.242229 2.147249 9.270510 11.678908 5.187271 28.531695 18.000000 -0.521360 2.938926
968.151278 444.204723 120.749741 0.000000 0.000000 0.000000 0.000000 0.000000 0.000000 20.844337 12.466537 -15.410265 180.000000 -8.119101 -15.410265 15.691895 -0.760160 -27.144812 164.308105 -5.371300 12.773379 11.804629 4.655501 27.144812 18.000000 -0.675228 2.679134
968.211492 444.187640 133.010545 0.000000 0.000000 0.000000 0.000000 0.000000 0.000000 20.610265 -9.714768 -18.096541 180.000000 11.870843 -18.096541 15.637361 -2.619849 -25.329838 164.362639 0.506892 16.074804 11.943263 7.284387 25.329838 18.000000 -0.171218 2.408768
968.270806 444.170392 107.367993 0.000000 0.000000 0.000000 0.000000 0.000000 0.000000 20.390366 -8.285303 -19.645745 180.000000 -11.019238 -19.645745 15.594026 8.278574 -23.115397 164.405974 -2.773949 19.122720 12.095062 0.488276 23.115397 18.000000 0.521823 2.128896
968.329212 444.152979 103.663966 0.000000 0.000000 0.000000 0.000000 0.000000 0.000000 20.184343 -0.057698 -19.960535 180.000000 4.236804 -19.960535 15.561766 -4.576826 -20.536413 164.438234 4.141266 21.869059 12.260289 -3.369402 20.536413 18.000000 0.572764 1.840623
968.386706 444.135403 90.671457 0.000000 0.000000 0.000000 0.000000 0.000000 0.000000 19.991916 -1.704766 -19.021130 180.000000 1.978832 -19.021130 15.540476 5.735043 -17.633558 164.459524 2.168279 24.270510 12.439222 -2.928300 17.633558 18.000000 0.265677 1.545085
968.443279 444.117663 101.538981 0.000000 0.000000 0.000000 0.000000 0.000000 0.000000 19.812814 12.802043 -16.886559 180.000000 5.944504 -16.886559 15.530069 -9.574263 -14.452610 164.469931 -0.004716 26.289200 12.632146 -0.092624 14.452610 18.000000 0.636503 1.243449
968.498927 444.099761 97.921797 0.000000 0.000000 0.000000 0.000000 0.000000 0.000000 19.646785 -20.921139 -13.690942 180.000000 9.272239 -13.690942 15.530474 0.227576 -11.043737 164.469526 5.592404 27.893295 12.839349 5.348720 11.043737 18.000000 -0.122989 0.936907
968.553643 444.081696 87.169705 0.000000 0.000000 0.000000 0.000000 0.000000 0.000000 19.493591 -5.514292 -9.635073 180.000000 8.070324 -9.635073 15.541640 -5.726867 -7.460697 164.458360 5.447929 29.057495 13.061119 -8.680144 7.460697 18.000000 0.651800 0.626666
1051.772690 653.004448 83.445195 0.000000 0.000000 0.000000 0.000000 0.000000 0.000000 -79.007834 -8.727082 -4.973798 100.992166 20.178303 -4.973798 -126.715299 -12.907710 -3.759997 -149.991181 -3.460366 29.763441 31.772279 5.292194 3.759997 -14.822772 -0.529219 0.313953
1061.669197 624.716241 73.754760 0.000000 0.000000 0.000000 0.000000 0.000000 0.000000 -94.718359 9.609544 0.000000 85.281641 16.066387 0.000000 -144.150484 -3.683496 -0.000000 60.155085 3.512845 30.000000 -152.711462 -5.309397 0.000000 1.815393 0.385292 0.000000
1072.053337 571.032879 77.644593 0.000000 0.000000 0.000000 0.000000 0.000000 0.000000 71.424080 1.288980 4.973798 -108.575920 -21.851152 4.973798 -149.042361 -2.582257 3.759997 -149.913636 -2.354439 29.763441 -145.792107 -4.341125 -3.759997 3.947623 0.500636 0.313953
1070.057373 572.884376 49.651382 0.000000 0.000000 0.000000 0.000000 0.000000 0.000000 -80.850201 -29.726668 9.635073 99.149799 26.962342 9.635073 -147.567525 -3.726724 7.460697 -164.443014 1.496504 29.057495 -145.447997 -4.127414 -7.460697 4.032371 0.336580 0.626666
968.813035 443.988972 75.146457 0.000000 0.000000 0.000000 0.000000 0.000000 0.000000 18.912944 -22.068157 13.690942 180.000000 13.108014 13.690942 15.758200 -2.269900 11.043737 164.241800 2.592288 27.893295 14.397395 -1.375784 -11.043737 18.000000 0.688597 0.936907
968.862036 443.969952 55.910019 0.000000 0.000000 0.000000 0.000000 0.000000 0.000000 18.832684 6.281799 16.886559 180.000000 -8.651689 16.886559 15.833735 3.331519 14.452610 164.166265 -7.074274 26.289200 14.711463 12.851061 -14.452610 18.000000 -0.516634 1.243449
968.910065 443.950775 59.002480 0.000000 0.000000 0.000000 0.000000 0.000000 0.000000 18.764066 -8.560364 19.021130 180.000000 6.611743 19.021130 15.920102 -7.108148 17.633558 164.079898 8.367968 24.270510 15.041323 0.918158 -17.633558 18.000000 0.097161 1.545085
968.957118 443.931442 57.243005 0.000000 0.000000 0.000000 0.000000 0.000000 0.000000 18.706990 -23.111277 19.960535 180.000000 3.501754 19.960535 16.017366 2.732067 20.536413 163.982634 11.906472 21.869059 15.386894 -5.930713 -20.536413 18.000000 -0.398561 1.840623
969.003188 443.911954 43.477130 0.000000 0.000000 0.000000 0.000000 0.000000 0.000000 18.661377 9.034504 19.645745 180.000000 -0.289543 19.645745 16.125602 1.321840 23.115397 163.874398 2.272271 19.122720 15.747980 -6.654313 -23.115397 18.000000 0.214778 2.128896
969.048271 443.892312 46.552388 0.000000 0.000000 0.000000 0.000000 0.000000 0.000000 18.627165 10.667355 18.096541 180.000000 -3.735561 18.096541 16.244896 5.141395 25.329838 163.755104 -5.529738 16.074804 16.124252 1.303914 -25.329838 18.000000 0.129116 2.408768
969.092361 443.872515 35.894536 0.000000 0.000000 0.000000 0.000000 0.000000 0.000000 18.604312 -28.273377 15.410265 180.000000 10.139967 15.410265 16.375340 6.546382 27.144812 163.624660 6.490146 12.773379 16.515224 3.376644 -27.144812 18.000000 -0.204348 2.679134
1055.186234 577.357593 68.032587 0.000000 0.000000 0.000000 0.000000 0.000000 0.000000 85.510211 -2.288511 11.755705 -94.489789 -5.114574 11.755705 37.103410 3.287518 28.531695 -148.111343 -2.325141 9.270510 24.294182 1.626518 -28.531695 -8.601915 1.757551 2.938926
1122.856522 566.714029 67.924276 0.000000 0.000000 0.000000 0.000000 0.000000 0.000000 96.216240 -5.477849 7.362491 -83.783760 -1.051611 7.362491 46.189625 3.783953 29.468618 -149.396962 -2.321107 5.621439 24.670091 2.568869 -29.468618 -7.107716 -0.571117 3.187120
969.218632 443.812213 42.397011 0.000000 0.000000 0.000000 0.000000 0.000000 0.000000 18.603763 -2.215739 2.506665 180.000000 -4.093644 2.506665 16.834613 10.967319 29.940802 163.165387 3.615926 1.883716 17.768624 2.741231 -29.940802 18.000000 -0.985073 3.422736
1112.757797 605.798106 40.083319 0.000000 0.000000 0.000000 0.000000 0.000000 0.000000 110.914625 -11.429950 -2.506665 -69.085375 7.004699 -2.506665 67.769469 0.070050 29.940802 -149.822316 -2.063503 -1.883716 29.049901 3.087851 -29.940802 -3.625079 -0.004898 3.644843
1086.733246 592.557156 61.836909 0.000000 0.000000 0.000000 0.000000 0.000000 0.000000 -80.132323 -29.889297 -7.362491 99.867677 -1.153368 -7.362491 36.201564 3.099762 29.468618 -13.679556 -0.043571 -5.621439 78.049842 1.578657 -29.468618 -5.127460 0.162184 3.852566
1081.109390 570.394492 60.355992 0.000000 0.000000 0.000000 0.000000 0.000000 0.000000 -175.864613 9.432362 -11.755705 4.135387 -14.294269 -11.755705 134.713876 -4.260418 28.531695 -10.005873 -2.267733 -9.270510 135.737755 0.902483 -28.531695 -3.389365 -0.036010 4.045085
1089.776802 536.594539 46.689444 0.000000 0.000000 0.000000 0.000000 0.000000 0.000000 -139.033903 -5.990600 -15.410265 40.966097 -4.651188 -15.410265 161.695972 -2.061774 27.144812 3.114398 2.159218 -12.773379 148.805610 -2.201576 -27.144812 -2.611636 0.083624 4.221640
1114.282036 523.965647 65.775984 0.000000 0.000000 0.000000 0.000000 0.000000 0.000000 -156.073983 8.119835 -18.096541 23.926017 -13.068434 -18.096541 174.825807 2.505560 25.329838 5.093343 -5.777930 -16.074804 161.266817 1.910283 -25.329838 -1.814366 -0.163434 4.381533
1122.145157 503.425248 56.764960 0.000000 0.000000 0.000000 0.000000 0.000000 0.000000 -144.538174 -14.320597 -19.645745 35.461826 -4.350032 -19.645745 174.215003 2.671398 23.115397 -151.750905 -2.990027 -19.122720 43.887064 4.036632 -23.115397 -13.611294 -0.403663 4.524135
1134.158249 484.688419 80.053345 0.000000 0.000000 0.000000 0.000000 0.000000 0.000000 -142.311443 0.535402 -19.960535 37.688557 -0.622150 -19.960535 -174.407776 -1.139347 20.536413 14.121014 -0.940651 -21.869059 176.737053 2.298646 -20.536413 -0.386439 -0.274625 4.648882
1156.756668 500.025387 78.492934 0.000000 0.000000 0.000000 0.000000 0.000000 0.000000 -140.140767 -13.986301 -19.021130 39.859233 19.763314 -19.021130 -176.866589 -4.428752 17.633558 -153.177991 -3.113669 -24.270510 40.555680 4.798939 -17.633558 -13.944432 -0.479894 4.755283
1163.818588 490.292573 77.513365 0.000000 0.000000 0.000000 0.000000 0.000000 0.000000 -126.918075 -1.002154 -16.886559 53.081925 11.212565 -16.886559 -163.374411 -3.904235 14.452610 -153.952175 -3.689116 -26.289200 36.914642 5.124915 -14.452610 0.798233 -0.053038 4.842916
1176.523705 490.346003 78.032069 0.000000 0.000000 0.000000 0.000000 0.000000 0.000000 -130.072590 1.041554 -13.690942 49.927410 -0.822559 -13.690942 -150.224616 2.258222 11.043737 24.749952 -1.140433 -27.893295 -162.219632 -0.684188 -11.043737 1.550269 0.091443 4.911436
1165.045052 489.521159 82.429920 0.000000 0.000000 0.000000 0.000000 0.000000 0.000000 -134.421293 1.436891 -9.635073 45.578707 -4.693554 -9.635073 -138.114962 1.137816 7.460697 20.347125 -5.295483 -29.057495 -149.675125 0.361973 -7.460697 1.919618 -0.174695 4.960574
1186.003189 485.341580 85.027969 0.000000 0.000000 0.000000 0.000000 0.000000 0.000000 151.263424 -85.853351 -4.973798 -28.736576 -76.110048 -4.973798 -155.571724 -3.199045 3.759997 -114.944239 4.600547 -29.763441 -157.446860 -4.057227 -3.759997 2.096391 0.389490 4.990134
1190.285912 497.609435 100.928965 0.000000 0.000000 0.000000 0.000000 0.000000 0.000000 -104.331435 23.263541 -0.000000 75.668565 -19.928504 -0.000000 -153.934692 -4.406389 0.000000 -67.465008 0.534339 -30.000000 -71.629168 1.733089 -0.000000 -13.965204 -8.788407 5.000000
846.875610 502.341399 107.058288 0.000000 0.000000 0.000000 0.000000 0.000000 0.000000 -153.358185 -9.625991 4.973798 26.641815 20.533780 4.973798 -147.628169 -6.083299 -3.759997 -147.401289 -5.479273 -29.763441 0.000000 0.000000 0.000000 0.000000 0.000000 0.000000
969.711343 443.490827 105.019435 0.000000 0.000000 0.000000 0.000000 0.000000 0.000000 20.204512 23.651627 9.635073 180.000000 -0.019729 9.635073 20.733157 -11.320059 -7.460697 159.266843 -11.468122 -29.057495 24.065833 11.250132 7.460697 18.000000 -0.532414 4.960574
969.735789 443.468267 110.793804 0.000000 0.000000 0.000000 0.000000 0.000000 0.000000 20.415894 3.815849 13.690942 180.000000 3.112401 13.690942 21.087741 0.434401 -11.043737 158.912259 6.956258 -27.893295 24.320336 -3.110712 11.043737 18.000000 -0.888228 4.911436
969.759168 443.445569 127.599304 0.000000 0.000000 0.000000 0.000000 0.000000 0.000000 20.642061 10.156231 16.886559 180.000000 9.787970 16.886559 21.453029 -5.275766 -14.452610 158.546971 -0.467048 -26.289200 24.533304 0.956423 14.452610 18.000000 0.818685 4.842916
585.252171 514.469179 102.222420 0.000000 0.000000 0.000000 0.000000 0.000000 0.000000 74.723181 -50.237981 19.021130 -105.276819 -23.614401 19.021130 119.807175 8.134579 -17.633558 165.825978 17.875921 -24.270510 138.012220 -11.204191 17.633558 -12.357653 -1.598751 4.755283
624.843979 517.601860 108.332017 0.000000 0.000000 0.000000 0.000000 0.000000 0.000000 103.202449 25.967199 19.960535 -76.797551 -1.718070 19.960535 114.381580 6.750474 -20.536413 -53.015473 55.288615 -21.869059 145.467160 -6.948528 20.536413 -4.173333 -2.560638 4.648882
969.822873 443.376664 135.509163 0.000000 0.000000 0.000000 0.000000 0.000000 0.000000 21.413420 12.078312 19.645745 180.000000 -3.316009 19.645745 22.607712 10.636952 -23.115397 157.392288 4.566007 -19.122720 24.899813 2.906917 23.115397 18.000000 -0.586143 4.524135
969.841956 443.353428 129.784376 0.000000 0.000000 0.000000 0.000000 0.000000 0.000000 21.702987 10.937890 18.096541 180.000000 -1.200172 18.096541 23.009909 -0.713395 -25.329838 156.990091 -1.377078 -16.074804 24.926562 6.287425 25.329838 18.000000 -1.640876 4.381533
969.859960 443.330059 129.587366 0.000000 0.000000 0.000000 0.000000 0.000000 0.000000 22.009579 10.143324 15.410265 180.000000 1.217817 15.410265 23.419334 7.411201 -27.144812 156.580666 -5.105650 -12.773379 24.904993 19.413010 27.144812 18.000000 -0.864321 4.221640
594.905148 538.048757 142.499632 0.000000 0.000000 0.000000 0.000000 0.000000 0.000000 -57.080480 -14.953654 11.755705 122.919520 -10.151596 11.755705 -12.750556 -1.557464 -28.531695 149.841027 1.515333 -9.270510 -8.274090 1.638271 28.531695 17.596979 0.156513 4.045085
969.892723 443.282929 139.976463 0.000000 0.000000 0.000000 0.000000 0.000000 0.000000 22.675903 35.688936 7.362491 180.000000 -23.985130 7.362491 24.255612 7.956267 -29.468618 155.744388 -13.771878 -5.621439 24.720303 -8.543876 29.468618 18.000000 0.936579 3.852566
1257.001877 499.708382 160.856347 0.000000 0.000000 0.000000 0.000000 0.000000 0.000000 52.818511 0.800094 2.506665 -127.181489 3.606996 2.506665 25.369497 2.025387 -29.940802 -143.914951 3.038175 -1.883716 14.556766 0.084572 29.940802 -16.686776 0.060974 3.644843
1279.050064 493.773898 147.641568 0.000000 0.000000 0.000000 0.000000 0.000000 0.000000 56.685213 2.766051 -2.506665 -123.314787 0.097021 -2.506665 24.065452 -1.441236 -29.940802 -146.540317 -0.761211 1.883716 13.097461 -0.282803 29.940802 -16.716891 0.059723 3.422736
1295.108986 477.099677 164.811223 0.000000 0.000000 0.000000 0.000000 0.000000 0.000000 65.723361 -1.964113 -7.362491 -114.276639 5.385662 -7.362491 23.725299 -4.104263 -29.468618 -147.984281 -3.420780 5.621439 13.187557 2.953739 29.468618 -16.751134 -0.136203 3.187120
1289.065018 496.763316 129.784177 0.000000 0.000000 0.000000 0.000000 0.000000 0.000000 61.662232 -2.422412 -11.755705 -118.337768 -3.362685 -11.755705 31.397757 -2.122783 -28.531695 -148.047797 -2.638105 9.270510 12.491083 1.783560 28.531695 -16.898368 -0.058749 2.938926
1285.337105 480.691112 145.959261 0.000000 0.000000 0.000000 0.000000 0.000000 0.000000 58.021980 3.986171 -15.410265 -121.978020 5.497586 -15.410265 31.705930 -6.612950 -27.144812 -157.028684 -1.856600 12.773379 11.107306 1.483991 27.144812 -17.140016 -0.083244 2.679134
1276.453171 465.093691 155.806271 0.000000 0.000000 0.000000 0.000000 0.000000 0.000000 70.157145 1.592192 -18.096541 -109.842855 -6.216420 -18.096541 40.303764 -6.754191 -25.329838 -145.293609 -9.783359 16.074804 10.431204 6.237978 25.329838 -17.100572 -0.156195 2.408768
1253.658714 472.768564 171.504795 0.000000 0.000000 0.000000 0.000000 0.000000 0.000000 65.087926 -30.709863 -19.645745 -114.912074 -17.384436 -19.645745 -157.680356 -6.042562 -23.115397 -137.727082 1.845571 19.122720 -153.053596 1.647154 23.115397 -16.054219 -0.861413 2.128896
1366.101608 507.691247 154.735787 0.000000 0.000000 0.000000 0.000000 0.000000 0.000000 108.715100 13.251629 -19.960535 -71.284900 1.643791 -19.960535 156.661132 3.245122 -20.536413 -158.224303 -6.034210 21.869059 0.000000 0.000000 0.000000 0.000000 0.000000 0.000000
969.986295 443.064535 135.542414 0.000000 0.000000 0.000000 0.000000 0.000000 0.000000 26.662144 -19.160643 -19.021130 180.000000 -4.142868 -19.021130 28.015351 -5.456414 -17.633558 151.984649 2.327800 24.270510 22.068935 -1.910914 17.633558 18.000000 -0.650542 1.545085
1282.107124 481.511257 155.496000 0.000000 0.000000 0.000000 0.000000 0.000000 0.000000 80.650781 8.483961 -16.886559 -99.349219 -9.120628 -16.886559 1.511604 3.142561 -14.452610 -32.896908 -3.843324 26.289200 -7.727072 5.375490 14.452610 13.531851 -0.305140 1.243449
1282.921486 484.777769 133.235392 0.000000 0.000000 0.000000 0.000000 0.000000 0.000000 -81.737646 24.155818 -13.690942 98.262354 -31.780366 -13.690942 -23.867101 1.553831 -11.043737 12.655668 -4.782577 27.893295 -29.454911 0.279178 11.043737 9.861248 0.294840 0.936907
1290.933037 513.180238 144.777901 0.000000 0.000000 0.000000 0.000000 0.000000 0.000000 -91.387864 1.156232 -9.635073 88.612136 -10.470913 -9.635073 -41.685392 -3.436920 -7.460697 -161.156957 -6.899776 29.057495 15.157863 5.308260 7.460697 10.543436 -0.372701 0.626666
969.999452 442.964284 148.006064 0.000000 0.000000 0.000000 0.000000 0.000000 0.000000 29.025427 -17.415000 -4.973798 180.000000 6.697420 -4.973798 29.437993 -4.687647 -3.759997 150.562007 -0.091459 29.763441 20.404746 6.653423 3.759997 18.000000 -0.460549 0.313953
970.000000 442.938926 130.311555 0.000000 0.000000 0.000000 0.000000 0.000000 0.000000 29.678605 34.361643 0.000000 180.000000 -5.369287 0.000000 29.744881 -4.067247 -0.000000 150.255119 -15.938575 30.000000 19.983107 5.050572 0.000000 18.000000 -0.119524 0.000000
1354.522934 467.411410 137.629170 0.000000 0.000000 0.000000 0.000000 0.000000 0.000000 150.622570 2.442801 4.973798 -29.377430 -7.076897 4.973798 140.176400 3.827396 3.759997 -12.221629 0.257706 29.763441 132.794256 -1.336579 -3.759997 -2.626015 0.219540 0.313953
969.997807 442.887864 116.020744 0.000000 0.000000 0.000000 0.000000 0.000000 0.000000 31.061399 -17.451412 9.635073 180.000000 -0.707196 9.635073 30.285790 2.061959 7.460697 149.714210 14.880661 29.057495 19.151579 -14.206959 -7.460697 18.000000 0.863247 0.626666
1246.736984 514.278152 119.905887 0.000000 0.000000 0.000000 0.000000 0.000000 0.000000 143.557092 3.546991 13.690942 -36.442908 5.888476 13.690942 133.761037 -5.847467 11.043737 -156.950665 -5.530747 27.893295 0.000000 0.000000 0.000000 1.928484 0.467796 0.936907
1245.221100 458.637464 108.600819 0.000000 0.000000 0.000000 0.000000 0.000000 0.000000 160.701064 1.324266 16.886559 -19.298936 -2.422826 16.886559 140.193827 2.406745 14.452610 -157.554825 -5.439526 26.289200 29.500467 5.352686 -14.452610 -15.049953 -0.535269 1.243449
1257.365570 418.514181 94.422735 0.000000 0.000000 0.000000 0.000000 0.000000 0.000000 -143.710676 -1.468905 19.021130 36.289324 0.470419 19.021130 163.220413 -1.930710 17.633558 11.688054 1.057857 24.270510 152.038385 -3.606802 -17.633558 -2.339948 0.098003 1.545085
1275.099564 408.163741 96.959174 0.000000 0.000000 0.000000 0.000000 0.000000 0.000000 -132.929531 -19.702322 19.960535 47.070469 0.153993 19.960535 173.491912 4.124197 20.536413 -160.709681 -4.643708 21.869059 33.138793 5.124943 -20.536413 -14.686121 -0.512494 1.840623
1290.611115 384.880857 100.036603 0.000000 0.000000 0.000000 0.000000 0.000000 0.000000 -132.705235 6.181433 19.645745 47.294765 -3.223815 19.645745 -173.778854 -1.963569 23.115397 20.496835 -2.229070 19.122720 -161.220290 -4.029481 -23.115397 1.723235 0.397920 2.128896
1302.817154 380.305352 114.617538 0.000000 0.000000 0.000000 0.000000 0.000000 0.000000 -131.493915 -2.294144 18.096541 48.506085 0.292341 18.096541 -165.393697 2.908618 25.329838 23.154815 0.932343 16.074804 -178.200316 -0.706847 -25.329838 0.138141 0.159635 2.408768
1304.997711 379.563582 96.747523 0.000000 0.000000 0.000000 0.000000 0.000000 0.000000 -126.727972 3.010748 15.410265 53.272028 3.486993 15.410265 -160.219593 -3.866372 27.144812 28.448880 1.553210 12.773379 -174.368770 1.520637 -27.144812 0.079526 -0.112204 2.679134
1311.668472 386.890390 84.718962 0.000000 0.000000 0.000000 0.000000 0.000000 0.000000 -122.308728 -1.837374 11.755705 57.691272 5.780275 11.755705 -158.801130 0.782967 28.531695 150.942637 7.294693 9.270510 -154.878332 -4.838536 -28.531695 2.695409 0.422673 2.938926
1305.131836 395.180186 80.260657 0.000000 0.000000 0.000000 0.000000 0.000000 0.000000 -125.112810 10.698115 7.362491 54.887190 -7.892790 7.362491 -146.487292 3.478395 29.468618 -175.167369 -3.237484 5.621439 -159.224034 -3.838096 -29.468618 1.782042 0.566766 3.187120
1296.320457 392.734526 89.291717 0.000000 0.000000 0.000000 0.000000 0.000000 0.000000 -131.035750 -12.457274 2.506665 48.964250 9.708666 2.506665 -128.969563 0.324780 29.940802 38.856147 1.674768 1.883716 -134.776850 1.710527 -29.940802 3.458429 -0.164829 3.422736
1306.963577 386.612041 59.692875 0.000000 0.000000 0.000000 0.000000 0.000000 0.000000 -124.469622 -0.395024 -2.506665 55.530378 14.251967 -2.506665 -109.994856 -1.987151 29.940802 37.691309 2.285120 -1.883716 -118.274788 2.371549 -29.940802 5.098336 -0.074893 3.644843
969.892723 442.572198 54.584556 0.000000 0.000000 0.000000 0.000000 0.000000 0.000000 41.287575 -9.514580 -7.362491 180.000000 0.191633 -7.362491 30.974696 6.740141 29.468618 149.025304 9.347932 -5.621439 15.072869 -2.530928 -29.468618 18.000000 -0.490008 3.852566
969.876883 442.545207 61.326844 0.000000 0.000000 0.000000 0.000000 0.000000 0.000000 42.241956 -38.273701 -11.755705 180.000000 3.182165 -11.755705 30.826133 -12.196821 28.531695 149.173867 -3.892781 -9.270510 14.823070 6.329927 -28.531695 18.000000 -0.463780 4.045085
969.859960 442.518116 64.582065 0.000000 0.000000 0.000000 0.000000 0.000000 0.000000 43.199779 33.618135 -15.410265 180.000000 -25.610631 -15.410265 30.649504 13.355701 27.144812 149.350496 -23.384499 -12.773379 14.587557 9.121015 -27.144812 18.000000 -0.187735 4.221640
969.841956 442.490926 59.293254 0.000000 0.000000 0.000000 0.000000 0.000000 0.000000 44.157210 27.329584 -18.096541 180.000000 10.536703 -18.096541 30.446417 -4.194844 25.329838 149.553583 2.429613 -16.074804 14.366154 -6.444115 -25.329838 18.000000 0.770383 4.381533
969.822873 442.463637 70.344751 0.000000 0.000000 0.000000 0.000000 0.000000 0.000000 45.110117 -42.982333 -19.645745 180.000000 5.613465 -19.645745 30.218633 3.782783 23.115397 149.781367 10.319215 -19.122720 14.158653 3.800662 -23.115397 18.000000 -0.408291 4.524135
969.802712 442.436251 46.802401 0.000000 0.000000 0.000000 0.000000 0.000000 0.000000 46.054109 -8.802613 -19.960535 180.000000 -8.038279 -19.960535 29.968037 6.399293 20.536413 150.031963 -2.890886 -21.869059 13.964823 3.866481 -20.536413 18.000000 -0.257874 4.648882
1187.040939 541.658249 56.640011 0.000000 0.000000 0.000000 0.000000 0.000000 0.000000 82.806623 -10.691677 -19.021130 -97.193377 -4.827735 -19.021130 45.395981 7.823457 17.633558 -156.144455 -1.884680 -24.270510 0.000000 0.000000 0.000000 0.000000 0.000000 0.000000
1182.242889 522.024286 48.508378 0.000000 0.000000 0.000000 0.000000 0.000000 0.000000 -105.721938 17.524735 -16.886559 74.278062 -9.746396 -16.886559 -155.708006 -2.625600 14.452610 -157.302521 -3.042495 -26.289200 0.000000 0.000000 0.000000 2.684983 0.200216 4.842916
1180.914459 527.065626 40.651567 0.000000 0.000000 0.000000 0.000000 0.000000 0.000000 88.055617 -1.651360 -13.690942 -91.944383 3.582876 -13.690942 -158.862018 -2.020562 11.043737 -151.747289 -1.415838 -27.893295 0.000000 0.000000 0.000000 0.000000 0.000000 0.000000
1236.800194 541.387432 58.644734 0.000000 0.000000 0.000000 0.000000 0.000000 0.000000 -85.588400 -6.739134 -9.635073 94.411600 -12.765735 -9.635073 -159.297106 14.968042 7.460697 -157.915391 -2.025724 -29.057495 26.607362 2.605533 -7.460697 14.926890 0.747020 4.960574
1161.066513 575.006626 46.730791 0.000000 0.000000 0.000000 0.000000 0.000000 0.000000 -81.021168 4.917204 -4.973798 98.978832 1.500360 -4.973798 -102.851701 -4.348416 3.759997 -157.041007 -2.288566 -29.763441 21.429890 1.705443 -3.759997 10.859432 1.276298 4.990134
1255.636253 512.645942 32.388029 0.000000 0.000000 0.000000 0.000000 0.000000 0.000000 77.832564 2.262830 -0.000000 -102.167436 -6.981265 -0.000000 -158.264834 -2.040831 0.000000 -130.745502 -6.205625 -30.000000 -157.699225 -1.838603 -0.000000 0.000000 0.000000 0.000000
1265.118484 521.473864 52.577636 0.000000 0.000000 0.000000 0.000000 0.000000 0.000000 64.078276 7.815933 4.973798 -115.921724 0.883953 4.973798 41.397952 -1.100859 -3.759997 -139.329851 -2.771809 -29.763441 20.223252 2.102249 3.759997 -16.047574 0.046007 4.990134
1228.099480 522.138258 55.131018 0.000000 0.000000 0.000000 0.000000 0.000000 0.000000 71.050901 6.290940 9.635073 -108.949099 -0.744454 9.635073 150.099970 -4.336891 -7.460697 -139.894702 0.693027 -29.057495 -156.275691 -3.802784 7.460697 0.000000 0.000000 0.000000
1240.357246 528.695873 61.537872 0.000000 0.000000 0.000000 0.000000 0.000000 0.000000 65.413351 -1.070353 13.690942 -114.586649 8.552464 13.690942 147.242328 2.940322 -11.043737 -154.470720 -2.134671 -27.893295 25.557225 3.310182 11.043737 -15.444278 -0.331018 4.911436
1231.815262 551.380248 58.169998 0.000000 0.000000 0.000000 0.000000 0.000000 0.000000 56.412506 10.671230 16.886559 -123.587494 -7.091655 16.886559 -153.392336 6.152728 -14.452610 -154.784582 -2.782470 -26.289200 24.191555 3.133176 14.452610 -15.580844 -0.313318 4.842916
1221.475182 508.360147 62.283387 0.000000 0.000000 0.000000 0.000000 0.000000 0.000000 77.450622 0.981683 19.021130 -102.549378 -4.986140 19.021130 -156.789784 -3.030575 -17.633558 -125.590168 0.109013 -24.270510 -160.017240 -3.966276 17.633558 1.833434 0.373130 4.755283
969.477684 442.100429 76.508243 0.000000 0.000000 0.000000 0.000000 0.000000 0.000000 54.932575 -33.148913 19.960535 180.000000 -15.151393 19.960535 25.919122 1.837555 -20.536413 154.080878 -10.606557 -21.869059 12.612867 5.873301 20.536413 18.000000 -0.510334 4.648882
1480.140495 518.878891 37.100136 0.000000 0.000000 0.000000 0.000000 0.000000 0.000000 -110.621767 87.520642 19.645745 69.378233 -56.860742 19.645745 -158.235933 -2.700036 -23.115397 166.031448 -1.688176 -19.122720 -155.186432 -2.786524 23.115397 2.641553 0.276673 4.524135
1271.640472 556.840560 62.710920 0.000000 0.000000 0.000000 0.000000 0.000000 0.000000 -94.404719 14.829966 18.096541 85.595281 -8.755498 18.096541 -62.417786 -1.934341 -25.329838 23.992813 -2.229775 -16.074804 -76.856107 -5.069415 25.329838 7.708835 0.630670 4.381533
1258.556786 530.268441 85.285285 0.000000 0.000000 0.000000 0.000000 0.000000 0.000000 78.355945 0.615573 15.410265 -101.644055 -5.033631 15.410265 35.068294 7.837563 -27.144812 -54.090640 -6.083887 -12.773379 35.848220 2.207423 27.144812 -8.104639 0.325262 4.221640
1250.800209 527.150567 96.601768 0.000000 0.000000 0.000000 0.000000 0.000000 0.000000 72.417769 -1.610319 11.755705 -107.582231 6.086378 11.755705 24.571109 0.982060 -28.531695 -39.196117 5.233217 -9.270510 10.411117 -2.855578 28.531695 -9.048616 -1.425447 4.045085
1243.466148 571.776259 98.019715 0.000000 0.000000 0.000000 0.000000 0.000000 0.000000 86.301473 -4.469063 7.362491 -93.698527 0.953647 7.362491 24.553534 5.244745 -29.468618 -153.460385 -3.311025 -5.621439 19.510484 2.772933 29.468618 -10.109500 0.380976 3.852566
1261.883812 566.052918 85.738797 0.000000 0.000000 0.000000 0.000000 0.000000 0.000000 94.015209 0.350027 2.506665 -85.984791 9.318945 2.506665 38.959993 -4.933923 -29.940802 -154.008305 -4.295342 -1.883716 20.870951 3.358071 29.940802 -10.872440 -1.998113 3.644843
1284.436798 527.190542 100.449861 0.000000 0.000000 0.000000 0.000000 0.000000 0.000000 111.186365 -1.880544 -2.506665 -68.813635 2.856480 -2.506665 58.506163 -1.998374 -29.940802 -19.138727 -2.195847 1.883716 51.457372 12.095804 29.940802 -5.203198 -0.653769 3.422736
1272.860069 533.494012 95.840953 0.000000 0.000000 0.000000 0.000000 0.000000 0.000000 72.301471 -6.685834 -7.362491 -107.698529 -6.318050 -7.362491 78.802573 -0.805356 -29.468618 -154.772375 -4.410733 5.621439 26.927455 4.432980 29.468618 -15.307255 -0.443298 3.187120
1255.264664 498.243735 94.365758 0.000000 0.000000 0.000000 0.000000 0.000000 0.000000 164.596971 -12.835689 -11.755705 -15.403029 -50.038040 -11.755705 125.849126 2.710286 -28.531695 -156.067666 -5.338295 9.270510 33.087561 4.929167 28.531695 -14.691244 -0.492917 2.938926
1259.202232 470.407684 106.839315 0.000000 0.000000 0.000000 0.000000 0.000000 0.000000 -139.980397 -1.709558 -15.410265 40.019603 -6.993087 -15.410265 165.887722 3.646108 -27.144812 -157.901492 -5.429869 12.773379 35.196094 5.177635 27.144812 -14.480391 -0.517764 2.679134
1236.502075 429.951335 120.707264 0.000000 0.000000 0.000000 0.000000 0.000000 0.000000 -113.295066 -0.766400 -18.096541 66.704934 14.383445 -18.096541 -174.664169 -4.766557 -25.329838 -159.007335 -4.794044 16.074804 32.868990 5.759467 25.329838 -14.713101 -0.575947 2.408768
1253.359451 413.942538 123.560307 0.000000 0.000000 0.000000 0.000000 0.000000 0.000000 -123.348580 1.755166 -19.645745 56.651420 -5.503313 -19.645745 -167.815074 -1.969146 -23.115397 -159.603180 -5.909414 19.122720 32.791747 6.208935 23.115397 -14.720825 -0.620894 2.128896
1281.206589 405.664523 126.435431 0.000000 0.000000 0.000000 0.000000 0.000000 0.000000 -124.414271 -3.940600 -19.960535 55.585729 2.155913 -19.960535 -161.281803 -0.346085 -20.536413 28.568449 4.949135 21.869059 -159.052798 -5.407348 20.536413 1.849141 0.478594 1.840623
1300.238571 418.760215 130.271637 0.000000 0.000000 0.000000 0.000000 0.000000 0.000000 -126.263092 10.862875 -19.021130 53.736908 -6.029314 -19.021130 -159.739358 0.224601 -17.633558 31.487961 -3.956063 24.270510 -170.323915 0.973955 17.633558 0.671815 0.095525 1.545085
1321.889191 413.634385 115.865623 0.000000 0.000000 0.000000 0.000000 0.000000 0.000000 -133.874471 2.877460 -16.886559 46.125529 -10.090895 -16.886559 -159.376251 3.602812 -14.452610 30.696824 -2.234487 26.289200 -164.929556 0.036001 14.452610 1.089735 -0.055251 1.243449
1336.221428 432.881820 138.163707 0.000000 0.000000 0.000000 0.000000 0.000000 0.000000 -115.020798 3.436476 -13.690942 64.979202 -6.335890 -13.690942 -135.609544 3.337507 -11.043737 -161.321630 -6.299483 27.893295 17.353502 7.645506 11.043737 -16.264650 -0.764551 0.936907
1329.124603 416.860342 145.415293 0.000000 0.000000 0.000000 0.000000 0.000000 0.000000 -134.023347 -14.351482 -9.635073 45.976653 6.750203 -9.635073 -128.030830 3.478135 -7.460697 28.249885 5.831624 29.057495 -136.447985 -1.318993 7.460697 4.038834 0.061058 0.626666
1343.366776 427.060794 147.163188 0.000000 0.000000 0.000000 0.000000 0.000000 0.000000 -130.153347 9.030348 -4.973798 49.846653 -12.581774 -4.973798 -103.564435 -1.897486 -3.759997 27.398095 -3.955723 29.763441 -115.461530 1.064598 3.759997 5.470063 -0.063815 0.313953
1376.991005 465.829636 144.918850 0.000000 0.000000 0.000000 0.000000 0.000000 0.000000 -120.272352 -7.773790 0.000000 59.727648 3.753231 0.000000 -62.204131 1.982513 -0.000000 27.740602 6.257922 30.000000 -80.461527 1.047244 0.000000 7.450891 -0.251670 0.000000
1384.978867 468.790376 141.439193 0.000000 0.000000 0.000000 0.000000 0.000000 0.000000 -93.720384 30.369069 4.973798 86.279616 32.811483 4.973798 3.847814 -2.030982 3.759997 -160.438787 -6.225577 29.763441 15.990976 5.712131 -3.759997 7.894783 -2.810901 0.313953
1345.894547 516.257268 153.335160 0.000000 0.000000 0.000000 0.000000 0.000000 0.000000 127.577640 -7.830588 9.635073 -52.422360 7.625841 9.635073 53.096359 3.386097 7.460697 -159.021748 -5.743055 29.057495 18.308456 5.468782 -7.460697 -4.062191 -0.425578 0.626666
968.498927 441.455181 131.452537 0.000000 0.000000 0.000000 0.000000 0.000000 0.000000 47.920147 -26.956281 13.690942 180.000000 30.449842 13.690942 19.641385 -4.280283 11.043737 160.358615 1.835630 27.893295 13.993219 4.736360 -11.043737 18.000000 -0.360035 0.936907
1336.846733 493.527671 134.378642 0.000000 0.000000 0.000000 0.000000 0.000000 0.000000 102.681311 15.415368 16.886559 -77.318689 -21.395885 16.886559 35.985219 -5.537277 14.452610 -159.617763 -7.044271 26.289200 19.375410 6.032950 -14.452610 -16.062459 -0.603295 1.243449
968.386706 441.394956 163.040441 0.000000 0.000000 0.000000 0.000000 0.000000 0.000000 46.120581 16.263664 19.021130 180.000000 2.467829 19.021130 19.316787 1.544399 17.633558 160.683213 8.130832 24.270510 14.327067 -7.124573 -17.633558 18.000000 0.012889 1.545085
1263.984947 433.341283 151.351348 0.000000 0.000000 0.000000 0.000000 0.000000 0.000000 -115.578373 -9.535058 19.960535 64.421627 18.911329 19.960535 -82.396446 -9.295666 20.536413 25.733383 7.084878 21.869059 -77.477544 -8.940830 -20.536413 5.836928 0.778970 1.840623
1352.596436 477.564354 143.950643 0.000000 0.000000 0.000000 0.000000 0.000000 0.000000 -99.196741 -2.204836 19.645745 80.803259 11.239429 19.645745 -125.272585 -1.976762 23.115397 -162.405270 -5.954538 19.122720 17.377627 6.609194 -23.115397 -16.262237 -0.660919 2.128896
1384.326782 408.174427 162.122667 0.000000 0.000000 0.000000 0.000000 0.000000 0.000000 96.868601 16.568728 18.096541 -83.131399 -6.052379 18.096541 -160.848957 -6.080698 25.329838 -137.255583 -3.845286 16.074804 -162.076720 -6.485977 -25.329838 0.000000 0.000000 0.000000
1387.580223 387.128634 151.209505 0.000000 0.000000 0.000000 0.000000 0.000000 0.000000 78.087764 30.664097 15.410265 -101.912236 -43.743770 15.410265 -161.807915 -5.169953 27.144812 -147.504361 -6.571569 12.773379 -162.566306 -6.843769 -27.144812 1.735427 0.846182 2.679134
1345.818558 392.423122 129.446936 0.000000 0.000000 0.000000 0.000000 0.000000 0.000000 71.782984 17.525940 11.755705 -108.217016 4.935233 11.755705 -169.469261 2.218496 28.531695 -153.903088 -0.044022 9.270510 -154.670689 1.589892 -28.531695 15.277725 0.544533 2.938926
1331.471329 361.814139 136.408414 0.000000 0.000000 0.000000 0.000000 0.000000 0.000000 53.586100 0.450829 7.362491 -126.413900 9.297471 7.362491 -162.290330 -5.987474 29.468618 -154.912165 -1.313984 5.621439 -162.550394 -6.444829 -29.468618 1.742175 0.953768 3.187120
1354.413986 427.213873 138.105106 0.000000 0.000000 0.000000 0.000000 0.000000 0.000000 -131.358118 3.175004 2.506665 48.641882 -6.766340 2.506665 -142.488821 0.721202 29.940802 -161.977882 -5.834365 1.883716 12.673705 7.735977 -29.940802 1.397524 -0.079590 3.422736
1330.326691 347.207226 140.055384 0.000000 0.000000 0.000000 0.000000 0.000000 0.000000 52.464175 2.319518 -2.506665 -127.535825 -0.341385 -2.506665 14.270918 -0.245394 29.940802 -122.057234 0.272390 -1.883716 22.820874 1.046333 -29.940802 -15.244909 -0.138436 3.644843
1317.103271 414.475805 143.253744 0.000000 0.000000 0.000000 0.000000 0.000000 0.000000 76.170457 18.492842 -7.362491 -103.829543 -3.753239 -7.362491 -50.250674 0.790495 29.468618 -52.503744 -5.629244 -5.621439 -92.793049 -2.081422 -29.468618 3.303440 0.074268 3.852566
1331.844635 430.291482 130.514978 0.000000 0.000000 0.000000 0.000000 0.000000 0.000000 79.985160 1.628374 -11.755705 -100.014840 -6.483037 -11.755705 25.995082 4.642837 28.531695 -75.062603 -2.687135 -9.270510 38.761234 1.083892 -28.531695 -11.442229 -0.248070 4.045085
1359.462433 496.472383 117.669007 0.000000 0.000000 0.000000 0.000000 0.000000 0.000000 84.268829 1.778628 -15.410265 -95.731171 -7.859913 -15.410265 30.279153 2.753130 27.144812 -63.318008 -1.444829 -12.773379 39.457716 -4.167698 -27.144812 -9.485742 0.074872 4.221640
1323.514366 546.771398 102.915676 0.000000 0.000000 0.000000 0.000000 0.000000 0.000000 84.407325 -1.046373 -18.096541 -95.592675 0.469810 -18.096541 27.768249 -3.050375 25.329838 -47.660055 -2.172524 -16.074804 28.281511 4.841658 -25.329838 -7.827901 -0.638793 4.381533
1268.535347 591.567099 121.242864 0.000000 0.000000 0.000000 0.000000 0.000000 0.000000 90.890792 1.267193 -19.645745 -89.109208 4.718685 -19.645745 44.654760 -4.402739 23.115397 -48.200667 2.651562 -19.122720 43.369388 -3.446671 -23.115397 -8.974980 0.387435 4.524135
1303.157158 602.888768 106.810527 0.000000 0.000000 0.000000 0.000000 0.000000 0.000000 90.349289 -2.677008 -19.960535 -89.650711 5.272896 -19.960535 47.707312 -3.919299 20.536413 -53.918782 4.091716 -21.869059 40.070965 -2.412411 -20.536413 -9.318632 -0.613772 4.648882
1314.841690 613.141973 95.512021 0.000000 0.000000 0.000000 0.000000 0.000000 0.000000 94.480501 1.608140 -19.021130 -85.519499 -0.850159 -19.021130 58.462862 1.937732 17.633558 -52.020507 -0.363359 -24.270510 55.276552 -0.032455 -17.633558 -7.777523 0.536255 4.755283
1327.521400 639.394319 93.542370 0.000000 0.000000 0.000000 0.000000 0.000000 0.000000 99.879576 -0.126649 -16.886559 -80.120424 0.314540 -16.886559 69.161359 2.446163 14.452610 -46.413613 2.057120 -26.289200 76.680143 0.255657 -14.452610 -6.257768 -0.560053 4.842916
1277.812729 671.228578 89.724909 0.000000 0.000000 0.000000 0.000000 0.000000 0.000000 99.708534 -0.341000 -13.690942 -80.291466 -4.655167 -13.690942 92.239140 -1.817445 11.043737 -26.764021 -2.122555 -27.893295 98.168457 -1.204449 -11.043737 -4.372074 0.026156 4.911436
1309.642181 690.479329 77.687803 0.000000 0.000000 0.000000 0.000000 0.000000 0.000000 117.292414 13.358544 -9.635073 -62.707586 -4.842838 -9.635073 137.002702 -1.448640 7.460697 -32.045917 -3.818701 -29.057495 135.211322 1.198876 -7.460697 -3.212944 -0.019262 4.960574
1299.770966 664.126496 79.089739 0.000000 0.000000 0.000000 0.000000 0.000000 0.000000 158.531160 -12.584680 -4.973798 -21.468840 0.877067 -4.973798 161.478323 0.440601 3.759997 -12.838206 1.223193 -29.763441 151.269584 -1.439633 -3.759997 -2.521934 0.057173 4.990134
1313.353729 643.668108 78.578644 0.000000 0.000000 0.000000 0.000000 0.000000 0.000000 -154.315892 9.939693 -0.000000 25.684108 2.694713 -0.000000 173.459940 -1.975593 0.000000 1.519689 -2.375958 -30.000000 164.244875 0.057068 -0.000000 -1.552244 -0.137360 5.000000
1342.841377 638.982847 63.962225 0.000000 0.000000 0.000000 0.000000 0.000000 0.000000 -138.993869 -17.819392 4.973798 41.006131 34.899374 4.973798 175.724056 -5.828117 -3.759997 -151.723069 -2.474367 -29.763441 43.242568 4.508114 3.759997 -13.675743 -0.450811 4.990134
1350.000229 614.724133 75.578939 0.000000 0.000000 0.000000 0.000000 0.000000 0.000000 -144.248147 7.584232 9.635073 35.751853 -5.914151 9.635073 177.069273 0.494350 -7.460697 -152.227621 -3.017243 -29.057495 43.136563 3.194258 7.460697 -13.686344 -0.319426 4.960574
1328.535919 624.780936 55.920502 0.000000 0.000000 0.000000 0.000000 0.000000 0.000000 -165.447222 -4.171669 13.690942 14.552778 16.494743 13.690942 169.657511 -1.537593 -11.043737 -152.168050 -2.131738 -27.893295 41.929642 3.509627 11.043737 -13.807036 -0.350963 4.911436
1318.810501 615.688248 57.890495 0.000000 0.000000 0.000000 0.000000 0.000000 0.000000 -120.063657 -5.969498 16.886559 59.936343 -13.123700 16.886559 -165.389465 5.308744 -14.452610 -152.866764 -2.880249 -26.289200 39.162270 2.901035 14.452610 -14.083773 -0.290104 4.842916
1321.656418 659.275410 63.191764 0.000000 0.000000 0.000000 0.000000 0.000000 0.000000 -121.435085 -12.043850 19.021130 58.564915 10.906803 19.021130 -149.190712 5.795886 -17.633558 -151.926374 -1.837383 -24.270510 33.097066 2.922918 17.633558 -14.690293 -0.292292 4.755283
1328.445511 687.490232 58.067072 0.000000 0.000000 0.000000 0.000000 0.000000 0.000000 -104.253419 3.488184 19.960535 75.746581 8.340005 19.960535 -110.140878 -1.454669 -20.536413 -152.911692 -1.947677 -21.869059 23.882145 2.058322 20.536413 3.694979 0.103474 4.648882
966.534206 440.564282 56.020973 0.000000 0.000000 0.000000 0.000000 0.000000 0.000000 25.865486 6.061663 19.645745 180.000000 1.410087 19.645745 18.728337 -4.467739 -23.115397 161.271663 -1.337789 -19.122720 19.024234 -2.759972 23.115397 18.000000 -0.550508 4.524135
966.454577 440.533056 37.386967 0.000000 0.000000 0.000000 0.000000 0.000000 0.000000 25.417507 4.764562 18.096541 180.000000 2.034302 18.096541 18.825450 -3.290538 -25.329838 161.174550 -2.735355 -16.074804 19.071566 -0.802759 25.329838 18.000000 -0.397971 4.381533
966.374240 440.501809 61.762134 0.000000 0.000000 0.000000 0.000000 0.000000 0.000000 24.990320 -4.153482 15.410265 180.000000 -1.971285 15.410265 18.929718 7.631345 -27.144812 161.070282 1.440509 -12.773379 19.102411 -5.515680 27.144812 18.000000 0.997687 4.221640
966.293204 440.470542 36.489127 0.000000 0.000000 0.000000 0.000000 0.000000 0.000000 24.583377 5.412040 11.755705 180.000000 -2.925125 11.755705 19.040946 5.267149 -28.531695 160.959054 1.027497 -9.270510 19.116765 4.378553 28.531695 18.000000 0.738285 4.045085
966.211478 440.439256 48.340156 0.000000 0.000000 0.000000 0.000000 0.000000 0.000000 24.196129 -9.784744 7.362491 180.000000 -0.164126 7.362491 19.158923 1.663968 -29.468618 160.841077 -4.587737 -5.621439 19.114778 4.155250 29.468618 18.000000 0.316042 3.852566
644.985180 745.864069 42.138522 0.000000 0.000000 0.000000 0.000000 0.000000 0.000000 96.086415 3.977019 2.506665 -83.913585 9.127775 2.506665 -159.662371 2.292168 -29.940802 -116.741565 -0.344974 -1.883716 -176.001217 -0.286957 29.940802 -1.006627 -0.721232 3.644843
1269.020119 699.025490 56.614130 0.000000 0.000000 0.000000 0.000000 0.000000 0.000000 83.810916 8.484395 -2.506665 -96.189084 -11.688145 -2.506665 51.932890 -1.276287 -29.940802 -149.314466 -3.021869 1.883716 27.598511 2.057717 29.940802 -15.240149 -0.205772 3.422736
573.721218 678.450201 65.292253 0.000000 0.000000 0.000000 0.000000 0.000000 0.000000 18.756393 12.108895 -7.362491 -161.243607 11.806448 -7.362491 -174.158094 -7.537023 -29.468618 178.010322 -2.713808 5.621439 -154.394154 -2.836786 29.468618 11.886524 1.889766 3.187120
1261.580200 714.897366 40.949937 0.000000 0.000000 0.000000 0.000000 0.000000 0.000000 87.191276 0.460505 -11.755705 -92.808724 -3.633496 -11.755705 23.129119 0.194803 -28.531695 -149.376238 -2.327879 9.270510 24.545507 1.963377 28.531695 13.583501 2.725328 2.938926
1314.655838 684.171546 53.841921 0.000000 0.000000 0.000000 0.000000 0.000000 0.000000 61.219932 16.499963 -15.410265 -118.780068 -13.290300 -15.410265 25.476616 0.915899 -27.144812 -150.404247 -2.763842 12.773379 24.621454 1.837920 27.144812 -15.537855 -0.183792 2.679134
1319.638939 674.820013 53.822903 0.000000 0.000000 0.000000 0.000000 0.000000 0.000000 82.055377 -6.254536 -18.096541 -97.944623 0.997075 -18.096541 17.325085 8.671859 -25.329838 -60.067277 2.339032 16.074804 23.747728 0.853536 25.329838 -13.005173 -0.022435 2.408768
1367.852325 659.536314 57.295385 0.000000 0.000000 0.000000 0.000000 0.000000 0.000000 -150.278430 -23.643151 -19.645745 29.721570 48.564378 -19.645745 -151.222797 -3.352508 -23.115397 18.758043 7.097191 19.122720 -152.451920 -2.779765 23.115397 2.484143 0.214143 2.128896
1392.624664 638.981302 70.506373 0.000000 0.000000 0.000000 0.000000 0.000000 0.000000 -122.704248 -12.144128 -19.960535 57.295752 4.736952 -19.960535 -134.513385 3.273258 -20.536413 30.292627 2.753712 21.869059 -146.694539 1.608764 20.536413 2.430965 0.067796 1.840623
1401.291389 646.422758 64.266602 0.000000 0.000000 0.000000 0.000000 0.000000 0.000000 83.316637 7.920814 -19.021130 -96.683363 5.088949 -19.021130 29.335627 -1.859564 -17.633558 -136.281416 -0.238680 24.270510 19.119183 2.839867 17.633558 -15.871560 -0.040778 1.545085
1381.838951 663.410475 67.255392 0.000000 0.000000 0.000000 0.000000 0.000000 0.000000 79.215331 -0.424285 -16.886559 -100.784669 -9.933995 -16.886559 30.640455 8.106888 -14.452610 -139.113455 0.384179 26.289200 14.302413 2.505750 14.452610 -16.408036 -0.217966 1.243449
1390.185928 664.248354 83.794298 0.000000 0.000000 0.000000 0.000000 0.000000 0.000000 75.546066 5.369834 -13.690942 -104.453934 -10.600373 -13.690942 38.995097 6.850162 -11.043737 -142.871297 -1.953050 27.893295 14.209110 0.099525 11.043737 -16.737090 0.079424 0.936907
1393.889923 677.551103 71.958891 0.000000 0.000000 0.000000 0.000000 0.000000 0.000000 84.293627 -6.621971 -9.635073 -95.706373 7.176906 -9.635073 -152.700272 -3.603157 -7.460697 -143.357755 5.738828 29.057495 -148.868889 -4.790640 7.460697 3.626268 0.467440 0.626666
905.601082 693.654528 79.176824 0.000000 0.000000 0.000000 0.000000 0.000000 0.000000 -84.410869 -12.619756 -4.973798 95.589131 22.288065 -4.973798 -139.498802 -5.044504 -3.759997 -178.556713 54.698488 29.763441 -142.061844 -4.929425 3.759997 3.411456 0.397336 0.313953
1337.643929 680.318756 93.249572 0.000000 0.000000 0.000000 0.000000 0.000000 0.000000 78.192517 -3.725672 0.000000 -101.807483 -0.869202 0.000000 48.289813 -1.761129 -0.000000 -140.291980 -1.046945 30.000000 13.663140 1.935109 0.000000 -17.395561 -0.160701 0.000000
1322.670708 685.543334 86.656950 0.000000 0.000000 0.000000 0.000000 0.000000 0.000000 71.501063 18.797735 4.973798 -108.498937 -6.785034 4.973798 23.648228 1.281178 3.759997 -144.586500 -6.391792 29.763441 14.578018 1.892892 -3.759997 -16.885607 -0.051088 0.313953
1305.530548 682.910864 88.460887 0.000000 0.000000 0.000000 0.000000 0.000000 0.000000 72.979287 -10.312680 9.635073 -107.020713 -29.812674 9.635073 -148.728581 -3.967094 7.460697 -74.802907 -0.239266 29.057495 -151.178244 -4.359193 -7.460697 2.601049 0.423355 0.626666
1359.363556 692.650115 118.080041 0.000000 0.000000 0.000000 0.000000 0.000000 0.000000 73.244804 0.710960 13.690942 -106.755196 -6.014186 13.690942 13.983499 3.746184 11.043737 -67.611809 7.621897 27.893295 13.130547 -12.548715 -11.043737 -11.004089 0.580902 0.936907
1299.495964 679.994059 112.912965 0.000000 0.000000 0.000000 0.000000 0.000000 0.000000 116.206779 1.161347 16.886559 -63.793221 -7.621816 16.886559 -150.858719 -4.181662 14.452610 -34.548592 0.342272 26.289200 60.366751 5.042982 -14.452610 -4.627493 -0.721114 1.243449
1306.260338 711.527116 125.104274 0.000000 0.000000 0.000000 0.000000 0.000000 0.000000 -85.758672 -25.821167 19.021130 94.241328 15.404051 19.021130 -31.461750 -1.790215 17.633558 -4.237664 6.893409 24.270510 -15.215787 -4.111816 -17.633558 7.867754 1.416462 1.545085
1272.614822 704.778571 110.221928 0.000000 0.000000 0.000000 0.000000 0.000000 0.000000 -78.634637 4.131674 19.960535 101.365363 -3.458515 19.960535 -34.118569 1.853199 20.536413 22.539652 1.838521 21.869059 -31.373170 -2.974563 -20.536413 11.310693 1.491548 1.840623
1310.345650 676.427021 137.007373 0.000000 0.000000 0.000000 0.000000 0.000000 0.000000 97.572435 -1.073936 19.645745 -82.427565 -0.208695 19.645745 50.400703 -2.285995 23.115397 -39.584286 3.308975 19.122720 44.966766 -0.814228 -23.115397 -8.852712 0.927571 2.128896
1315.732956 671.025095 110.842699 0.000000 0.000000 0.000000 0.000000 0.000000 0.000000 97.797337 0.193294 18.096541 -82.202663 1.197856 18.096541 49.825934 0.086418 25.329838 -39.162923 -2.109186 16.074804 36.475631 8.698769 -25.329838 -8.191519 -1.196833 2.408768
1329.935532 653.525419 122.122767 0.000000 0.000000 0.000000 0.000000 0.000000 0.000000 96.469555 -8.758966 15.410265 -83.530445 2.792528 15.410265 63.882053 -0.230840 27.144812 -51.972064 4.412572 12.773379 58.624362 -4.492954 -27.144812 -8.239564 0.261859 2.679134
1316.170578 674.246514 142.030317 0.000000 0.000000 0.000000 0.000000 0.000000 0.000000 -87.946330 2.636644 11.755705 92.053670 -5.232179 11.755705 -29.715798 7.585013 28.531695 54.212796 1.845373 9.270510 -40.560774 -0.998353 -28.531695 11.008015 -0.035249 2.938926
1317.367287 678.027205 130.283000 0.000000 0.000000 0.000000 0.000000 0.000000 0.000000 95.152942 -13.908414 7.362491 -84.847058 -7.912013 7.362491 98.792835 -1.379281 29.468618 -150.515547 -5.740181 5.621439 32.983753 5.491264 -29.468618 -14.701625 -0.549126 3.187120
1318.168488 670.157025 134.676872 0.000000 0.000000 0.000000 0.000000 0.000000 0.000000 -151.252255 36.252240 2.506665 28.747745 -42.652044 2.506665 138.896993 -0.108113 29.940802 -151.946620 -6.449046 1.883716 38.784684 5.409334 -29.940802 -14.121532 -0.540933 3.422736
1323.412628 644.667885 153.897884 0.000000 0.000000 0.000000 0.000000 0.000000 0.000000 -97.904066 5.917751 -2.506665 82.095934 -27.319200 -2.506665 155.695030 -0.204984 29.940802 -152.500978 -6.549299 -1.883716 44.721081 6.311694 -29.940802 -13.527892 -0.631169 3.644843
1312.776718 630.059459 155.785014 0.000000 0.000000 0.000000 0.000000 0.000000 0.000000 -116.637972 -7.944410 -7.362491 63.362028 15.681270 -7.362491 171.094570 1.264583 29.468618 -152.894064 -5.790813 -5.621439 43.947863 6.206200 -29.468618 -13.605214 -0.620620 3.852566
1316.420746 625.237019 167.890250 0.000000 0.000000 0.000000 0.000000 0.000000 0.000000 -136.254273 4.795239 -11.755705 43.745727 -4.650761 -11.755705 -177.663204 2.664962 28.531695 -153.006287 -6.585709 -9.270510 42.784597 7.951272 -28.531695 -13.721540 -0.795127 4.045085
1314.719925 628.818026 159.241546 0.000000 0.000000 0.000000 0.000000 0.000000 0.000000 -114.737929 -1.126484 -15.410265 65.262071 7.664981 -15.410265 -169.764314 2.997699 27.144812 -153.369487 -5.750903 -12.773379 41.498347 6.826177 -27.144812 -13.850165 -0.682618 4.221640
1334.396782 646.165652 151.381082 0.000000 0.000000 0.000000 0.000000 0.000000 0.000000 -116.903454 -8.835493 -18.096541 63.096546 5.441462 -18.096541 -154.594534 1.655906 25.329838 -153.225015 -5.625330 -16.074804 37.136182 8.284247 -25.329838 -14.286382 -0.828425 4.381533
1340.823784 648.244128 152.772263 0.000000 0.000000 0.000000 0.000000 0.000000 0.000000 -116.932323 2.528084 -19.645745 63.067677 -6.350046 -19.645745 -138.898656 1.226437 23.115397 35.335752 -2.257145 -19.122720 -153.336856 -1.918022 -23.115397 2.206211 0.184601 4.524135
1330.023880 654.599032 158.186883 0.000000 0.000000 0.000000 0.000000 0.000000 0.000000 -112.150704 1.547043 -19.960535 67.849296 -4.542180 -19.960535 -118.798313 2.792133 20.536413 -153.636372 -6.107601 -21.869059 16.691869 7.297341 -20.536413 -16.330813 -0.729734 4.648882
1337.431641 662.410698 130.815247 0.000000 0.000000 0.000000 0.000000 0.000000 0.000000 -109.111809 1.037163 -19.021130 70.888191 4.114853 -19.021130 -91.144379 -0.911125 17.633558 -154.448144 -6.182880 -24.270510 10.298202 6.622487 -17.633558 6.642051 -0.081778 4.755283
1324.339714 676.416593 147.446607 0.000000 0.000000 0.000000 0.000000 0.000000 0.000000 -104.120178 3.550262 -16.886559 75.879822 -3.774806 -16.886559 -57.095620 -1.606452 14.452610 38.799650 -1.859194 -26.289200 -71.942639 0.812874 -14.452610 8.831938 0.150974 4.842916
962.890318 439.311049 135.135288 0.000000 0.000000 0.000000 0.000000 0.000000 0.000000 19.986963 -5.427655 -13.690942 180.000000 3.946751 -13.690942 24.297229 -10.702201 11.043737 155.702771 -7.545822 -27.893295 14.983342 3.556188 -11.043737 18.000000 0.148809 4.911436
962.789911 439.279946 140.362004 0.000000 0.000000 0.000000 0.000000 0.000000 0.000000 20.089586 15.737625 -9.635073 180.000000 -0.355817 -9.635073 24.330184 -14.638708 7.460697 155.669816 -20.182451 -29.057495 14.926290 3.211782 -7.460697 18.000000 0.181433 4.960574
641.318550 641.336324 146.745532 0.000000 0.000000 0.000000 0.000000 0.000000 0.000000 163.642929 -0.567122 -4.973798 -16.357071 22.628486 -4.973798 -155.926011 -9.599863 3.759997 -130.644608 -8.364289 -29.763441 68.679337 10.255735 -3.759997 -11.132066 -1.025573 4.990134
1305.385551 662.289033 130.913621 0.000000 0.000000 0.000000 0.000000 0.000000 0.000000 -81.949824 -4.155404 -0.000000 98.050176 16.983611 -0.000000 9.536664 -4.805666 0.000000 -153.586691 -5.779163 -30.000000 24.402531 4.566043 -0.000000 -15.559747 -0.456604 5.000000
962.486899 439.186814 145.250075 0.000000 0.000000 0.000000 0.000000 0.000000 0.000000 20.465882 -16.112131 4.973798 180.000000 -2.505957 4.973798 24.357206 7.390725 -3.759997 155.642794 4.489552 -29.763441 14.800425 -3.619183 3.759997 18.000000 -0.231182 4.990134
1216.314240 612.580640 150.057359 0.000000 0.000000 0.000000 0.000000 0.000000 0.000000 78.221991 10.214075 9.635073 -101.778009 -5.834821 9.635073 46.689014 -8.969511 -7.460697 -61.937558 -6.144702 -29.057495 44.546377 0.837235 7.460697 -10.771750 -0.179327 4.960574
1273.897820 573.707514 112.824257 0.000000 0.000000 0.000000 0.000000 0.000000 0.000000 77.469628 -3.465275 13.690942 -102.530372 -9.287282 13.690942 -155.691164 -4.359093 -11.043737 -120.750172 -2.761984 -27.893295 -156.229293 -5.261676 11.043737 2.162203 0.621503 4.911436
1337.358742 570.303276 110.772649 0.000000 0.000000 0.000000 0.000000 0.000000 0.000000 73.705918 1.368525 16.886559 -106.294082 -0.745270 16.886559 -155.918376 -5.029796 -14.452610 -149.887909 -4.656861 -26.289200 0.000000 0.000000 0.000000 0.000000 0.000000 0.000000
1342.446442 569.623497 104.570970 0.000000 0.000000 0.000000 0.000000 0.000000 0.000000 68.898287 -9.867961 19.021130 -111.101713 0.052311 19.021130 39.314088 6.989973 -17.633558 -140.912764 4.320752 -24.270510 -153.216026 -6.510032 17.633558 2.759242 0.743112 4.755283
1335.759430 584.665475 99.095409 0.000000 0.000000 0.000000 0.000000 0.000000 0.000000 66.989329 -2.891921 19.960535 -113.010671 -0.574720 19.960535 -154.807077 -4.841231 -20.536413 -142.328055 1.222507 -21.869059 -153.049156 -6.166949 20.536413 2.866457 0.664774 4.648882
1337.950974 598.074245 98.651649 0.000000 0.000000 0.000000 0.000000 0.000000 0.000000 62.697633 -2.733268 19.645745 -117.302367 4.146180 19.645745 19.366736 0.230261 -23.115397 -144.826223 4.224093 -19.122720 9.911455 -0.088346 23.115397 -17.004209 -0.056729 4.524135
1352.846489 601.043322 79.523802 0.000000 0.000000 0.000000 0.000000 0.000000 0.000000 59.083577 -1.036421 18.096541 -120.916423 -1.256471 18.096541 20.876734 -0.196352 -25.329838 -142.301690 1.246122 -16.074804 13.356960 -0.172726 25.329838 -16.821524 0.002552 4.381533
1347.310982 587.475100 105.148616 0.000000 0.000000 0.000000 0.000000 0.000000 0.000000 56.169135 10.769018 15.410265 -123.830865 4.310645 15.410265 21.172503 -3.176093 -27.144812 -139.640745 2.507615 -12.773379 14.641496 -2.974890 27.144812 -16.282575 0.020951 4.221640
1326.982155 606.886139 89.114031 0.000000 0.000000 0.000000 0.000000 0.000000 0.000000 70.119981 -3.927348 11.755705 -109.880019 0.964818 11.755705 26.511889 0.766927 -28.531695 -111.264667 3.431190 -9.270510 31.153840 1.444878 28.531695 -13.943905 -0.197597 4.045085
1354.391098 626.185555 79.410220 0.000000 0.000000 0.000000 0.000000 0.000000 0.000000 88.154395 8.516088 7.362491 -91.845605 -4.231686 7.362491 30.442275 -4.210476 -29.468618 -76.284233 -2.272366 -5.621439 43.854867 -2.629583 29.468618 -10.818190 0.233584 3.852566
1370.667114 610.219567 66.211810 0.000000 0.000000 0.000000 0.000000 0.000000 0.000000 89.945118 -3.259757 2.506665 -90.054882 -2.370645 2.506665 44.053326 6.230086 -29.940802 -56.238091 -1.334934 -1.883716 55.411270 -1.496981 29.940802 -7.805659 0.432529 3.644843
1372.834854 597.828534 94.622904 0.000000 0.000000 0.000000 0.000000 0.000000 0.000000 93.407992 2.983609 -2.506665 -86.592008 2.198329 -2.506665 54.165845 0.915365 -29.940802 -47.239220 -0.093102 1.883716 56.575186 6.211803 29.940802 -6.344474 -0.950754 3.422736
1336.554337 597.454848 65.358496 0.000000 0.000000 0.000000 0.000000 0.000000 0.000000 95.622643 3.223985 -7.362491 -84.377357 -2.836882 -7.362491 56.597780 4.417491 -29.468618 -45.108662 -0.508096 5.621439 55.386034 1.034877 29.468618 -7.206870 -0.854165 3.187120
1310.567093 590.844769 75.932214 0.000000 0.000000 0.000000 0.000000 0.000000 0.000000 100.193768 3.813471 -11.755705 -79.806232 -3.114259 -11.755705 61.986347 0.606536 -28.531695 -37.593815 -1.638549 9.270510 62.907615 -0.535476 28.531695 -6.637230 0.022301 2.938926
1328.574371 576.493385 72.531459 0.000000 0.000000 0.000000 0.000000 0.000000 0.000000 101.943783 0.946823 -15.410265 -78.056217 -0.431717 -15.410265 61.902838 1.341048 -27.144812 -33.889586 -1.158938 12.773379 55.760387 6.239767 27.144812 -7.097415 -0.529454 2.679134
1316.178360 595.500870 59.916253 0.000000 0.000000 0.000000 0.000000 0.000000 0.000000 103.792097 2.696238 -18.096541 -76.207903 -6.916115 -18.096541 65.535198 3.693481 -25.329838 -28.739437 4.495854 16.074804 68.415337 -6.249752 25.329838 -6.481753 -0.197864 2.408768
1302.343140 568.138025 62.088634 0.000000 0.000000 0.000000 0.000000 0.000000 0.000000 101.222717 13.328914 -19.645745 -78.777283 6.834580 -19.645745 90.757296 -0.767013 -23.115397 -18.578033 -0.436782 19.122720 97.909038 -0.069298 23.115397 -5.050134 0.214487 2.128896
1274.166183 540.660596 53.346532 0.000000 0.000000 0.000000 0.000000 0.000000 0.000000 -126.898591 19.083358 -19.960535 53.101409 -30.971559 -19.960535 127.276662 -2.108659 -20.536413 8.808645 -2.434985 21.869059 119.711272 2.275511 20.536413 -4.115393 0.010355 1.840623
1268.557091 468.331075 47.995554 0.000000 0.000000 0.000000 0.000000 0.000000 0.000000 -124.112133 1.525700 -19.021130 55.887867 11.744429 -19.021130 163.344780 -4.258446 -17.633558 38.476068 1.715694 24.270510 145.889074 0.443730 17.633558 -1.929933 -0.120474 1.545085
1278.673096 454.375906 73.047378 0.000000 0.000000 0.000000 0.000000 0.000000 0.000000 -126.805061 -3.546812 -16.886559 53.194939 5.314953 -16.886559 -174.009950 -0.847868 -14.452610 27.419224 -1.839181 26.289200 168.192977 -0.209989 14.452610 -0.976267 0.112410 1.243449
1285.008774 434.700390 44.254650 0.000000 0.000000 0.000000 0.000000 0.000000 0.000000 -132.005120 6.515355 -13.690942 47.994880 -2.226447 -13.690942 -171.247775 -1.077864 -11.043737 26.625253 -4.761411 27.893295 178.805957 2.108627 11.043737 0.023422 -0.048741 0.936907
1288.157730 426.987666 58.110959 0.000000 0.000000 0.000000 0.000000 0.000000 0.000000 -123.987926 4.930599 -9.635073 56.012074 -0.692951 -9.635073 -166.356219 0.076912 -7.460697 35.716336 -4.337504 29.057495 -172.960762 -0.712003 7.460697 0.819533 0.175805 0.626666
1291.221657 420.425448 52.546343 0.000000 0.000000 0.000000 0.000000 0.000000 0.000000 -122.265643 -3.198822 -4.973798 57.734357 4.382581 -4.973798 -156.870161 -1.659661 -3.759997 38.220704 1.294181 29.763441 -165.716368 0.064522 3.759997 1.405814 0.091590 0.313953
