HIERARCHY
ROOT Hips
{
    OFFSET 0.0 0.0 0.0
    CHANNELS 6 Xposition Yposition Zposition Zrotation Xrotation Yrotation
    JOINT Spine
    {
        OFFSET 0.0 5.0 0.0
        CHANNELS 3 Zrotation Xrotation Yrotation
        JOINT Chest
        {
            OFFSET 0.0 5.0 0.0
            CHANNELS 3 Zrotation Xrotation Yrotation
            JOINT Neck
            {
                OFFSET 0.0 8.0 0.0
                CHANNELS 3 Zrotation Xrotation Yrotation
                JOINT Head
                {
                    OFFSET 0.0 5.0 0.0
                    CHANNELS 3 Zrotation Xrotation Yrotation
                    End Site
                    {
                        OFFSET 0.0 3.0 0.0
                    }
                }
            }
            JOINT LeftShoulder
            {
                OFFSET -5.0 0.0 0.0
                CHANNELS 3 Zrotation Xrotation Yrotation
                JOINT LeftArm
                {
                    OFFSET 0.0 -10.0 0.0
                    CHANNELS 3 Zrotation Xrotation Yrotation
                    JOINT LeftForeArm
                    {
                        OFFSET 0.0 -10.0 0.0
                        CHANNELS 3 Zrotation Xrotation Yrotation
                        End Site
                        {
                            OFFSET 0.0 -3.0 0.0
                        }
                    }
                }
            }
        }
    }
}

MOTION
Frames: 300
Frame Time: 0.033333

960.000000 445.000000 113.211142 0.000000 0.000000 0.000000 0.000000 0.000000 0.000000 23.025492 -13.143767 0.000000 180.000000 9.854154 0.000000 21.801409 -4.091134 -0.000000 158.198591 8.749128 30.000000 15.945396 -5.275472 0.000000 18.000000 0.724089 0.000000
1691.525230 140.756605 115.119092 0.000000 0.000000 0.000000 0.000000 0.000000 0.000000 -163.376529 3.474993 4.973798 16.623471 -0.208892 4.973798 -171.853121 -3.488556 3.759997 99.744051 3.291280 29.763441 -171.126653 -3.812971 -3.759997 0.673538 0.378459 0.313953
1636.048050 128.802021 109.822780 0.000000 0.000000 0.000000 0.000000 0.000000 0.000000 157.904128 13.203577 9.635073 -22.095872 7.496299 9.635073 -171.936471 -4.169182 7.460697 -143.675701 -1.997853 29.057495 -173.500805 -4.219605 -7.460697 0.570999 0.470803 0.626666
1578.156967 80.474526 108.576181 0.000000 0.000000 0.000000 0.000000 0.000000 0.000000 -139.519796 -4.197818 13.690942 40.480204 1.734813 13.690942 -174.507724 -3.674568 11.043737 119.111399 13.777607 27.893295 -173.607258 -4.565695 -11.043737 0.461920 0.451817 0.936907
960.418757 444.998421 103.079726 0.000000 0.000000 0.000000 0.000000 0.000000 0.000000 25.077893 23.041025 16.886559 180.000000 -6.132666 16.886559 23.861935 11.865993 14.452610 156.138065 4.768537 26.289200 17.903699 4.414899 -14.452610 18.000000 -0.455809 1.243449
960.523360 444.997533 121.065745 0.000000 0.000000 0.000000 0.000000 0.000000 0.000000 25.638906 -26.835949 19.021130 180.000000 12.681726 19.021130 24.425035 5.733404 17.633558 155.574965 4.956322 24.270510 18.452907 -0.049173 -17.633558 18.000000 -0.227789 1.545085
960.627905 444.996447 138.349060 0.000000 0.000000 0.000000 0.000000 0.000000 0.000000 26.219073 -21.192676 19.960535 180.000000 4.859822 19.960535 25.006291 -9.074237 20.536413 154.993709 -6.518253 21.869059 19.024920 0.620473 -20.536413 18.000000 0.244918 1.840623
1126.242828 420.359820 147.315202 0.000000 0.000000 0.000000 0.000000 0.000000 0.000000 31.410514 2.189987 19.645745 -148.589486 2.460881 19.645745 32.280463 -4.253661 23.115397 -131.603972 3.761920 19.122720 45.585331 0.394853 -23.115397 -13.449727 -0.255444 2.128896
1257.895088 650.549197 135.161236 0.000000 0.000000 0.000000 0.000000 0.000000 0.000000 25.073180 6.436399 18.096541 -154.926820 -3.822281 18.096541 46.260945 5.222553 25.329838 -154.651428 -5.347247 16.074804 27.339487 5.293179 -25.329838 -13.619892 -0.265911 2.408768
960.941083 444.992008 132.629297 0.000000 0.000000 0.000000 0.000000 0.000000 0.000000 28.072001 -6.573170 15.410265 180.000000 -4.821509 15.410265 26.849221 8.526257 27.144812 153.150779 -9.458118 12.773379 20.864045 0.308503 -27.144812 18.000000 0.135421 2.679134
1163.815842 547.748709 133.159155 0.000000 0.000000 0.000000 0.000000 0.000000 0.000000 117.162728 -9.190860 11.755705 -62.837272 -12.536050 11.755705 102.363764 3.984687 28.531695 -47.376450 -7.841137 9.270510 104.768601 1.623993 -28.531695 -6.003489 0.139194 2.938926
961.149372 444.988063 146.985064 0.000000 0.000000 0.000000 0.000000 0.000000 0.000000 29.395983 1.295229 7.362491 180.000000 7.771807 7.362491 28.146217 -5.358617 29.468618 151.853783 2.938778 5.621439 22.170006 -11.329174 -29.468618 18.000000 1.370750 3.187120
1136.717377 590.104480 126.993302 0.000000 0.000000 0.000000 0.000000 0.000000 0.000000 115.752126 13.405018 2.506665 -64.247874 -9.728382 2.506665 73.638146 5.443755 29.940802 -21.842452 -4.223036 1.883716 75.369282 3.045698 -29.940802 -6.767207 -0.958615 3.422736
1163.079758 634.077559 144.134261 0.000000 0.000000 0.000000 0.000000 0.000000 0.000000 132.174340 -0.247648 -2.506665 -47.825660 -4.717716 -2.506665 94.255711 2.811607 29.940802 -149.364979 -7.249079 -1.883716 30.021641 5.604255 -29.940802 -5.096180 0.427405 3.644843
961.460830 444.980668 143.768815 0.000000 0.000000 0.000000 0.000000 0.000000 0.000000 31.497152 11.274514 -7.362491 180.000000 -3.335794 -7.362491 30.152455 -12.589691 29.468618 149.847545 -10.082002 -5.621439 24.175589 9.824717 -29.468618 18.000000 -0.699634 3.852566
1097.449951 565.089898 152.418841 0.000000 0.000000 0.000000 0.000000 0.000000 0.000000 -119.219568 -8.147646 -11.755705 60.780432 -4.706872 -11.755705 -150.180642 -5.828070 28.531695 48.804955 1.738464 -9.270510 -149.874178 -6.182762 -28.531695 2.713854 0.587534 4.045085
1114.140244 528.302071 150.733959 0.000000 0.000000 0.000000 0.000000 0.000000 0.000000 -142.671523 4.232219 -15.410265 37.328477 -4.800120 -15.410265 -177.395681 -0.284155 27.144812 34.687329 -0.594738 -12.773379 161.894167 -0.719179 -27.144812 -0.910956 -0.165464 4.221640
1116.433640 479.728639 154.442130 0.000000 0.000000 0.000000 0.000000 0.000000 0.000000 -102.267481 4.225574 -18.096541 77.732519 2.559743 -18.096541 -163.695626 -6.985749 25.329838 38.575767 1.644589 -16.074804 -176.001122 -1.047701 -25.329838 0.706594 0.033943 4.381533
1135.931282 466.493965 155.320000 0.000000 0.000000 0.000000 0.000000 0.000000 0.000000 -112.868406 4.248478 -19.645745 67.131594 2.719417 -19.645745 -159.517862 1.533210 23.115397 36.204678 3.790559 -19.122720 -154.426613 -6.208573 -23.115397 2.428729 0.553271 4.524135
1141.618767 467.420679 158.099863 0.000000 0.000000 0.000000 0.000000 0.000000 0.000000 -123.086385 1.639025 -19.960535 56.913615 1.189580 -19.960535 -154.885724 1.068451 20.536413 36.481623 -1.195706 -21.869059 -153.965441 -5.929244 -20.536413 2.446728 0.516019 4.648882
1150.647926 469.370956 148.366704 0.000000 0.000000 0.000000 0.000000 0.000000 0.000000 -43.953779 31.481546 -19.021130 136.046221 -10.255772 -19.021130 -154.327268 -6.863348 17.633558 60.745168 14.697338 -24.270510 -153.350642 -7.647999 -17.633558 2.386216 0.567598 4.755283
1151.529922 496.420240 133.850490 0.000000 0.000000 0.000000 0.000000 0.000000 0.000000 -116.362129 0.646088 -16.886559 63.637871 -1.859085 -16.886559 -149.081043 1.033759 14.452610 35.941860 2.254695 -26.289200 -156.847177 -0.835338 -14.452610 2.056513 -0.028719 4.842916
1148.402367 515.713574 157.511619 0.000000 0.000000 0.000000 0.000000 0.000000 0.000000 -118.252650 5.699233 -13.690942 61.747350 10.485607 -13.690942 -138.082896 -8.142509 11.043737 -156.312677 -7.429064 -27.893295 21.649626 8.860228 -11.043737 2.962417 0.025273 4.911436
1175.363617 533.368646 151.562006 0.000000 0.000000 0.000000 0.000000 0.000000 0.000000 -95.476638 -15.577363 -9.635073 84.523362 0.214120 -9.635073 -113.907461 2.485404 7.460697 -155.995907 -7.054998 -29.057495 12.512064 9.911445 -7.460697 -16.748794 -0.991145 4.960574
1199.533310 485.991104 146.619315 0.000000 0.000000 0.000000 0.000000 0.000000 0.000000 -100.003195 -3.376376 -4.973798 79.996805 7.311180 -4.973798 -86.083188 -3.490043 3.759997 38.843754 1.959240 -29.763441 -106.539452 -1.240828 -3.759997 6.197806 0.133576 4.990134
962.588190 444.938442 122.947969 0.000000 0.000000 0.000000 0.000000 0.000000 0.000000 39.579754 -1.993786 -0.000000 180.000000 11.816917 -0.000000 36.680773 -16.403591 0.000000 143.319227 -9.177277 -30.000000 29.388385 7.301096 -0.000000 18.000000 1.139324 5.000000
1142.094727 445.716287 118.570739 0.000000 0.000000 0.000000 0.000000 0.000000 0.000000 -140.228454 25.462133 4.973798 39.771546 -27.613237 4.973798 -156.118008 -5.644084 -3.759997 3.479189 -0.727418 -29.763441 -158.005660 -5.897382 3.759997 2.150019 0.610388 4.990134
1164.005928 424.847746 122.762174 0.000000 0.000000 0.000000 0.000000 0.000000 0.000000 -84.241076 32.496712 9.635073 95.758924 31.810854 9.635073 -156.181584 -6.430252 -7.460697 166.928360 -1.559809 -29.057495 -154.947270 -5.990073 7.460697 2.644196 0.619250 4.960574
1124.208755 418.286655 98.854457 0.000000 0.000000 0.000000 0.000000 0.000000 0.000000 -117.427077 0.919961 13.690942 62.572923 -5.381777 13.690942 -155.943063 -5.784474 -11.043737 14.023837 -15.918408 -27.893295 -157.382674 -5.047810 11.043737 2.188130 0.523145 4.911436
962.990408 444.917226 113.966694 0.000000 0.000000 0.000000 0.000000 0.000000 0.000000 42.110883 -3.163929 16.886559 180.000000 -27.937679 16.886559 37.946959 11.300568 -14.452610 142.053041 -7.160248 -26.289200 29.293612 -14.493441 14.452610 18.000000 0.757410 4.842916
963.090170 444.911436 119.434583 0.000000 0.000000 0.000000 0.000000 0.000000 0.000000 42.659200 39.050737 19.021130 180.000000 -22.220878 19.021130 38.119107 -10.557953 -17.633558 141.880893 -27.116596 -24.270510 29.068887 7.221347 17.633558 18.000000 0.244840 4.755283
1186.646461 396.272757 116.203357 0.000000 0.000000 0.000000 0.000000 0.000000 0.000000 -72.847419 -20.219216 19.960535 107.152581 -9.393886 19.960535 -156.703603 -4.664883 -20.536413 178.447294 -12.773076 -21.869059 -157.212393 -4.429324 20.536413 1.964058 0.470383 4.648882
1313.051605 426.636125 103.179590 0.000000 0.000000 0.000000 0.000000 0.000000 0.000000 90.994869 -35.473343 19.645745 -89.005131 7.372877 19.645745 -160.515303 -4.239582 -23.115397 -153.248861 -2.247489 -19.122720 -159.640525 -4.205922 23.115397 0.000000 0.000000 0.000000
1347.999344 420.772226 103.104712 0.000000 0.000000 0.000000 0.000000 0.000000 0.000000 90.154351 -16.400498 18.096541 -89.845649 -2.860966 18.096541 -162.053401 -3.467361 -25.329838 -136.198880 -1.343597 -16.074804 -160.991694 -3.993062 25.329838 0.000000 0.000000 0.000000
1344.315948 421.031681 86.407852 0.000000 0.000000 0.000000 0.000000 0.000000 0.000000 69.757587 10.885566 15.410265 -110.242413 -9.608149 15.410265 25.616746 4.150651 -27.144812 -157.821005 -4.239642 -12.773379 17.214985 3.263763 27.144812 -16.704706 -0.013224 4.221640
1350.307617 440.309436 70.296400 0.000000 0.000000 0.000000 0.000000 0.000000 0.000000 71.124018 -8.930325 11.755705 -108.875982 0.235036 11.755705 42.739987 2.470270 -28.531695 -142.315466 3.543778 -9.270510 16.600926 -1.589657 28.531695 -16.660102 0.022740 4.045085
1357.685051 430.688889 76.429007 0.000000 0.000000 0.000000 0.000000 0.000000 0.000000 77.656077 2.798150 7.362491 -102.343923 -5.869948 7.362491 39.407151 5.889260 -29.468618 -136.343173 -4.612223 -5.621439 22.144452 2.039255 29.468618 -16.305135 0.014852 3.852566
1369.482193 445.909406 68.936714 0.000000 0.000000 0.000000 0.000000 0.000000 0.000000 88.051188 -3.386489 2.506665 -91.948812 21.805991 2.506665 -161.283973 -4.261185 -29.940802 -119.799169 0.167411 -1.883716 -164.575400 -3.372335 29.940802 1.401013 0.333701 3.644843
963.875156 444.858159 64.150263 0.000000 0.000000 0.000000 0.000000 0.000000 0.000000 45.304844 -3.082821 -2.506665 180.000000 -13.656389 -2.506665 37.252439 17.802570 -29.940802 142.747561 7.216011 1.883716 25.146244 -2.106056 29.940802 18.000000 -0.191070 3.422736
963.971479 444.850633 75.814847 0.000000 0.000000 0.000000 0.000000 0.000000 0.000000 45.383640 -28.635641 -7.362491 180.000000 -1.337932 -7.362491 36.882310 1.667408 -29.468618 143.117690 8.382951 5.621439 24.499789 3.214252 29.468618 18.000000 -1.037164 3.187120
1336.629524 469.010178 63.310632 0.000000 0.000000 0.000000 0.000000 0.000000 0.000000 -72.390177 -12.692787 -11.755705 107.609823 43.958504 -11.755705 -158.649984 -3.286591 -28.531695 2.583425 10.700095 9.270510 -39.658551 1.356128 28.531695 10.837181 -1.288943 2.938926
1311.966934 518.219100 51.241205 0.000000 0.000000 0.000000 0.000000 0.000000 0.000000 -63.565072 59.567630 -15.410265 116.434928 -59.171330 -15.410265 -14.840750 3.334226 -27.144812 -158.549348 -3.465657 12.773379 17.488774 2.667721 27.144812 7.174982 -4.893490 2.679134
964.257793 444.826908 71.621038 0.000000 0.000000 0.000000 0.000000 0.000000 0.000000 45.262206 -50.627060 -18.096541 180.000000 6.752582 -18.096541 35.497192 17.357078 -25.329838 144.502808 13.768201 16.074804 22.522929 -3.257588 25.329838 18.000000 0.301827 2.408768
1275.921364 516.836239 56.536398 0.000000 0.000000 0.000000 0.000000 0.000000 0.000000 85.186295 -15.415377 -19.645745 -94.813705 7.610075 -19.645745 52.470689 0.457728 -23.115397 -44.513683 7.603232 19.122720 50.867598 0.367714 23.115397 -8.717188 0.167482 2.128896
1263.254128 546.875424 53.168357 0.000000 0.000000 0.000000 0.000000 0.000000 0.000000 34.848242 -62.190212 -19.960535 -145.151758 49.147251 -19.960535 42.487561 -34.165560 -20.536413 -157.415675 -1.991587 21.869059 22.420880 2.455850 20.536413 -15.757912 -0.245585 1.840623
1258.788185 528.263061 67.950452 0.000000 0.000000 0.000000 0.000000 0.000000 0.000000 118.326865 -19.879586 -19.021130 -61.673135 21.065090 -19.021130 143.214759 -10.028974 -17.633558 -156.228306 -2.216107 24.270510 28.173554 2.289442 17.633558 -15.182645 -0.228944 1.545085
1231.492081 471.383836 47.756798 0.000000 0.000000 0.000000 0.000000 0.000000 0.000000 -115.049381 6.720521 -16.886559 64.950619 -25.773657 -16.886559 172.843704 4.393255 -14.452610 -157.842300 -2.413212 26.289200 32.851042 1.338546 14.452610 -14.714896 -0.133855 1.243449
1223.928795 435.993515 44.504867 0.000000 0.000000 0.000000 0.000000 0.000000 0.000000 -115.322532 -21.828592 -13.690942 64.677468 -0.789992 -13.690942 -168.597862 7.687372 -11.043737 -158.853816 -1.808511 27.893295 31.099266 2.892751 11.043737 -14.890073 -0.289275 0.936907
1223.669701 418.195664 62.423308 0.000000 0.000000 0.000000 0.000000 0.000000 0.000000 -102.084053 -2.987432 -9.635073 77.915947 -6.690126 -9.635073 -171.103858 2.140999 -7.460697 162.056334 -0.447281 29.057495 -153.594437 -2.671678 7.460697 2.968481 0.326658 0.626666
1216.486244 414.503002 50.156171 0.000000 0.000000 0.000000 0.000000 0.000000 0.000000 69.261091 10.653821 -4.973798 -110.738909 21.026980 -4.973798 -158.083722 -2.730233 -3.759997 -173.244581 1.264976 29.763441 -154.635509 -2.894381 3.759997 2.928763 0.374299 0.313953
1212.090225 434.550980 45.405372 0.000000 0.000000 0.000000 0.000000 0.000000 0.000000 -112.403932 -7.243034 0.000000 67.596068 25.249049 0.000000 -157.060799 -3.009668 -0.000000 173.400765 -5.252189 30.000000 -154.473580 -1.892727 0.000000 2.734633 0.325504 0.000000
1214.024734 450.340490 58.559062 0.000000 0.000000 0.000000 0.000000 0.000000 0.000000 -110.634751 -8.457048 4.973798 69.365249 13.820293 4.973798 -137.583343 -4.778032 3.759997 -158.589698 -1.859831 29.763441 20.879446 3.466435 -3.759997 -15.912055 -0.346644 0.313953
1204.271393 440.192921 45.038273 0.000000 0.000000 0.000000 0.000000 0.000000 0.000000 -99.498286 -6.340487 9.635073 80.501714 15.456112 9.635073 -156.696469 -2.839667 7.460697 -178.487725 9.648609 29.057495 -157.318323 -2.969808 -7.460697 2.108583 0.326187 0.626666
965.269558 444.725315 61.710195 0.000000 0.000000 0.000000 0.000000 0.000000 0.000000 40.845461 -25.718038 13.690942 180.000000 2.161365 13.690942 28.615377 0.016887 11.043737 151.384623 13.948598 27.893295 16.305092 -9.062262 -11.043737 18.000000 0.124486 0.936907
1182.456551 475.103824 45.500306 0.000000 0.000000 0.000000 0.000000 0.000000 0.000000 -168.146016 82.346070 16.886559 11.853984 -83.541466 16.886559 -63.802645 4.806263 14.452610 -61.114510 -4.907559 26.289200 -47.869281 1.640220 -14.452610 -13.834956 1.493513 1.243449
965.446390 444.704404 72.448869 0.000000 0.000000 0.000000 0.000000 0.000000 0.000000 39.578146 -17.750241 19.021130 180.000000 -24.862758 19.021130 27.338029 11.643966 17.633558 152.661971 -3.369686 24.270510 15.463180 -0.803616 -17.633558 18.000000 0.035067 1.545085
965.533915 444.693669 79.140393 0.000000 0.000000 0.000000 0.000000 0.000000 0.000000 38.916706 48.335807 19.960535 180.000000 -22.896008 19.960535 26.716768 1.374518 20.536413 153.283232 -10.050354 21.869059 15.076605 5.479278 -20.536413 18.000000 -0.446066 1.840623
965.620834 444.682749 70.825627 0.000000 0.000000 0.000000 0.000000 0.000000 0.000000 38.241653 -10.767268 19.645745 180.000000 -0.690130 19.645745 26.109467 14.634990 23.115397 153.890533 19.629396 19.122720 14.712258 -5.429736 -23.115397 18.000000 -0.302354 2.128896
965.707136 444.671645 56.720119 0.000000 0.000000 0.000000 0.000000 0.000000 0.000000 37.556504 17.895328 18.096541 180.000000 -7.805394 18.096541 25.517536 3.763108 25.329838 154.482464 -7.136035 16.074804 14.369537 2.969112 -25.329838 18.000000 -0.523704 2.408768
965.792812 444.660356 88.108241 0.000000 0.000000 0.000000 0.000000 0.000000 0.000000 36.864608 -38.251436 15.410265 180.000000 15.037713 15.410265 24.942131 2.974775 27.144812 155.057869 -5.326556 12.773379 14.047797 1.056747 -27.144812 18.000000 0.464805 2.679134
965.877853 444.648882 91.773363 0.000000 0.000000 0.000000 0.000000 0.000000 0.000000 36.169118 0.399598 11.755705 180.000000 17.363300 11.755705 24.384173 0.657857 28.531695 155.615827 6.509587 9.270510 13.746367 1.382002 -28.531695 18.000000 -0.089088 2.938926
965.962249 444.637226 87.189665 0.000000 0.000000 0.000000 0.000000 0.000000 0.000000 35.472980 -45.093362 7.362491 180.000000 -11.240741 7.362491 23.844373 9.076051 29.468618 156.155627 7.122910 5.621439 13.464570 -1.505230 -29.468618 18.000000 0.102897 3.187120
966.045991 444.625386 95.387864 0.000000 0.000000 0.000000 0.000000 0.000000 0.000000 34.778913 -2.109119 2.506665 180.000000 13.592210 2.506665 23.323250 -5.704511 29.940802 156.676750 4.773289 1.883716 13.201728 -1.158984 -29.940802 18.000000 -0.357079 3.422736
966.129071 444.613364 91.562095 0.000000 0.000000 0.000000 0.000000 0.000000 0.000000 34.089406 -37.068105 -2.506665 180.000000 16.733116 -2.506665 22.821158 -5.614116 29.940802 157.178842 6.593638 -1.883716 12.957175 -1.489003 -29.940802 18.000000 0.053594 3.644843
966.211478 444.601159 113.106371 0.000000 0.000000 0.000000 0.000000 0.000000 0.000000 33.406712 -28.100121 -7.362491 180.000000 15.311080 -7.362491 22.338307 2.145298 29.468618 157.661693 4.455304 -5.621439 12.730264 1.841694 -29.468618 18.000000 0.309610 3.852566
1171.486244 534.946783 120.067745 0.000000 0.000000 0.000000 0.000000 0.000000 0.000000 70.594720 -5.999635 -11.755705 -109.405280 -7.330467 -11.755705 49.953444 3.598190 28.531695 -151.467583 -5.256475 -9.270510 0.000000 0.000000 0.000000 0.000000 0.000000 0.000000
966.374240 444.576206 95.043345 0.000000 0.000000 0.000000 0.000000 0.000000 0.000000 32.069603 14.718328 -15.410265 180.000000 6.308552 -15.410265 21.430544 10.904336 27.144812 158.569456 11.327970 -12.773379 12.326901 -2.530833 -27.144812 18.000000 0.080851 4.221640
1172.156410 555.047708 131.078664 0.000000 0.000000 0.000000 0.000000 0.000000 0.000000 -121.065102 32.241448 -18.096541 58.934898 -29.718101 -18.096541 -151.641456 -4.942772 25.329838 -177.360623 -1.944946 -16.074804 -149.076048 -6.600290 -25.329838 0.000000 0.000000 0.000000
1161.826630 552.360713 108.321154 0.000000 0.000000 0.000000 0.000000 0.000000 0.000000 69.958407 37.565343 -19.645745 -110.041593 35.937537 -19.645745 -152.437496 -6.703297 23.115397 -158.790607 3.257459 -19.122720 -150.591725 -7.612310 -23.115397 3.219062 0.873823 4.524135
1165.827255 569.832902 149.040800 0.000000 0.000000 0.000000 0.000000 0.000000 0.000000 25.594208 -6.489540 -19.960535 -154.405792 1.637591 -19.960535 11.723883 -3.030873 20.536413 -161.543160 -2.345726 -21.869059 7.769582 -2.586422 -20.536413 -17.248199 0.271391 4.648882
1165.555573 565.067046 115.668881 0.000000 0.000000 0.000000 0.000000 0.000000 0.000000 43.355707 2.252766 -19.021130 -136.644293 -8.743911 -19.021130 15.984329 -3.704312 17.633558 -140.773833 -5.747625 -24.270510 13.679449 2.418576 -17.633558 -16.392157 0.011721 4.755283
1290.255775 608.533316 133.570208 0.000000 0.000000 0.000000 0.000000 0.000000 0.000000 -153.952071 -16.033431 -16.886559 26.047929 3.622808 -16.886559 -152.683807 -5.608068 14.452610 4.794196 2.841991 -26.289200 -154.287190 -5.503363 -14.452610 2.418080 0.542622 4.842916
1180.398903 551.817470 131.461725 0.000000 0.000000 0.000000 0.000000 0.000000 0.000000 51.640104 4.403711 -13.690942 -128.359896 -8.110505 -13.690942 14.419400 3.785695 11.043737 -33.521359 -26.437637 -27.893295 -34.277510 0.750260 -11.043737 5.235387 1.945950 4.911436
1162.708626 619.419501 139.993262 0.000000 0.000000 0.000000 0.000000 0.000000 0.000000 -88.968325 -27.684540 -9.635073 91.031675 6.224352 -9.635073 -52.690088 4.040187 7.460697 25.015222 7.441857 -29.057495 -72.561734 -3.442102 -7.460697 8.557489 -0.195138 4.960574
1110.899391 602.919216 154.510877 0.000000 0.000000 0.000000 0.000000 0.000000 0.000000 -86.972237 -4.715514 -4.973798 93.027763 9.498392 -4.973798 -39.551144 -3.896048 3.759997 34.838085 -1.129864 -29.763441 -44.185810 3.083282 -3.759997 10.000609 -0.578009 4.990134
1150.187302 553.686991 146.513055 0.000000 0.000000 0.000000 0.000000 0.000000 0.000000 -116.065142 -11.330332 -0.000000 63.934858 -16.054452 -0.000000 -151.059314 -6.126136 0.000000 -0.492058 -3.027253 -30.000000 -14.044098 1.438681 -0.000000 1.929760 -0.476462 5.000000
967.144727 444.440682 152.239050 0.000000 0.000000 0.000000 0.000000 0.000000 0.000000 26.270296 24.247964 4.973798 180.000000 0.260224 4.973798 17.996647 -6.928045 -3.759997 162.003353 -16.731933 -29.763441 11.189167 12.887719 3.759997 18.000000 -0.699995 4.990134
1213.452644 620.002785 143.032445 0.000000 0.000000 0.000000 0.000000 0.000000 0.000000 140.390379 -28.397023 9.635073 -39.609621 14.796336 9.635073 77.724607 1.372353 -7.460697 -153.982965 -6.325569 -29.057495 24.142749 6.904937 7.460697 -0.833727 -1.406713 4.960574
1124.373779 618.464527 143.038119 0.000000 0.000000 0.000000 0.000000 0.000000 0.000000 99.329635 21.050610 13.690942 -80.670365 4.737861 13.690942 85.960927 -4.608644 -11.043737 -150.875293 -7.393611 -27.893295 31.644098 6.534361 11.043737 -14.835590 -0.653436 4.911436
967.360971 444.396582 131.688629 0.000000 0.000000 0.000000 0.000000 0.000000 0.000000 24.874716 26.335044 16.886559 180.000000 -5.803167 16.886559 17.291102 4.813191 -14.452610 162.708898 -9.692939 -26.289200 11.098846 0.625376 14.452610 18.000000 0.211598 4.842916
1107.875175 542.453964 158.620413 0.000000 0.000000 0.000000 0.000000 0.000000 0.000000 -128.741314 1.777510 19.021130 51.258686 -5.747831 19.021130 -177.225595 -1.271584 -17.633558 19.954750 -5.558902 -24.270510 162.677362 -0.199978 17.633558 -1.443098 -0.047296 4.755283
1119.652290 522.766346 144.334192 0.000000 0.000000 0.000000 0.000000 0.000000 0.000000 -99.017754 6.569525 19.960535 80.982246 -8.635900 19.960535 -150.289603 -6.899422 -20.536413 -152.613833 -7.560908 -21.869059 0.000000 0.000000 0.000000 0.000000 0.000000 0.000000
1132.908783 538.229613 130.102462 0.000000 0.000000 0.000000 0.000000 0.000000 0.000000 -127.874185 -1.897316 19.645745 52.125815 -1.527889 19.645745 -165.450188 -1.501797 -23.115397 -152.521515 -7.214289 -19.122720 40.606225 9.039602 23.115397 -13.939378 -0.903960 4.524135
1146.969337 541.828065 142.866354 0.000000 0.000000 0.000000 0.000000 0.000000 0.000000 -113.631604 -8.331534 18.096541 66.368396 0.096757 18.096541 -159.067475 0.654386 -25.329838 113.981862 8.729203 -16.074804 -145.449815 -7.561155 25.329838 0.000000 0.000000 0.000000
1165.252304 561.329677 154.016249 0.000000 0.000000 0.000000 0.000000 0.000000 0.000000 -112.861399 -12.142714 15.410265 67.138601 2.852978 15.410265 -159.396543 3.711761 -27.144812 -151.967552 -5.903026 -12.773379 38.422588 9.335421 27.144812 -14.157741 -0.933542 4.221640
1174.726181 592.839689 138.027515 0.000000 0.000000 0.000000 0.000000 0.000000 0.000000 -110.369899 -6.577746 11.755705 69.630101 -2.850787 11.755705 -148.108768 -0.483787 -28.531695 -151.515612 -6.802736 -9.270510 34.277732 9.836368 28.531695 -14.572227 -0.983637 4.045085
1167.352524 605.194867 154.239324 0.000000 0.000000 0.000000 0.000000 0.000000 0.000000 -113.828445 -9.062863 7.362491 66.171555 9.643214 7.362491 -131.688453 -1.020490 -29.468618 -151.045756 -6.190664 -5.621439 27.200835 8.681082 29.468618 -15.279916 -0.868108 3.852566
1139.678879 602.981014 118.199023 0.000000 0.000000 0.000000 0.000000 0.000000 0.000000 -97.599684 -16.194094 2.506665 82.400316 -19.806593 2.506665 -113.965806 2.572315 -29.940802 -121.058781 -3.478140 -1.883716 -118.492407 1.765773 29.940802 10.137620 -4.028087 3.644843
1165.830002 580.020189 133.114422 0.000000 0.000000 0.000000 0.000000 0.000000 0.000000 -28.085052 -2.727883 -2.506665 151.914948 41.742436 -2.506665 -150.589103 -6.565650 -29.940802 -172.678414 -4.945521 1.883716 -149.717924 -5.425418 29.940802 0.000000 0.000000 0.000000
1184.501953 619.872494 137.757056 0.000000 0.000000 0.000000 0.000000 0.000000 0.000000 -113.790307 20.567358 -7.362491 66.209693 0.904942 -7.362491 -59.272274 7.698958 -29.468618 29.476823 5.598709 5.621439 -88.148483 -0.207535 29.468618 7.414604 -0.195484 3.187120
968.090170 444.221640 111.717187 0.000000 0.000000 0.000000 0.000000 0.000000 0.000000 21.092887 4.535496 -11.755705 180.000000 1.239618 -11.755705 15.757771 -3.872362 -28.531695 164.242229 -1.725700 9.270510 11.678908 1.081371 28.531695 18.000000 -0.060067 2.938926
968.151278 444.204723 124.917001 0.000000 0.000000 0.000000 0.000000 0.000000 0.000000 20.844337 -8.210282 -15.410265 180.000000 -1.281347 -15.410265 15.691895 4.114568 -27.144812 164.308105 -3.262040 12.773379 11.804629 3.869692 27.144812 18.000000 -0.349349 2.679134
968.211492 444.187640 112.131047 0.000000 0.000000 0.000000 0.000000 0.000000 0.000000 20.610265 24.014771 -18.096541 180.000000 -9.591553 -18.096541 15.637361 5.517611 -25.329838 164.362639 -3.936943 16.074804 11.943263 -1.341605 25.329838 18.000000 -0.222012 2.408768
968.270806 444.170392 93.276881 0.000000 0.000000 0.000000 0.000000 0.000000 0.000000 20.390366 20.418002 -19.645745 180.000000 -0.750565 -19.645745 15.594026 -6.625245 -23.115397 164.405974 -6.489710 19.122720 12.095062 13.673334 23.115397 18.000000 -0.622450 2.128896
968.329212 444.152979 112.671280 0.000000 0.000000 0.000000 0.000000 0.000000 0.000000 20.184343 -5.128807 -19.960535 180.000000 -0.861391 -19.960535 15.561766 3.319742 -20.536413 164.438234 -5.443091 21.869059 12.260289 4.478038 20.536413 18.000000 -0.106713 1.840623
968.386706 444.135403 103.002106 0.000000 0.000000 0.000000 0.000000 0.000000 0.000000 19.991916 -7.702388 -19.021130 180.000000 1.860771 -19.021130 15.540476 -5.317937 -17.633558 164.459524 -8.081931 24.270510 12.439222 6.622082 17.633558 18.000000 -0.100920 1.545085
968.443279 444.117663 109.531309 0.000000 0.000000 0.000000 0.000000 0.000000 0.000000 19.812814 24.255629 -16.886559 180.000000 2.029514 -16.886559 15.530069 -3.373300 -14.452610 164.469931 6.050631 26.289200 12.632146 -6.353283 14.452610 18.000000 -0.241386 1.243449
968.498927 444.099761 107.705209 0.000000 0.000000 0.000000 0.000000 0.000000 0.000000 19.646785 -16.198000 -13.690942 180.000000 3.928334 -13.690942 15.530474 -1.896353 -11.043737 164.469526 1.946132 27.893295 12.839349 3.295116 11.043737 18.000000 -0.376375 0.936907
968.553643 444.081696 74.147159 0.000000 0.000000 0.000000 0.000000 0.000000 0.000000 19.493591 13.352116 -9.635073 180.000000 5.609214 -9.635073 15.541640 -2.680824 -7.460697 164.458360 1.253471 29.057495 13.061119 -3.561539 7.460697 18.000000 -0.220426 0.626666
1051.772690 653.004448 71.187284 0.000000 0.000000 0.000000 0.000000 0.000000 0.000000 -79.007834 15.888630 -4.973798 100.992166 -24.706742 -4.973798 -126.715299 8.464805 -3.759997 -149.991181 -4.995767 29.763441 31.772279 4.406098 3.759997 -14.822772 -0.440610 0.313953
1061.669197 624.716241 71.075849 0.000000 0.000000 0.000000 0.000000 0.000000 0.000000 -94.718359 5.014005 0.000000 85.281641 5.931716 0.000000 -144.150484 -2.563642 -0.000000 60.155085 16.723955 30.000000 -152.711462 -5.253947 0.000000 1.815393 0.014785 0.000000
1072.053337 571.032879 70.593788 0.000000 0.000000 0.000000 0.000000 0.000000 0.000000 71.424080 15.363048 4.973798 -108.575920 -9.437230 4.973798 -149.042361 -2.993246 3.759997 -149.913636 -1.270285 29.763441 -145.792107 -4.005018 -3.759997 3.947623 0.542789 0.313953
1070.057373 572.884376 60.378653 0.000000 0.000000 0.000000 0.000000 0.000000 0.000000 -80.850201 -25.781153 9.635073 99.149799 -12.966852 9.635073 -147.567525 -2.531502 7.460697 -164.443014 8.101753 29.057495 -145.447997 -4.853485 -7.460697 4.032371 0.418282 0.626666
968.813035 443.988972 58.884073 0.000000 0.000000 0.000000 0.000000 0.000000 0.000000 18.912944 -6.213443 13.690942 180.000000 -10.957815 13.690942 15.758200 -0.438894 11.043737 164.241800 1.473178 27.893295 14.397395 -11.886060 -11.043737 18.000000 0.974000 0.936907
968.862036 443.969952 72.196495 0.000000 0.000000 0.000000 0.000000 0.000000 0.000000 18.832684 14.685741 16.886559 180.000000 -6.391364 16.886559 15.833735 13.399301 14.452610 164.166265 7.644354 26.289200 14.711463 -13.246427 -14.452610 18.000000 0.894578 1.243449
968.910065 443.950775 51.951932 0.000000 0.000000 0.000000 0.000000 0.000000 0.000000 18.764066 3.368162 19.021130 180.000000 12.176914 19.021130 15.920102 -5.199504 17.633558 164.079898 6.182028 24.270510 15.041323 -3.680294 -17.633558 18.000000 0.118220 1.545085
968.957118 443.931442 65.844516 0.000000 0.000000 0.000000 0.000000 0.000000 0.000000 18.706990 3.676923 19.960535 180.000000 -5.871229 19.960535 16.017366 3.453432 20.536413 163.982634 1.199458 21.869059 15.386894 -10.134794 -20.536413 18.000000 0.880047 1.840623
969.003188 443.911954 49.049016 0.000000 0.000000 0.000000 0.000000 0.000000 0.000000 18.661377 -5.747950 19.645745 180.000000 2.792178 19.645745 16.125602 5.995271 23.115397 163.874398 2.682668 19.122720 15.747980 4.200957 -23.115397 18.000000 0.420986 2.128896
969.048271 443.892312 34.038681 0.000000 0.000000 0.000000 0.000000 0.000000 0.000000 18.627165 32.563395 18.096541 180.000000 -7.551388 18.096541 16.244896 6.584094 25.329838 163.755104 -7.079612 16.074804 16.124252 -2.151552 -25.329838 18.000000 1.274595 2.408768
969.092361 443.872515 55.170911 0.000000 0.000000 0.000000 0.000000 0.000000 0.000000 18.604312 4.777772 15.410265 180.000000 -1.429642 15.410265 16.375340 1.592789 27.144812 163.624660 -0.479828 12.773379 16.515224 7.167593 -27.144812 18.000000 -1.075077 2.679134
1055.186234 577.357593 51.137007 0.000000 0.000000 0.000000 0.000000 0.000000 0.000000 85.510211 -0.070162 11.755705 -94.489789 -2.938562 11.755705 37.103410 5.947346 28.531695 -148.111343 -2.401625 9.270510 24.294182 1.411325 -28.531695 -8.601915 1.146152 2.938926
1122.856522 566.714029 39.069005 0.000000 0.000000 0.000000 0.000000 0.000000 0.000000 96.216240 0.692804 7.362491 -83.783760 9.037328 7.362491 46.189625 -6.332446 29.468618 -149.396962 -2.445003 5.621439 24.670091 2.020128 -29.468618 -7.107716 -0.833707 3.187120
969.218632 443.812213 55.655439 0.000000 0.000000 0.000000 0.000000 0.000000 0.000000 18.603763 -10.109800 2.506665 180.000000 5.756250 2.506665 16.834613 -2.548854 29.940802 163.165387 5.280798 1.883716 17.768624 -9.547800 -29.940802 18.000000 -0.077368 3.422736
1112.757797 605.798106 48.693271 0.000000 0.000000 0.000000 0.000000 0.000000 0.000000 110.914625 24.867981 -2.506665 -69.085375 -11.677706 -2.506665 67.769469 -3.258867 29.940802 -149.822316 -3.149311 -1.883716 29.049901 2.370281 -29.940802 -3.625079 -0.541731 3.644843
1086.733246 592.557156 53.614437 0.000000 0.000000 0.000000 0.000000 0.000000 0.000000 -80.132323 -76.647860 -7.362491 99.867677 77.052815 -7.362491 36.201564 3.583571 29.468618 -13.679556 11.780958 -5.621439 78.049842 0.186683 -29.468618 -5.127460 -0.130864 3.852566
1081.109390 570.394492 53.965288 0.000000 0.000000 0.000000 0.000000 0.000000 0.000000 -175.864613 20.505956 -11.755705 4.135387 -37.022029 -11.755705 134.713876 9.426614 28.531695 -10.005873 0.655841 -9.270510 135.737755 -1.860657 -28.531695 -3.389365 -0.190619 4.045085
1089.776802 536.594539 54.533165 0.000000 0.000000 0.000000 0.000000 0.000000 0.000000 -139.033903 16.244849 -15.410265 40.966097 -5.649672 -15.410265 161.695972 2.753373 27.144812 3.114398 5.023731 -12.773379 148.805610 -3.335950 -27.144812 -2.611636 0.172527 4.221640
1114.282036 523.965647 63.561334 0.000000 0.000000 0.000000 0.000000 0.000000 0.000000 -156.073983 5.973416 -18.096541 23.926017 -2.209323 -18.096541 174.825807 1.414937 25.329838 5.093343 -3.069723 -16.074804 161.266817 0.392962 -25.329838 -1.814366 -0.039668 4.381533
1122.145157 503.425248 85.844651 0.000000 0.000000 0.000000 0.000000 0.000000 0.000000 -144.538174 12.993880 -19.645745 35.461826 -7.775483 -19.645745 174.215003 0.849826 23.115397 -151.750905 -3.811650 -19.122720 43.887064 3.677182 -23.115397 -13.611294 -0.367718 4.524135
1134.158249 484.688419 71.305683 0.000000 0.000000 0.000000 0.000000 0.000000 0.000000 -142.311443 -2.548406 -19.960535 37.688557 2.196842 -19.960535 -174.407776 2.001141 20.536413 14.121014 6.116728 -21.869059 176.737053 -3.869149 -20.536413 -0.386439 0.006246 4.648882
1156.756668 500.025387 69.974012 0.000000 0.000000 0.000000 0.000000 0.000000 0.000000 -140.140767 -20.655554 -19.021130 39.859233 19.730488 -19.021130 -176.866589 -5.901144 17.633558 -153.177991 -2.920451 -24.270510 40.555680 4.643675 -17.633558 -13.944432 -0.464367 4.755283
1163.818588 490.292573 63.960041 0.000000 0.000000 0.000000 0.000000 0.000000 0.000000 -126.918075 4.915198 -16.886559 53.081925 0.038002 -16.886559 -163.374411 1.299608 14.452610 -153.952175 -3.643370 -26.289200 36.914642 5.125507 -14.452610 0.798233 -0.122859 4.842916
1176.523705 490.346003 94.939257 0.000000 0.000000 0.000000 0.000000 0.000000 0.000000 -130.072590 -2.326949 -13.690942 49.927410 5.603767 -13.690942 -150.224616 3.772529 11.043737 24.749952 4.279963 -27.893295 -162.219632 -0.842287 -11.043737 1.550269 -0.053755 4.911436
1165.045052 489.521159 99.170150 0.000000 0.000000 0.000000 0.000000 0.000000 0.000000 -134.421293 4.836523 -9.635073 45.578707 4.137574 -9.635073 -138.114962 -0.064058 7.460697 20.347125 0.948234 -29.057495 -149.675125 0.476156 -7.460697 1.919618 -0.102984 4.960574
1186.003189 485.341580 92.645221 0.000000 0.000000 0.000000 0.000000 0.000000 0.000000 151.263424 -23.832222 -4.973798 -28.736576 -80.222901 -4.973798 -155.571724 -3.535688 3.759997 -114.944239 3.050821 -29.763441 -157.446860 -4.535876 -3.759997 2.096391 0.468745 4.990134
1190.285912 497.609435 81.938939 0.000000 0.000000 0.000000 0.000000 0.000000 0.000000 -104.331435 -13.255174 -0.000000 75.668565 31.148137 -0.000000 -153.934692 -5.008081 0.000000 -67.465008 4.279773 -30.000000 -71.629168 -3.667607 -0.000000 -13.965204 8.331203 5.000000
846.875610 502.341399 91.989308 0.000000 0.000000 0.000000 0.000000 0.000000 0.000000 -153.358185 -36.748997 4.973798 26.641815 29.576425 4.973798 -147.628169 -5.768382 -3.759997 -147.401289 -4.715963 -29.763441 0.000000 0.000000 0.000000 0.000000 0.000000 0.000000
969.711343 443.490827 101.296219 0.000000 0.000000 0.000000 0.000000 0.000000 0.000000 20.204512 4.341856 9.635073 180.000000 -2.140162 9.635073 20.733157 2.816080 -7.460697 159.266843 6.430523 -29.057495 24.065833 -11.534276 7.460697 18.000000 0.220283 4.960574
969.735789 443.468267 115.573305 0.000000 0.000000 0.000000 0.000000 0.000000 0.000000 20.415894 -9.039556 13.690942 180.000000 -3.560554 13.690942 21.087741 10.696669 -11.043737 158.912259 12.411822 -27.893295 24.320336 -2.032243 11.043737 18.000000 -0.168842 4.911436
969.759168 443.445569 127.284506 0.000000 0.000000 0.000000 0.000000 0.000000 0.000000 20.642061 21.973717 16.886559 180.000000 -6.861012 16.886559 21.453029 2.449593 -14.452610 158.546971 -5.472991 -26.289200 24.533304 2.686167 14.452610 18.000000 -1.287233 4.842916
585.252171 514.469179 130.669770 0.000000 0.000000 0.000000 0.000000 0.000000 0.000000 74.723181 -67.137485 19.021130 -105.276819 76.125272 19.021130 119.807175 -11.122625 -17.633558 165.825978 19.953213 -24.270510 138.012220 2.555081 17.633558 -12.357653 -0.562960 4.755283
624.843979 517.601860 107.257356 0.000000 0.000000 0.000000 0.000000 0.000000 0.000000 103.202449 -8.101331 19.960535 -76.797551 10.752912 19.960535 114.381580 -7.811005 -20.536413 -53.015473 69.573033 -21.869059 145.467160 -2.706400 20.536413 -4.173333 0.105266 4.648882
969.822873 443.376664 137.575759 0.000000 0.000000 0.000000 0.000000 0.000000 0.000000 21.413420 -15.136926 19.645745 180.000000 7.298339 19.645745 22.607712 -5.465613 -23.115397 157.392288 -1.759599 -19.122720 24.899813 3.181282 23.115397 18.000000 0.758266 4.524135
969.841956 443.353428 126.418037 0.000000 0.000000 0.000000 0.000000 0.000000 0.000000 21.702987 -2.767168 18.096541 180.000000 4.919430 18.096541 23.009909 -4.871274 -25.329838 156.990091 -0.826242 -16.074804 24.926562 0.437569 25.329838 18.000000 -0.209177 4.381533
969.859960 443.330059 148.691467 0.000000 0.000000 0.000000 0.000000 0.000000 0.000000 22.009579 -13.198445 15.410265 180.000000 6.673145 15.410265 23.419334 2.077760 -27.144812 156.580666 0.696515 -12.773379 24.904993 12.100989 27.144812 18.000000 -0.716285 4.221640
594.905148 538.048757 141.054969 0.000000 0.000000 0.000000 0.000000 0.000000 0.000000 -57.080480 -0.976268 11.755705 122.919520 -29.861468 11.755705 -12.750556 -0.676180 -28.531695 149.841027 -2.462292 -9.270510 -8.274090 2.315234 28.531695 17.596979 0.044390 4.045085
969.892723 443.282929 130.152985 0.000000 0.000000 0.000000 0.000000 0.000000 0.000000 22.675903 -0.036168 7.362491 180.000000 -4.961551 7.362491 24.255612 11.831985 -29.468618 155.744388 3.838448 -5.621439 24.720303 2.579652 29.468618 18.000000 -0.936514 3.852566
1257.001877 499.708382 142.449648 0.000000 0.000000 0.000000 0.000000 0.000000 0.000000 52.818511 5.661148 2.506665 -127.181489 -16.488446 2.506665 25.369497 3.504603 -29.940802 -143.914951 -6.080000 -1.883716 14.556766 1.782436 29.940802 -16.686776 -0.123759 3.644843
1279.050064 493.773898 126.815362 0.000000 0.000000 0.000000 0.000000 0.000000 0.000000 56.685213 0.237268 -2.506665 -123.314787 2.866734 -2.506665 24.065452 0.076250 -29.940802 -146.540317 -1.035161 1.883716 13.097461 0.124732 29.940802 -16.716891 -0.015975 3.422736
1295.108986 477.099677 165.335130 0.000000 0.000000 0.000000 0.000000 0.000000 0.000000 65.723361 0.145603 -7.362491 -114.276639 -6.835416 -7.362491 23.725299 2.779517 -29.468618 -147.984281 -1.991159 5.621439 13.187557 -1.067444 29.468618 -16.751134 0.012233 3.187120
1289.065018 496.763316 161.997161 0.000000 0.000000 0.000000 0.000000 0.000000 0.000000 61.662232 -4.599013 -11.755705 -118.337768 0.327834 -11.755705 31.397757 -0.497668 -28.531695 -148.047797 1.777870 9.270510 12.491083 -0.576898 28.531695 -16.898368 -0.084612 2.938926
1285.337105 480.691112 139.736315 0.000000 0.000000 0.000000 0.000000 0.000000 0.000000 58.021980 -0.628848 -15.410265 -121.978020 -13.992560 -15.410265 31.705930 3.107491 -27.144812 -157.028684 -1.587712 12.773379 11.107306 -0.341839 27.144812 -17.140016 0.077412 2.679134
1276.453171 465.093691 151.932946 0.000000 0.000000 0.000000 0.000000 0.000000 0.000000 70.157145 15.267667 -18.096541 -109.842855 -9.291550 -18.096541 40.303764 2.318207 -25.329838 -145.293609 -4.313804 16.074804 10.431204 -0.140830 25.329838 -17.100572 0.040571 2.408768
1253.658714 472.768564 129.512493 0.000000 0.000000 0.000000 0.000000 0.000000 0.000000 65.087926 -19.997860 -19.645745 -114.912074 28.866153 -19.645745 -157.680356 -7.374108 -23.115397 -137.727082 3.996181 19.122720 -153.053596 4.529802 23.115397 -16.054219 -0.919600 2.128896
1366.101608 507.691247 134.955972 0.000000 0.000000 0.000000 0.000000 0.000000 0.000000 108.715100 -23.255800 -19.960535 -71.284900 -1.489157 -19.960535 156.661132 4.235891 -20.536413 -158.224303 -5.809791 21.869059 0.000000 0.000000 0.000000 0.000000 0.000000 0.000000
969.986295 443.064535 135.083157 0.000000 0.000000 0.000000 0.000000 0.000000 0.000000 26.662144 3.741539 -19.021130 180.000000 -3.952159 -19.021130 28.015351 -5.973346 -17.633558 151.984649 -16.166241 24.270510 22.068935 12.594020 17.633558 18.000000 -0.285168 1.545085
1282.107124 481.511257 150.571046 0.000000 0.000000 0.000000 0.000000 0.000000 0.000000 80.650781 -53.200912 -16.886559 -99.349219 38.684919 -16.886559 1.511604 -7.769344 -14.452610 -32.896908 10.568142 26.289200 -7.727072 -5.747064 14.452610 13.531851 6.282270 1.243449
1282.921486 484.777769 139.974297 0.000000 0.000000 0.000000 0.000000 0.000000 0.000000 -81.737646 -2.787042 -13.690942 98.262354 -8.979191 -13.690942 -23.867101 3.341773 -11.043737 12.655668 2.377582 27.893295 -29.454911 -3.289904 11.043737 9.861248 0.088980 0.936907
1290.933037 513.180238 148.903252 0.000000 0.000000 0.000000 0.000000 0.000000 0.000000 -91.387864 -9.697870 -9.635073 88.612136 5.307783 -9.635073 -41.685392 0.327760 -7.460697 -161.156957 -6.022599 29.057495 15.157863 5.613805 7.460697 10.543436 -2.351608 0.626666
969.999452 442.964284 129.632029 0.000000 0.000000 0.000000 0.000000 0.000000 0.000000 29.025427 -8.917684 -4.973798 180.000000 -6.135152 -4.973798 29.437993 -3.958874 -3.759997 150.562007 -5.114114 29.763441 20.404746 7.137167 3.759997 18.000000 -0.616071 0.313953
970.000000 442.938926 116.391723 0.000000 0.000000 0.000000 0.000000 0.000000 0.000000 29.678605 -13.442226 0.000000 180.000000 -6.413523 0.000000 29.744881 3.623161 -0.000000 150.255119 -10.759529 30.000000 19.983107 3.688003 0.000000 18.000000 -0.036663 0.000000
1354.522934 467.411410 120.779706 0.000000 0.000000 0.000000 0.000000 0.000000 0.000000 150.622570 -14.399469 4.973798 -29.377430 11.285919 4.973798 140.176400 1.337978 3.759997 -12.221629 1.220332 29.763441 132.794256 7.429928 -3.759997 -2.626015 0.109056 0.313953
969.997807 442.887864 111.252518 0.000000 0.000000 0.000000 0.000000 0.000000 0.000000 31.061399 -29.842676 9.635073 180.000000 13.635198 9.635073 30.285790 -11.674911 7.460697 149.714210 5.514802 29.057495 19.151579 -4.242695 -7.460697 18.000000 0.465134 0.626666
1246.736984 514.278152 127.371371 0.000000 0.000000 0.000000 0.000000 0.000000 0.000000 143.557092 27.053750 13.690942 -36.442908 -5.105459 13.690942 133.761037 -2.987714 11.043737 -156.950665 -6.569625 27.893295 0.000000 0.000000 0.000000 1.928484 0.470667 0.936907
1245.221100 458.637464 116.264410 0.000000 0.000000 0.000000 0.000000 0.000000 0.000000 160.701064 -1.766528 16.886559 -19.298936 16.791190 16.886559 140.193827 -2.218444 14.452610 -157.554825 -5.457528 26.289200 29.500467 6.122296 -14.452610 -15.049953 -0.612230 1.243449
1257.365570 418.514181 122.861023 0.000000 0.000000 0.000000 0.000000 0.000000 0.000000 -143.710676 8.822149 19.021130 36.289324 -11.867790 19.021130 163.220413 6.159834 17.633558 11.688054 -3.727874 24.270510 152.038385 -0.047798 -17.633558 -2.339948 0.088349 1.545085
1275.099564 408.163741 93.979591 0.000000 0.000000 0.000000 0.000000 0.000000 0.000000 -132.929531 1.248846 19.960535 47.070469 -13.458428 19.960535 173.491912 6.644217 20.536413 -160.709681 -5.148475 21.869059 33.138793 5.271009 -20.536413 -14.686121 -0.527101 1.840623
1290.611115 384.880857 86.149333 0.000000 0.000000 0.000000 0.000000 0.000000 0.000000 -132.705235 14.214574 19.645745 47.294765 -10.616887 19.645745 -173.778854 3.447310 23.115397 20.496835 -3.334476 19.122720 -161.220290 -4.522903 -23.115397 1.723235 0.359567 2.128896
1302.817154 380.305352 99.001106 0.000000 0.000000 0.000000 0.000000 0.000000 0.000000 -131.493915 -1.238919 18.096541 48.506085 3.763497 18.096541 -165.393697 3.432124 25.329838 23.154815 4.386974 16.074804 -178.200316 0.004517 -25.329838 0.138141 -0.094319 2.408768
1304.997711 379.563582 83.967206 0.000000 0.000000 0.000000 0.000000 0.000000 0.000000 -126.727972 -1.363201 15.410265 53.272028 -3.443420 15.410265 -160.219593 3.351174 27.144812 28.448880 -1.689682 12.773379 -174.368770 0.951211 -27.144812 0.079526 -0.196414 2.679134
1311.668472 386.890390 94.611595 0.000000 0.000000 0.000000 0.000000 0.000000 0.000000 -122.308728 -5.420128 11.755705 57.691272 -5.395334 11.755705 -158.801130 6.910481 28.531695 150.942637 9.345068 9.270510 -154.878332 -4.995256 -28.531695 2.695409 0.615853 2.938926
1305.131836 395.180186 85.250736 0.000000 0.000000 0.000000 0.000000 0.000000 0.000000 -125.112810 -3.369808 7.362491 54.887190 6.540666 7.362491 -146.487292 -2.903550 29.468618 -175.167369 -3.336127 5.621439 -159.224034 -3.855941 -29.468618 1.782042 0.626495 3.187120
1296.320457 392.734526 87.914316 0.000000 0.000000 0.000000 0.000000 0.000000 0.000000 -131.035750 -3.755432 2.506665 48.964250 2.763124 2.506665 -128.969563 1.703798 29.940802 38.856147 5.860161 1.883716 -134.776850 -3.933006 -29.940802 3.458429 0.183180 3.422736
1306.963577 386.612041 87.714890 0.000000 0.000000 0.000000 0.000000 0.000000 0.000000 -124.469622 2.817554 -2.506665 55.530378 -4.814623 -2.506665 -109.994856 2.944397 29.940802 37.691309 -2.629874 -1.883716 -118.274788 0.768285 -29.940802 5.098336 0.061889 3.644843
969.892723 442.572198 57.319189 0.000000 0.000000 0.000000 0.000000 0.000000 0.000000 41.287575 -8.721016 -7.362491 180.000000 -3.572740 -7.362491 30.974696 4.909214 29.468618 149.025304 -11.360370 -5.621439 15.072869 0.200743 -29.468618 18.000000 0.166878 3.852566
969.876883 442.545207 63.447417 0.000000 0.000000 0.000000 0.000000 0.000000 0.000000 42.241956 -31.059756 -11.755705 180.000000 -3.207458 -11.755705 30.826133 14.672087 28.531695 149.173867 6.461955 -9.270510 14.823070 -5.389834 -28.531695 18.000000 0.335416 4.045085
969.859960 442.518116 46.444435 0.000000 0.000000 0.000000 0.000000 0.000000 0.000000 43.199779 5.694650 -15.410265 180.000000 15.626697 -15.410265 30.649504 2.985096 27.144812 149.350496 7.597600 -12.773379 14.587557 5.113786 -27.144812 18.000000 -0.206962 4.221640
969.841956 442.490926 62.492756 0.000000 0.000000 0.000000 0.000000 0.000000 0.000000 44.157210 -17.347623 -18.096541 180.000000 22.828959 -18.096541 30.446417 17.894717 25.329838 149.553583 11.679308 -16.074804 14.366154 -1.367281 -25.329838 18.000000 0.165315 4.381533
969.822873 442.463637 74.287463 0.000000 0.000000 0.000000 0.000000 0.000000 0.000000 45.110117 -25.098808 -19.645745 180.000000 -13.034343 -19.645745 30.218633 15.374566 23.115397 149.781367 1.018438 -19.122720 14.158653 1.486539 -23.115397 18.000000 0.110211 4.524135
969.802712 442.436251 61.902053 0.000000 0.000000 0.000000 0.000000 0.000000 0.000000 46.054109 8.642213 -19.960535 180.000000 -4.145665 -19.960535 29.968037 2.655556 20.536413 150.031963 -7.867456 -21.869059 13.964823 4.994144 -20.536413 18.000000 -0.425884 4.648882
1187.040939 541.658249 58.703539 0.000000 0.000000 0.000000 0.000000 0.000000 0.000000 82.806623 -2.112733 -19.021130 -97.193377 21.174021 -19.021130 45.395981 -4.696668 17.633558 -156.144455 -1.860072 -24.270510 0.000000 0.000000 0.000000 0.000000 0.000000 0.000000
1182.242889 522.024286 59.668252 0.000000 0.000000 0.000000 0.000000 0.000000 0.000000 -105.721938 3.050201 -16.886559 74.278062 -16.747837 -16.886559 -155.708006 -2.105208 14.452610 -157.302521 -2.778779 -26.289200 0.000000 0.000000 0.000000 2.684983 0.233451 4.842916
1180.914459 527.065626 39.121178 0.000000 0.000000 0.000000 0.000000 0.000000 0.000000 88.055617 -4.638226 -13.690942 -91.944383 -1.433503 -13.690942 -158.862018 -1.787735 11.043737 -151.747289 -1.872524 -27.893295 0.000000 0.000000 0.000000 0.000000 0.000000 0.000000
1236.800194 541.387432 50.280181 0.000000 0.000000 0.000000 0.000000 0.000000 0.000000 -85.588400 -2.785800 -9.635073 94.411600 10.090188 -9.635073 -159.297106 -4.533964 7.460697 -157.915391 -2.377812 -29.057495 26.607362 1.872488 -7.460697 14.926890 0.615379 4.960574
1161.066513 575.006626 48.724986 0.000000 0.000000 0.000000 0.000000 0.000000 0.000000 -81.021168 1.539018 -4.973798 98.978832 2.135573 -4.973798 -102.851701 4.761656 3.759997 -157.041007 -2.202665 -29.763441 21.429890 2.832825 -3.759997 10.859432 -0.416753 4.990134
1255.636253 512.645942 57.492585 0.000000 0.000000 0.000000 0.000000 0.000000 0.000000 77.832564 3.523553 -0.000000 -102.167436 -5.448848 -0.000000 -158.264834 -2.276039 0.000000 -130.745502 -6.086784 -30.000000 -157.699225 -1.909966 -0.000000 0.000000 0.000000 0.000000
1265.118484 521.473864 57.093355 0.000000 0.000000 0.000000 0.000000 0.000000 0.000000 64.078276 -0.451182 4.973798 -115.921724 0.083212 4.973798 41.397952 -3.022294 -3.759997 -139.329851 0.413135 -29.763441 20.223252 -1.392870 3.759997 -16.047574 0.060001 4.990134
1228.099480 522.138258 52.067539 0.000000 0.000000 0.000000 0.000000 0.000000 0.000000 71.050901 -0.411006 9.635073 -108.949099 8.575995 9.635073 150.099970 -7.095706 -7.460697 -139.894702 2.046089 -29.057495 -156.275691 -3.541948 7.460697 0.000000 0.000000 0.000000
1240.357246 528.695873 47.259785 0.000000 0.000000 0.000000 0.000000 0.000000 0.000000 65.413351 -1.036615 13.690942 -114.586649 -10.025022 13.690942 147.242328 6.917936 -11.043737 -154.470720 -2.837836 -27.893295 25.557225 3.153428 11.043737 -15.444278 -0.315343 4.911436
1231.815262 551.380248 72.147432 0.000000 0.000000 0.000000 0.000000 0.000000 0.000000 56.412506 12.266603 16.886559 -123.587494 -4.789747 16.886559 -153.392336 -4.757073 -14.452610 -154.784582 -3.272810 -26.289200 24.191555 3.883167 14.452610 -15.580844 -0.388317 4.842916
1221.475182 508.360147 59.534911 0.000000 0.000000 0.000000 0.000000 0.000000 0.000000 77.450622 6.586272 19.021130 -102.549378 1.066201 19.021130 -156.789784 -2.948279 -17.633558 -125.590168 -1.221055 -24.270510 -160.017240 -3.019659 17.633558 1.833434 0.308680 4.755283
969.477684 442.100429 65.305922 0.000000 0.000000 0.000000 0.000000 0.000000 0.000000 54.932575 -30.052539 19.960535 180.000000 20.938550 19.960535 25.919122 7.019479 -20.536413 154.080878 27.080728 -21.869059 12.612867 -11.060996 20.536413 18.000000 0.196341 4.648882
1480.140495 518.878891 76.447930 0.000000 0.000000 0.000000 0.000000 0.000000 0.000000 -110.621767 -84.484445 19.645745 69.378233 86.000687 19.645745 -158.235933 -2.782508 -23.115397 166.031448 -0.373023 -19.122720 -155.186432 -2.548570 23.115397 2.641553 0.275811 4.524135
1271.640472 556.840560 65.474027 0.000000 0.000000 0.000000 0.000000 0.000000 0.000000 -94.404719 3.177726 18.096541 85.595281 -11.854428 18.096541 -62.417786 -0.643818 -25.329838 23.992813 -5.221821 -16.074804 -76.856107 1.026115 25.329838 7.708835 -0.377183 4.381533
1258.556786 530.268441 87.261623 0.000000 0.000000 0.000000 0.000000 0.000000 0.000000 78.355945 -0.546676 15.410265 -101.644055 3.559406 15.410265 35.068294 -1.916075 -27.144812 -54.090640 -0.959707 -12.773379 35.848220 0.599457 27.144812 -8.104639 0.408327 4.221640
1250.800209 527.150567 82.647434 0.000000 0.000000 0.000000 0.000000 0.000000 0.000000 72.417769 -3.777428 11.755705 -107.582231 0.344652 11.755705 24.571109 -0.735608 -28.531695 -39.196117 -2.401973 -9.270510 10.411117 -2.962058 28.531695 -9.048616 3.096318 4.045085
1243.466148 571.776259 102.100105 0.000000 0.000000 0.000000 0.000000 0.000000 0.000000 86.301473 -14.838195 7.362491 -93.698527 0.557021 7.362491 24.553534 -1.089555 -29.468618 -153.460385 -3.825945 -5.621439 19.510484 2.918010 29.468618 -10.109500 3.148865 3.852566
1261.883812 566.052918 108.534883 0.000000 0.000000 0.000000 0.000000 0.000000 0.000000 94.015209 1.785392 2.506665 -85.984791 12.818665 2.506665 38.959993 -4.625597 -29.940802 -154.008305 -3.897571 -1.883716 20.870951 2.921357 29.940802 -10.872440 1.367975 3.644843
1284.436798 527.190542 90.376199 0.000000 0.000000 0.000000 0.000000 0.000000 0.000000 111.186365 -6.345186 -2.506665 -68.813635 1.243553 -2.506665 58.506163 1.583962 -29.940802 -19.138727 3.519254 1.883716 51.457372 -3.390086 29.940802 -5.203198 0.424342 3.422736
1272.860069 533.494012 106.752493 0.000000 0.000000 0.000000 0.000000 0.000000 0.000000 72.301471 -23.809909 -7.362491 -107.698529 27.433319 -7.362491 78.802573 -6.658683 -29.468618 -154.772375 -4.088250 5.621439 26.927455 3.724782 29.468618 -15.307255 -0.372478 3.187120
1255.264664 498.243735 93.697593 0.000000 0.000000 0.000000 0.000000 0.000000 0.000000 164.596971 -11.644766 -11.755705 -15.403029 -58.807585 -11.755705 125.849126 7.579223 -28.531695 -156.067666 -5.214829 9.270510 33.087561 4.060713 28.531695 -14.691244 -0.406071 2.938926
1259.202232 470.407684 113.488242 0.000000 0.000000 0.000000 0.000000 0.000000 0.000000 -139.980397 -2.212263 -15.410265 40.019603 2.748391 -15.410265 165.887722 -0.658207 -27.144812 -157.901492 -5.145020 12.773379 35.196094 5.872422 27.144812 -14.480391 -0.587242 2.679134
1236.502075 429.951335 127.388454 0.000000 0.000000 0.000000 0.000000 0.000000 0.000000 -113.295066 -4.091560 -18.096541 66.704934 14.535811 -18.096541 -174.664169 -4.549673 -25.329838 -159.007335 -5.243743 16.074804 32.868990 5.801347 25.329838 -14.713101 -0.580135 2.408768
1253.359451 413.942538 125.448029 0.000000 0.000000 0.000000 0.000000 0.000000 0.000000 -123.348580 2.913517 -19.645745 56.651420 4.086493 -19.645745 -167.815074 -5.505772 -23.115397 -159.603180 -6.249083 19.122720 32.791747 7.202484 23.115397 -14.720825 -0.720248 2.128896
1281.206589 405.664523 135.432717 0.000000 0.000000 0.000000 0.000000 0.000000 0.000000 -124.414271 -0.753016 -19.960535 55.585729 -2.296845 -19.960535 -161.281803 3.154882 -20.536413 28.568449 -2.388595 21.869059 -159.052798 -4.291643 20.536413 1.849141 0.380470 1.840623
1300.238571 418.760215 129.206489 0.000000 0.000000 0.000000 0.000000 0.000000 0.000000 -126.263092 1.065857 -19.021130 53.736908 2.811784 -19.021130 -159.739358 2.241023 -17.633558 31.487961 0.666946 24.270510 -170.323915 0.396054 17.633558 0.671815 0.120538 1.545085
1321.889191 413.634385 132.249846 0.000000 0.000000 0.000000 0.000000 0.000000 0.000000 -133.874471 7.471494 -16.886559 46.125529 -1.313675 -16.886559 -159.376251 -0.385404 -14.452610 30.696824 -3.542394 26.289200 -164.929556 1.394913 14.452610 1.089735 -0.131387 1.243449
1336.221428 432.881820 133.923164 0.000000 0.000000 0.000000 0.000000 0.000000 0.000000 -115.020798 -6.403486 -13.690942 64.979202 2.427241 -13.690942 -135.609544 -0.893616 -11.043737 -161.321630 -5.892882 27.893295 17.353502 8.228867 11.043737 -16.264650 -0.822887 0.936907
1329.124603 416.860342 120.149665 0.000000 0.000000 0.000000 0.000000 0.000000 0.000000 -134.023347 -3.036346 -9.635073 45.976653 0.850254 -9.635073 -128.030830 1.346226 -7.460697 28.249885 3.538172 29.057495 -136.447985 0.696655 7.460697 4.038834 -0.159290 0.626666
1343.366776 427.060794 140.938048 0.000000 0.000000 0.000000 0.000000 0.000000 0.000000 -130.153347 -8.539840 -4.973798 49.846653 6.179874 -4.973798 -103.564435 -0.242631 -3.759997 27.398095 3.193798 29.763441 -115.461530 0.191631 3.759997 5.470063 -0.009960 0.313953
1376.991005 465.829636 152.029250 0.000000 0.000000 0.000000 0.000000 0.000000 0.000000 -120.272352 6.722665 0.000000 59.727648 -9.372926 0.000000 -62.204131 1.485257 -0.000000 27.740602 -6.239457 30.000000 -80.461527 2.436554 0.000000 7.450891 0.193097 0.000000
1384.978867 468.790376 131.522362 0.000000 0.000000 0.000000 0.000000 0.000000 0.000000 -93.720384 -7.912542 4.973798 86.279616 45.309018 4.973798 3.847814 0.586036 3.759997 -160.438787 -5.812176 29.763441 15.990976 5.389371 -3.759997 7.894783 -2.018708 0.313953
1345.894547 516.257268 151.109640 0.000000 0.000000 0.000000 0.000000 0.000000 0.000000 127.577640 -16.411929 9.635073 -52.422360 3.876835 9.635073 53.096359 -5.170229 7.460697 -159.021748 -6.188173 29.057495 18.308456 4.799060 -7.460697 -4.062191 2.575317 0.626666
968.498927 441.455181 122.865921 0.000000 0.000000 0.000000 0.000000 0.000000 0.000000 47.920147 -26.310363 13.690942 180.000000 14.121779 13.690942 19.641385 2.113245 11.043737 160.358615 1.031287 27.893295 13.993219 -0.764197 -11.043737 18.000000 0.438656 0.936907
1336.846733 493.527671 148.661194 0.000000 0.000000 0.000000 0.000000 0.000000 0.000000 102.681311 -11.951693 16.886559 -77.318689 -24.618778 16.886559 35.985219 2.272705 14.452610 -159.617763 -6.628655 26.289200 19.375410 5.379498 -14.452610 -16.062459 -0.537950 1.243449
968.386706 441.394956 136.823238 0.000000 0.000000 0.000000 0.000000 0.000000 0.000000 46.120581 31.197623 19.021130 180.000000 -0.928772 19.021130 19.316787 -8.621714 17.633558 160.683213 -4.259485 24.270510 14.327067 3.341173 -17.633558 18.000000 -1.202899 1.545085
1263.984947 433.341283 152.962887 0.000000 0.000000 0.000000 0.000000 0.000000 0.000000 -115.578373 14.494933 19.960535 64.421627 -6.521661 19.960535 -82.396446 0.501461 20.536413 25.733383 4.787759 21.869059 -77.477544 -2.136733 -20.536413 5.836928 -1.256041 1.840623
1352.596436 477.564354 159.148095 0.000000 0.000000 0.000000 0.000000 0.000000 0.000000 -99.196741 7.419688 19.645745 80.803259 9.873558 19.645745 -125.272585 -4.029375 23.115397 -162.405270 -6.364129 19.122720 17.377627 5.639270 -23.115397 -16.262237 -0.563927 2.128896
1384.326782 408.174427 151.528923 0.000000 0.000000 0.000000 0.000000 0.000000 0.000000 96.868601 21.486849 18.096541 -83.131399 6.183474 18.096541 -160.848957 -6.357392 25.329838 -137.255583 -0.199015 16.074804 -162.076720 -6.871155 -25.329838 0.000000 0.000000 0.000000
1387.580223 387.128634 142.613004 0.000000 0.000000 0.000000 0.000000 0.000000 0.000000 78.087764 -19.227817 15.410265 -101.912236 -11.145152 15.410265 -161.807915 -5.320577 27.144812 -147.504361 3.273937 12.773379 -162.566306 -7.203096 -27.144812 1.735427 0.893538 2.679134
1345.818558 392.423122 156.513477 0.000000 0.000000 0.000000 0.000000 0.000000 0.000000 71.782984 3.906070 11.755705 -108.217016 -8.060902 11.755705 -169.469261 2.249149 28.531695 -153.903088 -4.025955 9.270510 -154.670689 11.722529 -28.531695 15.277725 -3.175385 2.938926
1331.471329 361.814139 141.035749 0.000000 0.000000 0.000000 0.000000 0.000000 0.000000 53.586100 15.066199 7.362491 -126.413900 -3.914973 7.362491 -162.290330 -6.349310 29.468618 -154.912165 0.958074 5.621439 -162.550394 -7.955436 -29.468618 1.742175 0.837568 3.187120
1354.413986 427.213873 134.577917 0.000000 0.000000 0.000000 0.000000 0.000000 0.000000 -131.358118 -28.370082 2.506665 48.641882 -6.605931 2.506665 -142.488821 2.760914 29.940802 -161.977882 -5.749067 1.883716 12.673705 8.773922 -29.940802 1.397524 -0.087013 3.422736
1330.326691 347.207226 141.506105 0.000000 0.000000 0.000000 0.000000 0.000000 0.000000 52.464175 -2.496223 -2.506665 -127.535825 -4.381632 -2.506665 14.270918 2.805186 29.940802 -122.057234 1.104782 -1.883716 22.820874 0.387255 -29.940802 -15.244909 -0.127280 3.644843
1317.103271 414.475805 122.464765 0.000000 0.000000 0.000000 0.000000 0.000000 0.000000 76.170457 11.703107 -7.362491 -103.829543 -13.407178 -7.362491 -50.250674 5.826317 29.468618 -52.503744 -4.317902 -5.621439 -92.793049 8.842272 -29.468618 3.303440 -1.771666 3.852566
1331.844635 430.291482 107.856216 0.000000 0.000000 0.000000 0.000000 0.000000 0.000000 79.985160 0.014339 -11.755705 -100.014840 -7.982363 -11.755705 25.995082 7.303732 28.531695 -75.062603 -5.096505 -9.270510 38.761234 5.539120 -28.531695 -11.442229 0.093834 4.045085
1359.462433 496.472383 134.308421 0.000000 0.000000 0.000000 0.000000 0.000000 0.000000 84.268829 13.088211 -15.410265 -95.731171 -9.265676 -15.410265 30.279153 2.489859 27.144812 -63.318008 -1.880895 -12.773379 39.457716 -2.846229 -27.144812 -9.485742 -0.002214 4.221640
1323.514366 546.771398 126.872951 0.000000 0.000000 0.000000 0.000000 0.000000 0.000000 84.407325 0.047422 -18.096541 -95.592675 4.000385 -18.096541 27.768249 -2.278147 25.329838 -47.660055 2.032852 -16.074804 28.281511 -2.481791 -25.329838 -7.827901 0.500172 4.381533
1268.535347 591.567099 108.680477 0.000000 0.000000 0.000000 0.000000 0.000000 0.000000 90.890792 0.296028 -19.645745 -89.109208 -6.727644 -19.645745 44.654760 0.196832 23.115397 -48.200667 0.076071 -19.122720 43.369388 3.687848 -23.115397 -8.974980 0.022066 4.524135
1303.157158 602.888768 101.992559 0.000000 0.000000 0.000000 0.000000 0.000000 0.000000 90.349289 -1.981605 -19.960535 -89.650711 -3.600487 -19.960535 47.707312 0.535309 20.536413 -53.918782 -3.236680 -21.869059 40.070965 -4.081520 -20.536413 -9.318632 -0.495759 4.648882
1314.841690 613.141973 92.513645 0.000000 0.000000 0.000000 0.000000 0.000000 0.000000 94.480501 -7.742429 -19.021130 -85.519499 6.147522 -19.021130 58.462862 2.522980 17.633558 -52.020507 3.985632 -24.270510 55.276552 -7.728107 -17.633558 -7.777523 0.974711 4.755283
1327.521400 639.394319 101.679209 0.000000 0.000000 0.000000 0.000000 0.000000 0.000000 99.879576 1.438001 -16.886559 -80.120424 2.423634 -16.886559 69.161359 -0.369506 14.452610 -46.413613 4.802468 -26.289200 76.680143 -3.130353 -14.452610 -6.257768 -0.032033 4.842916
1277.812729 671.228578 86.792505 0.000000 0.000000 0.000000 0.000000 0.000000 0.000000 99.708534 10.854018 -13.690942 -80.291466 0.019474 -13.690942 92.239140 -8.420266 11.043737 -26.764021 -5.171369 -27.893295 98.168457 -1.549040 -11.043737 -4.372074 0.056545 4.911436
1309.642181 690.479329 80.833063 0.000000 0.000000 0.000000 0.000000 0.000000 0.000000 117.292414 8.294880 -9.635073 -62.707586 -4.761476 -9.635073 137.002702 -2.792676 7.460697 -32.045917 -3.320253 -29.057495 135.211322 2.517947 -7.460697 -3.212944 0.064702 4.960574
1299.770966 664.126496 80.661176 0.000000 0.000000 0.000000 0.000000 0.000000 0.000000 158.531160 -3.544741 -4.973798 -21.468840 -17.174727 -4.973798 161.478323 1.064627 3.759997 -12.838206 -5.593217 -29.763441 151.269584 0.156517 -3.759997 -2.521934 -0.046092 4.990134
1313.353729 643.668108 75.367486 0.000000 0.000000 0.000000 0.000000 0.000000 0.000000 -154.315892 -3.933847 -0.000000 25.684108 0.504740 -0.000000 173.459940 0.042765 0.000000 1.519689 -1.185620 -30.000000 164.244875 1.241206 -0.000000 -1.552244 0.098366 5.000000
1342.841377 638.982847 69.092404 0.000000 0.000000 0.000000 0.000000 0.000000 0.000000 -138.993869 7.928414 4.973798 41.006131 16.419192 4.973798 175.724056 0.435235 -3.759997 -151.723069 -3.385684 -29.763441 43.242568 4.221083 3.759997 -13.675743 -0.422108 4.990134
1350.000229 614.724133 56.743836 0.000000 0.000000 0.000000 0.000000 0.000000 0.000000 -144.248147 -23.147145 9.635073 35.751853 20.118620 9.635073 177.069273 -2.889819 -7.460697 -152.227621 -2.134147 -29.057495 43.136563 4.098612 7.460697 -13.686344 -0.409861 4.960574
1328.535919 624.780936 76.832603 0.000000 0.000000 0.000000 0.000000 0.000000 0.000000 -165.447222 -4.909739 13.690942 14.552778 24.055840 13.690942 169.657511 -5.055249 -11.043737 -152.168050 -2.507318 -27.893295 41.929642 3.282897 11.043737 -13.807036 -0.328290 4.911436
1318.810501 615.688248 56.716117 0.000000 0.000000 0.000000 0.000000 0.000000 0.000000 -120.063657 -0.460521 16.886559 59.936343 -0.748363 16.886559 -165.389465 -4.967738 -14.452610 -152.866764 -2.816536 -26.289200 39.162270 2.974129 14.452610 -14.083773 -0.297413 4.842916
1321.656418 659.275410 58.154943 0.000000 0.000000 0.000000 0.000000 0.000000 0.000000 -121.435085 -11.089589 19.021130 58.564915 7.436732 19.021130 -149.190712 -3.153644 -17.633558 -151.926374 -2.380264 -24.270510 33.097066 3.525471 17.633558 -14.690293 -0.352547 4.755283
1328.445511 687.490232 50.041164 0.000000 0.000000 0.000000 0.000000 0.000000 0.000000 -104.253419 -9.956756 19.960535 75.746581 13.784461 19.960535 -110.140878 -7.174595 -20.536413 -152.911692 -1.880145 -21.869059 23.882145 2.952138 20.536413 3.694979 -0.031728 4.648882
966.534206 440.564282 62.023562 0.000000 0.000000 0.000000 0.000000 0.000000 0.000000 25.865486 -18.445340 19.645745 180.000000 5.162244 19.645745 18.728337 -1.530272 -23.115397 161.271663 0.327178 -19.122720 19.024234 -2.542827 23.115397 18.000000 -0.276006 4.524135
966.454577 440.533056 57.039284 0.000000 0.000000 0.000000 0.000000 0.000000 0.000000 25.417507 15.345061 18.096541 180.000000 -5.855639 18.096541 18.825450 5.285092 -25.329838 161.174550 -5.408667 -16.074804 19.071566 -3.246286 25.329838 18.000000 -0.146807 4.381533
966.374240 440.501809 43.601596 0.000000 0.000000 0.000000 0.000000 0.000000 0.000000 24.990320 -36.270927 15.410265 180.000000 19.171591 15.410265 18.929718 5.220653 -27.144812 161.070282 11.198713 -12.773379 19.102411 -7.726621 27.144812 18.000000 0.464247 4.221640
966.293204 440.470542 54.795472 0.000000 0.000000 0.000000 0.000000 0.000000 0.000000 24.583377 2.417585 11.755705 180.000000 -0.894258 11.755705 19.040946 -3.385389 -28.531695 160.959054 -1.193500 -9.270510 19.116765 0.063736 28.531695 18.000000 -0.012426 4.045085
966.211478 440.439256 27.491209 0.000000 0.000000 0.000000 0.000000 0.000000 0.000000 24.196129 -9.814663 7.362491 180.000000 6.790661 7.362491 19.158923 -2.106413 -29.468618 160.841077 -1.950849 -5.621439 19.114778 -3.652210 29.468618 18.000000 1.441286 3.852566
644.985180 745.864069 32.247710 0.000000 0.000000 0.000000 0.000000 0.000000 0.000000 96.086415 1.674871 2.506665 -83.913585 -45.899137 2.506665 -159.662371 12.202184 -29.940802 -116.741565 -4.069634 -1.883716 -176.001217 -0.600524 29.940802 -1.006627 0.229368 3.644843
1269.020119 699.025490 57.046342 0.000000 0.000000 0.000000 0.000000 0.000000 0.000000 83.810916 6.370047 -2.506665 -96.189084 -4.134167 -2.506665 51.932890 -1.822955 -29.940802 -149.314466 -2.607801 1.883716 27.598511 2.279506 29.940802 -15.240149 -0.227951 3.422736
573.721218 678.450201 62.185403 0.000000 0.000000 0.000000 0.000000 0.000000 0.000000 18.756393 6.831982 -7.362491 -161.243607 -39.789245 -7.362491 -174.158094 1.180812 -29.468618 178.010322 0.335068 5.621439 -154.394154 -3.017384 29.468618 11.886524 -1.468007 3.187120
1261.580200 714.897366 54.208077 0.000000 0.000000 0.000000 0.000000 0.000000 0.000000 87.191276 7.277091 -11.755705 -92.808724 1.114821 -11.755705 23.129119 4.241537 -28.531695 -149.376238 -2.319307 9.270510 24.545507 2.179025 28.531695 13.583501 2.777204 2.938926
1314.655838 684.171546 59.180931 0.000000 0.000000 0.000000 0.000000 0.000000 0.000000 61.219932 -9.950695 -15.410265 -118.780068 7.805541 -15.410265 25.476616 0.214849 -27.144812 -150.404247 -1.507723 12.773379 24.621454 1.941140 27.144812 -15.537855 -0.194114 2.679134
1319.638939 674.820013 55.797186 0.000000 0.000000 0.000000 0.000000 0.000000 0.000000 82.055377 0.206575 -18.096541 -97.944623 3.682978 -18.096541 17.325085 0.548192 -25.329838 -60.067277 -8.647271 16.074804 23.747728 1.080059 25.329838 -13.005173 0.319119 2.408768
1367.852325 659.536314 60.842697 0.000000 0.000000 0.000000 0.000000 0.000000 0.000000 -150.278430 -48.323606 -19.645745 29.721570 24.613467 -19.645745 -151.222797 -2.507034 -23.115397 18.758043 4.545909 19.122720 -152.451920 -2.359530 23.115397 2.484143 0.196824 2.128896
1392.624664 638.981302 64.685721 0.000000 0.000000 0.000000 0.000000 0.000000 0.000000 -122.704248 -10.372405 -19.960535 57.295752 12.018521 -19.960535 -134.513385 -3.667547 -20.536413 30.292627 6.354218 21.869059 -146.694539 -1.122946 20.536413 2.430965 0.056796 1.840623
1401.291389 646.422758 65.187092 0.000000 0.000000 0.000000 0.000000 0.000000 0.000000 83.316637 -9.772801 -19.021130 -96.683363 7.553934 -19.021130 29.335627 -6.770961 -17.633558 -136.281416 5.322414 24.270510 19.119183 -1.742152 17.633558 -15.871560 -0.088102 1.545085
1381.838951 663.410475 57.105799 0.000000 0.000000 0.000000 0.000000 0.000000 0.000000 79.215331 0.742512 -16.886559 -100.784669 -0.336647 -16.886559 30.640455 -3.467813 -14.452610 -139.113455 -0.705894 26.289200 14.302413 0.724821 14.452610 -16.408036 -0.036159 1.243449
1390.185928 664.248354 83.470023 0.000000 0.000000 0.000000 0.000000 0.000000 0.000000 75.546066 -3.261185 -13.690942 -104.453934 -1.430019 -13.690942 38.995097 -1.811494 -11.043737 -142.871297 2.407157 27.893295 14.209110 -2.680779 11.043737 -16.737090 0.093085 0.936907
1393.889923 677.551103 87.828124 0.000000 0.000000 0.000000 0.000000 0.000000 0.000000 84.293627 3.967435 -9.635073 -95.706373 -2.548792 -9.635073 -152.700272 -2.893414 -7.460697 -143.357755 2.626690 29.057495 -148.868889 -4.413017 7.460697 3.626268 0.517906 0.626666
905.601082 693.654528 84.404788 0.000000 0.000000 0.000000 0.000000 0.000000 0.000000 -84.410869 -0.056891 -4.973798 95.589131 3.496735 -4.973798 -139.498802 -4.445501 -3.759997 -178.556713 31.214917 29.763441 -142.061844 -4.934867 3.759997 3.411456 0.446324 0.313953
1337.643929 680.318756 85.683589 0.000000 0.000000 0.000000 0.000000 0.000000 0.000000 78.192517 2.271637 0.000000 -101.807483 2.287146 0.000000 48.289813 -6.595030 -0.000000 -140.291980 0.163997 30.000000 13.663140 1.135692 0.000000 -17.395561 -0.102791 0.000000
1322.670708 685.543334 78.590148 0.000000 0.000000 0.000000 0.000000 0.000000 0.000000 71.501063 -14.272214 4.973798 -108.498937 2.722808 4.973798 23.648228 -3.476771 3.759997 -144.586500 -0.641616 29.763441 14.578018 -3.105493 -3.759997 -16.885607 0.324258 0.313953
1305.530548 682.910864 110.503581 0.000000 0.000000 0.000000 0.000000 0.000000 0.000000 72.979287 -7.261887 9.635073 -107.020713 -20.126602 9.635073 -148.728581 -3.478250 7.460697 -74.802907 6.318308 29.057495 -151.178244 -4.074412 -7.460697 2.601049 0.411435 0.626666
1359.363556 692.650115 109.386667 0.000000 0.000000 0.000000 0.000000 0.000000 0.000000 73.244804 -4.995618 13.690942 -106.755196 4.231498 13.690942 13.983499 0.054996 11.043737 -67.611809 4.487892 27.893295 13.130547 -4.149782 -11.043737 -11.004089 0.788748 0.936907
1299.495964 679.994059 116.875946 0.000000 0.000000 0.000000 0.000000 0.000000 0.000000 116.206779 3.516877 16.886559 -63.793221 10.512555 16.886559 -150.858719 -5.503076 14.452610 -34.548592 2.187957 26.289200 60.366751 -11.882768 -14.452610 -4.627493 0.211582 1.243449
1306.260338 711.527116 120.174229 0.000000 0.000000 0.000000 0.000000 0.000000 0.000000 -85.758672 -14.307588 19.021130 94.241328 16.742126 19.021130 -31.461750 -2.871032 17.633558 -4.237664 1.213787 24.270510 -15.215787 -2.597028 -17.633558 7.867754 2.892424 1.545085
1272.614822 704.778571 109.327055 0.000000 0.000000 0.000000 0.000000 0.000000 0.000000 -78.634637 3.245211 19.960535 101.365363 -9.073017 19.960535 -34.118569 1.124518 20.536413 22.539652 2.847689 21.869059 -31.373170 -3.990131 -20.536413 11.310693 1.622240 1.840623
1310.345650 676.427021 128.398286 0.000000 0.000000 0.000000 0.000000 0.000000 0.000000 97.572435 7.924185 19.645745 -82.427565 -2.703569 19.645745 50.400703 -8.046409 23.115397 -39.584286 -6.110258 19.122720 44.966766 -3.129792 -23.115397 -8.852712 0.781894 2.128896
1315.732956 671.025095 144.074588 0.000000 0.000000 0.000000 0.000000 0.000000 0.000000 97.797337 2.561042 18.096541 -82.202663 1.165532 18.096541 49.825934 -0.901777 25.329838 -39.162923 0.941825 16.074804 36.475631 2.655216 -25.329838 -8.191519 -1.722274 2.408768
1329.935532 653.525419 132.080923 0.000000 0.000000 0.000000 0.000000 0.000000 0.000000 96.469555 3.447993 15.410265 -83.530445 -2.736209 15.410265 63.882053 2.905447 27.144812 -51.972064 1.984193 12.773379 58.624362 -6.977667 -27.144812 -8.239564 0.230471 2.679134
1316.170578 674.246514 141.918910 0.000000 0.000000 0.000000 0.000000 0.000000 0.000000 -87.946330 3.441092 11.755705 92.053670 2.300807 11.755705 -29.715798 -1.119376 28.531695 54.212796 1.804156 9.270510 -40.560774 -3.508658 -28.531695 11.008015 -0.184551 2.938926
1317.367287 678.027205 144.203796 0.000000 0.000000 0.000000 0.000000 0.000000 0.000000 95.152942 1.774797 7.362491 -84.847058 -2.687911 7.362491 98.792835 -0.645434 29.468618 -150.515547 -6.119368 5.621439 32.983753 4.992846 -29.468618 -14.701625 -0.499285 3.187120
1318.168488 670.157025 148.814153 0.000000 0.000000 0.000000 0.000000 0.000000 0.000000 -151.252255 -47.904237 2.506665 28.747745 28.851808 2.506665 138.896993 -6.050366 29.940802 -151.946620 -6.263349 1.883716 38.784684 5.259132 -29.940802 -14.121532 -0.525913 3.422736
1323.412628 644.667885 135.803202 0.000000 0.000000 0.000000 0.000000 0.000000 0.000000 -97.904066 -9.005651 -2.506665 82.095934 11.174415 -2.506665 155.695030 0.111844 29.940802 -152.500978 -6.086006 -1.883716 44.721081 6.288721 -29.940802 -13.527892 -0.628872 3.644843
1312.776718 630.059459 161.285509 0.000000 0.000000 0.000000 0.000000 0.000000 0.000000 -116.637972 2.431669 -7.362491 63.362028 5.870095 -7.362491 171.094570 2.199098 29.468618 -152.894064 -6.302992 -5.621439 43.947863 7.176952 -29.468618 -13.605214 -0.717695 3.852566
1316.420746 625.237019 151.997685 0.000000 0.000000 0.000000 0.000000 0.000000 0.000000 -136.254273 2.052669 -11.755705 43.745727 -10.085745 -11.755705 -177.663204 5.077487 28.531695 -153.006287 -6.529850 -9.270510 42.784597 7.526534 -28.531695 -13.721540 -0.752653 4.045085
1314.719925 628.818026 151.583812 0.000000 0.000000 0.000000 0.000000 0.000000 0.000000 -114.737929 -2.531904 -15.410265 65.262071 -6.805410 -15.410265 -169.764314 2.781408 27.144812 -153.369487 -6.689134 -12.773379 41.498347 9.124329 -27.144812 -13.850165 -0.912433 4.221640
1334.396782 646.165652 152.392649 0.000000 0.000000 0.000000 0.000000 0.000000 0.000000 -116.903454 -1.557047 -18.096541 63.096546 0.992882 -18.096541 -154.594534 1.691736 25.329838 -153.225015 -6.273742 -16.074804 37.136182 7.721840 -25.329838 -14.286382 -0.772184 4.381533
1340.823784 648.244128 165.242086 0.000000 0.000000 0.000000 0.000000 0.000000 0.000000 -116.932323 11.010967 -19.645745 63.067677 -3.878701 -19.645745 -138.898656 -2.832774 23.115397 35.335752 -5.162315 -19.122720 -153.336856 -1.671054 -23.115397 2.206211 0.106049 4.524135
1330.023880 654.599032 156.243674 0.000000 0.000000 0.000000 0.000000 0.000000 0.000000 -112.150704 -12.536768 -19.960535 67.849296 5.637700 -19.960535 -118.798313 2.316815 20.536413 -153.636372 -5.147023 -21.869059 16.691869 8.080965 -20.536413 -16.330813 -0.808096 4.648882
1337.431641 662.410698 158.578538 0.000000 0.000000 0.000000 0.000000 0.000000 0.000000 -109.111809 0.617765 -19.021130 70.888191 -6.001322 -19.021130 -91.144379 2.774383 17.633558 -154.448144 -6.358456 -24.270510 10.298202 6.909755 -17.633558 6.642051 -0.247620 4.755283
1324.339714 676.416593 152.206062 0.000000 0.000000 0.000000 0.000000 0.000000 0.000000 -104.120178 -9.314624 -16.886559 75.879822 3.789295 -16.886559 -57.095620 3.187230 14.452610 38.799650 0.607805 -26.289200 -71.942639 -1.497611 -14.452610 8.831938 0.344966 4.842916
962.890318 439.311049 133.065184 0.000000 0.000000 0.000000 0.000000 0.000000 0.000000 19.986963 -12.445494 -13.690942 180.000000 11.886140 -13.690942 24.297229 -0.336261 11.043737 155.702771 19.908639 -27.893295 14.983342 -7.333737 -11.043737 18.000000 -0.090430 4.911436
962.789911 439.279946 121.924269 0.000000 0.000000 0.000000 0.000000 0.000000 0.000000 20.089586 5.598375 -9.635073 180.000000 -1.472870 -9.635073 24.330184 0.168096 7.460697 155.669816 -12.326458 -29.057495 14.926290 8.503557 -7.460697 18.000000 0.204982 4.960574
641.318550 641.336324 140.872714 0.000000 0.000000 0.000000 0.000000 0.000000 0.000000 163.642929 6.499928 -4.973798 -16.357071 9.286290 -4.973798 -155.926011 4.793592 3.759997 -130.644608 -8.403687 -29.763441 68.679337 10.949500 -3.759997 -11.132066 -1.094950 4.990134
1305.385551 662.289033 136.963135 0.000000 0.000000 0.000000 0.000000 0.000000 0.000000 -81.949824 -38.127127 -0.000000 98.050176 30.125397 -0.000000 9.536664 0.747414 0.000000 -153.586691 -5.061604 -30.000000 24.402531 4.402811 -0.000000 -15.559747 -0.440281 5.000000
962.486899 439.186814 136.947893 0.000000 0.000000 0.000000 0.000000 0.000000 0.000000 20.465882 9.278617 4.973798 180.000000 2.635259 4.973798 24.357206 6.944982 -3.759997 155.642794 5.371765 -29.763441 14.800425 -4.638430 3.759997 18.000000 0.531213 4.990134
1216.314240 612.580640 147.717963 0.000000 0.000000 0.000000 0.000000 0.000000 0.000000 78.221991 -3.202882 9.635073 -101.778009 3.517597 9.635073 46.689014 -1.973239 -7.460697 -61.937558 -2.913896 -29.057495 44.546377 1.688523 7.460697 -10.771750 0.739651 4.960574
1273.897820 573.707514 124.039768 0.000000 0.000000 0.000000 0.000000 0.000000 0.000000 77.469628 3.900182 13.690942 -102.530372 -13.620938 13.690942 -155.691164 -4.217521 -11.043737 -120.750172 -2.769442 -27.893295 -156.229293 -5.616471 11.043737 2.162203 0.558226 4.911436
1337.358742 570.303276 136.064297 0.000000 0.000000 0.000000 0.000000 0.000000 0.000000 73.705918 4.331966 16.886559 -106.294082 -1.554060 16.886559 -155.918376 -5.332793 -14.452610 -149.887909 -5.042177 -26.289200 0.000000 0.000000 0.000000 0.000000 0.000000 0.000000
1342.446442 569.623497 108.516784 0.000000 0.000000 0.000000 0.000000 0.000000 0.000000 68.898287 -1.572944 19.021130 -111.101713 -4.139554 19.021130 39.314088 6.471579 -17.633558 -140.912764 5.171124 -24.270510 -153.216026 -7.382420 17.633558 2.759242 0.634931 4.755283
1335.759430 584.665475 113.978567 0.000000 0.000000 0.000000 0.000000 0.000000 0.000000 66.989329 -7.614991 19.960535 -113.010671 3.956658 19.960535 -154.807077 -5.150198 -20.536413 -142.328055 1.970741 -21.869059 -153.049156 -6.112308 20.536413 2.866457 0.664715 4.648882
1337.950974 598.074245 122.050613 0.000000 0.000000 0.000000 0.000000 0.000000 0.000000 62.697633 0.235138 19.645745 -117.302367 -5.586207 19.645745 19.366736 4.027584 -23.115397 -144.826223 -0.836008 -19.122720 9.911455 -1.540559 23.115397 -17.004209 0.076374 4.524135
1352.846489 601.043322 121.433873 0.000000 0.000000 0.000000 0.000000 0.000000 0.000000 59.083577 4.988259 18.096541 -120.916423 0.326096 18.096541 20.876734 -0.467582 -25.329838 -142.301690 0.133331 -16.074804 13.356960 0.903355 25.329838 -16.821524 -0.206052 4.381533
1347.310982 587.475100 104.536681 0.000000 0.000000 0.000000 0.000000 0.000000 0.000000 56.169135 0.079523 15.410265 -123.830865 5.363775 15.410265 21.172503 -0.431950 -27.144812 -139.640745 2.913619 -12.773379 14.641496 -1.721665 27.144812 -16.282575 0.119408 4.221640
1326.982155 606.886139 83.426589 0.000000 0.000000 0.000000 0.000000 0.000000 0.000000 70.119981 0.039088 11.755705 -109.880019 -3.705804 11.755705 26.511889 5.632227 -28.531695 -111.264667 2.871246 -9.270510 31.153840 -3.350830 28.531695 -13.943905 -0.021860 4.045085
1354.391098 626.185555 87.849633 0.000000 0.000000 0.000000 0.000000 0.000000 0.000000 88.154395 1.181029 7.362491 -91.845605 -4.812123 7.362491 30.442275 4.358982 -29.468618 -76.284233 -5.483800 -5.621439 43.854867 1.186501 29.468618 -10.818190 0.192095 3.852566
1370.667114 610.219567 70.057201 0.000000 0.000000 0.000000 0.000000 0.000000 0.000000 89.945118 1.711191 2.506665 -90.054882 -3.347020 2.506665 44.053326 -4.347233 -29.940802 -56.238091 1.908762 -1.883716 55.411270 -4.118631 29.940802 -7.805659 0.281586 3.644843
1372.834854 597.828534 81.381780 0.000000 0.000000 0.000000 0.000000 0.000000 0.000000 93.407992 7.770448 -2.506665 -86.592008 -3.436835 -2.506665 54.165845 1.642525 -29.940802 -47.239220 -5.473836 1.883716 56.575186 2.525076 29.940802 -6.344474 0.492976 3.422736
1336.554337 597.454848 64.358276 0.000000 0.000000 0.000000 0.000000 0.000000 0.000000 95.622643 -4.456449 -7.362491 -84.377357 -4.459585 -7.362491 56.597780 1.039977 -29.468618 -45.108662 -1.591382 5.621439 55.386034 -0.860137 29.468618 -7.206870 -0.075969 3.187120
1310.567093 590.844769 65.150325 0.000000 0.000000 0.000000 0.000000 0.000000 0.000000 100.193768 -5.422426 -11.755705 -79.806232 -5.664586 -11.755705 61.986347 4.994830 -28.531695 -37.593815 2.423503 9.270510 62.907615 -4.638224 28.531695 -6.637230 -0.378618 2.938926
1328.574371 576.493385 54.481739 0.000000 0.000000 0.000000 0.000000 0.000000 0.000000 101.943783 -1.062096 -15.410265 -78.056217 -8.521703 -15.410265 61.902838 7.028968 -27.144812 -33.889586 -2.044663 12.773379 55.760387 -0.498710 27.144812 -7.097415 0.882955 2.679134
1316.178360 595.500870 39.108443 0.000000 0.000000 0.000000 0.000000 0.000000 0.000000 103.792097 5.779421 -18.096541 -76.207903 -0.677815 -18.096541 65.535198 -3.510626 -25.329838 -28.739437 0.118285 16.074804 68.415337 -4.346467 25.329838 -6.481753 0.459372 2.408768
1302.343140 568.138025 68.225010 0.000000 0.000000 0.000000 0.000000 0.000000 0.000000 101.222717 10.094951 -19.645745 -78.777283 16.006333 -19.645745 90.757296 -6.793538 -23.115397 -18.578033 2.278815 19.122720 97.909038 -1.456212 23.115397 -5.050134 0.021975 2.128896
1274.166183 540.660596 39.169741 0.000000 0.000000 0.000000 0.000000 0.000000 0.000000 -126.898591 -2.130154 -19.960535 53.101409 0.007629 -19.960535 127.276662 5.542449 -20.536413 8.808645 1.558772 21.869059 119.711272 -0.070156 20.536413 -4.115393 0.065507 1.840623
1268.557091 468.331075 40.406259 0.000000 0.000000 0.000000 0.000000 0.000000 0.000000 -124.112133 5.861504 -19.021130 55.887867 -25.485354 -19.021130 163.344780 7.920576 -17.633558 38.476068 -8.305483 24.270510 145.889074 2.199344 17.633558 -1.929933 -0.027157 1.545085
1278.673096 454.375906 49.919614 0.000000 0.000000 0.000000 0.000000 0.000000 0.000000 -126.805061 -5.994802 -16.886559 53.194939 -11.553057 -16.886559 -174.009950 0.179686 -14.452610 27.419224 1.261197 26.289200 168.192977 -3.666384 14.452610 -0.976267 0.021543 1.243449
1285.008774 434.700390 43.341202 0.000000 0.000000 0.000000 0.000000 0.000000 0.000000 -132.005120 2.463541 -13.690942 47.994880 -9.757263 -13.690942 -171.247775 1.036646 -11.043737 26.625253 -4.412297 27.893295 178.805957 -1.765802 11.043737 0.023422 0.135016 0.936907
1288.157730 426.987666 48.987975 0.000000 0.000000 0.000000 0.000000 0.000000 0.000000 -123.987926 1.510812 -9.635073 56.012074 5.129866 -9.635073 -166.356219 -2.371169 -7.460697 35.716336 -3.093563 29.057495 -172.960762 3.296917 7.460697 0.819533 -0.151110 0.626666
1291.221657 420.425448 40.474870 0.000000 0.000000 0.000000 0.000000 0.000000 0.000000 -122.265643 -4.999038 -4.973798 57.734357 0.543101 -4.973798 -156.870161 -1.094253 -3.759997 38.220704 1.683339 29.763441 -165.716368 -1.002342 3.759997 1.405814 0.099574 0.313953
