HIERARCHY
ROOT Hips
{
    OFFSET 0.0 0.0 0.0
    CHANNELS 6 Xposition Yposition Zposition Zrotation Xrotation Yrotation
    JOINT Spine
    {
        OFFSET 0.0 5.0 0.0
        CHANNELS 3 Zrotation Xrotation Yrotation
        JOINT Chest
        {
            OFFSET 0.0 5.0 0.0
            CHANNELS 3 Zrotation Xrotation Yrotation
            JOINT Neck
            {
                OFFSET 0.0 8.0 0.0
                CHANNELS 3 Zrotation Xrotation Yrotation
                JOINT Head
                {
                    OFFSET 0.0 5.0 0.0
                    CHANNELS 3 Zrotation Xrotation Yrotation
                    End Site
                    {
                        OFFSET 0.0 3.0 0.0
                    }
                }
            }
            JOINT LeftShoulder
            {
                OFFSET -5.0 0.0 0.0
                CHANNELS 3 Zrotation Xrotation Yrotation
                JOINT LeftArm
                {
                    OFFSET 0.0 -10.0 0.0
                    CHANNELS 3 Zrotation Xrotation Yrotation
                    JOINT LeftForeArm
                    {
                        OFFSET 0.0 -10.0 0.0
                        CHANNELS 3 Zrotation Xrotation Yrotation
                        End Site
                        {
                            OFFSET 0.0 -3.0 0.0
                        }
                    }
                }
            }
        }
    }
}

MOTION
Frames: 300
Frame Time: 0.033333

960.000000 445.000000 119.800004 0.000000 0.000000 0.000000 0.000000 0.000000 0.000000 23.025492 2.484994 0.000000 180.000000 -0.408179 0.000000 21.801409 4.229473 -0.000000 158.198591 1.002623 30.000000 15.945396 7.997305 0.000000 18.000000 -0.829877 0.000000
1691.525230 140.756605 106.584019 0.000000 0.000000 0.000000 0.000000 0.000000 0.000000 -163.376529 0.720832 4.973798 16.623471 1.246738 4.973798 -171.853121 -3.400103 3.759997 99.744051 -7.912357 29.763441 -171.126653 -3.365378 -3.759997 0.673538 0.391905 0.313953
1636.048050 128.802021 100.237075 0.000000 0.000000 0.000000 0.000000 0.000000 0.000000 157.904128 -0.958286 9.635073 -22.095872 -1.991092 9.635073 -171.936471 -4.094522 7.460697 -143.675701 -12.506359 29.057495 -173.500805 -3.485676 -7.460697 0.570999 0.404896 0.626666
1578.156967 80.474526 103.060448 0.000000 0.000000 0.000000 0.000000 0.000000 0.000000 -139.519796 -10.261350 13.690942 40.480204 8.299864 13.690942 -174.507724 -4.109784 11.043737 119.111399 4.009708 27.893295 -173.607258 -4.123884 -11.043737 0.461920 0.489923 0.936907
960.418757 444.998421 122.953747 0.000000 0.000000 0.000000 0.000000 0.000000 0.000000 25.077893 2.393877 16.886559 180.000000 16.380642 16.886559 23.861935 -4.597284 14.452610 156.138065 7.610589 26.289200 17.903699 -0.401311 -14.452610 18.000000 -0.561313 1.243449
960.523360 444.997533 118.620319 0.000000 0.000000 0.000000 0.000000 0.000000 0.000000 25.638906 -6.265051 19.021130 180.000000 0.700404 19.021130 24.425035 0.657254 17.633558 155.574965 -1.262978 24.270510 18.452907 -1.534586 -17.633558 18.000000 0.147788 1.545085
960.627905 444.996447 136.902025 0.000000 0.000000 0.000000 0.000000 0.000000 0.000000 26.219073 -14.231464 19.960535 180.000000 7.050378 19.960535 25.006291 -11.640372 20.536413 154.993709 -0.917670 21.869059 19.024920 1.928242 -20.536413 18.000000 -0.160335 1.840623
1126.242828 420.359820 127.708493 0.000000 0.000000 0.000000 0.000000 0.000000 0.000000 31.410514 6.020142 19.645745 -148.589486 1.529487 19.645745 32.280463 0.594061 23.115397 -131.603972 1.954136 19.122720 45.585331 -1.289461 -23.115397 -13.449727 -0.052713 2.128896
1257.895088 650.549197 150.207356 0.000000 0.000000 0.000000 0.000000 0.000000 0.000000 25.073180 -7.365036 18.096541 -154.926820 1.248866 18.096541 46.260945 2.787609 25.329838 -154.651428 -5.102685 16.074804 27.339487 5.383532 -25.329838 -13.619892 0.781432 2.408768
960.941083 444.992008 141.498850 0.000000 0.000000 0.000000 0.000000 0.000000 0.000000 28.072001 15.006210 15.410265 180.000000 -25.922398 15.410265 26.849221 17.119670 27.144812 153.150779 -10.348139 12.773379 20.864045 8.635116 -27.144812 18.000000 -1.839271 2.679134
1163.815842 547.748709 143.419955 0.000000 0.000000 0.000000 0.000000 0.000000 0.000000 117.162728 -1.647180 11.755705 -62.837272 -1.607400 11.755705 102.363764 -0.289121 28.531695 -47.376450 8.418957 9.270510 104.768601 -8.127109 -28.531695 -6.003489 0.181835 2.938926
961.149372 444.988063 140.165273 0.000000 0.000000 0.000000 0.000000 0.000000 0.000000 29.395983 29.951091 7.362491 180.000000 12.284747 7.362491 28.146217 -13.846429 29.468618 151.853783 -11.561091 5.621439 22.170006 10.818928 -29.468618 18.000000 -0.681472 3.187120
1136.717377 590.104480 137.778469 0.000000 0.000000 0.000000 0.000000 0.000000 0.000000 115.752126 4.688093 2.506665 -64.247874 -2.177066 2.506665 73.638146 1.681826 29.940802 -21.842452 -4.259146 1.883716 75.369282 10.043546 -29.940802 -6.767207 -1.361493 3.422736
1163.079758 634.077559 141.961107 0.000000 0.000000 0.000000 0.000000 0.000000 0.000000 132.174340 5.253969 -2.506665 -47.825660 0.237813 -2.506665 94.255711 -3.878310 29.940802 -149.364979 -7.221313 -1.883716 30.021641 5.917224 -29.940802 -5.096180 0.786709 3.644843
961.460830 444.980668 168.121675 0.000000 0.000000 0.000000 0.000000 0.000000 0.000000 31.497152 13.041764 -7.362491 180.000000 7.551302 -7.362491 30.152455 -18.001531 29.468618 149.847545 -10.285561 -5.621439 24.175589 6.139472 -29.468618 18.000000 -1.149070 3.852566
1097.449951 565.089898 149.602976 0.000000 0.000000 0.000000 0.000000 0.000000 0.000000 -119.219568 3.564050 -11.755705 60.780432 -5.277973 -11.755705 -150.180642 -6.893167 28.531695 48.804955 -2.961290 -9.270510 -149.874178 -6.315005 -28.531695 2.713854 0.580381 4.045085
1114.140244 528.302071 123.450362 0.000000 0.000000 0.000000 0.000000 0.000000 0.000000 -142.671523 -2.681623 -15.410265 37.328477 -6.474065 -15.410265 -177.395681 7.271380 27.144812 34.687329 -2.500919 -12.773379 161.894167 3.077341 -27.144812 -0.910956 -0.256592 4.221640
1116.433640 479.728639 151.698404 0.000000 0.000000 0.000000 0.000000 0.000000 0.000000 -102.267481 6.279364 -18.096541 77.732519 -2.379649 -18.096541 -163.695626 -2.785456 25.329838 38.575767 -1.243228 -16.074804 -176.001122 1.944267 -25.329838 0.706594 -0.193783 4.381533
1135.931282 466.493965 144.463552 0.000000 0.000000 0.000000 0.000000 0.000000 0.000000 -112.868406 -0.569535 -19.645745 67.131594 1.901089 -19.645745 -159.517862 -0.572562 23.115397 36.204678 -2.580757 -19.122720 -154.426613 -5.463624 -23.115397 2.428729 0.521223 4.524135
1141.618767 467.420679 159.064352 0.000000 0.000000 0.000000 0.000000 0.000000 0.000000 -123.086385 3.934863 -19.960535 56.913615 -7.480442 -19.960535 -154.885724 -2.064572 20.536413 36.481623 -3.806041 -21.869059 -153.965441 -5.621416 -20.536413 2.446728 0.498649 4.648882
1150.647926 469.370956 153.046638 0.000000 0.000000 0.000000 0.000000 0.000000 0.000000 -43.953779 -26.665416 -19.021130 136.046221 -1.299005 -19.021130 -154.327268 -6.681911 17.633558 60.745168 11.890428 -24.270510 -153.350642 -7.086250 -17.633558 2.386216 0.631296 4.755283
1151.529922 496.420240 154.060955 0.000000 0.000000 0.000000 0.000000 0.000000 0.000000 -116.362129 6.587026 -16.886559 63.637871 4.066385 -16.886559 -149.081043 -2.613218 14.452610 35.941860 0.783300 -26.289200 -156.847177 0.252227 -14.452610 2.056513 0.081661 4.842916
1148.402367 515.713574 143.095927 0.000000 0.000000 0.000000 0.000000 0.000000 0.000000 -118.252650 -4.476242 -13.690942 61.747350 12.577456 -13.690942 -138.082896 -1.672461 11.043737 -156.312677 -6.613902 -27.893295 21.649626 10.164646 -11.043737 2.962417 -0.024605 4.911436
1175.363617 533.368646 129.458114 0.000000 0.000000 0.000000 0.000000 0.000000 0.000000 -95.476638 -15.779192 -9.635073 84.523362 -4.393405 -9.635073 -113.907461 4.221262 7.460697 -155.995907 -6.759090 -29.057495 12.512064 7.334063 -7.460697 -16.748794 -0.733406 4.960574
1199.533310 485.991104 141.239284 0.000000 0.000000 0.000000 0.000000 0.000000 0.000000 -100.003195 5.074225 -4.973798 79.996805 -5.058447 -4.973798 -86.083188 0.736964 3.759997 38.843754 -1.204871 -29.763441 -106.539452 1.410869 -3.759997 6.197806 -0.171638 4.990134
962.588190 444.938442 99.803054 0.000000 0.000000 0.000000 0.000000 0.000000 0.000000 39.579754 50.425781 -0.000000 180.000000 -0.127154 -0.000000 36.680773 5.434753 0.000000 143.319227 -11.900232 -30.000000 29.388385 11.544021 -0.000000 18.000000 -1.125456 5.000000
1142.094727 445.716287 133.963183 0.000000 0.000000 0.000000 0.000000 0.000000 0.000000 -140.228454 -42.075253 4.973798 39.771546 7.899859 4.973798 -156.118008 -5.908241 -3.759997 3.479189 9.716487 -29.763441 -158.005660 -6.188386 3.759997 2.150019 0.539743 4.990134
1164.005928 424.847746 143.095290 0.000000 0.000000 0.000000 0.000000 0.000000 0.000000 -84.241076 4.403747 9.635073 95.758924 17.676327 9.635073 -156.181584 -5.984918 -7.460697 166.928360 8.135698 -29.057495 -154.947270 -6.529491 7.460697 2.644196 0.672720 4.960574
1124.208755 418.286655 105.074628 0.000000 0.000000 0.000000 0.000000 0.000000 0.000000 -117.427077 -8.079370 13.690942 62.572923 -22.508733 13.690942 -155.943063 -5.421839 -11.043737 14.023837 -15.273880 -27.893295 -157.382674 -5.225076 11.043737 2.188130 0.554016 4.911436
962.990408 444.917226 108.479045 0.000000 0.000000 0.000000 0.000000 0.000000 0.000000 42.110883 26.805571 16.886559 180.000000 -20.188863 16.886559 37.946959 30.601568 -14.452610 142.053041 -16.602863 -26.289200 29.293612 12.513999 14.452610 18.000000 1.398736 4.842916
963.090170 444.911436 108.380124 0.000000 0.000000 0.000000 0.000000 0.000000 0.000000 42.659200 31.309410 19.021130 180.000000 -10.007135 19.021130 38.119107 -13.252096 -17.633558 141.880893 -1.679151 -24.270510 29.068887 -13.755498 17.633558 18.000000 2.179832 4.755283
1186.646461 396.272757 96.577499 0.000000 0.000000 0.000000 0.000000 0.000000 0.000000 -72.847419 -11.696584 19.960535 107.152581 -0.637687 19.960535 -156.703603 -4.546652 -20.536413 178.447294 -12.104528 -21.869059 -157.212393 -4.006872 20.536413 1.964058 0.465453 4.648882
1313.051605 426.636125 93.178930 0.000000 0.000000 0.000000 0.000000 0.000000 0.000000 90.994869 -34.390744 19.645745 -89.005131 11.230728 19.645745 -160.515303 -3.798715 -23.115397 -153.248861 4.348116 -19.122720 -159.640525 -4.464875 23.115397 0.000000 0.000000 0.000000
1347.999344 420.772226 110.629333 0.000000 0.000000 0.000000 0.000000 0.000000 0.000000 90.154351 -3.690224 18.096541 -89.845649 7.243826 18.096541 -162.053401 -4.278636 -25.329838 -136.198880 5.316028 -16.074804 -160.991694 -5.100005 25.329838 0.000000 0.000000 0.000000
1344.315948 421.031681 88.186802 0.000000 0.000000 0.000000 0.000000 0.000000 0.000000 69.757587 -7.716703 15.410265 -110.242413 10.594975 15.410265 25.616746 0.916439 -27.144812 -157.821005 -2.861273 -12.773379 17.214985 2.947665 27.144812 -16.704706 0.100670 4.221640
1350.307617 440.309436 94.547392 0.000000 0.000000 0.000000 0.000000 0.000000 0.000000 71.124018 6.678223 11.755705 -108.875982 -4.090073 11.755705 42.739987 -0.968532 -28.531695 -142.315466 -4.068256 -9.270510 16.600926 -1.237853 28.531695 -16.660102 0.131218 4.045085
1357.685051 430.688889 71.557549 0.000000 0.000000 0.000000 0.000000 0.000000 0.000000 77.656077 -1.659984 7.362491 -102.343923 6.282494 7.362491 39.407151 -4.528935 -29.468618 -136.343173 1.181223 -5.621439 22.144452 2.900829 29.468618 -16.305135 -0.115829 3.852566
1369.482193 445.909406 78.355219 0.000000 0.000000 0.000000 0.000000 0.000000 0.000000 88.051188 -1.386939 2.506665 -91.948812 7.612203 2.506665 -161.283973 -3.654048 -29.940802 -119.799169 0.378176 -1.883716 -164.575400 -3.646558 29.940802 1.401013 0.435593 3.644843
963.875156 444.858159 61.505874 0.000000 0.000000 0.000000 0.000000 0.000000 0.000000 45.304844 -57.175787 -2.506665 180.000000 26.896789 -2.506665 37.252439 -0.598247 -29.940802 142.747561 28.000486 1.883716 25.146244 -6.690839 29.940802 18.000000 0.239780 3.422736
963.971479 444.850633 60.871701 0.000000 0.000000 0.000000 0.000000 0.000000 0.000000 45.383640 -21.684926 -7.362491 180.000000 6.462709 -7.362491 36.882310 -12.667958 -29.468618 143.117690 -8.641492 5.621439 24.499789 -6.257759 29.468618 18.000000 1.644914 3.187120
1336.629524 469.010178 53.327062 0.000000 0.000000 0.000000 0.000000 0.000000 0.000000 -72.390177 -6.415527 -11.755705 107.609823 -10.975346 -11.755705 -158.649984 -2.432933 -28.531695 2.583425 -10.350528 9.270510 -39.658551 -4.946565 28.531695 10.837181 2.289748 2.938926
1311.966934 518.219100 72.192437 0.000000 0.000000 0.000000 0.000000 0.000000 0.000000 -63.565072 -15.142673 -15.410265 116.434928 26.667349 -15.410265 -14.840750 7.175570 -27.144812 -158.549348 -2.248789 12.773379 17.488774 2.195513 27.144812 7.174982 -1.175160 2.679134
964.257793 444.826908 47.267195 0.000000 0.000000 0.000000 0.000000 0.000000 0.000000 45.262206 -57.830011 -18.096541 180.000000 23.725841 -18.096541 35.497192 16.231268 -25.329838 144.502808 16.596805 16.074804 22.522929 5.777700 25.329838 18.000000 -0.003097 2.408768
1275.921364 516.836239 56.637188 0.000000 0.000000 0.000000 0.000000 0.000000 0.000000 85.186295 4.206162 -19.645745 -94.813705 4.633893 -19.645745 52.470689 -4.866945 -23.115397 -44.513683 -3.324102 19.122720 50.867598 2.422954 23.115397 -8.717188 -0.269064 2.128896
1263.254128 546.875424 55.839659 0.000000 0.000000 0.000000 0.000000 0.000000 0.000000 34.848242 -27.375078 -19.960535 -145.151758 19.285171 -19.960535 42.487561 -3.483028 -20.536413 -157.415675 -2.189978 21.869059 22.420880 2.321294 20.536413 -15.757912 -0.232129 1.840623
1258.788185 528.263061 49.596714 0.000000 0.000000 0.000000 0.000000 0.000000 0.000000 118.326865 -15.915910 -19.021130 -61.673135 26.063030 -19.021130 143.214759 -12.330858 -17.633558 -156.228306 -2.154337 24.270510 28.173554 1.745075 17.633558 -15.182645 -0.174508 1.545085
1231.492081 471.383836 30.868784 0.000000 0.000000 0.000000 0.000000 0.000000 0.000000 -115.049381 -18.109966 -16.886559 64.950619 18.793833 -16.886559 172.843704 2.598929 -14.452610 -157.842300 -2.056738 26.289200 32.851042 2.694970 14.452610 -14.714896 -0.269497 1.243449
1223.928795 435.993515 64.511738 0.000000 0.000000 0.000000 0.000000 0.000000 0.000000 -115.322532 3.121699 -13.690942 64.677468 -4.703554 -13.690942 -168.597862 0.087111 -11.043737 -158.853816 -2.353641 27.893295 31.099266 2.258746 11.043737 -14.890073 -0.225875 0.936907
1223.669701 418.195664 53.044360 0.000000 0.000000 0.000000 0.000000 0.000000 0.000000 -102.084053 -43.273239 -9.635073 77.915947 46.579387 -9.635073 -171.103858 -8.461515 -7.460697 162.056334 9.232872 29.057495 -153.594437 -2.872771 7.460697 2.968481 0.308821 0.626666
1216.486244 414.503002 39.442809 0.000000 0.000000 0.000000 0.000000 0.000000 0.000000 69.261091 4.613695 -4.973798 -110.738909 24.004201 -4.973798 -158.083722 -2.756031 -3.759997 -173.244581 -2.364114 29.763441 -154.635509 -2.230831 3.759997 2.928763 0.215259 0.313953
1212.090225 434.550980 44.992159 0.000000 0.000000 0.000000 0.000000 0.000000 0.000000 -112.403932 -15.026155 0.000000 67.596068 13.411326 0.000000 -157.060799 -2.555868 -0.000000 173.400765 4.496900 30.000000 -154.473580 -3.099765 0.000000 2.734633 0.393942 0.000000
1214.024734 450.340490 43.292080 0.000000 0.000000 0.000000 0.000000 0.000000 0.000000 -110.634751 -9.224113 4.973798 69.365249 6.481037 4.973798 -137.583343 -7.078158 3.759997 -158.589698 -2.121654 29.763441 20.879446 3.539609 -3.759997 -15.912055 -0.353961 0.313953
1204.271393 440.192921 66.119870 0.000000 0.000000 0.000000 0.000000 0.000000 0.000000 -99.498286 19.088493 9.635073 80.501714 -19.464986 9.635073 -156.696469 -2.455839 7.460697 -178.487725 -5.449904 29.057495 -157.318323 -3.063007 -7.460697 2.108583 0.378008 0.626666
965.269558 444.725315 58.350292 0.000000 0.000000 0.000000 0.000000 0.000000 0.000000 40.845461 -19.644371 13.690942 180.000000 -6.198584 13.690942 28.615377 -3.684363 11.043737 151.384623 5.569020 27.893295 16.305092 -4.834051 -11.043737 18.000000 -0.201534 0.936907
1182.456551 475.103824 56.001277 0.000000 0.000000 0.000000 0.000000 0.000000 0.000000 -168.146016 -79.803909 16.886559 11.853984 83.606382 16.886559 -63.802645 0.619375 14.452610 -61.114510 8.251854 26.289200 -47.869281 -4.416896 -14.452610 -13.834956 7.841531 1.243449
965.446390 444.704404 62.050047 0.000000 0.000000 0.000000 0.000000 0.000000 0.000000 39.578146 50.706135 19.021130 180.000000 -29.337634 19.021130 27.338029 -4.275677 17.633558 152.661971 -4.478194 24.270510 15.463180 -10.674241 -17.633558 18.000000 0.670637 1.545085
965.533915 444.693669 69.020632 0.000000 0.000000 0.000000 0.000000 0.000000 0.000000 38.916706 24.544193 19.960535 180.000000 10.978593 19.960535 26.716768 5.127493 20.536413 153.283232 3.093096 21.869059 15.076605 0.991094 -20.536413 18.000000 -0.566126 1.840623
965.620834 444.682749 76.953013 0.000000 0.000000 0.000000 0.000000 0.000000 0.000000 38.241653 10.476192 19.645745 180.000000 -24.160305 19.645745 26.109467 5.742494 23.115397 153.890533 -11.238304 19.122720 14.712258 4.432228 -23.115397 18.000000 -0.301559 2.128896
965.707136 444.671645 70.114059 0.000000 0.000000 0.000000 0.000000 0.000000 0.000000 37.556504 -26.898274 18.096541 180.000000 -11.994660 18.096541 25.517536 -3.618194 25.329838 154.482464 -5.304284 16.074804 14.369537 3.470584 -25.329838 18.000000 0.022623 2.408768
965.792812 444.660356 83.681889 0.000000 0.000000 0.000000 0.000000 0.000000 0.000000 36.864608 6.747888 15.410265 180.000000 8.684373 15.410265 24.942131 3.707373 27.144812 155.057869 4.358717 12.773379 14.047797 -1.986084 -27.144812 18.000000 -0.068738 2.679134
965.877853 444.648882 81.919165 0.000000 0.000000 0.000000 0.000000 0.000000 0.000000 36.169118 -2.080782 11.755705 180.000000 0.020646 11.755705 24.384173 0.314632 28.531695 155.615827 3.263351 9.270510 13.746367 -6.466563 -28.531695 18.000000 0.390174 2.938926
965.962249 444.637226 89.607744 0.000000 0.000000 0.000000 0.000000 0.000000 0.000000 35.472980 -6.473491 7.362491 180.000000 23.240696 7.362491 23.844373 -0.451148 29.468618 156.155627 4.071831 5.621439 13.464570 -1.050852 -29.468618 18.000000 -0.199746 3.187120
966.045991 444.625386 92.704737 0.000000 0.000000 0.000000 0.000000 0.000000 0.000000 34.778913 30.338083 2.506665 180.000000 -13.188734 2.506665 23.323250 -1.449381 29.940802 156.676750 -0.592846 1.883716 13.201728 -3.736127 -29.940802 18.000000 -0.393568 3.422736
966.129071 444.613364 90.100523 0.000000 0.000000 0.000000 0.000000 0.000000 0.000000 34.089406 19.446046 -2.506665 180.000000 -12.072045 -2.506665 22.821158 -1.130835 29.940802 157.178842 1.210506 -1.883716 12.957175 -7.378326 -29.940802 18.000000 0.241641 3.644843
966.211478 444.601159 130.792060 0.000000 0.000000 0.000000 0.000000 0.000000 0.000000 33.406712 12.416543 -7.362491 180.000000 -1.164235 -7.362491 22.338307 -12.558050 29.468618 157.661693 7.314374 -5.621439 12.730264 -5.847428 -29.468618 18.000000 0.226122 3.852566
1171.486244 534.946783 95.042743 0.000000 0.000000 0.000000 0.000000 0.000000 0.000000 70.594720 5.904690 -11.755705 -109.405280 -4.113129 -11.755705 49.953444 7.866881 28.531695 -151.467583 -4.813025 -9.270510 0.000000 0.000000 0.000000 0.000000 0.000000 0.000000
966.374240 444.576206 105.789140 0.000000 0.000000 0.000000 0.000000 0.000000 0.000000 32.069603 -18.810844 -15.410265 180.000000 -5.446151 -15.410265 21.430544 -1.089338 27.144812 158.569456 -4.918523 -12.773379 12.326901 8.819515 -27.144812 18.000000 -0.839194 4.221640
1172.156410 555.047708 127.778532 0.000000 0.000000 0.000000 0.000000 0.000000 0.000000 -121.065102 -1.385729 -18.096541 58.934898 15.492691 -18.096541 -151.641456 -5.830633 25.329838 -177.360623 -1.960241 -16.074804 -149.076048 -5.917608 -25.329838 0.000000 0.000000 0.000000
1161.826630 552.360713 103.742432 0.000000 0.000000 0.000000 0.000000 0.000000 0.000000 69.958407 25.432580 -19.645745 -110.041593 -56.566523 -19.645745 -152.437496 -5.334592 23.115397 -158.790607 -4.488486 -19.122720 -150.591725 -6.982377 -23.115397 3.219062 0.758589 4.524135
1165.827255 569.832902 120.134963 0.000000 0.000000 0.000000 0.000000 0.000000 0.000000 25.594208 -4.154745 -19.960535 -154.405792 4.807020 -19.960535 11.723883 1.931861 20.536413 -161.543160 1.088098 -21.869059 7.769582 1.005376 -20.536413 -17.248199 -0.068470 4.648882
1165.555573 565.067046 130.530517 0.000000 0.000000 0.000000 0.000000 0.000000 0.000000 43.355707 -8.623075 -19.021130 -136.644293 -6.763570 -19.021130 15.984329 6.325737 17.633558 -140.773833 -5.591000 -24.270510 13.679449 5.763749 -17.633558 -16.392157 -0.152081 4.755283
1290.255775 608.533316 129.083781 0.000000 0.000000 0.000000 0.000000 0.000000 0.000000 -153.952071 -7.162982 -16.886559 26.047929 -9.657038 -16.886559 -152.683807 -5.665993 14.452610 4.794196 -18.055316 -26.289200 -154.287190 -4.441529 -14.452610 2.418080 0.571627 4.842916
1180.398903 551.817470 137.991476 0.000000 0.000000 0.000000 0.000000 0.000000 0.000000 51.640104 24.375741 -13.690942 -128.359896 -35.381987 -13.690942 14.419400 15.766843 11.043737 -33.521359 -30.786423 -27.893295 -34.277510 1.934437 -11.043737 5.235387 0.904694 4.911436
1162.708626 619.419501 153.165745 0.000000 0.000000 0.000000 0.000000 0.000000 0.000000 -88.968325 38.979538 -9.635073 91.031675 -22.428232 -9.635073 -52.690088 2.952323 7.460697 25.015222 -5.170732 -29.057495 -72.561734 -1.073218 -7.460697 8.557489 -0.091528 4.960574
1110.899391 602.919216 143.775954 0.000000 0.000000 0.000000 0.000000 0.000000 0.000000 -86.972237 -3.969109 -4.973798 93.027763 -4.826243 -4.973798 -39.551144 -0.669514 3.759997 34.838085 3.317836 -29.763441 -44.185810 -1.753675 -3.759997 10.000609 0.404845 4.990134
1150.187302 553.686991 158.855824 0.000000 0.000000 0.000000 0.000000 0.000000 0.000000 -116.065142 -15.848529 -0.000000 63.934858 0.365589 -0.000000 -151.059314 -6.530597 0.000000 -0.492058 3.295258 -30.000000 -14.044098 10.263267 -0.000000 1.929760 -1.252025 5.000000
967.144727 444.440682 152.773358 0.000000 0.000000 0.000000 0.000000 0.000000 0.000000 26.270296 -10.979126 4.973798 180.000000 11.648547 4.973798 17.996647 -10.600819 -3.759997 162.003353 2.496010 -29.763441 11.189167 3.666341 3.759997 18.000000 -0.299015 4.990134
1213.452644 620.002785 149.266521 0.000000 0.000000 0.000000 0.000000 0.000000 0.000000 140.390379 -4.698607 9.635073 -39.609621 33.028641 9.635073 77.724607 -8.764253 -7.460697 -153.982965 -6.277687 -29.057495 24.142749 6.425311 7.460697 -0.833727 -1.551415 4.960574
1124.373779 618.464527 162.308625 0.000000 0.000000 0.000000 0.000000 0.000000 0.000000 99.329635 -31.813655 13.690942 -80.670365 10.653709 13.690942 85.960927 0.912288 -11.043737 -150.875293 -6.854322 -27.893295 31.644098 5.945164 11.043737 -14.835590 -0.594516 4.911436
967.360971 444.396582 159.119992 0.000000 0.000000 0.000000 0.000000 0.000000 0.000000 24.874716 -8.461539 16.886559 180.000000 -7.659326 16.886559 17.291102 4.717846 -14.452610 162.708898 -3.749427 -26.289200 11.098846 1.490690 14.452610 18.000000 0.148950 4.842916
1107.875175 542.453964 142.058875 0.000000 0.000000 0.000000 0.000000 0.000000 0.000000 -128.741314 8.534158 19.021130 51.258686 -1.361346 19.021130 -177.225595 -6.088945 -17.633558 19.954750 -8.464551 -24.270510 162.677362 2.431948 17.633558 -1.443098 -0.113708 4.755283
1119.652290 522.766346 151.962750 0.000000 0.000000 0.000000 0.000000 0.000000 0.000000 -99.017754 1.516211 19.960535 80.982246 4.775761 19.960535 -150.289603 -7.003703 -20.536413 -152.613833 -6.978373 -21.869059 0.000000 0.000000 0.000000 0.000000 0.000000 0.000000
1132.908783 538.229613 158.159322 0.000000 0.000000 0.000000 0.000000 0.000000 0.000000 -127.874185 7.620487 19.645745 52.125815 -1.837897 19.645745 -165.450188 2.777697 -23.115397 -152.521515 -7.354441 -19.122720 40.606225 9.250943 23.115397 -13.939378 -0.925094 4.524135
1146.969337 541.828065 143.210980 0.000000 0.000000 0.000000 0.000000 0.000000 0.000000 -113.631604 -5.991710 18.096541 66.368396 2.302849 18.096541 -159.067475 1.867297 -25.329838 113.981862 -0.202788 -16.074804 -145.449815 -6.470705 25.329838 0.000000 0.000000 0.000000
1165.252304 561.329677 122.658303 0.000000 0.000000 0.000000 0.000000 0.000000 0.000000 -112.861399 8.988647 15.410265 67.138601 -14.420780 15.410265 -159.396543 -0.707835 -27.144812 -151.967552 -7.950721 -12.773379 38.422588 7.842437 27.144812 -14.157741 -0.784244 4.221640
1174.726181 592.839689 129.115856 0.000000 0.000000 0.000000 0.000000 0.000000 0.000000 -110.369899 4.912236 11.755705 69.630101 -7.794278 11.755705 -148.108768 2.415850 -28.531695 -151.515612 -7.055805 -9.270510 34.277732 9.479155 28.531695 -14.572227 -0.947916 4.045085
1167.352524 605.194867 133.028431 0.000000 0.000000 0.000000 0.000000 0.000000 0.000000 -113.828445 15.496607 7.362491 66.171555 -13.682189 7.362491 -131.688453 0.428412 -29.468618 -151.045756 -7.366575 -5.621439 27.200835 9.174530 29.468618 -15.279916 -0.917453 3.852566
1139.678879 602.981014 128.116456 0.000000 0.000000 0.000000 0.000000 0.000000 0.000000 -97.599684 -5.294539 2.506665 82.400316 6.266931 2.506665 -113.965806 -0.749467 -29.940802 -121.058781 -3.716932 -1.883716 -118.492407 7.538557 29.940802 10.137620 -5.651026 3.644843
1165.830002 580.020189 140.466640 0.000000 0.000000 0.000000 0.000000 0.000000 0.000000 -28.085052 8.036651 -2.506665 151.914948 8.653837 -2.506665 -150.589103 -5.844274 -29.940802 -172.678414 4.023983 1.883716 -149.717924 -6.434728 29.940802 0.000000 0.000000 0.000000
1184.501953 619.872494 127.046959 0.000000 0.000000 0.000000 0.000000 0.000000 0.000000 -113.790307 -14.687483 -7.362491 66.209693 17.323373 -7.362491 -59.272274 -0.938757 -29.468618 29.476823 -0.148212 5.621439 -88.148483 3.618847 29.468618 7.414604 -0.020096 3.187120
968.090170 444.221640 119.890246 0.000000 0.000000 0.000000 0.000000 0.000000 0.000000 21.092887 -15.173499 -11.755705 180.000000 13.560133 -11.755705 15.757771 -7.972120 -28.531695 164.242229 5.820713 9.270510 11.678908 -0.154439 28.531695 18.000000 0.156859 2.938926
968.151278 444.204723 105.894504 0.000000 0.000000 0.000000 0.000000 0.000000 0.000000 20.844337 -15.134395 -15.410265 180.000000 -3.436320 -15.410265 15.691895 -6.050352 -27.144812 164.308105 -1.361044 12.773379 11.804629 3.399568 27.144812 18.000000 0.025167 2.679134
968.211492 444.187640 94.769782 0.000000 0.000000 0.000000 0.000000 0.000000 0.000000 20.610265 3.349674 -18.096541 180.000000 -11.467171 -18.096541 15.637361 -2.300181 -25.329838 164.362639 -8.236596 16.074804 11.943263 1.673448 25.329838 18.000000 0.222005 2.408768
968.270806 444.170392 110.788897 0.000000 0.000000 0.000000 0.000000 0.000000 0.000000 20.390366 3.311821 -19.645745 180.000000 5.212250 -19.645745 15.594026 -3.861071 -23.115397 164.405974 0.817970 19.122720 12.095062 3.380727 23.115397 18.000000 -0.398019 2.128896
968.329212 444.152979 104.670499 0.000000 0.000000 0.000000 0.000000 0.000000 0.000000 20.184343 -1.723390 -19.960535 180.000000 -4.150536 -19.960535 15.561766 6.262860 -20.536413 164.438234 -6.089680 21.869059 12.260289 2.932655 20.536413 18.000000 0.175759 1.840623
968.386706 444.135403 113.663242 0.000000 0.000000 0.000000 0.000000 0.000000 0.000000 19.991916 -12.995595 -19.021130 180.000000 4.460643 -19.021130 15.540476 5.393357 -17.633558 164.459524 1.883444 24.270510 12.439222 0.602651 17.633558 18.000000 -0.060767 1.545085
968.443279 444.117663 75.224626 0.000000 0.000000 0.000000 0.000000 0.000000 0.000000 19.812814 0.211738 -16.886559 180.000000 -8.511505 -16.886559 15.530069 2.322427 -14.452610 164.469931 0.374861 26.289200 12.632146 -2.562635 14.452610 18.000000 -0.221383 1.243449
968.498927 444.099761 87.062648 0.000000 0.000000 0.000000 0.000000 0.000000 0.000000 19.646785 4.432840 -13.690942 180.000000 -6.217339 -13.690942 15.530474 -2.506909 -11.043737 164.469526 -0.205036 27.893295 12.839349 -4.631358 11.043737 18.000000 0.391530 0.936907
968.553643 444.081696 91.524328 0.000000 0.000000 0.000000 0.000000 0.000000 0.000000 19.493591 -25.887379 -9.635073 180.000000 1.459122 -9.635073 15.541640 2.431737 -7.460697 164.458360 -0.855787 29.057495 13.061119 6.027688 7.460697 18.000000 -0.137810 0.626666
1051.772690 653.004448 66.674859 0.000000 0.000000 0.000000 0.000000 0.000000 0.000000 -79.007834 11.223269 -4.973798 100.992166 -15.696468 -4.973798 -126.715299 -0.256114 -3.759997 -149.991181 -4.640938 29.763441 31.772279 6.176504 3.759997 -14.822772 -0.617650 0.313953
1061.669197 624.716241 71.496780 0.000000 0.000000 0.000000 0.000000 0.000000 0.000000 -94.718359 0.475385 0.000000 85.281641 -6.896131 0.000000 -144.150484 -0.682126 -0.000000 60.155085 -0.442019 30.000000 -152.711462 -1.093942 0.000000 1.815393 -0.099819 0.000000
1072.053337 571.032879 74.826730 0.000000 0.000000 0.000000 0.000000 0.000000 0.000000 71.424080 13.813636 4.973798 -108.575920 6.192646 4.973798 -149.042361 -4.334180 3.759997 -149.913636 -1.616340 29.763441 -145.792107 -4.230639 -3.759997 3.947623 0.488734 0.313953
1070.057373 572.884376 88.767700 0.000000 0.000000 0.000000 0.000000 0.000000 0.000000 -80.850201 -20.763414 9.635073 99.149799 -16.984942 9.635073 -147.567525 -2.949005 7.460697 -164.443014 -7.127504 29.057495 -145.447997 -2.497110 -7.460697 4.032371 0.411747 0.626666
968.813035 443.988972 53.650415 0.000000 0.000000 0.000000 0.000000 0.000000 0.000000 18.912944 -31.493364 13.690942 180.000000 5.906044 13.690942 15.758200 1.571878 11.043737 164.241800 3.864370 27.893295 14.397395 4.251157 -11.043737 18.000000 -0.461878 0.936907
968.862036 443.969952 59.354780 0.000000 0.000000 0.000000 0.000000 0.000000 0.000000 18.832684 1.473977 16.886559 180.000000 -0.777746 16.886559 15.833735 2.678629 14.452610 164.166265 7.542495 26.289200 14.711463 -6.401075 -14.452610 18.000000 0.052959 1.243449
968.910065 443.950775 50.106819 0.000000 0.000000 0.000000 0.000000 0.000000 0.000000 18.764066 5.774597 19.021130 180.000000 -8.665176 19.021130 15.920102 10.495032 17.633558 164.079898 -1.935525 24.270510 15.041323 -4.276352 -17.633558 18.000000 0.218537 1.545085
968.957118 443.931442 67.864270 0.000000 0.000000 0.000000 0.000000 0.000000 0.000000 18.706990 -14.216386 19.960535 180.000000 5.470389 19.960535 16.017366 -1.937098 20.536413 163.982634 2.844660 21.869059 15.386894 -1.705855 -20.536413 18.000000 0.311002 1.840623
969.003188 443.911954 53.583556 0.000000 0.000000 0.000000 0.000000 0.000000 0.000000 18.661377 -12.095423 19.645745 180.000000 11.521497 19.645745 16.125602 -9.287240 23.115397 163.874398 2.069678 19.122720 15.747980 0.201118 -23.115397 18.000000 0.663454 2.128896
969.048271 443.892312 53.544301 0.000000 0.000000 0.000000 0.000000 0.000000 0.000000 18.627165 -0.715676 18.096541 180.000000 -2.435028 18.096541 16.244896 2.552552 25.329838 163.755104 -3.571848 16.074804 16.124252 5.690877 -25.329838 18.000000 -0.811291 2.408768
969.092361 443.872515 44.326037 0.000000 0.000000 0.000000 0.000000 0.000000 0.000000 18.604312 8.879528 15.410265 180.000000 -0.462983 15.410265 16.375340 3.449171 27.144812 163.624660 -5.950249 12.773379 16.515224 -1.547812 -27.144812 18.000000 0.919363 2.679134
1055.186234 577.357593 65.625382 0.000000 0.000000 0.000000 0.000000 0.000000 0.000000 85.510211 -0.447192 11.755705 -94.489789 -1.787377 11.755705 37.103410 7.260092 28.531695 -148.111343 -2.270498 9.270510 24.294182 2.271798 -28.531695 -8.601915 -1.199386 2.938926
1122.856522 566.714029 52.933781 0.000000 0.000000 0.000000 0.000000 0.000000 0.000000 96.216240 -7.828822 7.362491 -83.783760 -3.102645 7.362491 46.189625 10.125226 29.468618 -149.396962 -1.942466 5.621439 24.670091 1.820845 -29.468618 -7.107716 0.565877 3.187120
969.218632 443.812213 42.614774 0.000000 0.000000 0.000000 0.000000 0.000000 0.000000 18.603763 -40.663937 2.506665 180.000000 17.383934 2.506665 16.834613 -10.034153 29.940802 163.165387 16.477872 1.883716 17.768624 -9.481196 -29.940802 18.000000 -0.354664 3.422736
1112.757797 605.798106 70.391128 0.000000 0.000000 0.000000 0.000000 0.000000 0.000000 110.914625 -0.730867 -2.506665 -69.085375 -6.773633 -2.506665 67.769469 5.616092 29.940802 -149.822316 -2.619056 -1.883716 29.049901 2.774659 -29.940802 -3.625079 -0.178014 3.644843
1086.733246 592.557156 56.479894 0.000000 0.000000 0.000000 0.000000 0.000000 0.000000 -80.132323 -57.114685 -7.362491 99.867677 22.077638 -7.362491 36.201564 -14.125241 29.468618 -13.679556 1.551621 -5.621439 78.049842 -2.834909 -29.468618 -5.127460 0.305511 3.852566
1081.109390 570.394492 67.805399 0.000000 0.000000 0.000000 0.000000 0.000000 0.000000 -175.864613 31.383050 -11.755705 4.135387 -21.088130 -11.755705 134.713876 8.119479 28.531695 -10.005873 -2.639815 -9.270510 135.737755 -1.201546 -28.531695 -3.389365 0.226831 4.045085
1089.776802 536.594539 60.667669 0.000000 0.000000 0.000000 0.000000 0.000000 0.000000 -139.033903 0.490324 -15.410265 40.966097 -2.166307 -15.410265 161.695972 -0.669006 27.144812 3.114398 -2.729236 -12.773379 148.805610 0.604106 -27.144812 -2.611636 -0.032922 4.221640
1114.282036 523.965647 55.389710 0.000000 0.000000 0.000000 0.000000 0.000000 0.000000 -156.073983 -3.570734 -18.096541 23.926017 1.837374 -18.096541 174.825807 2.425214 25.329838 5.093343 -0.453274 -16.074804 161.266817 1.925934 -25.329838 -1.814366 -0.112814 4.381533
1122.145157 503.425248 60.726573 0.000000 0.000000 0.000000 0.000000 0.000000 0.000000 -144.538174 -4.454714 -19.645745 35.461826 2.866085 -19.645745 174.215003 -1.063408 23.115397 -151.750905 -3.127850 -19.122720 43.887064 3.325432 -23.115397 -13.611294 -0.332543 4.524135
1134.158249 484.688419 69.608333 0.000000 0.000000 0.000000 0.000000 0.000000 0.000000 -142.311443 -8.977194 -19.960535 37.688557 11.996283 -19.960535 -174.407776 -2.015601 20.536413 14.121014 2.006912 -21.869059 176.737053 0.563897 -20.536413 -0.386439 0.075634 4.648882
1156.756668 500.025387 96.402397 0.000000 0.000000 0.000000 0.000000 0.000000 0.000000 -140.140767 25.020604 -19.021130 39.859233 10.842060 -19.021130 -176.866589 -3.445684 17.633558 -153.177991 -4.101435 -24.270510 40.555680 5.012349 -17.633558 -13.944432 -0.501235 4.755283
1163.818588 490.292573 73.666990 0.000000 0.000000 0.000000 0.000000 0.000000 0.000000 -126.918075 6.851285 -16.886559 53.081925 -4.667874 -16.886559 -163.374411 0.797327 14.452610 -153.952175 -4.165995 -26.289200 36.914642 4.987904 -14.452610 0.798233 0.289149 4.842916
1176.523705 490.346003 88.047789 0.000000 0.000000 0.000000 0.000000 0.000000 0.000000 -130.072590 -2.695404 -13.690942 49.927410 -1.541858 -13.690942 -150.224616 1.899763 11.043737 24.749952 0.597357 -27.893295 -162.219632 -0.179489 -11.043737 1.550269 -0.144082 4.911436
1165.045052 489.521159 72.108367 0.000000 0.000000 0.000000 0.000000 0.000000 0.000000 -134.421293 3.390818 -9.635073 45.578707 -0.615375 -9.635073 -138.114962 -4.481170 7.460697 20.347125 -5.210767 -29.057495 -149.675125 1.560543 -7.460697 1.919618 -0.028743 4.960574
1186.003189 485.341580 98.348893 0.000000 0.000000 0.000000 0.000000 0.000000 0.000000 151.263424 -84.479684 -4.973798 -28.736576 43.876756 -4.973798 -155.571724 -3.758082 3.759997 -114.944239 16.109185 -29.763441 -157.446860 -4.665262 -3.759997 2.096391 0.384232 4.990134
1190.285912 497.609435 98.112944 0.000000 0.000000 0.000000 0.000000 0.000000 0.000000 -104.331435 2.148363 -0.000000 75.668565 -23.523556 -0.000000 -153.934692 -3.659224 0.000000 -67.465008 4.122675 -30.000000 -71.629168 3.075206 -0.000000 -13.965204 -8.764854 5.000000
846.875610 502.341399 90.323535 0.000000 0.000000 0.000000 0.000000 0.000000 0.000000 -153.358185 28.768274 4.973798 26.641815 -21.366618 4.973798 -147.628169 -5.808017 -3.759997 -147.401289 -6.913212 -29.763441 0.000000 0.000000 0.000000 0.000000 0.000000 0.000000
969.711343 443.490827 84.840786 0.000000 0.000000 0.000000 0.000000 0.000000 0.000000 20.204512 1.931878 9.635073 180.000000 -12.741501 9.635073 20.733157 8.844787 -7.460697 159.266843 -0.976529 -29.057495 24.065833 -1.775256 7.460697 18.000000 -0.279312 4.960574
969.735789 443.468267 121.874734 0.000000 0.000000 0.000000 0.000000 0.000000 0.000000 20.415894 27.274105 13.690942 180.000000 -8.453651 13.690942 21.087741 -0.650964 -11.043737 158.912259 -4.946663 -27.893295 24.320336 -1.076463 11.043737 18.000000 0.361838 4.911436
969.759168 443.445569 109.649672 0.000000 0.000000 0.000000 0.000000 0.000000 0.000000 20.642061 -2.724555 16.886559 180.000000 0.722147 16.886559 21.453029 1.501838 -14.452610 158.546971 0.702889 -26.289200 24.533304 -3.257161 14.452610 18.000000 -0.572878 4.842916
585.252171 514.469179 117.583266 0.000000 0.000000 0.000000 0.000000 0.000000 0.000000 74.723181 -47.335196 19.021130 -105.276819 60.360868 19.021130 119.807175 -9.276473 -17.633558 165.825978 10.531813 -24.270510 138.012220 -3.066438 17.633558 -12.357653 1.635752 4.755283
624.843979 517.601860 125.000419 0.000000 0.000000 0.000000 0.000000 0.000000 0.000000 103.202449 -2.902899 19.960535 -76.797551 3.361097 19.960535 114.381580 -0.460039 -20.536413 -53.015473 -39.554998 -21.869059 145.467160 0.839413 20.536413 -4.173333 1.617014 4.648882
969.822873 443.376664 150.081907 0.000000 0.000000 0.000000 0.000000 0.000000 0.000000 21.413420 -10.901610 19.645745 180.000000 0.495012 19.645745 22.607712 7.571327 -23.115397 157.392288 -5.226851 -19.122720 24.899813 5.726953 23.115397 18.000000 1.227090 4.524135
969.841956 443.353428 143.611870 0.000000 0.000000 0.000000 0.000000 0.000000 0.000000 21.702987 0.757026 18.096541 180.000000 -3.604882 18.096541 23.009909 2.812142 -25.329838 156.990091 2.977311 -16.074804 24.926562 -2.066485 25.329838 18.000000 -1.104325 4.381533
969.859960 443.330059 155.905624 0.000000 0.000000 0.000000 0.000000 0.000000 0.000000 22.009579 -19.540036 15.410265 180.000000 10.079576 15.410265 23.419334 -12.447960 -27.144812 156.580666 8.712903 -12.773379 24.904993 -1.421872 27.144812 18.000000 -0.357507 4.221640
594.905148 538.048757 149.288480 0.000000 0.000000 0.000000 0.000000 0.000000 0.000000 -57.080480 1.403714 11.755705 122.919520 14.713782 11.755705 -12.750556 -12.142247 -28.531695 149.841027 8.152651 -9.270510 -8.274090 -8.053194 28.531695 17.596979 0.287157 4.045085
969.892723 443.282929 150.839924 0.000000 0.000000 0.000000 0.000000 0.000000 0.000000 22.675903 -15.410702 7.362491 180.000000 8.681366 7.362491 24.255612 5.878077 -29.468618 155.744388 5.776881 -5.621439 24.720303 8.121182 29.468618 18.000000 -0.532313 3.852566
1257.001877 499.708382 152.921876 0.000000 0.000000 0.000000 0.000000 0.000000 0.000000 52.818511 2.331217 2.506665 -127.181489 -3.512706 2.506665 25.369497 0.662462 -29.940802 -143.914951 -0.491621 -1.883716 14.556766 -1.824496 29.940802 -16.686776 -0.069098 3.644843
1279.050064 493.773898 161.112631 0.000000 0.000000 0.000000 0.000000 0.000000 0.000000 56.685213 3.055286 -2.506665 -123.314787 -2.822981 -2.506665 24.065452 1.260937 -29.940802 -146.540317 -1.512955 1.883716 13.097461 1.330947 29.940802 -16.716891 -0.069916 3.422736
1295.108986 477.099677 160.923768 0.000000 0.000000 0.000000 0.000000 0.000000 0.000000 65.723361 0.236054 -7.362491 -114.276639 -4.430502 -7.362491 23.725299 2.568860 -29.468618 -147.984281 0.534739 5.621439 13.187557 0.419053 29.468618 -16.751134 0.087705 3.187120
1289.065018 496.763316 162.390812 0.000000 0.000000 0.000000 0.000000 0.000000 0.000000 61.662232 -9.516824 -11.755705 -118.337768 7.058348 -11.755705 31.397757 -2.260658 -28.531695 -148.047797 4.165183 9.270510 12.491083 -2.532904 28.531695 -16.898368 0.058514 2.938926
1285.337105 480.691112 136.106824 0.000000 0.000000 0.000000 0.000000 0.000000 0.000000 58.021980 1.987931 -15.410265 -121.978020 -4.798018 -15.410265 31.705930 1.986400 -27.144812 -157.028684 -1.471347 12.773379 11.107306 0.184750 27.144812 -17.140016 0.001360 2.679134
1276.453171 465.093691 147.267974 0.000000 0.000000 0.000000 0.000000 0.000000 0.000000 70.157145 5.712480 -18.096541 -109.842855 -7.777598 -18.096541 40.303764 5.496277 -25.329838 -145.293609 -2.752676 16.074804 10.431204 1.448639 25.329838 -17.100572 0.040443 2.408768
1253.658714 472.768564 141.000475 0.000000 0.000000 0.000000 0.000000 0.000000 0.000000 65.087926 21.331048 -19.645745 -114.912074 6.967442 -19.645745 -157.680356 -7.182406 -23.115397 -137.727082 -0.218401 19.122720 -153.053596 -13.729458 23.115397 -16.054219 -0.743897 2.128896
1366.101608 507.691247 144.483890 0.000000 0.000000 0.000000 0.000000 0.000000 0.000000 108.715100 24.215190 -19.960535 -71.284900 -30.342699 -19.960535 156.661132 6.182178 -20.536413 -158.224303 -6.285193 21.869059 0.000000 0.000000 0.000000 0.000000 0.000000 0.000000
969.986295 443.064535 159.458945 0.000000 0.000000 0.000000 0.000000 0.000000 0.000000 26.662144 -20.185730 -19.021130 180.000000 1.180756 -19.021130 28.015351 11.348468 -17.633558 151.984649 17.938870 24.270510 22.068935 -13.730070 17.633558 18.000000 0.169888 1.545085
1282.107124 481.511257 150.823764 0.000000 0.000000 0.000000 0.000000 0.000000 0.000000 80.650781 37.850841 -16.886559 -99.349219 -21.377668 -16.886559 1.511604 3.467479 -14.452610 -32.896908 -4.828140 26.289200 -7.727072 -6.084431 14.452610 13.531851 4.850832 1.243449
1282.921486 484.777769 147.750112 0.000000 0.000000 0.000000 0.000000 0.000000 0.000000 -81.737646 4.270008 -13.690942 98.262354 -19.843070 -13.690942 -23.867101 1.533398 -11.043737 12.655668 -4.108159 27.893295 -29.454911 -0.101683 11.043737 9.861248 0.661794 0.936907
1290.933037 513.180238 136.738687 0.000000 0.000000 0.000000 0.000000 0.000000 0.000000 -91.387864 -15.002298 -9.635073 88.612136 12.671390 -9.635073 -41.685392 -6.189522 -7.460697 -161.156957 -5.522772 29.057495 15.157863 5.382100 7.460697 10.543436 0.229020 0.626666
969.999452 442.964284 148.013658 0.000000 0.000000 0.000000 0.000000 0.000000 0.000000 29.025427 17.433106 -4.973798 180.000000 0.575902 -4.973798 29.437993 -19.053663 -3.759997 150.562007 -7.574430 29.763441 20.404746 -3.260617 3.759997 18.000000 -0.128569 0.313953
970.000000 442.938926 140.995975 0.000000 0.000000 0.000000 0.000000 0.000000 0.000000 29.678605 -14.814733 0.000000 180.000000 0.574140 0.000000 29.744881 -2.572141 -0.000000 150.255119 2.731775 30.000000 19.983107 -3.236869 0.000000 18.000000 0.675083 0.000000
1354.522934 467.411410 130.977748 0.000000 0.000000 0.000000 0.000000 0.000000 0.000000 150.622570 3.463663 4.973798 -29.377430 -0.676292 4.973798 140.176400 2.154558 3.759997 -12.221629 1.768247 29.763441 132.794256 3.722318 -3.759997 -2.626015 -0.478294 0.313953
969.997807 442.887864 131.275800 0.000000 0.000000 0.000000 0.000000 0.000000 0.000000 31.061399 30.978361 9.635073 180.000000 -2.693751 9.635073 30.285790 -10.350041 7.460697 149.714210 -15.000659 29.057495 19.151579 -6.020063 -7.460697 18.000000 0.659602 0.626666
1246.736984 514.278152 114.149827 0.000000 0.000000 0.000000 0.000000 0.000000 0.000000 143.557092 -5.383695 13.690942 -36.442908 -2.445872 13.690942 133.761037 -2.746134 11.043737 -156.950665 -5.717469 27.893295 0.000000 0.000000 0.000000 1.928484 0.484925 0.936907
1245.221100 458.637464 109.801845 0.000000 0.000000 0.000000 0.000000 0.000000 0.000000 160.701064 4.478061 16.886559 -19.298936 12.024455 16.886559 140.193827 0.299481 14.452610 -157.554825 -5.219185 26.289200 29.500467 5.183267 -14.452610 -15.049953 -0.518327 1.243449
1257.365570 418.514181 92.343713 0.000000 0.000000 0.000000 0.000000 0.000000 0.000000 -143.710676 -0.666682 19.021130 36.289324 -10.404867 19.021130 163.220413 5.594095 17.633558 11.688054 -2.644617 24.270510 152.038385 1.153758 -17.633558 -2.339948 -0.073978 1.545085
1275.099564 408.163741 116.598047 0.000000 0.000000 0.000000 0.000000 0.000000 0.000000 -132.929531 -2.688265 19.960535 47.070469 7.424224 19.960535 173.491912 -10.768951 20.536413 -160.709681 -4.685413 21.869059 33.138793 5.306548 -20.536413 -14.686121 -0.530655 1.840623
1290.611115 384.880857 99.001351 0.000000 0.000000 0.000000 0.000000 0.000000 0.000000 -132.705235 0.480563 19.645745 47.294765 14.355046 19.645745 -173.778854 -7.427721 23.115397 20.496835 1.031913 19.122720 -161.220290 -3.768522 -23.115397 1.723235 0.402379 2.128896
1302.817154 380.305352 103.505831 0.000000 0.000000 0.000000 0.000000 0.000000 0.000000 -131.493915 1.360644 18.096541 48.506085 -2.116347 18.096541 -165.393697 1.389319 25.329838 23.154815 -0.755127 16.074804 -178.200316 0.861253 -25.329838 0.138141 -0.010472 2.408768
1304.997711 379.563582 91.253701 0.000000 0.000000 0.000000 0.000000 0.000000 0.000000 -126.727972 -4.365560 15.410265 53.272028 1.786593 15.410265 -160.219593 0.169239 27.144812 28.448880 2.392923 12.773379 -174.368770 -0.995074 -27.144812 0.079526 -0.100664 2.679134
1311.668472 386.890390 90.738474 0.000000 0.000000 0.000000 0.000000 0.000000 0.000000 -122.308728 -1.738842 11.755705 57.691272 -10.434422 11.755705 -158.801130 6.467453 28.531695 150.942637 -0.009240 9.270510 -154.878332 -3.957659 -28.531695 2.695409 0.570957 2.938926
1305.131836 395.180186 72.376348 0.000000 0.000000 0.000000 0.000000 0.000000 0.000000 -125.112810 -12.258898 7.362491 54.887190 -6.057979 7.362491 -146.487292 4.405278 29.468618 -175.167369 1.456796 5.621439 -159.224034 -4.172447 -29.468618 1.782042 0.452152 3.187120
1296.320457 392.734526 66.311867 0.000000 0.000000 0.000000 0.000000 0.000000 0.000000 -131.035750 -2.646488 2.506665 48.964250 0.617734 2.506665 -128.969563 2.026878 29.940802 38.856147 -1.755381 1.883716 -134.776850 2.309294 -29.940802 3.458429 -0.117221 3.422736
1306.963577 386.612041 64.237848 0.000000 0.000000 0.000000 0.000000 0.000000 0.000000 -124.469622 1.565622 -2.506665 55.530378 -15.282042 -2.506665 -109.994856 3.455748 29.940802 37.691309 -1.586645 -1.883716 -118.274788 -0.838084 -29.940802 5.098336 0.038832 3.644843
969.892723 442.572198 66.179640 0.000000 0.000000 0.000000 0.000000 0.000000 0.000000 41.287575 -2.078800 -7.362491 180.000000 4.004202 -7.362491 30.974696 -5.378099 29.468618 149.025304 9.384585 -5.621439 15.072869 -1.505427 -29.468618 18.000000 0.077206 3.852566
969.876883 442.545207 64.411445 0.000000 0.000000 0.000000 0.000000 0.000000 0.000000 42.241956 18.824616 -11.755705 180.000000 -11.213231 -11.755705 30.826133 -7.142323 28.531695 149.173867 -5.172940 -9.270510 14.823070 3.577549 -28.531695 18.000000 0.121151 4.045085
969.859960 442.518116 50.279496 0.000000 0.000000 0.000000 0.000000 0.000000 0.000000 43.199779 -28.310131 -15.410265 180.000000 19.960820 -15.410265 30.649504 -13.859585 27.144812 149.350496 8.526622 -12.773379 14.587557 -4.317850 -27.144812 18.000000 -0.365527 4.221640
969.841956 442.490926 54.404802 0.000000 0.000000 0.000000 0.000000 0.000000 0.000000 44.157210 13.037340 -18.096541 180.000000 -1.828195 -18.096541 30.446417 -5.585610 25.329838 149.553583 -11.548304 -16.074804 14.366154 4.262577 -25.329838 18.000000 -0.001760 4.381533
969.822873 442.463637 50.647889 0.000000 0.000000 0.000000 0.000000 0.000000 0.000000 45.110117 5.148669 -19.645745 180.000000 2.144648 -19.645745 30.218633 -9.526397 23.115397 149.781367 -1.081481 -19.122720 14.158653 -0.330330 -23.115397 18.000000 -0.448542 4.524135
969.802712 442.436251 59.427745 0.000000 0.000000 0.000000 0.000000 0.000000 0.000000 46.054109 16.559808 -19.960535 180.000000 9.324408 -19.960535 29.968037 -11.618819 20.536413 150.031963 -6.161860 -21.869059 13.964823 -2.705831 -20.536413 18.000000 0.528750 4.648882
1187.040939 541.658249 66.457135 0.000000 0.000000 0.000000 0.000000 0.000000 0.000000 82.806623 -0.582784 -19.021130 -97.193377 0.337683 -19.021130 45.395981 -6.776943 17.633558 -156.144455 -2.562271 -24.270510 0.000000 0.000000 0.000000 0.000000 0.000000 0.000000
1182.242889 522.024286 34.618150 0.000000 0.000000 0.000000 0.000000 0.000000 0.000000 -105.721938 -1.702461 -16.886559 74.278062 36.113186 -16.886559 -155.708006 -3.188893 14.452610 -157.302521 -1.746286 -26.289200 0.000000 0.000000 0.000000 2.684983 0.238351 4.842916
1180.914459 527.065626 57.379111 0.000000 0.000000 0.000000 0.000000 0.000000 0.000000 88.055617 -2.283161 -13.690942 -91.944383 2.992851 -13.690942 -158.862018 -2.511200 11.043737 -151.747289 -1.956753 -27.893295 0.000000 0.000000 0.000000 0.000000 0.000000 0.000000
1236.800194 541.387432 62.100447 0.000000 0.000000 0.000000 0.000000 0.000000 0.000000 -85.588400 7.654015 -9.635073 94.411600 -7.331868 -9.635073 -159.297106 0.775545 7.460697 -157.915391 -2.539145 -29.057495 26.607362 2.375442 -7.460697 14.926890 1.586085 4.960574
1161.066513 575.006626 45.670262 0.000000 0.000000 0.000000 0.000000 0.000000 0.000000 -81.021168 -23.341128 -4.973798 98.978832 10.063538 -4.973798 -102.851701 -2.792455 3.759997 -157.041007 -1.702012 -29.763441 21.429890 2.820856 -3.759997 10.859432 -0.379788 4.990134
1255.636253 512.645942 46.440197 0.000000 0.000000 0.000000 0.000000 0.000000 0.000000 77.832564 -0.468747 -0.000000 -102.167436 1.231723 -0.000000 -158.264834 -2.786630 0.000000 -130.745502 -0.825593 -30.000000 -157.699225 -2.776112 -0.000000 0.000000 0.000000 0.000000
1265.118484 521.473864 72.633984 0.000000 0.000000 0.000000 0.000000 0.000000 0.000000 64.078276 -1.437211 4.973798 -115.921724 3.189214 4.973798 41.397952 0.935971 -3.759997 -139.329851 1.464675 -29.763441 20.223252 -2.094250 3.759997 -16.047574 0.077054 4.990134
1228.099480 522.138258 54.687512 0.000000 0.000000 0.000000 0.000000 0.000000 0.000000 71.050901 0.214526 9.635073 -108.949099 1.246612 9.635073 150.099970 0.305110 -7.460697 -139.894702 -1.474701 -29.057495 -156.275691 -2.572579 7.460697 0.000000 0.000000 0.000000
1240.357246 528.695873 65.456344 0.000000 0.000000 0.000000 0.000000 0.000000 0.000000 65.413351 1.387566 13.690942 -114.586649 -5.000837 13.690942 147.242328 14.713608 -11.043737 -154.470720 -2.413266 -27.893295 25.557225 3.231390 11.043737 -15.444278 -0.323139 4.911436
1231.815262 551.380248 42.789655 0.000000 0.000000 0.000000 0.000000 0.000000 0.000000 56.412506 15.033664 16.886559 -123.587494 7.145792 16.886559 -153.392336 -4.363842 -14.452610 -154.784582 -2.645810 -26.289200 24.191555 5.045951 14.452610 -15.580844 -0.504595 4.842916
1221.475182 508.360147 65.056365 0.000000 0.000000 0.000000 0.000000 0.000000 0.000000 77.450622 7.446368 19.021130 -102.549378 -2.391351 19.021130 -156.789784 -2.881660 -17.633558 -125.590168 -3.427935 -24.270510 -160.017240 -2.702525 17.633558 1.833434 0.392481 4.755283
969.477684 442.100429 50.006153 0.000000 0.000000 0.000000 0.000000 0.000000 0.000000 54.932575 -18.158723 19.960535 180.000000 35.970997 19.960535 25.919122 -15.158830 -20.536413 154.080878 11.207900 -21.869059 12.612867 1.398248 20.536413 18.000000 -0.172320 4.648882
1480.140495 518.878891 49.315854 0.000000 0.000000 0.000000 0.000000 0.000000 0.000000 -110.621767 -88.139601 19.645745 69.378233 88.252152 19.645745 -158.235933 -2.776758 -23.115397 166.031448 10.337860 -19.122720 -155.186432 -3.011767 23.115397 2.641553 0.295492 4.524135
1271.640472 556.840560 71.454302 0.000000 0.000000 0.000000 0.000000 0.000000 0.000000 -94.404719 -2.154917 18.096541 85.595281 9.358377 18.096541 -62.417786 -3.379890 -25.329838 23.992813 -1.665788 -16.074804 -76.856107 3.151035 25.329838 7.708835 -0.113771 4.381533
1258.556786 530.268441 72.849005 0.000000 0.000000 0.000000 0.000000 0.000000 0.000000 78.355945 0.455930 15.410265 -101.644055 -10.010807 15.410265 35.068294 8.026003 -27.144812 -54.090640 -6.701757 -12.773379 35.848220 7.334789 27.144812 -8.104639 -0.914172 4.221640
1250.800209 527.150567 79.460413 0.000000 0.000000 0.000000 0.000000 0.000000 0.000000 72.417769 -5.233363 11.755705 -107.582231 2.845850 11.755705 24.571109 6.843382 -28.531695 -39.196117 1.277655 -9.270510 10.411117 2.207297 28.531695 -9.048616 -0.529369 4.045085
1243.466148 571.776259 105.600567 0.000000 0.000000 0.000000 0.000000 0.000000 0.000000 86.301473 2.245053 7.362491 -93.698527 -7.139109 7.362491 24.553534 -0.876041 -29.468618 -153.460385 -4.213928 -5.621439 19.510484 2.820722 29.468618 -10.109500 -0.727833 3.852566
1261.883812 566.052918 70.044916 0.000000 0.000000 0.000000 0.000000 0.000000 0.000000 94.015209 -13.477813 2.506665 -85.984791 12.953247 2.506665 38.959993 -6.357321 -29.940802 -154.008305 -3.989296 -1.883716 20.870951 3.842280 29.940802 -10.872440 -1.081656 3.644843
1284.436798 527.190542 98.295825 0.000000 0.000000 0.000000 0.000000 0.000000 0.000000 111.186365 -3.580075 -2.506665 -68.813635 -16.053143 -2.506665 58.506163 -4.903098 -29.940802 -19.138727 -1.975432 1.883716 51.457372 -0.890830 29.940802 -5.203198 0.472692 3.422736
1272.860069 533.494012 84.637976 0.000000 0.000000 0.000000 0.000000 0.000000 0.000000 72.301471 -22.103528 -7.362491 -107.698529 21.364092 -7.362491 78.802573 -2.373132 -29.468618 -154.772375 -4.060057 5.621439 26.927455 4.055409 29.468618 -15.307255 -0.405541 3.187120
1255.264664 498.243735 128.859847 0.000000 0.000000 0.000000 0.000000 0.000000 0.000000 164.596971 65.705162 -11.755705 -15.403029 -58.259695 -11.755705 125.849126 4.512467 -28.531695 -156.067666 -6.111619 9.270510 33.087561 4.669258 28.531695 -14.691244 -0.466926 2.938926
1259.202232 470.407684 111.544902 0.000000 0.000000 0.000000 0.000000 0.000000 0.000000 -139.980397 -6.222197 -15.410265 40.019603 16.186771 -15.410265 165.887722 -0.501649 -27.144812 -157.901492 -4.898273 12.773379 35.196094 5.241048 27.144812 -14.480391 -0.524105 2.679134
1236.502075 429.951335 106.386513 0.000000 0.000000 0.000000 0.000000 0.000000 0.000000 -113.295066 -10.639866 -18.096541 66.704934 2.209912 -18.096541 -174.664169 4.452624 -25.329838 -159.007335 -4.795890 16.074804 32.868990 6.470534 25.329838 -14.713101 -0.647053 2.408768
1253.359451 413.942538 129.283590 0.000000 0.000000 0.000000 0.000000 0.000000 0.000000 -123.348580 -16.037304 -19.645745 56.651420 9.279481 -19.645745 -167.815074 0.866324 -23.115397 -159.603180 -4.721545 19.122720 32.791747 6.288087 23.115397 -14.720825 -0.628809 2.128896
1281.206589 405.664523 135.824760 0.000000 0.000000 0.000000 0.000000 0.000000 0.000000 -124.414271 8.552711 -19.960535 55.585729 -0.715514 -19.960535 -161.281803 -0.404774 -20.536413 28.568449 2.854813 21.869059 -159.052798 -5.626916 20.536413 1.849141 0.461351 1.840623
1300.238571 418.760215 131.544226 0.000000 0.000000 0.000000 0.000000 0.000000 0.000000 -126.263092 -3.596107 -19.021130 53.736908 5.549149 -19.021130 -159.739358 -3.585362 -17.633558 31.487961 0.926343 24.270510 -170.323915 1.552878 17.633558 0.671815 -0.073733 1.545085
1321.889191 413.634385 141.566508 0.000000 0.000000 0.000000 0.000000 0.000000 0.000000 -133.874471 5.765231 -16.886559 46.125529 -0.591160 -16.886559 -159.376251 -2.232518 -14.452610 30.696824 -1.142655 26.289200 -164.929556 0.364776 14.452610 1.089735 -0.235535 1.243449
1336.221428 432.881820 158.425512 0.000000 0.000000 0.000000 0.000000 0.000000 0.000000 -115.020798 5.982606 -13.690942 64.979202 2.070791 -13.690942 -135.609544 0.901509 -11.043737 -161.321630 -6.254884 27.893295 17.353502 8.894270 11.043737 -16.264650 -0.889427 0.936907
1329.124603 416.860342 153.835238 0.000000 0.000000 0.000000 0.000000 0.000000 0.000000 -134.023347 7.243903 -9.635073 45.976653 4.315782 -9.635073 -128.030830 -6.810992 -7.460697 28.249885 -1.674807 29.057495 -136.447985 0.296686 7.460697 4.038834 0.096381 0.626666
1343.366776 427.060794 135.146023 0.000000 0.000000 0.000000 0.000000 0.000000 0.000000 -130.153347 -0.164120 -4.973798 49.846653 3.474001 -4.973798 -103.564435 -0.111471 -3.759997 27.398095 1.354001 29.763441 -115.461530 0.670052 3.759997 5.470063 -0.301520 0.313953
1376.991005 465.829636 156.038633 0.000000 0.000000 0.000000 0.000000 0.000000 0.000000 -120.272352 0.990766 0.000000 59.727648 0.174761 0.000000 -62.204131 -8.370663 -0.000000 27.740602 -3.757742 30.000000 -80.461527 3.882012 0.000000 7.450891 -0.366028 0.000000
1384.978867 468.790376 144.258212 0.000000 0.000000 0.000000 0.000000 0.000000 0.000000 -93.720384 35.894416 4.973798 86.279616 -57.073543 4.973798 3.847814 6.300473 3.759997 -160.438787 -7.094538 29.763441 15.990976 4.903610 -3.759997 7.894783 -0.829534 0.313953
1345.894547 516.257268 171.955685 0.000000 0.000000 0.000000 0.000000 0.000000 0.000000 127.577640 16.295387 9.635073 -52.422360 -0.008116 9.635073 53.096359 -3.933130 7.460697 -159.021748 -7.031423 29.057495 18.308456 5.487817 -7.460697 -4.062191 -0.682381 0.626666
968.498927 441.455181 142.617869 0.000000 0.000000 0.000000 0.000000 0.000000 0.000000 47.920147 30.397238 13.690942 180.000000 10.985583 13.690942 19.641385 -6.782872 11.043737 160.358615 -8.229887 27.893295 13.993219 3.661479 -11.043737 18.000000 -0.588174 0.936907
1336.846733 493.527671 160.461877 0.000000 0.000000 0.000000 0.000000 0.000000 0.000000 102.681311 27.119598 16.886559 -77.318689 -8.578300 16.886559 35.985219 -6.675896 14.452610 -159.617763 -7.077807 26.289200 19.375410 6.064134 -14.452610 -16.062459 -0.606413 1.243449
968.386706 441.394956 131.363102 0.000000 0.000000 0.000000 0.000000 0.000000 0.000000 46.120581 -7.850776 19.021130 180.000000 -3.458971 19.021130 19.316787 0.993758 17.633558 160.683213 -4.988543 24.270510 14.327067 4.844812 -17.633558 18.000000 -0.472267 1.545085
1263.984947 433.341283 152.893144 0.000000 0.000000 0.000000 0.000000 0.000000 0.000000 -115.578373 14.662258 19.960535 64.421627 -7.260455 19.960535 -82.396446 7.193694 20.536413 25.733383 -4.049150 21.869059 -77.477544 -11.973443 -20.536413 5.836928 2.075737 1.840623
1352.596436 477.564354 131.805916 0.000000 0.000000 0.000000 0.000000 0.000000 0.000000 -99.196741 3.449722 19.645745 80.803259 0.569260 19.645745 -125.272585 -1.545277 23.115397 -162.405270 -6.801727 19.122720 17.377627 6.699774 -23.115397 -16.262237 -0.669977 2.128896
1384.326782 408.174427 135.162679 0.000000 0.000000 0.000000 0.000000 0.000000 0.000000 96.868601 17.180902 18.096541 -83.131399 -12.417868 18.096541 -160.848957 -6.096149 25.329838 -137.255583 -4.686455 16.074804 -162.076720 -6.614290 -25.329838 0.000000 0.000000 0.000000
1387.580223 387.128634 131.122147 0.000000 0.000000 0.000000 0.000000 0.000000 0.000000 78.087764 2.994569 15.410265 -101.912236 2.999065 15.410265 -161.807915 -5.498402 27.144812 -147.504361 8.199388 12.773379 -162.566306 -7.787713 -27.144812 1.735427 0.751744 2.679134
1345.818558 392.423122 143.494926 0.000000 0.000000 0.000000 0.000000 0.000000 0.000000 71.782984 25.165004 11.755705 -108.217016 8.409440 11.755705 -169.469261 -7.291867 28.531695 -153.903088 -0.048419 9.270510 -154.670689 5.167800 -28.531695 15.277725 -3.394268 2.938926
1331.471329 361.814139 124.503143 0.000000 0.000000 0.000000 0.000000 0.000000 0.000000 53.586100 -24.370506 7.362491 -126.413900 12.759633 7.362491 -162.290330 -5.856889 29.468618 -154.912165 -0.373824 5.621439 -162.550394 -6.351485 -29.468618 1.742175 0.718177 3.187120
1354.413986 427.213873 139.514647 0.000000 0.000000 0.000000 0.000000 0.000000 0.000000 -131.358118 1.459062 2.506665 48.641882 10.584124 2.506665 -142.488821 1.922092 29.940802 -161.977882 -5.601113 1.883716 12.673705 7.426246 -29.940802 1.397524 0.021697 3.422736
1330.326691 347.207226 131.193627 0.000000 0.000000 0.000000 0.000000 0.000000 0.000000 52.464175 -8.679852 -2.506665 -127.535825 -0.127838 -2.506665 14.270918 1.738509 29.940802 -122.057234 3.591362 -1.883716 22.820874 -1.988299 -29.940802 -15.244909 0.160088 3.644843
1317.103271 414.475805 124.336879 0.000000 0.000000 0.000000 0.000000 0.000000 0.000000 76.170457 3.299035 -7.362491 -103.829543 0.495410 -7.362491 -50.250674 -6.818536 29.468618 -52.503744 -0.085817 -5.621439 -92.793049 5.629088 -29.468618 3.303440 -1.023715 3.852566
1331.844635 430.291482 113.475233 0.000000 0.000000 0.000000 0.000000 0.000000 0.000000 79.985160 3.108047 -11.755705 -100.014840 -3.709576 -11.755705 25.995082 2.545359 28.531695 -75.062603 -2.638527 -9.270510 38.761234 1.225529 -28.531695 -11.442229 0.162668 4.045085
1359.462433 496.472383 99.929830 0.000000 0.000000 0.000000 0.000000 0.000000 0.000000 84.268829 -2.521011 -15.410265 -95.731171 -1.088304 -15.410265 30.279153 1.236720 27.144812 -63.318008 0.910733 -12.773379 39.457716 -2.866553 -27.144812 -9.485742 0.456310 4.221640
1323.514366 546.771398 138.188137 0.000000 0.000000 0.000000 0.000000 0.000000 0.000000 84.407325 4.086462 -18.096541 -95.592675 0.835322 -18.096541 27.768249 -4.045606 25.329838 -47.660055 -2.110023 -16.074804 28.281511 1.705832 -25.329838 -7.827901 -1.133601 4.381533
1268.535347 591.567099 95.266627 0.000000 0.000000 0.000000 0.000000 0.000000 0.000000 90.890792 -5.824786 -19.645745 -89.109208 4.447852 -19.645745 44.654760 -6.071827 23.115397 -48.200667 0.075191 -19.122720 43.369388 4.349936 -23.115397 -8.974980 0.857656 4.524135
1303.157158 602.888768 92.422590 0.000000 0.000000 0.000000 0.000000 0.000000 0.000000 90.349289 -1.178659 -19.960535 -89.650711 -2.539815 -19.960535 47.707312 -0.011758 20.536413 -53.918782 -2.861321 -21.869059 40.070965 1.310591 -20.536413 -9.318632 0.233916 4.648882
1314.841690 613.141973 98.912577 0.000000 0.000000 0.000000 0.000000 0.000000 0.000000 94.480501 -2.189057 -19.021130 -85.519499 2.406213 -19.021130 58.462862 3.702711 17.633558 -52.020507 -0.256014 -24.270510 55.276552 3.412816 -17.633558 -7.777523 0.565344 4.755283
1327.521400 639.394319 113.320520 0.000000 0.000000 0.000000 0.000000 0.000000 0.000000 99.879576 -3.212195 -16.886559 -80.120424 0.954579 -16.886559 69.161359 -2.219011 14.452610 -46.413613 -0.997240 -26.289200 76.680143 0.152431 -14.452610 -6.257768 -0.271157 4.842916
1277.812729 671.228578 86.769374 0.000000 0.000000 0.000000 0.000000 0.000000 0.000000 99.708534 2.312853 -13.690942 -80.291466 4.774447 -13.690942 92.239140 -0.505644 11.043737 -26.764021 -2.605046 -27.893295 98.168457 4.175031 -11.043737 -4.372074 -0.314376 4.911436
1309.642181 690.479329 64.240242 0.000000 0.000000 0.000000 0.000000 0.000000 0.000000 117.292414 -2.203203 -9.635073 -62.707586 0.078115 -9.635073 137.002702 -0.504138 7.460697 -32.045917 -0.944697 -29.057495 135.211322 -0.809127 -7.460697 -3.212944 0.139016 4.960574
1299.770966 664.126496 100.242703 0.000000 0.000000 0.000000 0.000000 0.000000 0.000000 158.531160 -3.185839 -4.973798 -21.468840 14.653878 -4.973798 161.478323 -3.444425 3.759997 -12.838206 4.764574 -29.763441 151.269584 -1.466862 -3.759997 -2.521934 -0.006829 4.990134
1313.353729 643.668108 51.756215 0.000000 0.000000 0.000000 0.000000 0.000000 0.000000 -154.315892 -0.356193 -0.000000 25.684108 -14.283907 -0.000000 173.459940 3.308352 0.000000 1.519689 -2.689629 -30.000000 164.244875 0.419605 -0.000000 -1.552244 -0.054678 5.000000
1342.841377 638.982847 78.653116 0.000000 0.000000 0.000000 0.000000 0.000000 0.000000 -138.993869 -10.777640 4.973798 41.006131 47.113841 4.973798 175.724056 -4.781880 -3.759997 -151.723069 -2.371974 -29.763441 43.242568 3.616808 3.759997 -13.675743 -0.361681 4.990134
1350.000229 614.724133 54.644246 0.000000 0.000000 0.000000 0.000000 0.000000 0.000000 -144.248147 7.403000 9.635073 35.751853 -5.176957 9.635073 177.069273 -2.488282 -7.460697 -152.227621 -2.968095 -29.057495 43.136563 3.727780 7.460697 -13.686344 -0.372778 4.960574
1328.535919 624.780936 49.257946 0.000000 0.000000 0.000000 0.000000 0.000000 0.000000 -165.447222 38.836072 13.690942 14.552778 -0.075047 13.690942 169.657511 -0.322383 -11.043737 -152.168050 -3.284244 -27.893295 41.929642 3.457939 11.043737 -13.807036 -0.345794 4.911436
1318.810501 615.688248 56.088302 0.000000 0.000000 0.000000 0.000000 0.000000 0.000000 -120.063657 -7.037858 16.886559 59.936343 8.814892 16.886559 -165.389465 0.805407 -14.452610 -152.866764 -2.054497 -26.289200 39.162270 4.377474 14.452610 -14.083773 -0.437747 4.842916
1321.656418 659.275410 55.563130 0.000000 0.000000 0.000000 0.000000 0.000000 0.000000 -121.435085 4.270511 19.021130 58.564915 8.307356 19.021130 -149.190712 -7.595760 -17.633558 -151.926374 -2.442843 -24.270510 33.097066 2.578603 17.633558 -14.690293 -0.257860 4.755283
1328.445511 687.490232 58.108064 0.000000 0.000000 0.000000 0.000000 0.000000 0.000000 -104.253419 1.553622 19.960535 75.746581 7.801138 19.960535 -110.140878 -0.594381 -20.536413 -152.911692 -1.930120 -21.869059 23.882145 2.620462 20.536413 3.694979 -0.035322 4.648882
966.534206 440.564282 39.782277 0.000000 0.000000 0.000000 0.000000 0.000000 0.000000 25.865486 15.839747 19.645745 180.000000 -7.950175 19.645745 18.728337 1.806225 -23.115397 161.271663 9.290667 -19.122720 19.024234 -13.519332 23.115397 18.000000 0.684013 4.524135
966.454577 440.533056 35.194281 0.000000 0.000000 0.000000 0.000000 0.000000 0.000000 25.417507 11.988575 18.096541 180.000000 16.996279 18.096541 18.825450 -7.451197 -25.329838 161.174550 5.479733 -16.074804 19.071566 1.593240 25.329838 18.000000 0.427624 4.381533
966.374240 440.501809 47.820752 0.000000 0.000000 0.000000 0.000000 0.000000 0.000000 24.990320 -16.289803 15.410265 180.000000 8.057815 15.410265 18.929718 -3.892486 -27.144812 161.070282 1.485712 -12.773379 19.102411 -0.632724 27.144812 18.000000 -0.798577 4.221640
966.293204 440.470542 41.011014 0.000000 0.000000 0.000000 0.000000 0.000000 0.000000 24.583377 17.330579 11.755705 180.000000 -3.065454 11.755705 19.040946 -8.634564 -28.531695 160.959054 1.170788 -9.270510 19.116765 -3.059721 28.531695 18.000000 0.048240 4.045085
966.211478 440.439256 56.203126 0.000000 0.000000 0.000000 0.000000 0.000000 0.000000 24.196129 2.719040 7.362491 180.000000 2.120176 7.362491 19.158923 -4.091876 -29.468618 160.841077 -8.915818 -5.621439 19.114778 10.056520 29.468618 18.000000 -0.647530 3.852566
644.985180 745.864069 56.817405 0.000000 0.000000 0.000000 0.000000 0.000000 0.000000 96.086415 -27.186675 2.506665 -83.913585 -24.575294 2.506665 -159.662371 4.683230 -29.940802 -116.741565 -4.492753 -1.883716 -176.001217 2.347891 29.940802 -1.006627 -0.355835 3.644843
1269.020119 699.025490 44.080624 0.000000 0.000000 0.000000 0.000000 0.000000 0.000000 83.810916 8.653074 -2.506665 -96.189084 -7.976178 -2.506665 51.932890 1.073678 -29.940802 -149.314466 -2.816237 1.883716 27.598511 1.860734 29.940802 -15.240149 -0.186073 3.422736
573.721218 678.450201 56.696462 0.000000 0.000000 0.000000 0.000000 0.000000 0.000000 18.756393 33.952196 -7.362491 -161.243607 19.403029 -7.362491 -174.158094 1.077211 -29.468618 178.010322 -3.343751 5.621439 -154.394154 0.680508 29.468618 11.886524 1.495212 3.187120
1261.580200 714.897366 70.044433 0.000000 0.000000 0.000000 0.000000 0.000000 0.000000 87.191276 -10.829067 -11.755705 -92.808724 8.091940 -11.755705 23.129119 -11.027586 -28.531695 -149.376238 -1.879046 9.270510 24.545507 1.434180 28.531695 13.583501 4.662204 2.938926
1314.655838 684.171546 65.427864 0.000000 0.000000 0.000000 0.000000 0.000000 0.000000 61.219932 -4.191946 -15.410265 -118.780068 0.002901 -15.410265 25.476616 0.681160 -27.144812 -150.404247 -1.884976 12.773379 24.621454 2.266270 27.144812 -15.537855 -0.226627 2.679134
1319.638939 674.820013 67.543897 0.000000 0.000000 0.000000 0.000000 0.000000 0.000000 82.055377 -1.864511 -18.096541 -97.944623 6.184598 -18.096541 17.325085 -4.149522 -25.329838 -60.067277 -0.738373 16.074804 23.747728 3.103929 25.329838 -13.005173 -0.448880 2.408768
1367.852325 659.536314 67.086919 0.000000 0.000000 0.000000 0.000000 0.000000 0.000000 -150.278430 4.555570 -19.645745 29.721570 10.367564 -19.645745 -151.222797 -2.806642 -23.115397 18.758043 -2.903999 19.122720 -152.451920 -1.987524 23.115397 2.484143 0.175658 2.128896
1392.624664 638.981302 78.152484 0.000000 0.000000 0.000000 0.000000 0.000000 0.000000 -122.704248 -13.852359 -19.960535 57.295752 -5.402476 -19.960535 -134.513385 -1.564678 -20.536413 30.292627 -5.495143 21.869059 -146.694539 2.567291 20.536413 2.430965 -0.116967 1.840623
1401.291389 646.422758 51.146311 0.000000 0.000000 0.000000 0.000000 0.000000 0.000000 83.316637 4.293306 -19.021130 -96.683363 -0.043297 -19.021130 29.335627 -6.771919 -17.633558 -136.281416 -4.100805 24.270510 19.119183 1.703974 17.633558 -15.871560 -0.050094 1.545085
1381.838951 663.410475 67.076079 0.000000 0.000000 0.000000 0.000000 0.000000 0.000000 79.215331 3.375376 -16.886559 -100.784669 -1.055188 -16.886559 30.640455 0.931024 -14.452610 -139.113455 -2.642341 26.289200 14.302413 -1.461202 14.452610 -16.408036 0.227475 1.243449
1390.185928 664.248354 98.292478 0.000000 0.000000 0.000000 0.000000 0.000000 0.000000 75.546066 -0.833538 -13.690942 -104.453934 -1.746745 -13.690942 38.995097 1.947512 -11.043737 -142.871297 -1.676195 27.893295 14.209110 1.743554 11.043737 -16.737090 0.007081 0.936907
1393.889923 677.551103 76.148800 0.000000 0.000000 0.000000 0.000000 0.000000 0.000000 84.293627 7.887548 -9.635073 -95.706373 4.039993 -9.635073 -152.700272 -3.995521 -7.460697 -143.357755 0.384228 29.057495 -148.868889 -4.290815 7.460697 3.626268 0.442692 0.626666
905.601082 693.654528 89.219762 0.000000 0.000000 0.000000 0.000000 0.000000 0.000000 -84.410869 0.001046 -4.973798 95.589131 8.174135 -4.973798 -139.498802 -4.813655 -3.759997 -178.556713 -5.182872 29.763441 -142.061844 -4.430247 3.759997 3.411456 0.453163 0.313953
1337.643929 680.318756 80.387287 0.000000 0.000000 0.000000 0.000000 0.000000 0.000000 78.192517 0.522382 0.000000 -101.807483 -2.455517 0.000000 48.289813 1.083467 -0.000000 -140.291980 -3.058401 30.000000 13.663140 0.935569 0.000000 -17.395561 0.020242 0.000000
1322.670708 685.543334 97.584713 0.000000 0.000000 0.000000 0.000000 0.000000 0.000000 71.501063 7.367522 4.973798 -108.498937 -1.630816 4.973798 23.648228 -4.944920 3.759997 -144.586500 -0.932734 29.763441 14.578018 -1.544247 -3.759997 -16.885607 0.165490 0.313953
1305.530548 682.910864 97.891832 0.000000 0.000000 0.000000 0.000000 0.000000 0.000000 72.979287 -4.127646 9.635073 -107.020713 25.684151 9.635073 -148.728581 -4.335420 7.460697 -74.802907 7.632695 29.057495 -151.178244 -4.434969 -7.460697 2.601049 0.378291 0.626666
1359.363556 692.650115 105.494365 0.000000 0.000000 0.000000 0.000000 0.000000 0.000000 73.244804 -3.947786 13.690942 -106.755196 1.681698 13.690942 13.983499 8.662681 11.043737 -67.611809 5.579596 27.893295 13.130547 -6.321414 -11.043737 -11.004089 0.477299 0.936907
1299.495964 679.994059 138.735699 0.000000 0.000000 0.000000 0.000000 0.000000 0.000000 116.206779 14.337429 16.886559 -63.793221 -0.253552 16.886559 -150.858719 -4.422304 14.452610 -34.548592 -1.392564 26.289200 60.366751 4.527725 -14.452610 -4.627493 -0.003257 1.243449
1306.260338 711.527116 115.246702 0.000000 0.000000 0.000000 0.000000 0.000000 0.000000 -85.758672 -10.728098 19.021130 94.241328 -0.634203 19.021130 -31.461750 -0.785138 17.633558 -4.237664 2.058624 24.270510 -15.215787 0.890441 -17.633558 7.867754 -1.488247 1.545085
1272.614822 704.778571 111.471108 0.000000 0.000000 0.000000 0.000000 0.000000 0.000000 -78.634637 -11.068127 19.960535 101.365363 3.187471 19.960535 -34.118569 -1.099069 20.536413 22.539652 3.935981 21.869059 -31.373170 -6.242945 -20.536413 11.310693 0.343154 1.840623
1310.345650 676.427021 123.308456 0.000000 0.000000 0.000000 0.000000 0.000000 0.000000 97.572435 -2.115203 19.645745 -82.427565 3.592552 19.645745 50.400703 -2.804542 23.115397 -39.584286 3.893361 19.122720 44.966766 -6.292090 -23.115397 -8.852712 0.121175 2.128896
1315.732956 671.025095 124.603326 0.000000 0.000000 0.000000 0.000000 0.000000 0.000000 97.797337 7.511688 18.096541 -82.202663 0.023744 18.096541 49.825934 3.025814 25.329838 -39.162923 -4.139095 16.074804 36.475631 -0.409252 -25.329838 -8.191519 1.633916 2.408768
1329.935532 653.525419 131.881852 0.000000 0.000000 0.000000 0.000000 0.000000 0.000000 96.469555 0.519922 15.410265 -83.530445 3.037870 15.410265 63.882053 -5.825504 27.144812 -51.972064 6.531346 12.773379 58.624362 -5.432975 -27.144812 -8.239564 0.008376 2.679134
1316.170578 674.246514 141.944030 0.000000 0.000000 0.000000 0.000000 0.000000 0.000000 -87.946330 0.991371 11.755705 92.053670 -3.779456 11.755705 -29.715798 3.706464 28.531695 54.212796 -4.584370 9.270510 -40.560774 2.413582 -28.531695 11.008015 0.406961 2.938926
1317.367287 678.027205 143.065584 0.000000 0.000000 0.000000 0.000000 0.000000 0.000000 95.152942 3.329301 7.362491 -84.847058 3.956607 7.362491 98.792835 1.886121 29.468618 -150.515547 -5.825554 5.621439 32.983753 5.247796 -29.468618 -14.701625 -0.524780 3.187120
1318.168488 670.157025 144.060010 0.000000 0.000000 0.000000 0.000000 0.000000 0.000000 -151.252255 9.067849 2.506665 28.747745 -0.993438 2.506665 138.896993 -5.144450 29.940802 -151.946620 -6.516962 1.883716 38.784684 6.525356 -29.940802 -14.121532 -0.652536 3.422736
1323.412628 644.667885 129.922155 0.000000 0.000000 0.000000 0.000000 0.000000 0.000000 -97.904066 -14.797546 -2.506665 82.095934 19.779877 -2.506665 155.695030 1.179050 29.940802 -152.500978 -5.557187 -1.883716 44.721081 6.173209 -29.940802 -13.527892 -0.617321 3.644843
1312.776718 630.059459 141.733839 0.000000 0.000000 0.000000 0.000000 0.000000 0.000000 -116.637972 -5.699719 -7.362491 63.362028 -20.951281 -7.362491 171.094570 1.990601 29.468618 -152.894064 -6.787099 -5.621439 43.947863 7.181868 -29.468618 -13.605214 -0.718187 3.852566
1316.420746 625.237019 145.340786 0.000000 0.000000 0.000000 0.000000 0.000000 0.000000 -136.254273 -5.571932 -11.755705 43.745727 -11.306502 -11.755705 -177.663204 -0.943229 28.531695 -153.006287 -6.725845 -9.270510 42.784597 7.573807 -28.531695 -13.721540 -0.757381 4.045085
1314.719925 628.818026 148.772022 0.000000 0.000000 0.000000 0.000000 0.000000 0.000000 -114.737929 7.217701 -15.410265 65.262071 -0.633476 -15.410265 -169.764314 -3.437143 27.144812 -153.369487 -6.599010 -12.773379 41.498347 8.033891 -27.144812 -13.850165 -0.803389 4.221640
1334.396782 646.165652 169.084559 0.000000 0.000000 0.000000 0.000000 0.000000 0.000000 -116.903454 20.695421 -18.096541 63.096546 -5.772997 -18.096541 -154.594534 -2.710326 25.329838 -153.225015 -7.133699 -16.074804 37.136182 8.350159 -25.329838 -14.286382 -0.835016 4.381533
1340.823784 648.244128 144.409556 0.000000 0.000000 0.000000 0.000000 0.000000 0.000000 -116.932323 -4.034182 -19.645745 63.067677 8.064567 -19.645745 -138.898656 -2.622917 23.115397 35.335752 2.924849 -19.122720 -153.336856 -1.043294 -23.115397 2.206211 0.144001 4.524135
1330.023880 654.599032 162.878854 0.000000 0.000000 0.000000 0.000000 0.000000 0.000000 -112.150704 -13.403774 -19.960535 67.849296 7.723009 -19.960535 -118.798313 -2.235821 20.536413 -153.636372 -5.992202 -21.869059 16.691869 8.906076 -20.536413 -16.330813 -0.890608 4.648882
1337.431641 662.410698 150.859804 0.000000 0.000000 0.000000 0.000000 0.000000 0.000000 -109.111809 2.618445 -19.021130 70.888191 -8.102226 -19.021130 -91.144379 1.729416 17.633558 -154.448144 -6.738752 -24.270510 10.298202 6.527576 -17.633558 6.642051 0.161830 4.755283
1324.339714 676.416593 145.954806 0.000000 0.000000 0.000000 0.000000 0.000000 0.000000 -104.120178 5.032501 -16.886559 75.879822 -9.197924 -16.886559 -57.095620 1.534640 14.452610 38.799650 0.517673 -26.289200 -71.942639 -1.676909 -14.452610 8.831938 -0.034923 4.842916
962.890318 439.311049 157.828677 0.000000 0.000000 0.000000 0.000000 0.000000 0.000000 19.986963 0.159226 -13.690942 180.000000 -0.008754 -13.690942 24.297229 4.748773 11.043737 155.702771 -8.149035 -27.893295 14.983342 6.018595 -11.043737 18.000000 0.113041 4.911436
962.789911 439.279946 165.121718 0.000000 0.000000 0.000000 0.000000 0.000000 0.000000 20.089586 -6.710455 -9.635073 180.000000 0.656585 -9.635073 24.330184 6.837927 7.460697 155.669816 5.249788 -29.057495 14.926290 -3.423193 -7.460697 18.000000 -0.161258 4.960574
641.318550 641.336324 139.237942 0.000000 0.000000 0.000000 0.000000 0.000000 0.000000 163.642929 -22.601515 -4.973798 -16.357071 20.257775 -4.973798 -155.926011 -1.262560 3.759997 -130.644608 -8.065463 -29.763441 68.679337 11.510962 -3.759997 -11.132066 -1.151096 4.990134
1305.385551 662.289033 112.718522 0.000000 0.000000 0.000000 0.000000 0.000000 0.000000 -81.949824 -13.144448 -0.000000 98.050176 26.008392 -0.000000 9.536664 -7.763089 0.000000 -153.586691 -5.498551 -30.000000 24.402531 3.812160 -0.000000 -15.559747 -0.381216 5.000000
962.486899 439.186814 123.777967 0.000000 0.000000 0.000000 0.000000 0.000000 0.000000 20.465882 22.408961 4.973798 180.000000 -10.706477 4.973798 24.357206 -3.071996 -3.759997 155.642794 -3.165882 -29.763441 14.800425 3.705224 3.759997 18.000000 -0.467320 4.990134
1216.314240 612.580640 121.613065 0.000000 0.000000 0.000000 0.000000 0.000000 0.000000 78.221991 0.283751 9.635073 -101.778009 -5.618102 9.635073 46.689014 -0.888231 -7.460697 -61.937558 -5.378571 -29.057495 44.546377 4.777228 7.460697 -10.771750 -1.224192 4.960574
1273.897820 573.707514 146.563977 0.000000 0.000000 0.000000 0.000000 0.000000 0.000000 77.469628 -5.180039 13.690942 -102.530372 2.765445 13.690942 -155.691164 -5.369521 -11.043737 -120.750172 -3.185779 -27.893295 -156.229293 -4.906811 11.043737 2.162203 0.521245 4.911436
1337.358742 570.303276 106.789489 0.000000 0.000000 0.000000 0.000000 0.000000 0.000000 73.705918 -2.617970 16.886559 -106.294082 2.496413 16.886559 -155.918376 -5.560630 -14.452610 -149.887909 -4.693954 -26.289200 0.000000 0.000000 0.000000 0.000000 0.000000 0.000000
1342.446442 569.623497 98.094180 0.000000 0.000000 0.000000 0.000000 0.000000 0.000000 68.898287 1.886213 19.021130 -111.101713 3.090819 19.021130 39.314088 -0.644388 -17.633558 -140.912764 -1.771920 -24.270510 -153.216026 -5.556737 17.633558 2.759242 0.677745 4.755283
1335.759430 584.665475 102.318529 0.000000 0.000000 0.000000 0.000000 0.000000 0.000000 66.989329 4.333788 19.960535 -113.010671 -4.718837 19.960535 -154.807077 -4.822725 -20.536413 -142.328055 -1.870099 -21.869059 -153.049156 -5.820168 20.536413 2.866457 0.720452 4.648882
1337.950974 598.074245 118.946750 0.000000 0.000000 0.000000 0.000000 0.000000 0.000000 62.697633 2.041686 19.645745 -117.302367 -1.765910 19.645745 19.366736 3.700664 -23.115397 -144.826223 -2.332760 -19.122720 9.911455 1.611777 23.115397 -17.004209 -0.001718 4.524135
1352.846489 601.043322 96.245661 0.000000 0.000000 0.000000 0.000000 0.000000 0.000000 59.083577 4.543978 18.096541 -120.916423 -2.139437 18.096541 20.876734 6.258634 -25.329838 -142.301690 -0.214243 -16.074804 13.356960 1.142772 25.329838 -16.821524 -0.060531 4.381533
1347.310982 587.475100 69.127517 0.000000 0.000000 0.000000 0.000000 0.000000 0.000000 56.169135 5.835193 15.410265 -123.830865 -13.723903 15.410265 21.172503 7.169806 -27.144812 -139.640745 -2.662539 -12.773379 14.641496 0.833021 27.144812 -16.282575 0.010478 4.221640
1326.982155 606.886139 75.008152 0.000000 0.000000 0.000000 0.000000 0.000000 0.000000 70.119981 -3.675580 11.755705 -109.880019 -11.678959 11.755705 26.511889 5.226719 -28.531695 -111.264667 0.005646 -9.270510 31.153840 -3.751038 28.531695 -13.943905 0.233021 4.045085
1354.391098 626.185555 87.587727 0.000000 0.000000 0.000000 0.000000 0.000000 0.000000 88.154395 -5.499514 7.362491 -91.845605 9.859185 7.362491 30.442275 -2.045875 -29.468618 -76.284233 3.432316 -5.621439 43.854867 -4.769643 29.468618 -10.818190 0.174816 3.852566
1370.667114 610.219567 68.052161 0.000000 0.000000 0.000000 0.000000 0.000000 0.000000 89.945118 1.735964 2.506665 -90.054882 -5.880529 2.506665 44.053326 2.142918 -29.940802 -56.238091 -3.789846 -1.883716 55.411270 5.426156 29.940802 -7.805659 -0.370029 3.644843
1372.834854 597.828534 72.309866 0.000000 0.000000 0.000000 0.000000 0.000000 0.000000 93.407992 1.531057 -2.506665 -86.592008 -4.368752 -2.506665 54.165845 3.706373 -29.940802 -47.239220 -0.224424 1.883716 56.575186 1.705546 29.940802 -6.344474 -0.522566 3.422736
1336.554337 597.454848 83.879192 0.000000 0.000000 0.000000 0.000000 0.000000 0.000000 95.622643 3.574432 -7.362491 -84.377357 -2.655130 -7.362491 56.597780 -0.659753 -29.468618 -45.108662 -0.424758 5.621439 55.386034 1.952481 29.468618 -7.206870 -0.867183 3.187120
1310.567093 590.844769 80.699009 0.000000 0.000000 0.000000 0.000000 0.000000 0.000000 100.193768 -1.189672 -11.755705 -79.806232 -4.396689 -11.755705 61.986347 6.298673 -28.531695 -37.593815 -1.425296 9.270510 62.907615 1.921942 28.531695 -6.637230 0.014599 2.938926
1328.574371 576.493385 71.431491 0.000000 0.000000 0.000000 0.000000 0.000000 0.000000 101.943783 -2.735530 -15.410265 -78.056217 7.451163 -15.410265 61.902838 -1.300704 -27.144812 -33.889586 4.448656 12.773379 55.760387 -1.692925 27.144812 -7.097415 0.419748 2.679134
1316.178360 595.500870 69.253672 0.000000 0.000000 0.000000 0.000000 0.000000 0.000000 103.792097 -0.298089 -18.096541 -76.207903 10.490592 -18.096541 65.535198 -5.078842 -25.329838 -28.739437 2.222611 16.074804 68.415337 -1.506693 25.329838 -6.481753 0.152936 2.408768
1302.343140 568.138025 48.292754 0.000000 0.000000 0.000000 0.000000 0.000000 0.000000 101.222717 33.426467 -19.645745 -78.777283 -8.364986 -19.645745 90.757296 -2.831216 -23.115397 -18.578033 -5.608944 19.122720 97.909038 1.276098 23.115397 -5.050134 0.216413 2.128896
1274.166183 540.660596 55.135036 0.000000 0.000000 0.000000 0.000000 0.000000 0.000000 -126.898591 -1.742460 -19.960535 53.101409 11.040618 -19.960535 127.276662 -1.750040 -20.536413 8.808645 2.135066 21.869059 119.711272 0.419772 20.536413 -4.115393 -0.388991 1.840623
1268.557091 468.331075 57.308683 0.000000 0.000000 0.000000 0.000000 0.000000 0.000000 -124.112133 -4.719151 -19.021130 55.887867 2.172182 -19.021130 163.344780 1.221489 -17.633558 38.476068 9.415835 24.270510 145.889074 -2.711204 17.633558 -1.929933 -0.044676 1.545085
1278.673096 454.375906 54.836696 0.000000 0.000000 0.000000 0.000000 0.000000 0.000000 -126.805061 3.651710 -16.886559 53.194939 3.603071 -16.886559 -174.009950 -2.564686 -14.452610 27.419224 -2.391307 26.289200 168.192977 -0.940815 14.452610 -0.976267 0.187168 1.243449
1285.008774 434.700390 60.726173 0.000000 0.000000 0.000000 0.000000 0.000000 0.000000 -132.005120 4.158846 -13.690942 47.994880 5.620616 -13.690942 -171.247775 -1.804057 -11.043737 26.625253 -0.391592 27.893295 178.805957 0.717698 11.043737 0.023422 0.006825 0.936907
1288.157730 426.987666 67.436343 0.000000 0.000000 0.000000 0.000000 0.000000 0.000000 -123.987926 1.007375 -9.635073 56.012074 -3.113311 -9.635073 -166.356219 0.519395 -7.460697 35.716336 -1.309602 29.057495 -172.960762 -0.878205 7.460697 0.819533 0.091400 0.626666
1291.221657 420.425448 37.628671 0.000000 0.000000 0.000000 0.000000 0.000000 0.000000 -122.265643 8.652448 -4.973798 57.734357 -5.533510 -4.973798 -156.870161 -0.935322 -3.759997 38.220704 -7.019014 29.763441 -165.716368 0.577798 3.759997 1.405814 0.015560 0.313953
