HIERARCHY
ROOT Hips
{
    OFFSET 0.0 0.0 0.0
    CHANNELS 6 Xposition Yposition Zposition Zrotation Xrotation Yrotation
    JOINT Spine
    {
        OFFSET 0.0 5.0 0.0
        CHANNELS 3 Zrotation Xrotation Yrotation
        JOINT Chest
        {
            OFFSET 0.0 5.0 0.0
            CHANNELS 3 Zrotation Xrotation Yrotation
            JOINT Neck
            {
                OFFSET 0.0 8.0 0.0
                CHANNELS 3 Zrotation Xrotation Yrotation
                JOINT Head
                {
                    OFFSET 0.0 5.0 0.0
                    CHANNELS 3 Zrotation Xrotation Yrotation
                    End Site
                    {
                        OFFSET 0.0 3.0 0.0
                    }
                }
            }
            JOINT LeftShoulder
            {
                OFFSET -5.0 0.0 0.0
                CHANNELS 3 Zrotation Xrotation Yrotation
                JOINT LeftArm
                {
                    OFFSET 0.0 -10.0 0.0
                    CHANNELS 3 Zrotation Xrotation Yrotation
                    JOINT LeftForeArm
                    {
                        OFFSET 0.0 -10.0 0.0
                        CHANNELS 3 Zrotation Xrotation Yrotation
                        End Site
                        {
                            OFFSET 0.0 -3.0 0.0
                        }
                    }
                }
            }
        }
    }
}

MOTION
Frames: 300
Frame Time: 0.033333

960.000000 445.000000 88.348433 0.000000 0.000000 0.000000 0.000000 0.000000 0.000000 23.025492 -9.788123 0.000000 180.000000 -8.877776 0.000000 21.801409 10.755053 -0.000000 158.198591 -2.232659 30.000000 15.945396 5.208075 0.000000 18.000000 -0.233927 0.000000
1691.525230 140.756605 107.527936 0.000000 0.000000 0.000000 0.000000 0.000000 0.000000 -163.376529 -7.148210 4.973798 16.623471 5.778657 4.973798 -171.853121 -3.452001 3.759997 99.744051 13.228449 29.763441 -171.126653 -3.597429 -3.759997 0.673538 0.477143 0.313953
1636.048050 128.802021 105.108630 0.000000 0.000000 0.000000 0.000000 0.000000 0.000000 157.904128 -19.980322 9.635073 -22.095872 37.371605 9.635073 -171.936471 -4.861224 7.460697 -143.675701 -4.051943 29.057495 -173.500805 -4.060530 -7.460697 0.570999 0.549494 0.626666
1578.156967 80.474526 108.000288 0.000000 0.000000 0.000000 0.000000 0.000000 0.000000 -139.519796 4.478077 13.690942 40.480204 -16.223918 13.690942 -174.507724 -3.118863 11.043737 119.111399 -2.136545 27.893295 -173.607258 -4.168992 -11.043737 0.461920 0.496548 0.936907
960.418757 444.998421 123.281620 0.000000 0.000000 0.000000 0.000000 0.000000 0.000000 25.077893 -32.311757 16.886559 180.000000 0.246197 16.886559 23.861935 2.517011 14.452610 156.138065 -1.808294 26.289200 17.903699 -0.873406 -14.452610 18.000000 0.871190 1.243449
960.523360 444.997533 126.226446 0.000000 0.000000 0.000000 0.000000 0.000000 0.000000 25.638906 -22.048558 19.021130 180.000000 20.436439 19.021130 24.425035 -7.569018 17.633558 155.574965 7.956211 24.270510 18.452907 4.393615 -17.633558 18.000000 0.138356 1.545085
960.627905 444.996447 133.473436 0.000000 0.000000 0.000000 0.000000 0.000000 0.000000 26.219073 15.525832 19.960535 180.000000 5.579007 19.960535 25.006291 -10.039156 20.536413 154.993709 9.744700 21.869059 19.024920 0.006376 -20.536413 18.000000 -0.869310 1.840623
1126.242828 420.359820 133.069971 0.000000 0.000000 0.000000 0.000000 0.000000 0.000000 31.410514 -0.721578 19.645745 -148.589486 -4.698780 19.645745 32.280463 2.448963 23.115397 -131.603972 0.073334 19.122720 45.585331 -1.507814 -23.115397 -13.449727 0.214443 2.128896
1257.895088 650.549197 137.199273 0.000000 0.000000 0.000000 0.000000 0.000000 0.000000 25.073180 -15.043274 18.096541 -154.926820 13.002256 18.096541 46.260945 2.181759 25.329838 -154.651428 -4.994194 16.074804 27.339487 5.066460 -25.329838 -13.619892 0.448245 2.408768
960.941083 444.992008 153.216659 0.000000 0.000000 0.000000 0.000000 0.000000 0.000000 28.072001 -9.063865 15.410265 180.000000 15.948760 15.410265 26.849221 -9.694215 27.144812 153.150779 9.798451 12.773379 20.864045 -6.043676 -27.144812 18.000000 0.547880 2.679134
1163.815842 547.748709 153.246752 0.000000 0.000000 0.000000 0.000000 0.000000 0.000000 117.162728 3.941525 11.755705 -62.837272 -3.889005 11.755705 102.363764 -3.792414 28.531695 -47.376450 -5.504520 9.270510 104.768601 0.303852 -28.531695 -6.003489 0.542833 2.938926
961.149372 444.988063 138.878274 0.000000 0.000000 0.000000 0.000000 0.000000 0.000000 29.395983 -9.425211 7.362491 180.000000 5.423993 7.362491 28.146217 -10.191341 29.468618 151.853783 8.566215 5.621439 22.170006 3.788596 -29.468618 18.000000 -0.741036 3.187120
1136.717377 590.104480 152.915645 0.000000 0.000000 0.000000 0.000000 0.000000 0.000000 115.752126 -1.701474 2.506665 -64.247874 -2.539624 2.506665 73.638146 -2.472877 29.940802 -21.842452 1.383355 1.883716 75.369282 -5.889516 -29.940802 -6.767207 -0.020648 3.422736
1163.079758 634.077559 154.274350 0.000000 0.000000 0.000000 0.000000 0.000000 0.000000 132.174340 -4.290366 -2.506665 -47.825660 0.410649 -2.506665 94.255711 6.295710 29.940802 -149.364979 -6.728208 -1.883716 30.021641 5.812311 -29.940802 -5.096180 -0.403439 3.644843
961.460830 444.980668 136.843838 0.000000 0.000000 0.000000 0.000000 0.000000 0.000000 31.497152 17.641278 -7.362491 180.000000 -11.885178 -7.362491 30.152455 8.498187 29.468618 149.847545 15.137794 -5.621439 24.175589 -4.758016 -29.468618 18.000000 -0.431611 3.852566
1097.449951 565.089898 140.006196 0.000000 0.000000 0.000000 0.000000 0.000000 0.000000 -119.219568 -6.551904 -11.755705 60.780432 8.007827 -11.755705 -150.180642 -7.410820 28.531695 48.804955 0.839896 -9.270510 -149.874178 -6.034025 -28.531695 2.713854 0.571930 4.045085
1114.140244 528.302071 146.839512 0.000000 0.000000 0.000000 0.000000 0.000000 0.000000 -142.671523 0.674575 -15.410265 37.328477 -1.546094 -15.410265 -177.395681 -2.936469 27.144812 34.687329 2.730780 -12.773379 161.894167 -1.303157 -27.144812 -0.910956 -0.152091 4.221640
1116.433640 479.728639 150.874773 0.000000 0.000000 0.000000 0.000000 0.000000 0.000000 -102.267481 -14.506115 -18.096541 77.732519 2.926681 -18.096541 -163.695626 4.772335 25.329838 38.575767 2.256244 -16.074804 -176.001122 1.017106 -25.329838 0.706594 -0.118355 4.381533
1135.931282 466.493965 154.854962 0.000000 0.000000 0.000000 0.000000 0.000000 0.000000 -112.868406 7.739893 -19.645745 67.131594 -1.341521 -19.645745 -159.517862 1.801245 23.115397 36.204678 -2.850323 -19.122720 -154.426613 -5.515356 -23.115397 2.428729 0.474110 4.524135
1141.618767 467.420679 136.923216 0.000000 0.000000 0.000000 0.000000 0.000000 0.000000 -123.086385 10.948554 -19.960535 56.913615 -6.267289 -19.960535 -154.885724 0.588559 20.536413 36.481623 -1.412600 -21.869059 -153.965441 -5.831326 -20.536413 2.446728 0.534026 4.648882
1150.647926 469.370956 153.386416 0.000000 0.000000 0.000000 0.000000 0.000000 0.000000 -43.953779 -16.362929 -19.021130 136.046221 -21.206398 -19.021130 -154.327268 -6.479803 17.633558 60.745168 -1.009775 -24.270510 -153.350642 -6.505711 -17.633558 2.386216 0.596153 4.755283
1151.529922 496.420240 126.110908 0.000000 0.000000 0.000000 0.000000 0.000000 0.000000 -116.362129 -3.757872 -16.886559 63.637871 1.493488 -16.886559 -149.081043 -0.373824 14.452610 35.941860 3.233775 -26.289200 -156.847177 -1.311942 -14.452610 2.056513 0.006883 4.842916
1148.402367 515.713574 145.623585 0.000000 0.000000 0.000000 0.000000 0.000000 0.000000 -118.252650 -12.606838 -13.690942 61.747350 1.482248 -13.690942 -138.082896 -0.567251 11.043737 -156.312677 -6.998924 -27.893295 21.649626 10.329115 -11.043737 2.962417 -0.363572 4.911436
1175.363617 533.368646 143.667184 0.000000 0.000000 0.000000 0.000000 0.000000 0.000000 -95.476638 -0.064590 -9.635073 84.523362 -6.173304 -9.635073 -113.907461 1.699696 7.460697 -155.995907 -7.359818 -29.057495 12.512064 8.185378 -7.460697 -16.748794 -0.818538 4.960574
1199.533310 485.991104 140.272707 0.000000 0.000000 0.000000 0.000000 0.000000 0.000000 -100.003195 -10.920525 -4.973798 79.996805 12.822875 -4.973798 -86.083188 -2.268128 3.759997 38.843754 6.014769 -29.763441 -106.539452 0.323272 -3.759997 6.197806 -0.077803 4.990134
962.588190 444.938442 129.565722 0.000000 0.000000 0.000000 0.000000 0.000000 0.000000 39.579754 -7.828327 -0.000000 180.000000 8.637064 -0.000000 36.680773 -21.475107 0.000000 143.319227 -15.214342 -30.000000 29.388385 9.456760 -0.000000 18.000000 -0.527226 5.000000
1142.094727 445.716287 100.448623 0.000000 0.000000 0.000000 0.000000 0.000000 0.000000 -140.228454 6.894019 4.973798 39.771546 23.699132 4.973798 -156.118008 -5.951786 -3.759997 3.479189 7.010774 -29.763441 -158.005660 -5.664130 3.759997 2.150019 0.526834 4.990134
1164.005928 424.847746 125.785466 0.000000 0.000000 0.000000 0.000000 0.000000 0.000000 -84.241076 38.586632 9.635073 95.758924 -39.209150 9.635073 -156.181584 -5.710603 -7.460697 166.928360 -15.968809 -29.057495 -154.947270 -5.897482 7.460697 2.644196 0.554117 4.960574
1124.208755 418.286655 113.357321 0.000000 0.000000 0.000000 0.000000 0.000000 0.000000 -117.427077 27.867344 13.690942 62.572923 -29.865156 13.690942 -155.943063 -5.297750 -11.043737 14.023837 10.017860 -27.893295 -157.382674 -6.525918 11.043737 2.188130 0.494446 4.911436
962.990408 444.917226 111.468678 0.000000 0.000000 0.000000 0.000000 0.000000 0.000000 42.110883 -48.587671 16.886559 180.000000 19.992176 16.886559 37.946959 1.076903 -14.452610 142.053041 13.820105 -26.289200 29.293612 -10.233066 14.452610 18.000000 1.289651 4.842916
963.090170 444.911436 106.678502 0.000000 0.000000 0.000000 0.000000 0.000000 0.000000 42.659200 43.235274 19.021130 180.000000 -36.866083 19.021130 38.119107 -3.184561 -17.633558 141.880893 -20.556308 -24.270510 29.068887 7.013605 17.633558 18.000000 0.102507 4.755283
1186.646461 396.272757 92.747895 0.000000 0.000000 0.000000 0.000000 0.000000 0.000000 -72.847419 3.965651 19.960535 107.152581 12.121191 19.960535 -156.703603 -4.987385 -20.536413 178.447294 8.823790 -21.869059 -157.212393 -5.486596 20.536413 1.964058 0.445137 4.648882
1313.051605 426.636125 102.859621 0.000000 0.000000 0.000000 0.000000 0.000000 0.000000 90.994869 34.877665 19.645745 -89.005131 -0.122371 19.645745 -160.515303 -4.252502 -23.115397 -153.248861 2.269710 -19.122720 -159.640525 -5.083248 23.115397 0.000000 0.000000 0.000000
1347.999344 420.772226 116.702291 0.000000 0.000000 0.000000 0.000000 0.000000 0.000000 90.154351 0.765710 18.096541 -89.845649 1.336470 18.096541 -162.053401 -3.765723 -25.329838 -136.198880 3.417995 -16.074804 -160.991694 -4.785718 25.329838 0.000000 0.000000 0.000000
1344.315948 421.031681 88.716294 0.000000 0.000000 0.000000 0.000000 0.000000 0.000000 69.757587 11.382209 15.410265 -110.242413 -0.648008 15.410265 25.616746 0.338101 -27.144812 -157.821005 -3.689561 -12.773379 17.214985 2.706885 27.144812 -16.704706 0.002244 4.221640
1350.307617 440.309436 56.740808 0.000000 0.000000 0.000000 0.000000 0.000000 0.000000 71.124018 5.602678 11.755705 -108.875982 -8.650020 11.755705 42.739987 3.908429 -28.531695 -142.315466 -0.757596 -9.270510 16.600926 -0.984967 28.531695 -16.660102 -0.121358 4.045085
1357.685051 430.688889 69.280357 0.000000 0.000000 0.000000 0.000000 0.000000 0.000000 77.656077 -3.619517 7.362491 -102.343923 8.625451 7.362491 39.407151 -3.814417 -29.468618 -136.343173 2.882825 -5.621439 22.144452 -2.221282 29.468618 -16.305135 0.101829 3.852566
1369.482193 445.909406 80.224637 0.000000 0.000000 0.000000 0.000000 0.000000 0.000000 88.051188 4.337736 2.506665 -91.948812 0.911671 2.506665 -161.283973 -3.039803 -29.940802 -119.799169 1.001625 -1.883716 -164.575400 -3.476271 29.940802 1.401013 0.362220 3.644843
963.875156 444.858159 77.235492 0.000000 0.000000 0.000000 0.000000 0.000000 0.000000 45.304844 0.282262 -2.506665 180.000000 19.928852 -2.506665 37.252439 3.757057 -29.940802 142.747561 18.583106 1.883716 25.146244 2.143281 29.940802 18.000000 0.685324 3.422736
963.971479 444.850633 89.639292 0.000000 0.000000 0.000000 0.000000 0.000000 0.000000 45.383640 -17.738063 -7.362491 180.000000 35.086383 -7.362491 36.882310 -5.168380 -29.468618 143.117690 0.312064 5.621439 24.499789 10.553638 29.468618 18.000000 -0.305129 3.187120
1336.629524 469.010178 44.786970 0.000000 0.000000 0.000000 0.000000 0.000000 0.000000 -72.390177 -23.359314 -11.755705 107.609823 23.731563 -11.755705 -158.649984 -1.870218 -28.531695 2.583425 7.792310 9.270510 -39.658551 3.961545 28.531695 10.837181 0.473856 2.938926
1311.966934 518.219100 37.943207 0.000000 0.000000 0.000000 0.000000 0.000000 0.000000 -63.565072 39.886647 -15.410265 116.434928 -7.700948 -15.410265 -14.840750 -2.482526 -27.144812 -158.549348 -2.388001 12.773379 17.488774 1.783854 27.144812 7.174982 -0.454905 2.679134
964.257793 444.826908 51.562395 0.000000 0.000000 0.000000 0.000000 0.000000 0.000000 45.262206 -26.901623 -18.096541 180.000000 -14.623859 -18.096541 35.497192 16.522815 -25.329838 144.502808 -7.398409 16.074804 22.522929 -1.022513 25.329838 18.000000 0.297235 2.408768
1275.921364 516.836239 59.287222 0.000000 0.000000 0.000000 0.000000 0.000000 0.000000 85.186295 -5.047861 -19.645745 -94.813705 9.443181 -19.645745 52.470689 -4.551922 -23.115397 -44.513683 -7.925135 19.122720 50.867598 5.855386 23.115397 -8.717188 0.472219 2.128896
1263.254128 546.875424 55.761135 0.000000 0.000000 0.000000 0.000000 0.000000 0.000000 34.848242 29.594631 -19.960535 -145.151758 -20.732595 -19.960535 42.487561 38.261998 -20.536413 -157.415675 -2.392454 21.869059 22.420880 3.133898 20.536413 -15.757912 -0.313390 1.840623
1258.788185 528.263061 59.073703 0.000000 0.000000 0.000000 0.000000 0.000000 0.000000 118.326865 -46.435667 -19.021130 -61.673135 27.365531 -19.021130 143.214759 0.013509 -17.633558 -156.228306 -1.473739 24.270510 28.173554 1.490689 17.633558 -15.182645 -0.149069 1.545085
1231.492081 471.383836 36.741345 0.000000 0.000000 0.000000 0.000000 0.000000 0.000000 -115.049381 19.936987 -16.886559 64.950619 -12.272084 -16.886559 172.843704 0.314185 -14.452610 -157.842300 -2.696097 26.289200 32.851042 2.178082 14.452610 -14.714896 -0.217808 1.243449
1223.928795 435.993515 55.709543 0.000000 0.000000 0.000000 0.000000 0.000000 0.000000 -115.322532 11.105947 -13.690942 64.677468 -14.002525 -13.690942 -168.597862 2.815980 -11.043737 -158.853816 -2.914991 27.893295 31.099266 3.357803 11.043737 -14.890073 -0.335780 0.936907
1223.669701 418.195664 29.494654 0.000000 0.000000 0.000000 0.000000 0.000000 0.000000 -102.084053 -6.010269 -9.635073 77.915947 -21.126189 -9.635073 -171.103858 14.711385 -7.460697 162.056334 0.698778 29.057495 -153.594437 -2.980074 7.460697 2.968481 0.332154 0.626666
1216.486244 414.503002 48.589811 0.000000 0.000000 0.000000 0.000000 0.000000 0.000000 69.261091 25.503399 -4.973798 -110.738909 -37.458361 -4.973798 -158.083722 -2.076387 -3.759997 -173.244581 -5.017165 29.763441 -154.635509 -2.441644 3.759997 2.928763 0.364213 0.313953
1212.090225 434.550980 49.156947 0.000000 0.000000 0.000000 0.000000 0.000000 0.000000 -112.403932 -7.025911 0.000000 67.596068 -4.026533 0.000000 -157.060799 -2.196240 -0.000000 173.400765 5.097890 30.000000 -154.473580 -3.310401 0.000000 2.734633 0.254906 0.000000
1214.024734 450.340490 45.237952 0.000000 0.000000 0.000000 0.000000 0.000000 0.000000 -110.634751 1.445622 4.973798 69.365249 -8.446563 4.973798 -137.583343 7.178128 3.759997 -158.589698 -2.436559 29.763441 20.879446 2.697717 -3.759997 -15.912055 -0.269772 0.313953
1204.271393 440.192921 55.750696 0.000000 0.000000 0.000000 0.000000 0.000000 0.000000 -99.498286 26.042351 9.635073 80.501714 -35.578263 9.635073 -156.696469 -1.856749 7.460697 -178.487725 -9.176382 29.057495 -157.318323 -2.969705 -7.460697 2.108583 0.226187 0.626666
965.269558 444.725315 57.209600 0.000000 0.000000 0.000000 0.000000 0.000000 0.000000 40.845461 17.527167 13.690942 180.000000 -13.194498 13.690942 28.615377 11.601759 11.043737 151.384623 -4.103843 27.893295 16.305092 -0.157984 -11.043737 18.000000 0.521104 0.936907
1182.456551 475.103824 60.492383 0.000000 0.000000 0.000000 0.000000 0.000000 0.000000 -168.146016 -83.464313 16.886559 11.853984 -49.864342 16.886559 -63.802645 2.054812 14.452610 -61.114510 -1.444951 26.289200 -47.869281 -5.206129 -14.452610 -13.834956 7.797135 1.243449
965.446390 444.704404 64.817099 0.000000 0.000000 0.000000 0.000000 0.000000 0.000000 39.578146 32.007658 19.021130 180.000000 -6.574701 19.021130 27.338029 -7.345965 17.633558 152.661971 -0.518955 24.270510 15.463180 -1.762574 -17.633558 18.000000 0.043708 1.545085
965.533915 444.693669 77.541778 0.000000 0.000000 0.000000 0.000000 0.000000 0.000000 38.916706 -28.435543 19.960535 180.000000 6.807395 19.960535 26.716768 -15.004363 20.536413 153.283232 -10.115877 21.869059 15.076605 11.527375 -20.536413 18.000000 -0.241729 1.840623
965.620834 444.682749 74.409155 0.000000 0.000000 0.000000 0.000000 0.000000 0.000000 38.241653 -12.635052 19.645745 180.000000 -9.926492 19.645745 26.109467 1.666530 23.115397 153.890533 -2.854135 19.122720 14.712258 8.495587 -23.115397 18.000000 -0.297575 2.128896
965.707136 444.671645 84.936099 0.000000 0.000000 0.000000 0.000000 0.000000 0.000000 37.556504 37.486018 18.096541 180.000000 -7.007644 18.096541 25.517536 12.652217 25.329838 154.482464 1.011307 16.074804 14.369537 -6.434882 -25.329838 18.000000 0.536790 2.408768
965.792812 444.660356 87.032859 0.000000 0.000000 0.000000 0.000000 0.000000 0.000000 36.864608 0.105213 15.410265 180.000000 -4.066832 15.410265 24.942131 -6.895091 27.144812 155.057869 -8.708341 12.773379 14.047797 4.964464 -27.144812 18.000000 -0.773769 2.679134
965.877853 444.648882 84.257776 0.000000 0.000000 0.000000 0.000000 0.000000 0.000000 36.169118 1.246883 11.755705 180.000000 15.726256 11.755705 24.384173 2.293596 28.531695 155.615827 4.105756 9.270510 13.746367 0.600558 -28.531695 18.000000 0.201527 2.938926
965.962249 444.637226 85.385263 0.000000 0.000000 0.000000 0.000000 0.000000 0.000000 35.472980 -48.150423 7.362491 180.000000 5.770140 7.362491 23.844373 8.772126 29.468618 156.155627 9.593264 5.621439 13.464570 -2.246832 -29.468618 18.000000 0.036889 3.187120
966.045991 444.625386 93.362093 0.000000 0.000000 0.000000 0.000000 0.000000 0.000000 34.778913 -36.036786 2.506665 180.000000 14.087469 2.506665 23.323250 -12.185138 29.940802 156.676750 -0.012508 1.883716 13.201728 3.332547 -29.940802 18.000000 -0.461134 3.422736
966.129071 444.613364 99.967405 0.000000 0.000000 0.000000 0.000000 0.000000 0.000000 34.089406 33.841679 -2.506665 180.000000 -17.489889 -2.506665 22.821158 -5.273580 29.940802 157.178842 -10.589118 -1.883716 12.957175 2.060742 -29.940802 18.000000 -0.053831 3.644843
966.211478 444.601159 106.899034 0.000000 0.000000 0.000000 0.000000 0.000000 0.000000 33.406712 -2.570662 -7.362491 180.000000 4.374523 -7.362491 22.338307 0.926561 29.468618 157.661693 10.114972 -5.621439 12.730264 -9.341325 -29.468618 18.000000 0.270739 3.852566
1171.486244 534.946783 133.284487 0.000000 0.000000 0.000000 0.000000 0.000000 0.000000 70.594720 -4.049021 -11.755705 -109.405280 2.815267 -11.755705 49.953444 -1.063895 28.531695 -151.467583 -4.854894 -9.270510 0.000000 0.000000 0.000000 0.000000 0.000000 0.000000
966.374240 444.576206 117.693337 0.000000 0.000000 0.000000 0.000000 0.000000 0.000000 32.069603 -30.575157 -15.410265 180.000000 -13.700703 -15.410265 21.430544 15.361117 27.144812 158.569456 3.692534 -12.773379 12.326901 -3.985133 -27.144812 18.000000 0.734328 4.221640
1172.156410 555.047708 126.615414 0.000000 0.000000 0.000000 0.000000 0.000000 0.000000 -121.065102 20.016065 -18.096541 58.934898 -20.671719 -18.096541 -151.641456 -5.298278 25.329838 -177.360623 -2.383627 -16.074804 -149.076048 -6.558671 -25.329838 0.000000 0.000000 0.000000
1161.826630 552.360713 124.692826 0.000000 0.000000 0.000000 0.000000 0.000000 0.000000 69.958407 -15.545462 -19.645745 -110.041593 -47.691652 -19.645745 -152.437496 -5.301062 23.115397 -158.790607 -5.387090 -19.122720 -150.591725 -6.351287 -23.115397 3.219062 0.871656 4.524135
1165.827255 569.832902 132.168808 0.000000 0.000000 0.000000 0.000000 0.000000 0.000000 25.594208 -17.315528 -19.960535 -154.405792 4.582274 -19.960535 11.723883 0.562382 20.536413 -161.543160 0.203111 -21.869059 7.769582 0.230771 -20.536413 -17.248199 0.031407 4.648882
1165.555573 565.067046 133.090235 0.000000 0.000000 0.000000 0.000000 0.000000 0.000000 43.355707 6.975649 -19.021130 -136.644293 2.815667 -19.021130 15.984329 0.552018 17.633558 -140.773833 -2.436465 -24.270510 13.679449 0.161956 -17.633558 -16.392157 0.054771 4.755283
1290.255775 608.533316 152.974876 0.000000 0.000000 0.000000 0.000000 0.000000 0.000000 -153.952071 -1.778910 -16.886559 26.047929 -9.693420 -16.886559 -152.683807 -5.206822 14.452610 4.794196 4.922540 -26.289200 -154.287190 -5.759343 -14.452610 2.418080 0.537338 4.842916
1180.398903 551.817470 145.235052 0.000000 0.000000 0.000000 0.000000 0.000000 0.000000 51.640104 8.091195 -13.690942 -128.359896 -6.663498 -13.690942 14.419400 0.778284 11.043737 -33.521359 -18.960104 -27.893295 -34.277510 9.498140 -11.043737 5.235387 -0.384622 4.911436
1162.708626 619.419501 142.801108 0.000000 0.000000 0.000000 0.000000 0.000000 0.000000 -88.968325 -9.448428 -9.635073 91.031675 14.645092 -9.635073 -52.690088 -1.661616 7.460697 25.015222 2.156886 -29.057495 -72.561734 -0.183736 -7.460697 8.557489 -0.344606 4.960574
1110.899391 602.919216 169.972314 0.000000 0.000000 0.000000 0.000000 0.000000 0.000000 -86.972237 17.248670 -4.973798 93.027763 -7.899802 -4.973798 -39.551144 -1.667687 3.759997 34.838085 -8.566413 -29.763441 -44.185810 1.299401 -3.759997 10.000609 1.488038 4.990134
1150.187302 553.686991 147.982349 0.000000 0.000000 0.000000 0.000000 0.000000 0.000000 -116.065142 -7.406198 -0.000000 63.934858 20.541665 -0.000000 -151.059314 -6.969448 0.000000 -0.492058 6.728324 -30.000000 -14.044098 -2.840316 -0.000000 1.929760 -0.297257 5.000000
967.144727 444.440682 165.822323 0.000000 0.000000 0.000000 0.000000 0.000000 0.000000 26.270296 -15.947921 4.973798 180.000000 6.577236 4.973798 17.996647 -3.704954 -3.759997 162.003353 -4.614516 -29.763441 11.189167 4.836934 3.759997 18.000000 -0.263265 4.990134
1213.452644 620.002785 145.233748 0.000000 0.000000 0.000000 0.000000 0.000000 0.000000 140.390379 -4.867457 9.635073 -39.609621 -0.379203 9.635073 77.724607 11.508083 -7.460697 -153.982965 -6.329907 -29.057495 24.142749 5.960349 7.460697 -0.833727 -0.193439 4.960574
1124.373779 618.464527 160.498550 0.000000 0.000000 0.000000 0.000000 0.000000 0.000000 99.329635 12.774111 13.690942 -80.670365 -34.171321 13.690942 85.960927 3.021653 -11.043737 -150.875293 -7.612679 -27.893295 31.644098 5.607668 11.043737 -14.835590 -0.560767 4.911436
967.360971 444.396582 142.348085 0.000000 0.000000 0.000000 0.000000 0.000000 0.000000 24.874716 3.266018 16.886559 180.000000 10.746472 16.886559 17.291102 0.305005 -14.452610 162.708898 6.377142 -26.289200 11.098846 -9.038672 14.452610 18.000000 0.389406 4.842916
1107.875175 542.453964 155.322632 0.000000 0.000000 0.000000 0.000000 0.000000 0.000000 -128.741314 -5.800191 19.021130 51.258686 8.190242 19.021130 -177.225595 4.542955 -17.633558 19.954750 6.833548 -24.270510 162.677362 -0.145120 17.633558 -1.443098 -0.136288 4.755283
1119.652290 522.766346 154.544921 0.000000 0.000000 0.000000 0.000000 0.000000 0.000000 -99.017754 13.679354 19.960535 80.982246 3.695628 19.960535 -150.289603 -7.236948 -20.536413 -152.613833 -7.274596 -21.869059 0.000000 0.000000 0.000000 0.000000 0.000000 0.000000
1132.908783 538.229613 142.559065 0.000000 0.000000 0.000000 0.000000 0.000000 0.000000 -127.874185 -8.267711 19.645745 52.125815 1.290845 19.645745 -165.450188 1.082053 -23.115397 -152.521515 -7.166266 -19.122720 40.606225 8.914016 23.115397 -13.939378 -0.891402 4.524135
1146.969337 541.828065 143.746403 0.000000 0.000000 0.000000 0.000000 0.000000 0.000000 -113.631604 0.608049 18.096541 66.368396 4.907994 18.096541 -159.067475 -1.600856 -25.329838 113.981862 -5.091048 -16.074804 -145.449815 -5.919517 25.329838 0.000000 0.000000 0.000000
1165.252304 561.329677 155.003793 0.000000 0.000000 0.000000 0.000000 0.000000 0.000000 -112.861399 7.577625 15.410265 67.138601 -6.529293 15.410265 -159.396543 5.740949 -27.144812 -151.967552 -7.143670 -12.773379 38.422588 8.353100 27.144812 -14.157741 -0.835310 4.221640
1174.726181 592.839689 126.864396 0.000000 0.000000 0.000000 0.000000 0.000000 0.000000 -110.369899 11.794563 11.755705 69.630101 -1.332982 11.755705 -148.108768 -5.059361 -28.531695 -151.515612 -7.394692 -9.270510 34.277732 8.448528 28.531695 -14.572227 -0.844853 4.045085
1167.352524 605.194867 138.616111 0.000000 0.000000 0.000000 0.000000 0.000000 0.000000 -113.828445 -1.184945 7.362491 66.171555 14.734363 7.362491 -131.688453 -0.928558 -29.468618 -151.045756 -6.036830 -5.621439 27.200835 8.500841 29.468618 -15.279916 -0.850084 3.852566
1139.678879 602.981014 139.157955 0.000000 0.000000 0.000000 0.000000 0.000000 0.000000 -97.599684 37.228045 2.506665 82.400316 -42.974101 2.506665 -113.965806 4.734935 -29.940802 -121.058781 -15.892366 -1.883716 -118.492407 -2.718890 29.940802 10.137620 5.385388 3.644843
1165.830002 580.020189 146.469533 0.000000 0.000000 0.000000 0.000000 0.000000 0.000000 -28.085052 37.527306 -2.506665 151.914948 -34.716634 -2.506665 -150.589103 -5.706972 -29.940802 -172.678414 -12.020163 1.883716 -149.717924 -5.912444 29.940802 0.000000 0.000000 0.000000
1184.501953 619.872494 137.658790 0.000000 0.000000 0.000000 0.000000 0.000000 0.000000 -113.790307 11.175923 -7.362491 66.209693 -16.871543 -7.362491 -59.272274 5.314861 -29.468618 29.476823 -1.869233 5.621439 -88.148483 0.696652 29.468618 7.414604 0.126077 3.187120
968.090170 444.221640 134.439191 0.000000 0.000000 0.000000 0.000000 0.000000 0.000000 21.092887 -8.031832 -11.755705 180.000000 4.953472 -11.755705 15.757771 -5.031282 -28.531695 164.242229 5.317233 9.270510 11.678908 -7.566673 28.531695 18.000000 0.307872 2.938926
968.151278 444.204723 128.106399 0.000000 0.000000 0.000000 0.000000 0.000000 0.000000 20.844337 -18.512643 -15.410265 180.000000 -1.497396 -15.410265 15.691895 -9.417374 -27.144812 164.308105 -3.870429 12.773379 11.804629 5.064555 27.144812 18.000000 -0.353260 2.679134
968.211492 444.187640 90.734276 0.000000 0.000000 0.000000 0.000000 0.000000 0.000000 20.610265 -20.097923 -18.096541 180.000000 3.497821 -18.096541 15.637361 -3.690422 -25.329838 164.362639 5.764750 16.074804 11.943263 -3.557198 25.329838 18.000000 0.093628 2.408768
968.270806 444.170392 111.302542 0.000000 0.000000 0.000000 0.000000 0.000000 0.000000 20.390366 -2.312649 -19.645745 180.000000 -3.686719 -19.645745 15.594026 0.904368 -23.115397 164.405974 3.164063 19.122720 12.095062 -1.307983 23.115397 18.000000 -0.268508 2.128896
968.329212 444.152979 97.561175 0.000000 0.000000 0.000000 0.000000 0.000000 0.000000 20.184343 17.352430 -19.960535 180.000000 -6.366713 -19.960535 15.561766 -7.855360 -20.536413 164.438234 -5.244721 21.869059 12.260289 2.390455 20.536413 18.000000 0.124524 1.840623
968.386706 444.135403 87.605246 0.000000 0.000000 0.000000 0.000000 0.000000 0.000000 19.991916 -0.414047 -19.021130 180.000000 -4.649983 -19.021130 15.540476 7.466837 -17.633558 164.459524 -3.958764 24.270510 12.439222 3.790454 17.633558 18.000000 -0.414608 1.545085
968.443279 444.117663 89.232241 0.000000 0.000000 0.000000 0.000000 0.000000 0.000000 19.812814 -12.575148 -16.886559 180.000000 6.019130 -16.886559 15.530069 -1.649186 -14.452610 164.469931 -9.791532 26.289200 12.632146 -1.589175 14.452610 18.000000 0.637862 1.243449
968.498927 444.099761 103.483571 0.000000 0.000000 0.000000 0.000000 0.000000 0.000000 19.646785 1.728876 -13.690942 180.000000 1.174450 -13.690942 15.530474 -2.452357 -11.043737 164.469526 2.460087 27.893295 12.839349 -5.004362 11.043737 18.000000 0.797352 0.936907
968.553643 444.081696 77.512162 0.000000 0.000000 0.000000 0.000000 0.000000 0.000000 19.493591 19.256381 -9.635073 180.000000 -5.583198 -9.635073 15.541640 -0.478968 -7.460697 164.458360 -3.986174 29.057495 13.061119 -3.285195 7.460697 18.000000 -0.013961 0.626666
1051.772690 653.004448 74.938590 0.000000 0.000000 0.000000 0.000000 0.000000 0.000000 -79.007834 -10.360766 -4.973798 100.992166 3.634592 -4.973798 -126.715299 1.617081 -3.759997 -149.991181 -3.481717 29.763441 31.772279 5.019490 3.759997 -14.822772 -0.501949 0.313953
1061.669197 624.716241 68.781198 0.000000 0.000000 0.000000 0.000000 0.000000 0.000000 -94.718359 -12.677642 0.000000 85.281641 11.825342 0.000000 -144.150484 -2.645937 -0.000000 60.155085 9.052201 30.000000 -152.711462 -0.185958 0.000000 1.815393 -0.233632 0.000000
1072.053337 571.032879 70.090906 0.000000 0.000000 0.000000 0.000000 0.000000 0.000000 71.424080 -18.552092 4.973798 -108.575920 3.857618 4.973798 -149.042361 -3.111274 3.759997 -149.913636 5.111622 29.763441 -145.792107 -4.643886 -3.759997 3.947623 0.471763 0.313953
1070.057373 572.884376 67.720696 0.000000 0.000000 0.000000 0.000000 0.000000 0.000000 -80.850201 -30.787648 9.635073 99.149799 31.021427 9.635073 -147.567525 -3.294998 7.460697 -164.443014 4.368429 29.057495 -145.447997 -4.056789 -7.460697 4.032371 0.342889 0.626666
968.813035 443.988972 75.035823 0.000000 0.000000 0.000000 0.000000 0.000000 0.000000 18.912944 22.625838 13.690942 180.000000 -6.534510 13.690942 15.758200 -6.496177 11.043737 164.241800 -10.703505 27.893295 14.397395 9.397567 -11.043737 18.000000 -1.007693 0.936907
968.862036 443.969952 62.876586 0.000000 0.000000 0.000000 0.000000 0.000000 0.000000 18.832684 -11.894959 16.886559 180.000000 -2.327937 16.886559 15.833735 11.662956 14.452610 164.166265 -1.638794 26.289200 14.711463 10.746200 -14.452610 18.000000 -0.494686 1.243449
968.910065 443.950775 46.999797 0.000000 0.000000 0.000000 0.000000 0.000000 0.000000 18.764066 -14.364149 19.021130 180.000000 -0.863730 19.021130 15.920102 1.594281 17.633558 164.079898 0.629006 24.270510 15.041323 -2.712368 -17.633558 18.000000 0.447963 1.545085
968.957118 443.931442 70.472387 0.000000 0.000000 0.000000 0.000000 0.000000 0.000000 18.706990 0.224116 19.960535 180.000000 -15.697154 19.960535 16.017366 14.263210 20.536413 163.982634 0.771540 21.869059 15.386894 0.262704 -20.536413 18.000000 -0.142740 1.840623
969.003188 443.911954 60.313804 0.000000 0.000000 0.000000 0.000000 0.000000 0.000000 18.661377 27.491636 19.645745 180.000000 -5.805492 19.645745 16.125602 0.933640 23.115397 163.874398 2.232990 19.122720 15.747980 -13.790548 -23.115397 18.000000 1.052822 2.128896
969.048271 443.892312 43.943092 0.000000 0.000000 0.000000 0.000000 0.000000 0.000000 18.627165 -6.989427 18.096541 180.000000 -0.794689 18.096541 16.244896 0.867649 25.329838 163.755104 4.579440 16.074804 16.124252 -6.603671 -25.329838 18.000000 -0.491502 2.408768
969.092361 443.872515 44.744470 0.000000 0.000000 0.000000 0.000000 0.000000 0.000000 18.604312 -1.776432 15.410265 180.000000 0.113836 15.410265 16.375340 1.172322 27.144812 163.624660 2.287184 12.773379 16.515224 -4.642978 -27.144812 18.000000 0.266644 2.679134
1055.186234 577.357593 51.114653 0.000000 0.000000 0.000000 0.000000 0.000000 0.000000 85.510211 -0.654842 11.755705 -94.489789 0.910939 11.755705 37.103410 -1.378363 28.531695 -148.111343 -2.061315 9.270510 24.294182 1.297734 -28.531695 -8.601915 0.350619 2.938926
1122.856522 566.714029 51.020479 0.000000 0.000000 0.000000 0.000000 0.000000 0.000000 96.216240 -5.440254 7.362491 -83.783760 -3.702117 7.362491 46.189625 9.202067 29.468618 -149.396962 -2.320581 5.621439 24.670091 2.593068 -29.468618 -7.107716 -0.852666 3.187120
969.218632 443.812213 64.089845 0.000000 0.000000 0.000000 0.000000 0.000000 0.000000 18.603763 1.552688 2.506665 180.000000 -4.916457 2.506665 16.834613 5.148294 29.940802 163.165387 -1.278550 1.883716 17.768624 -1.979416 -29.940802 18.000000 -0.490077 3.422736
1112.757797 605.798106 60.036407 0.000000 0.000000 0.000000 0.000000 0.000000 0.000000 110.914625 12.792906 -2.506665 -69.085375 -7.261736 -2.506665 67.769469 -7.932149 29.940802 -149.822316 -3.152353 -1.883716 29.049901 2.620128 -29.940802 -3.625079 0.187066 3.644843
1086.733246 592.557156 41.430775 0.000000 0.000000 0.000000 0.000000 0.000000 0.000000 -80.132323 -64.439555 -7.362491 99.867677 -55.053909 -7.362491 36.201564 10.763893 29.468618 -13.679556 5.888446 -5.621439 78.049842 -3.947441 -29.468618 -5.127460 0.087662 3.852566
1081.109390 570.394492 60.273687 0.000000 0.000000 0.000000 0.000000 0.000000 0.000000 -175.864613 -10.131510 -11.755705 4.135387 5.014280 -11.755705 134.713876 7.349368 28.531695 -10.005873 0.018229 -9.270510 135.737755 -0.486448 -28.531695 -3.389365 0.095792 4.045085
1089.776802 536.594539 54.273017 0.000000 0.000000 0.000000 0.000000 0.000000 0.000000 -139.033903 -8.978120 -15.410265 40.966097 9.397656 -15.410265 161.695972 -4.644033 27.144812 3.114398 -0.668669 -12.773379 148.805610 0.675671 -27.144812 -2.611636 -0.006658 4.221640
1114.282036 523.965647 72.521658 0.000000 0.000000 0.000000 0.000000 0.000000 0.000000 -156.073983 7.274821 -18.096541 23.926017 1.563172 -18.096541 174.825807 -1.784850 25.329838 5.093343 1.366253 -16.074804 161.266817 -1.282913 -25.329838 -1.814366 -0.003827 4.381533
1122.145157 503.425248 58.698172 0.000000 0.000000 0.000000 0.000000 0.000000 0.000000 -144.538174 -28.578610 -19.645745 35.461826 25.720694 -19.645745 174.215003 -0.664018 23.115397 -151.750905 -2.262621 -19.122720 43.887064 2.644045 -23.115397 -13.611294 -0.264405 4.524135
1134.158249 484.688419 67.407307 0.000000 0.000000 0.000000 0.000000 0.000000 0.000000 -142.311443 -11.394339 -19.960535 37.688557 12.322792 -19.960535 -174.407776 -3.003520 20.536413 14.121014 2.998195 -21.869059 176.737053 0.007082 -20.536413 -0.386439 0.041151 4.648882
1156.756668 500.025387 101.746474 0.000000 0.000000 0.000000 0.000000 0.000000 0.000000 -140.140767 0.598765 -19.021130 39.859233 -15.487788 -19.021130 -176.866589 0.902466 17.633558 -153.177991 -3.451497 -24.270510 40.555680 4.774225 -17.633558 -13.944432 -0.477422 4.755283
1163.818588 490.292573 74.394553 0.000000 0.000000 0.000000 0.000000 0.000000 0.000000 -126.918075 3.116707 -16.886559 53.081925 -4.762351 -16.886559 -163.374411 -2.141406 14.452610 -153.952175 -3.705111 -26.289200 36.914642 5.317271 -14.452610 0.798233 -0.087626 4.842916
1176.523705 490.346003 84.758879 0.000000 0.000000 0.000000 0.000000 0.000000 0.000000 -130.072590 0.035243 -13.690942 49.927410 0.667542 -13.690942 -150.224616 2.914738 11.043737 24.749952 -1.232444 -27.893295 -162.219632 -0.444883 -11.043737 1.550269 -0.030152 4.911436
1165.045052 489.521159 97.104279 0.000000 0.000000 0.000000 0.000000 0.000000 0.000000 -134.421293 -0.576603 -9.635073 45.578707 -10.813812 -9.635073 -138.114962 4.368740 7.460697 20.347125 -11.226793 -29.057495 -149.675125 5.372106 -7.460697 1.919618 -0.195559 4.960574
1186.003189 485.341580 93.657091 0.000000 0.000000 0.000000 0.000000 0.000000 0.000000 151.263424 -73.852045 -4.973798 -28.736576 -68.485017 -4.973798 -155.571724 -3.702028 3.759997 -114.944239 -2.836694 -29.763441 -157.446860 -4.007667 -3.759997 2.096391 0.406313 4.990134
1190.285912 497.609435 93.390917 0.000000 0.000000 0.000000 0.000000 0.000000 0.000000 -104.331435 -31.356449 -0.000000 75.668565 21.370166 -0.000000 -153.934692 -4.905710 0.000000 -67.465008 -5.924088 -30.000000 -71.629168 11.285369 -0.000000 -13.965204 8.586437 5.000000
846.875610 502.341399 112.791376 0.000000 0.000000 0.000000 0.000000 0.000000 0.000000 -153.358185 -4.061624 4.973798 26.641815 -17.022454 4.973798 -147.628169 -4.996355 -3.759997 -147.401289 -5.881663 -29.763441 0.000000 0.000000 0.000000 0.000000 0.000000 0.000000
969.711343 443.490827 130.938347 0.000000 0.000000 0.000000 0.000000 0.000000 0.000000 20.204512 -15.518889 9.635073 180.000000 12.800278 9.635073 20.733157 -12.166575 -7.460697 159.266843 7.564790 -29.057495 24.065833 0.864463 7.460697 18.000000 -0.427579 4.960574
969.735789 443.468267 100.749274 0.000000 0.000000 0.000000 0.000000 0.000000 0.000000 20.415894 24.007512 13.690942 180.000000 -7.877464 13.690942 21.087741 1.538760 -11.043737 158.912259 -3.967181 -27.893295 24.320336 -10.449794 11.043737 18.000000 1.152436 4.911436
969.759168 443.445569 103.591206 0.000000 0.000000 0.000000 0.000000 0.000000 0.000000 20.642061 3.455236 16.886559 180.000000 0.606563 16.886559 21.453029 -10.321945 -14.452610 158.546971 -4.365729 -26.289200 24.533304 14.306471 14.452610 18.000000 -1.210407 4.842916
585.252171 514.469179 116.256911 0.000000 0.000000 0.000000 0.000000 0.000000 0.000000 74.723181 -65.102373 19.021130 -105.276819 73.807065 19.021130 119.807175 -9.805802 -17.633558 165.825978 12.478165 -24.270510 138.012220 12.782110 17.633558 -12.357653 -0.449426 4.755283
624.843979 517.601860 124.574412 0.000000 0.000000 0.000000 0.000000 0.000000 0.000000 103.202449 -3.193705 19.960535 -76.797551 0.272152 19.960535 114.381580 -1.960148 -20.536413 -53.015473 51.389223 -21.869059 145.467160 9.088288 20.536413 -4.173333 -0.763869 4.648882
969.822873 443.376664 132.758258 0.000000 0.000000 0.000000 0.000000 0.000000 0.000000 21.413420 -17.099593 19.645745 180.000000 -5.648384 19.645745 22.607712 5.525367 -23.115397 157.392288 7.355242 -19.122720 24.899813 -11.637655 23.115397 18.000000 -0.506437 4.524135
969.841956 443.353428 143.869522 0.000000 0.000000 0.000000 0.000000 0.000000 0.000000 21.702987 5.745138 18.096541 180.000000 2.503188 18.096541 23.009909 4.048207 -25.329838 156.990091 14.414008 -16.074804 24.926562 -11.172938 25.329838 18.000000 0.673638 4.381533
969.859960 443.330059 141.431743 0.000000 0.000000 0.000000 0.000000 0.000000 0.000000 22.009579 11.909681 15.410265 180.000000 -12.511452 15.410265 23.419334 4.452272 -27.144812 156.580666 14.232742 -12.773379 24.904993 -19.127806 27.144812 18.000000 0.563747 4.221640
594.905148 538.048757 143.348449 0.000000 0.000000 0.000000 0.000000 0.000000 0.000000 -57.080480 -23.204067 11.755705 122.919520 27.407635 11.755705 -12.750556 -1.183010 -28.531695 149.841027 6.637502 -9.270510 -8.274090 -0.586207 28.531695 17.596979 0.207531 4.045085
969.892723 443.282929 142.284219 0.000000 0.000000 0.000000 0.000000 0.000000 0.000000 22.675903 -4.870265 7.362491 180.000000 2.168886 7.362491 24.255612 9.149422 -29.468618 155.744388 -0.918081 -5.621439 24.720303 16.737738 29.468618 18.000000 -0.489961 3.852566
1257.001877 499.708382 141.489006 0.000000 0.000000 0.000000 0.000000 0.000000 0.000000 52.818511 -12.353775 2.506665 -127.181489 10.470564 2.506665 25.369497 -1.564121 -29.940802 -143.914951 4.050460 -1.883716 14.556766 0.575027 29.940802 -16.686776 0.087626 3.644843
1279.050064 493.773898 125.555015 0.000000 0.000000 0.000000 0.000000 0.000000 0.000000 56.685213 -1.621092 -2.506665 -123.314787 2.231128 -2.506665 24.065452 4.928131 -29.940802 -146.540317 3.379857 1.883716 13.097461 -1.593694 29.940802 -16.716891 -0.119101 3.422736
1295.108986 477.099677 163.677092 0.000000 0.000000 0.000000 0.000000 0.000000 0.000000 65.723361 1.357189 -7.362491 -114.276639 0.176382 -7.362491 23.725299 -1.195451 -29.468618 -147.984281 -1.041431 5.621439 13.187557 2.394864 29.468618 -16.751134 -0.243752 3.187120
1289.065018 496.763316 149.107112 0.000000 0.000000 0.000000 0.000000 0.000000 0.000000 61.662232 -10.794818 -11.755705 -118.337768 11.778507 -11.755705 31.397757 -6.691241 -28.531695 -148.047797 -0.054632 9.270510 12.491083 1.670738 28.531695 -16.898368 0.035946 2.938926
1285.337105 480.691112 141.990990 0.000000 0.000000 0.000000 0.000000 0.000000 0.000000 58.021980 -0.763837 -15.410265 -121.978020 0.704018 -15.410265 31.705930 -4.520359 -27.144812 -157.028684 0.301457 12.773379 11.107306 -0.805432 27.144812 -17.140016 -0.003689 2.679134
1276.453171 465.093691 134.515639 0.000000 0.000000 0.000000 0.000000 0.000000 0.000000 70.157145 -0.834560 -18.096541 -109.842855 0.557569 -18.096541 40.303764 -1.846292 -25.329838 -145.293609 1.714669 16.074804 10.431204 -3.762565 25.329838 -17.100572 0.376198 2.408768
1253.658714 472.768564 142.641222 0.000000 0.000000 0.000000 0.000000 0.000000 0.000000 65.087926 48.958899 -19.645745 -114.912074 -36.675926 -19.645745 -157.680356 -6.319129 -23.115397 -137.727082 -5.226454 19.122720 -153.053596 1.238569 23.115397 -16.054219 -0.841498 2.128896
1366.101608 507.691247 141.577025 0.000000 0.000000 0.000000 0.000000 0.000000 0.000000 108.715100 36.097062 -19.960535 -71.284900 -16.527298 -19.960535 156.661132 -0.176869 -20.536413 -158.224303 -6.386870 21.869059 0.000000 0.000000 0.000000 0.000000 0.000000 0.000000
969.986295 443.064535 126.970404 0.000000 0.000000 0.000000 0.000000 0.000000 0.000000 26.662144 -13.865625 -19.021130 180.000000 2.955008 -19.021130 28.015351 -5.562159 -17.633558 151.984649 -8.609893 24.270510 22.068935 9.752814 17.633558 18.000000 -0.549634 1.545085
1282.107124 481.511257 138.091134 0.000000 0.000000 0.000000 0.000000 0.000000 0.000000 80.650781 -4.202760 -16.886559 -99.349219 12.160637 -16.886559 1.511604 8.600151 -14.452610 -32.896908 4.403540 26.289200 -7.727072 -8.629719 14.452610 13.531851 3.153772 1.243449
1282.921486 484.777769 139.673364 0.000000 0.000000 0.000000 0.000000 0.000000 0.000000 -81.737646 -21.962653 -13.690942 98.262354 35.459963 -13.690942 -23.867101 -3.953337 -11.043737 12.655668 7.273572 27.893295 -29.454911 0.374798 11.043737 9.861248 0.185681 0.936907
1290.933037 513.180238 148.945477 0.000000 0.000000 0.000000 0.000000 0.000000 0.000000 -91.387864 -0.470588 -9.635073 88.612136 -2.000818 -9.635073 -41.685392 0.392118 -7.460697 -161.156957 -6.498016 29.057495 15.157863 5.207179 7.460697 10.543436 1.257976 0.626666
969.999452 442.964284 123.722728 0.000000 0.000000 0.000000 0.000000 0.000000 0.000000 29.025427 7.261208 -4.973798 180.000000 1.336445 -4.973798 29.437993 2.122009 -3.759997 150.562007 6.292941 29.763441 20.404746 -1.851332 3.759997 18.000000 0.101501 0.313953
970.000000 442.938926 135.369246 0.000000 0.000000 0.000000 0.000000 0.000000 0.000000 29.678605 -20.358904 0.000000 180.000000 11.782264 0.000000 29.744881 -1.666159 -0.000000 150.255119 5.299485 30.000000 19.983107 -7.795254 0.000000 18.000000 0.573791 0.000000
1354.522934 467.411410 121.585665 0.000000 0.000000 0.000000 0.000000 0.000000 0.000000 150.622570 -5.334944 4.973798 -29.377430 -9.216057 4.973798 140.176400 2.221376 3.759997 -12.221629 -10.225145 29.763441 132.794256 8.250413 -3.759997 -2.626015 0.101281 0.313953
969.997807 442.887864 131.801583 0.000000 0.000000 0.000000 0.000000 0.000000 0.000000 31.061399 -16.018449 9.635073 180.000000 6.614107 9.635073 30.285790 -3.987289 7.460697 149.714210 -0.321628 29.057495 19.151579 3.036678 -7.460697 18.000000 -0.930152 0.626666
1246.736984 514.278152 105.147565 0.000000 0.000000 0.000000 0.000000 0.000000 0.000000 143.557092 -13.624495 13.690942 -36.442908 3.553750 13.690942 133.761037 2.757773 11.043737 -156.950665 -5.396680 27.893295 0.000000 0.000000 0.000000 1.928484 0.441049 0.936907
1245.221100 458.637464 108.498603 0.000000 0.000000 0.000000 0.000000 0.000000 0.000000 160.701064 14.190056 16.886559 -19.298936 -25.416827 16.886559 140.193827 8.695404 14.452610 -157.554825 -6.156668 26.289200 29.500467 4.656482 -14.452610 -15.049953 -0.465648 1.243449
1257.365570 418.514181 85.820759 0.000000 0.000000 0.000000 0.000000 0.000000 0.000000 -143.710676 1.680038 19.021130 36.289324 -5.667178 19.021130 163.220413 3.535263 17.633558 11.688054 -0.863466 24.270510 152.038385 3.442391 -17.633558 -2.339948 -0.244921 1.545085
1275.099564 408.163741 99.540205 0.000000 0.000000 0.000000 0.000000 0.000000 0.000000 -132.929531 6.943083 19.960535 47.070469 -4.478981 19.960535 173.491912 1.557391 20.536413 -160.709681 -4.589595 21.869059 33.138793 4.321685 -20.536413 -14.686121 -0.432169 1.840623
1290.611115 384.880857 118.823653 0.000000 0.000000 0.000000 0.000000 0.000000 0.000000 -132.705235 -13.770398 19.645745 47.294765 -2.014903 19.645745 -173.778854 1.931873 23.115397 20.496835 0.678749 19.122720 -161.220290 -3.986446 -23.115397 1.723235 0.393361 2.128896
1302.817154 380.305352 98.670839 0.000000 0.000000 0.000000 0.000000 0.000000 0.000000 -131.493915 1.744243 18.096541 48.506085 -1.653591 18.096541 -165.393697 -1.498297 25.329838 23.154815 0.934359 16.074804 -178.200316 -1.884473 -25.329838 0.138141 0.062029 2.408768
1304.997711 379.563582 107.849986 0.000000 0.000000 0.000000 0.000000 0.000000 0.000000 -126.727972 -3.378549 15.410265 53.272028 5.049196 15.410265 -160.219593 -1.122707 27.144812 28.448880 3.349541 12.773379 -174.368770 -3.016933 -27.144812 0.079526 0.136025 2.679134
1311.668472 386.890390 77.565957 0.000000 0.000000 0.000000 0.000000 0.000000 0.000000 -122.308728 -8.137005 11.755705 57.691272 -5.365374 11.755705 -158.801130 -0.111304 28.531695 150.942637 -4.461568 9.270510 -154.878332 -4.081622 -28.531695 2.695409 0.505309 2.938926
1305.131836 395.180186 89.889371 0.000000 0.000000 0.000000 0.000000 0.000000 0.000000 -125.112810 -4.745615 7.362491 54.887190 -1.872792 7.362491 -146.487292 -1.430816 29.468618 -175.167369 -1.953835 5.621439 -159.224034 -4.043881 -29.468618 1.782042 0.450000 3.187120
1296.320457 392.734526 69.622951 0.000000 0.000000 0.000000 0.000000 0.000000 0.000000 -131.035750 -4.561675 2.506665 48.964250 -6.273296 2.506665 -128.969563 1.470804 29.940802 38.856147 -4.895574 1.883716 -134.776850 1.557541 -29.940802 3.458429 0.153188 3.422736
1306.963577 386.612041 75.012713 0.000000 0.000000 0.000000 0.000000 0.000000 0.000000 -124.469622 -8.965994 -2.506665 55.530378 6.404550 -2.506665 -109.994856 1.605178 29.940802 37.691309 4.254588 -1.883716 -118.274788 -2.476816 -29.940802 5.098336 0.183368 3.644843
969.892723 442.572198 64.194759 0.000000 0.000000 0.000000 0.000000 0.000000 0.000000 41.287575 27.344147 -7.362491 180.000000 6.666802 -7.362491 30.974696 -14.560303 29.468618 149.025304 4.813067 -5.621439 15.072869 -1.432496 -29.468618 18.000000 -0.175469 3.852566
969.876883 442.545207 57.085658 0.000000 0.000000 0.000000 0.000000 0.000000 0.000000 42.241956 -9.440120 -11.755705 180.000000 -21.998650 -11.755705 30.826133 12.918173 28.531695 149.173867 -11.420929 -9.270510 14.823070 8.564517 -28.531695 18.000000 -0.364574 4.045085
969.859960 442.518116 43.584316 0.000000 0.000000 0.000000 0.000000 0.000000 0.000000 43.199779 31.056758 -15.410265 180.000000 -19.531741 -15.410265 30.649504 -0.470248 27.144812 149.350496 -8.024010 -12.773379 14.587557 -2.633485 -27.144812 18.000000 0.560082 4.221640
969.841956 442.490926 54.626845 0.000000 0.000000 0.000000 0.000000 0.000000 0.000000 44.157210 18.144821 -18.096541 180.000000 -16.150975 -18.096541 30.446417 1.875883 25.329838 149.553583 -1.183998 -16.074804 14.366154 -5.313412 -25.329838 18.000000 0.149656 4.381533
969.822873 442.463637 44.708080 0.000000 0.000000 0.000000 0.000000 0.000000 0.000000 45.110117 -45.324372 -19.645745 180.000000 24.458866 -19.645745 30.218633 -4.489573 23.115397 149.781367 16.197591 -19.122720 14.158653 -5.482907 -23.115397 18.000000 0.178864 4.524135
969.802712 442.436251 77.783538 0.000000 0.000000 0.000000 0.000000 0.000000 0.000000 46.054109 33.225304 -19.960535 180.000000 -19.933288 -19.960535 29.968037 -2.345192 20.536413 150.031963 -0.394548 -21.869059 13.964823 0.970436 -20.536413 18.000000 -0.350504 4.648882
1187.040939 541.658249 55.686446 0.000000 0.000000 0.000000 0.000000 0.000000 0.000000 82.806623 -41.451540 -19.021130 -97.193377 29.964955 -19.021130 45.395981 -10.743645 17.633558 -156.144455 -1.842491 -24.270510 0.000000 0.000000 0.000000 0.000000 0.000000 0.000000
1182.242889 522.024286 56.553418 0.000000 0.000000 0.000000 0.000000 0.000000 0.000000 -105.721938 24.662483 -16.886559 74.278062 -30.277978 -16.886559 -155.708006 -1.586985 14.452610 -157.302521 -2.836882 -26.289200 0.000000 0.000000 0.000000 2.684983 0.255990 4.842916
1180.914459 527.065626 52.985074 0.000000 0.000000 0.000000 0.000000 0.000000 0.000000 88.055617 1.265351 -13.690942 -91.944383 -1.316128 -13.690942 -158.862018 -2.483905 11.043737 -151.747289 -2.510751 -27.893295 0.000000 0.000000 0.000000 0.000000 0.000000 0.000000
1236.800194 541.387432 44.924841 0.000000 0.000000 0.000000 0.000000 0.000000 0.000000 -85.588400 -2.859730 -9.635073 94.411600 2.322729 -9.635073 -159.297106 -8.468225 7.460697 -157.915391 -2.299470 -29.057495 26.607362 2.118610 -7.460697 14.926890 0.752032 4.960574
1161.066513 575.006626 42.673010 0.000000 0.000000 0.000000 0.000000 0.000000 0.000000 -81.021168 5.405707 -4.973798 98.978832 -6.448220 -4.973798 -102.851701 3.379676 3.759997 -157.041007 -2.937673 -29.763441 21.429890 2.129710 -3.759997 10.859432 0.254181 4.990134
1255.636253 512.645942 46.847106 0.000000 0.000000 0.000000 0.000000 0.000000 0.000000 77.832564 11.918472 -0.000000 -102.167436 -8.311350 -0.000000 -158.264834 -2.367541 0.000000 -130.745502 -6.864125 -30.000000 -157.699225 -2.244507 -0.000000 0.000000 0.000000 0.000000
1265.118484 521.473864 49.518818 0.000000 0.000000 0.000000 0.000000 0.000000 0.000000 64.078276 4.361627 4.973798 -115.921724 -2.473282 4.973798 41.397952 1.105897 -3.759997 -139.329851 2.366579 -29.763441 20.223252 -2.745497 3.759997 -16.047574 0.272584 4.990134
1228.099480 522.138258 68.609549 0.000000 0.000000 0.000000 0.000000 0.000000 0.000000 71.050901 4.974542 9.635073 -108.949099 -14.174235 9.635073 150.099970 11.721875 -7.460697 -139.894702 -5.479640 -29.057495 -156.275691 -2.424885 7.460697 0.000000 0.000000 0.000000
1240.357246 528.695873 52.390646 0.000000 0.000000 0.000000 0.000000 0.000000 0.000000 65.413351 1.290752 13.690942 -114.586649 -10.671482 13.690942 147.242328 10.041238 -11.043737 -154.470720 -2.466792 -27.893295 25.557225 2.547951 11.043737 -15.444278 -0.254795 4.911436
1231.815262 551.380248 55.456031 0.000000 0.000000 0.000000 0.000000 0.000000 0.000000 56.412506 18.834591 16.886559 -123.587494 -10.922572 16.886559 -153.392336 -1.632371 -14.452610 -154.784582 -2.976565 -26.289200 24.191555 3.842230 14.452610 -15.580844 -0.384223 4.842916
1221.475182 508.360147 64.698216 0.000000 0.000000 0.000000 0.000000 0.000000 0.000000 77.450622 4.955296 19.021130 -102.549378 -8.198581 19.021130 -156.789784 -2.233114 -17.633558 -125.590168 -1.244972 -24.270510 -160.017240 -2.996809 17.633558 1.833434 0.338142 4.755283
969.477684 442.100429 82.332707 0.000000 0.000000 0.000000 0.000000 0.000000 0.000000 54.932575 -29.428310 19.960535 180.000000 -8.535547 19.960535 25.919122 -1.493485 -20.536413 154.080878 0.528405 -21.869059 12.612867 -1.868953 20.536413 18.000000 -0.071298 4.648882
1480.140495 518.878891 74.886010 0.000000 0.000000 0.000000 0.000000 0.000000 0.000000 -110.621767 -40.943564 19.645745 69.378233 84.813399 19.645745 -158.235933 -2.703501 -23.115397 166.031448 10.036097 -19.122720 -155.186432 -3.518008 23.115397 2.641553 0.298183 4.524135
1271.640472 556.840560 73.849312 0.000000 0.000000 0.000000 0.000000 0.000000 0.000000 -94.404719 16.528926 18.096541 85.595281 -0.796201 18.096541 -62.417786 1.152714 -25.329838 23.992813 1.261688 -16.074804 -76.856107 0.562938 25.329838 7.708835 -0.260633 4.381533
1258.556786 530.268441 78.073844 0.000000 0.000000 0.000000 0.000000 0.000000 0.000000 78.355945 -2.137906 15.410265 -101.644055 8.007718 15.410265 35.068294 -4.411787 -27.144812 -54.090640 1.407866 -12.773379 35.848220 2.443141 27.144812 -8.104639 -0.798636 4.221640
1250.800209 527.150567 85.861176 0.000000 0.000000 0.000000 0.000000 0.000000 0.000000 72.417769 4.328415 11.755705 -107.582231 -0.806995 11.755705 24.571109 1.102255 -28.531695 -39.196117 0.152929 -9.270510 10.411117 -10.359452 28.531695 -9.048616 4.946447 4.045085
1243.466148 571.776259 77.547047 0.000000 0.000000 0.000000 0.000000 0.000000 0.000000 86.301473 5.755741 7.362491 -93.698527 12.823151 7.362491 24.553534 -8.226182 -29.468618 -153.460385 -4.289498 -5.621439 19.510484 2.746258 29.468618 -10.109500 0.668669 3.852566
1261.883812 566.052918 90.226710 0.000000 0.000000 0.000000 0.000000 0.000000 0.000000 94.015209 11.536948 2.506665 -85.984791 -9.651183 2.506665 38.959993 1.424831 -29.940802 -154.008305 -4.623730 -1.883716 20.870951 2.560920 29.940802 -10.872440 0.387821 3.644843
1284.436798 527.190542 93.513497 0.000000 0.000000 0.000000 0.000000 0.000000 0.000000 111.186365 0.490256 -2.506665 -68.813635 -5.929940 -2.506665 58.506163 2.929552 -29.940802 -19.138727 -2.312142 1.883716 51.457372 1.137025 29.940802 -5.203198 0.104590 3.422736
1272.860069 533.494012 79.479622 0.000000 0.000000 0.000000 0.000000 0.000000 0.000000 72.301471 -20.615560 -7.362491 -107.698529 18.323682 -7.362491 78.802573 3.197515 -29.468618 -154.772375 -3.903822 5.621439 26.927455 3.477860 29.468618 -15.307255 -0.347786 3.187120
1255.264664 498.243735 98.286405 0.000000 0.000000 0.000000 0.000000 0.000000 0.000000 164.596971 -38.518516 -11.755705 -15.403029 0.748995 -11.755705 125.849126 4.729900 -28.531695 -156.067666 -4.822212 9.270510 33.087561 5.124786 28.531695 -14.691244 -0.512479 2.938926
1259.202232 470.407684 121.704494 0.000000 0.000000 0.000000 0.000000 0.000000 0.000000 -139.980397 16.252413 -15.410265 40.019603 -24.723176 -15.410265 165.887722 -5.602152 -27.144812 -157.901492 -6.274962 12.773379 35.196094 5.470726 27.144812 -14.480391 -0.547073 2.679134
1236.502075 429.951335 113.617534 0.000000 0.000000 0.000000 0.000000 0.000000 0.000000 -113.295066 2.055568 -18.096541 66.704934 14.127320 -18.096541 -174.664169 2.241489 -25.329838 -159.007335 -4.357722 16.074804 32.868990 6.948921 25.329838 -14.713101 -0.694892 2.408768
1253.359451 413.942538 134.641263 0.000000 0.000000 0.000000 0.000000 0.000000 0.000000 -123.348580 6.507006 -19.645745 56.651420 2.840733 -19.645745 -167.815074 -2.453700 -23.115397 -159.603180 -5.738492 19.122720 32.791747 6.574570 23.115397 -14.720825 -0.657457 2.128896
1281.206589 405.664523 143.044867 0.000000 0.000000 0.000000 0.000000 0.000000 0.000000 -124.414271 -2.108754 -19.960535 55.585729 9.994070 -19.960535 -161.281803 -4.713938 -20.536413 28.568449 2.890336 21.869059 -159.052798 -4.841159 20.536413 1.849141 0.463706 1.840623
1300.238571 418.760215 133.448179 0.000000 0.000000 0.000000 0.000000 0.000000 0.000000 -126.263092 2.919504 -19.021130 53.736908 -5.231973 -19.021130 -159.739358 3.677886 -17.633558 31.487961 0.424639 24.270510 -170.323915 0.886572 17.633558 0.671815 -0.139441 1.545085
1321.889191 413.634385 134.458301 0.000000 0.000000 0.000000 0.000000 0.000000 0.000000 -133.874471 8.466215 -16.886559 46.125529 -1.692196 -16.886559 -159.376251 2.001362 -14.452610 30.696824 1.279404 26.289200 -164.929556 1.065286 14.452610 1.089735 -0.026905 1.243449
1336.221428 432.881820 132.210288 0.000000 0.000000 0.000000 0.000000 0.000000 0.000000 -115.020798 0.205854 -13.690942 64.979202 -8.591099 -13.690942 -135.609544 0.899048 -11.043737 -161.321630 -6.113514 27.893295 17.353502 9.218895 11.043737 -16.264650 -0.921889 0.936907
1329.124603 416.860342 139.949932 0.000000 0.000000 0.000000 0.000000 0.000000 0.000000 -134.023347 -6.059247 -9.635073 45.976653 11.712299 -9.635073 -128.030830 -1.308590 -7.460697 28.249885 4.447355 29.057495 -136.447985 -0.453469 7.460697 4.038834 -0.324525 0.626666
1343.366776 427.060794 143.533313 0.000000 0.000000 0.000000 0.000000 0.000000 0.000000 -130.153347 -12.271731 -4.973798 49.846653 2.972354 -4.973798 -103.564435 4.790910 -3.759997 27.398095 4.810899 29.763441 -115.461530 1.276800 3.759997 5.470063 -0.281173 0.313953
1376.991005 465.829636 126.971480 0.000000 0.000000 0.000000 0.000000 0.000000 0.000000 -120.272352 4.971830 0.000000 59.727648 -1.117346 0.000000 -62.204131 0.854841 -0.000000 27.740602 4.563271 30.000000 -80.461527 -2.744102 0.000000 7.450891 -0.326382 0.000000
1384.978867 468.790376 156.084450 0.000000 0.000000 0.000000 0.000000 0.000000 0.000000 -93.720384 26.850222 4.973798 86.279616 40.887625 4.973798 3.847814 3.654186 3.759997 -160.438787 -6.050434 29.763441 15.990976 4.746117 -3.759997 7.894783 -0.433712 0.313953
1345.894547 516.257268 149.229465 0.000000 0.000000 0.000000 0.000000 0.000000 0.000000 127.577640 -11.212994 9.635073 -52.422360 1.793727 9.635073 53.096359 0.029347 7.460697 -159.021748 -6.083301 29.057495 18.308456 5.276860 -7.460697 -4.062191 0.707586 0.626666
968.498927 441.455181 157.986274 0.000000 0.000000 0.000000 0.000000 0.000000 0.000000 47.920147 -30.889681 13.690942 180.000000 24.403817 13.690942 19.641385 -8.338163 11.043737 160.358615 7.985085 27.893295 13.993219 -7.307428 -11.043737 18.000000 0.807637 0.936907
1336.846733 493.527671 150.153759 0.000000 0.000000 0.000000 0.000000 0.000000 0.000000 102.681311 -9.243945 16.886559 -77.318689 9.228783 16.886559 35.985219 2.243959 14.452610 -159.617763 -6.090729 26.289200 19.375410 5.140688 -14.452610 -16.062459 -0.514069 1.243449
968.386706 441.394956 153.397406 0.000000 0.000000 0.000000 0.000000 0.000000 0.000000 46.120581 48.377029 19.021130 180.000000 -34.386145 19.021130 19.316787 10.201625 17.633558 160.683213 3.000042 24.270510 14.327067 -11.092513 -17.633558 18.000000 0.142110 1.545085
1263.984947 433.341283 162.296792 0.000000 0.000000 0.000000 0.000000 0.000000 0.000000 -115.578373 -6.453293 19.960535 64.421627 8.935233 19.960535 -82.396446 3.073114 20.536413 25.733383 13.854466 21.869059 -77.477544 -7.559734 -20.536413 5.836928 -0.285566 1.840623
1352.596436 477.564354 136.985178 0.000000 0.000000 0.000000 0.000000 0.000000 0.000000 -99.196741 6.171623 19.645745 80.803259 2.745341 19.645745 -125.272585 2.784349 23.115397 -162.405270 -6.233776 19.122720 17.377627 5.925262 -23.115397 -16.262237 -0.592526 2.128896
1384.326782 408.174427 134.739498 0.000000 0.000000 0.000000 0.000000 0.000000 0.000000 96.868601 14.911782 18.096541 -83.131399 -13.509695 18.096541 -160.848957 -6.170874 25.329838 -137.255583 -1.479429 16.074804 -162.076720 -7.180297 -25.329838 0.000000 0.000000 0.000000
1387.580223 387.128634 141.506598 0.000000 0.000000 0.000000 0.000000 0.000000 0.000000 78.087764 0.710364 15.410265 -101.912236 11.272808 15.410265 -161.807915 -6.497440 27.144812 -147.504361 2.431402 12.773379 -162.566306 -7.557356 -27.144812 1.735427 0.772073 2.679134
1345.818558 392.423122 153.402099 0.000000 0.000000 0.000000 0.000000 0.000000 0.000000 71.782984 18.228496 11.755705 -108.217016 -9.248726 11.755705 -169.469261 -10.911313 28.531695 -153.903088 -3.864655 9.270510 -154.670689 3.789018 -28.531695 15.277725 -0.856554 2.938926
1331.471329 361.814139 132.485026 0.000000 0.000000 0.000000 0.000000 0.000000 0.000000 53.586100 -11.798550 7.362491 -126.413900 27.391700 7.362491 -162.290330 -6.564568 29.468618 -154.912165 2.945177 5.621439 -162.550394 -7.244812 -29.468618 1.742175 0.811193 3.187120
1354.413986 427.213873 139.225046 0.000000 0.000000 0.000000 0.000000 0.000000 0.000000 -131.358118 -4.691089 2.506665 48.641882 -13.756191 2.506665 -142.488821 6.439413 29.940802 -161.977882 -5.815612 1.883716 12.673705 9.374982 -29.940802 1.397524 -0.040563 3.422736
1330.326691 347.207226 121.219781 0.000000 0.000000 0.000000 0.000000 0.000000 0.000000 52.464175 -5.764754 -2.506665 -127.535825 1.407930 -2.506665 14.270918 2.613273 29.940802 -122.057234 3.025880 -1.883716 22.820874 -0.597320 -29.940802 -15.244909 0.028321 3.644843
1317.103271 414.475805 126.905502 0.000000 0.000000 0.000000 0.000000 0.000000 0.000000 76.170457 -4.723547 -7.362491 -103.829543 16.018718 -7.362491 -50.250674 -0.166462 29.468618 -52.503744 -1.785597 -5.621439 -92.793049 6.284481 -29.468618 3.303440 -0.639332 3.852566
1331.844635 430.291482 113.238195 0.000000 0.000000 0.000000 0.000000 0.000000 0.000000 79.985160 1.464254 -11.755705 -100.014840 -7.591858 -11.755705 25.995082 3.732856 28.531695 -75.062603 0.808627 -9.270510 38.761234 -2.570395 -28.531695 -11.442229 -0.082927 4.045085
1359.462433 496.472383 109.961816 0.000000 0.000000 0.000000 0.000000 0.000000 0.000000 84.268829 5.659238 -15.410265 -95.731171 -1.199988 -15.410265 30.279153 0.384874 27.144812 -63.318008 2.523891 -12.773379 39.457716 -1.728915 -27.144812 -9.485742 -0.170730 4.221640
1323.514366 546.771398 134.391516 0.000000 0.000000 0.000000 0.000000 0.000000 0.000000 84.407325 0.247244 -18.096541 -95.592675 -3.361724 -18.096541 27.768249 0.792748 25.329838 -47.660055 -2.386078 -16.074804 28.281511 1.432167 -25.329838 -7.827901 -0.592656 4.381533
1268.535347 591.567099 120.315417 0.000000 0.000000 0.000000 0.000000 0.000000 0.000000 90.890792 -5.483171 -19.645745 -89.109208 1.380182 -19.645745 44.654760 -1.818784 23.115397 -48.200667 -1.090173 -19.122720 43.369388 7.271459 -23.115397 -8.974980 -0.155976 4.524135
1303.157158 602.888768 103.415303 0.000000 0.000000 0.000000 0.000000 0.000000 0.000000 90.349289 -1.487173 -19.960535 -89.650711 2.215708 -19.960535 47.707312 -3.156029 20.536413 -53.918782 -1.329812 -21.869059 40.070965 2.345987 -20.536413 -9.318632 0.300849 4.648882
1314.841690 613.141973 107.263479 0.000000 0.000000 0.000000 0.000000 0.000000 0.000000 94.480501 -1.664398 -19.021130 -85.519499 7.945630 -19.021130 58.462862 -4.142109 17.633558 -52.020507 0.739426 -24.270510 55.276552 -0.839354 -17.633558 -7.777523 0.801547 4.755283
1327.521400 639.394319 95.790994 0.000000 0.000000 0.000000 0.000000 0.000000 0.000000 99.879576 -1.898662 -16.886559 -80.120424 -1.057183 -16.886559 69.161359 -1.508908 14.452610 -46.413613 5.109773 -26.289200 76.680143 0.583944 -14.452610 -6.257768 -0.551585 4.842916
1277.812729 671.228578 90.693131 0.000000 0.000000 0.000000 0.000000 0.000000 0.000000 99.708534 -7.199938 -13.690942 -80.291466 5.610008 -13.690942 92.239140 2.598502 11.043737 -26.764021 3.062942 -27.893295 98.168457 3.376891 -11.043737 -4.372074 -0.117276 4.911436
1309.642181 690.479329 66.695060 0.000000 0.000000 0.000000 0.000000 0.000000 0.000000 117.292414 1.373908 -9.635073 -62.707586 -2.724411 -9.635073 137.002702 2.537951 7.460697 -32.045917 -5.122113 -29.057495 135.211322 4.962628 -7.460697 -3.212944 -0.252588 4.960574
1299.770966 664.126496 76.020194 0.000000 0.000000 0.000000 0.000000 0.000000 0.000000 158.531160 0.056992 -4.973798 -21.468840 2.194803 -4.973798 161.478323 -0.256579 3.759997 -12.838206 -3.273609 -29.763441 151.269584 1.068007 -3.759997 -2.521934 0.096559 4.990134
1313.353729 643.668108 57.340159 0.000000 0.000000 0.000000 0.000000 0.000000 0.000000 -154.315892 9.310980 -0.000000 25.684108 13.160133 -0.000000 173.459940 -3.914460 0.000000 1.519689 3.378616 -30.000000 164.244875 -2.438230 -0.000000 -1.552244 0.079948 5.000000
1342.841377 638.982847 72.496997 0.000000 0.000000 0.000000 0.000000 0.000000 0.000000 -138.993869 11.944632 4.973798 41.006131 3.172079 4.973798 175.724056 -3.478583 -3.759997 -151.723069 -3.341974 -29.763441 43.242568 3.261333 3.759997 -13.675743 -0.326133 4.990134
1350.000229 614.724133 52.762494 0.000000 0.000000 0.000000 0.000000 0.000000 0.000000 -144.248147 9.951257 9.635073 35.751853 -1.397451 9.635073 177.069273 -2.730830 -7.460697 -152.227621 -3.232097 -29.057495 43.136563 4.240979 7.460697 -13.686344 -0.424098 4.960574
1328.535919 624.780936 50.252302 0.000000 0.000000 0.000000 0.000000 0.000000 0.000000 -165.447222 5.327486 13.690942 14.552778 2.841247 13.690942 169.657511 1.986112 -11.043737 -152.168050 -2.570137 -27.893295 41.929642 3.839439 11.043737 -13.807036 -0.383944 4.911436
1318.810501 615.688248 56.724961 0.000000 0.000000 0.000000 0.000000 0.000000 0.000000 -120.063657 1.213004 16.886559 59.936343 4.102610 16.886559 -165.389465 -3.727806 -14.452610 -152.866764 -2.815959 -26.289200 39.162270 2.849640 14.452610 -14.083773 -0.284964 4.842916
1321.656418 659.275410 52.964062 0.000000 0.000000 0.000000 0.000000 0.000000 0.000000 -121.435085 -13.160214 19.021130 58.564915 9.060657 19.021130 -149.190712 -1.626747 -17.633558 -151.926374 -2.233546 -24.270510 33.097066 3.094407 17.633558 -14.690293 -0.309441 4.755283
1328.445511 687.490232 51.430551 0.000000 0.000000 0.000000 0.000000 0.000000 0.000000 -104.253419 10.843656 19.960535 75.746581 -15.093910 19.960535 -110.140878 12.080882 -20.536413 -152.911692 -2.661420 -21.869059 23.882145 2.573690 20.536413 3.694979 -0.083171 4.648882
966.534206 440.564282 66.802646 0.000000 0.000000 0.000000 0.000000 0.000000 0.000000 25.865486 17.677963 19.645745 180.000000 -2.771453 19.645745 18.728337 -3.115406 -23.115397 161.271663 -5.716930 -19.122720 19.024234 -1.619527 23.115397 18.000000 0.254312 4.524135
966.454577 440.533056 58.760991 0.000000 0.000000 0.000000 0.000000 0.000000 0.000000 25.417507 -5.224250 18.096541 180.000000 7.905115 18.096541 18.825450 -2.534096 -25.329838 161.174550 8.483757 -16.074804 19.071566 1.617030 25.329838 18.000000 -1.156982 4.381533
966.374240 440.501809 58.972916 0.000000 0.000000 0.000000 0.000000 0.000000 0.000000 24.990320 -33.051927 15.410265 180.000000 3.071474 15.410265 18.929718 15.052629 -27.144812 161.070282 3.078812 -12.773379 19.102411 3.238577 27.144812 18.000000 0.721725 4.221640
966.293204 440.470542 36.456152 0.000000 0.000000 0.000000 0.000000 0.000000 0.000000 24.583377 6.886124 11.755705 180.000000 -2.264937 11.755705 19.040946 4.349090 -28.531695 160.959054 -7.932856 -9.270510 19.116765 1.101639 28.531695 18.000000 0.477222 4.045085
966.211478 440.439256 42.978194 0.000000 0.000000 0.000000 0.000000 0.000000 0.000000 24.196129 -13.013374 7.362491 180.000000 17.794336 7.362491 19.158923 -8.056293 -29.468618 160.841077 -0.036741 -5.621439 19.114778 12.850442 29.468618 18.000000 -0.352187 3.852566
644.985180 745.864069 53.182502 0.000000 0.000000 0.000000 0.000000 0.000000 0.000000 96.086415 27.059289 2.506665 -83.913585 -6.070907 2.506665 -159.662371 6.552674 -29.940802 -116.741565 17.482005 -1.883716 -176.001217 -4.940643 29.940802 -1.006627 -1.508546 3.644843
1269.020119 699.025490 59.898453 0.000000 0.000000 0.000000 0.000000 0.000000 0.000000 83.810916 -11.251128 -2.506665 -96.189084 14.641258 -2.506665 51.932890 -3.664825 -29.940802 -149.314466 -1.138319 1.883716 27.598511 2.491790 29.940802 -15.240149 -0.249179 3.422736
573.721218 678.450201 39.740271 0.000000 0.000000 0.000000 0.000000 0.000000 0.000000 18.756393 -44.028427 -7.362491 -161.243607 23.113460 -7.362491 -174.158094 -7.192140 -29.468618 178.010322 1.178762 5.621439 -154.394154 -3.553804 29.468618 11.886524 2.325067 3.187120
1261.580200 714.897366 69.901109 0.000000 0.000000 0.000000 0.000000 0.000000 0.000000 87.191276 -2.166151 -11.755705 -92.808724 0.674019 -11.755705 23.129119 8.058930 -28.531695 -149.376238 -1.915660 9.270510 24.545507 1.669729 28.531695 13.583501 4.275922 2.938926
1314.655838 684.171546 64.499270 0.000000 0.000000 0.000000 0.000000 0.000000 0.000000 61.219932 -10.304826 -15.410265 -118.780068 2.082026 -15.410265 25.476616 0.864661 -27.144812 -150.404247 -2.121205 12.773379 24.621454 1.717608 27.144812 -15.537855 -0.171761 2.679134
1319.638939 674.820013 50.511890 0.000000 0.000000 0.000000 0.000000 0.000000 0.000000 82.055377 3.313041 -18.096541 -97.944623 -1.352581 -18.096541 17.325085 -1.574142 -25.329838 -60.067277 -1.445205 16.074804 23.747728 4.569993 25.329838 -13.005173 -0.849779 2.408768
1367.852325 659.536314 62.218662 0.000000 0.000000 0.000000 0.000000 0.000000 0.000000 -150.278430 11.748556 -19.645745 29.721570 -30.942972 -19.645745 -151.222797 -2.258370 -23.115397 18.758043 -3.538614 19.122720 -152.451920 -2.174284 23.115397 2.484143 0.183369 2.128896
1392.624664 638.981302 63.502032 0.000000 0.000000 0.000000 0.000000 0.000000 0.000000 -122.704248 9.977027 -19.960535 57.295752 -5.581834 -19.960535 -134.513385 4.265164 -20.536413 30.292627 -0.745755 21.869059 -146.694539 0.226654 20.536413 2.430965 -0.178812 1.840623
1401.291389 646.422758 69.808411 0.000000 0.000000 0.000000 0.000000 0.000000 0.000000 83.316637 2.828180 -19.021130 -96.683363 0.607617 -19.021130 29.335627 -6.661522 -17.633558 -136.281416 -2.742401 24.270510 19.119183 -0.115309 17.633558 -15.871560 0.089531 1.545085
1381.838951 663.410475 79.425854 0.000000 0.000000 0.000000 0.000000 0.000000 0.000000 79.215331 -6.409367 -16.886559 -100.784669 5.314582 -16.886559 30.640455 -7.995756 -14.452610 -139.113455 2.861587 26.289200 14.302413 0.194163 14.452610 -16.408036 -0.042452 1.243449
1390.185928 664.248354 82.505511 0.000000 0.000000 0.000000 0.000000 0.000000 0.000000 75.546066 0.404690 -13.690942 -104.453934 -8.523140 -13.690942 38.995097 -0.419882 -11.043737 -142.871297 -6.491887 27.893295 14.209110 2.993413 11.043737 -16.737090 -0.161022 0.936907
1393.889923 677.551103 96.155660 0.000000 0.000000 0.000000 0.000000 0.000000 0.000000 84.293627 -0.166779 -9.635073 -95.706373 6.373369 -9.635073 -152.700272 -3.982407 -7.460697 -143.357755 2.292538 29.057495 -148.868889 -4.459573 7.460697 3.626268 0.449422 0.626666
905.601082 693.654528 90.670352 0.000000 0.000000 0.000000 0.000000 0.000000 0.000000 -84.410869 7.489570 -4.973798 95.589131 9.407398 -4.973798 -139.498802 -4.837981 -3.759997 -178.556713 -44.269778 29.763441 -142.061844 -3.634126 3.759997 3.411456 0.431954 0.313953
1337.643929 680.318756 108.961044 0.000000 0.000000 0.000000 0.000000 0.000000 0.000000 78.192517 4.009467 0.000000 -101.807483 6.533801 0.000000 48.289813 -6.026093 -0.000000 -140.291980 -1.647292 30.000000 13.663140 -0.307428 0.000000 -17.395561 -0.002915 0.000000
1322.670708 685.543334 99.197629 0.000000 0.000000 0.000000 0.000000 0.000000 0.000000 71.501063 22.042892 4.973798 -108.498937 2.121962 4.973798 23.648228 0.865728 3.759997 -144.586500 1.546053 29.763441 14.578018 -1.276988 -3.759997 -16.885607 0.262276 0.313953
1305.530548 682.910864 96.388520 0.000000 0.000000 0.000000 0.000000 0.000000 0.000000 72.979287 -30.614820 9.635073 -107.020713 -22.652897 9.635073 -148.728581 -3.725559 7.460697 -74.802907 -3.807169 29.057495 -151.178244 -3.824709 -7.460697 2.601049 0.428060 0.626666
1359.363556 692.650115 114.259775 0.000000 0.000000 0.000000 0.000000 0.000000 0.000000 73.244804 5.752096 13.690942 -106.755196 10.305124 13.690942 13.983499 -8.517533 11.043737 -67.611809 3.413449 27.893295 13.130547 0.603663 -11.043737 -11.004089 -0.435070 0.936907
1299.495964 679.994059 116.592122 0.000000 0.000000 0.000000 0.000000 0.000000 0.000000 116.206779 -14.024930 16.886559 -63.793221 17.138904 16.886559 -150.858719 -4.823692 14.452610 -34.548592 -0.370115 26.289200 60.366751 10.211342 -14.452610 -4.627493 0.010630 1.243449
1306.260338 711.527116 123.750179 0.000000 0.000000 0.000000 0.000000 0.000000 0.000000 -85.758672 -25.377825 19.021130 94.241328 6.177539 19.021130 -31.461750 -4.029269 17.633558 -4.237664 -1.320688 24.270510 -15.215787 4.616242 -17.633558 7.867754 -0.987562 1.545085
1272.614822 704.778571 122.909194 0.000000 0.000000 0.000000 0.000000 0.000000 0.000000 -78.634637 2.425067 19.960535 101.365363 3.122515 19.960535 -34.118569 1.320838 20.536413 22.539652 -7.607914 21.869059 -31.373170 4.848224 -20.536413 11.310693 0.904764 1.840623
1310.345650 676.427021 126.802863 0.000000 0.000000 0.000000 0.000000 0.000000 0.000000 97.572435 7.942528 19.645745 -82.427565 -0.101637 19.645745 50.400703 -4.051233 23.115397 -39.584286 -7.090210 19.122720 44.966766 7.498668 -23.115397 -8.852712 0.817414 2.128896
1315.732956 671.025095 125.846258 0.000000 0.000000 0.000000 0.000000 0.000000 0.000000 97.797337 -11.029875 18.096541 -82.202663 9.198517 18.096541 49.825934 -8.678260 25.329838 -39.162923 4.492693 16.074804 36.475631 -3.184935 -25.329838 -8.191519 -0.897256 2.408768
1329.935532 653.525419 127.398285 0.000000 0.000000 0.000000 0.000000 0.000000 0.000000 96.469555 -1.480891 15.410265 -83.530445 2.824846 15.410265 63.882053 -0.475136 27.144812 -51.972064 5.526642 12.773379 58.624362 -0.245036 -27.144812 -8.239564 -0.045823 2.679134
1316.170578 674.246514 134.330139 0.000000 0.000000 0.000000 0.000000 0.000000 0.000000 -87.946330 10.896578 11.755705 92.053670 -3.834642 11.755705 -29.715798 -2.368609 28.531695 54.212796 -7.084883 9.270510 -40.560774 1.023300 -28.531695 11.008015 0.183993 2.938926
1317.367287 678.027205 145.367226 0.000000 0.000000 0.000000 0.000000 0.000000 0.000000 95.152942 16.707153 7.362491 -84.847058 -20.996931 7.362491 98.792835 4.095417 29.468618 -150.515547 -6.780492 5.621439 32.983753 4.990981 -29.468618 -14.701625 -0.499098 3.187120
1318.168488 670.157025 144.262831 0.000000 0.000000 0.000000 0.000000 0.000000 0.000000 -151.252255 30.001625 2.506665 28.747745 -65.002476 2.506665 138.896993 5.522009 29.940802 -151.946620 -6.574446 1.883716 38.784684 5.768374 -29.940802 -14.121532 -0.576837 3.422736
1323.412628 644.667885 157.888421 0.000000 0.000000 0.000000 0.000000 0.000000 0.000000 -97.904066 30.601356 -2.506665 82.095934 -36.583311 -2.506665 155.695030 -0.451673 29.940802 -152.500978 -7.322933 -1.883716 44.721081 6.555394 -29.940802 -13.527892 -0.655539 3.644843
1312.776718 630.059459 133.865749 0.000000 0.000000 0.000000 0.000000 0.000000 0.000000 -116.637972 -20.388591 -7.362491 63.362028 19.462247 -7.362491 171.094570 -5.908638 29.468618 -152.894064 -5.923769 -5.621439 43.947863 8.053726 -29.468618 -13.605214 -0.805373 3.852566
1316.420746 625.237019 143.853500 0.000000 0.000000 0.000000 0.000000 0.000000 0.000000 -136.254273 -3.080551 -11.755705 43.745727 -0.821115 -11.755705 -177.663204 2.564660 28.531695 -153.006287 -6.455694 -9.270510 42.784597 6.799815 -28.531695 -13.721540 -0.679981 4.045085
1314.719925 628.818026 148.109396 0.000000 0.000000 0.000000 0.000000 0.000000 0.000000 -114.737929 2.436437 -15.410265 65.262071 -4.707305 -15.410265 -169.764314 0.234556 27.144812 -153.369487 -6.896687 -12.773379 41.498347 7.430262 -27.144812 -13.850165 -0.743026 4.221640
1334.396782 646.165652 164.454779 0.000000 0.000000 0.000000 0.000000 0.000000 0.000000 -116.903454 -2.649963 -18.096541 63.096546 14.565217 -18.096541 -154.594534 -2.330915 25.329838 -153.225015 -6.166567 -16.074804 37.136182 9.229524 -25.329838 -14.286382 -0.922952 4.381533
1340.823784 648.244128 148.540752 0.000000 0.000000 0.000000 0.000000 0.000000 0.000000 -116.932323 3.137672 -19.645745 63.067677 -3.354343 -19.645745 -138.898656 2.864519 23.115397 35.335752 -2.179574 -19.122720 -153.336856 0.455974 -23.115397 2.206211 -0.004957 4.524135
1330.023880 654.599032 149.465486 0.000000 0.000000 0.000000 0.000000 0.000000 0.000000 -112.150704 17.856521 -19.960535 67.849296 -5.063609 -19.960535 -118.798313 -1.008710 20.536413 -153.636372 -6.747419 -21.869059 16.691869 8.406556 -20.536413 -16.330813 -0.840656 4.648882
1337.431641 662.410698 158.870064 0.000000 0.000000 0.000000 0.000000 0.000000 0.000000 -109.111809 -3.354719 -19.021130 70.888191 10.628989 -19.021130 -91.144379 -2.867472 17.633558 -154.448144 -5.600348 -24.270510 10.298202 7.033798 -17.633558 6.642051 -0.163180 4.755283
1324.339714 676.416593 147.880394 0.000000 0.000000 0.000000 0.000000 0.000000 0.000000 -104.120178 -12.133760 -16.886559 75.879822 1.591876 -16.886559 -57.095620 4.095220 14.452610 38.799650 0.798282 -26.289200 -71.942639 0.536685 -14.452610 8.831938 -0.031294 4.842916
962.890318 439.311049 135.856308 0.000000 0.000000 0.000000 0.000000 0.000000 0.000000 19.986963 -16.926927 -13.690942 180.000000 1.704115 -13.690942 24.297229 2.724332 11.043737 155.702771 3.787172 -27.893295 14.983342 -1.460591 -11.043737 18.000000 -0.432000 4.911436
962.789911 439.279946 135.405953 0.000000 0.000000 0.000000 0.000000 0.000000 0.000000 20.089586 3.227582 -9.635073 180.000000 -7.334481 -9.635073 24.330184 -6.251252 7.460697 155.669816 -5.475087 -29.057495 14.926290 -0.892835 -7.460697 18.000000 0.107140 4.960574
641.318550 641.336324 143.684444 0.000000 0.000000 0.000000 0.000000 0.000000 0.000000 163.642929 7.786732 -4.973798 -16.357071 8.066330 -4.973798 -155.926011 -3.551177 3.759997 -130.644608 -8.926712 -29.763441 68.679337 11.130983 -3.759997 -11.132066 -1.113098 4.990134
1305.385551 662.289033 128.026980 0.000000 0.000000 0.000000 0.000000 0.000000 0.000000 -81.949824 17.102371 -0.000000 98.050176 16.015263 -0.000000 9.536664 -2.892626 0.000000 -153.586691 -5.754743 -30.000000 24.402531 5.201678 -0.000000 -15.559747 -0.520168 5.000000
962.486899 439.186814 123.116769 0.000000 0.000000 0.000000 0.000000 0.000000 0.000000 20.465882 -15.084612 4.973798 180.000000 4.035638 4.973798 24.357206 -11.249289 -3.759997 155.642794 3.007713 -29.763441 14.800425 4.088422 3.759997 18.000000 -0.001460 4.990134
1216.314240 612.580640 131.590825 0.000000 0.000000 0.000000 0.000000 0.000000 0.000000 78.221991 -0.454216 9.635073 -101.778009 -0.814851 9.635073 46.689014 -2.998362 -7.460697 -61.937558 2.887933 -29.057495 44.546377 -1.848522 7.460697 -10.771750 -0.200610 4.960574
1273.897820 573.707514 120.312542 0.000000 0.000000 0.000000 0.000000 0.000000 0.000000 77.469628 -4.412305 13.690942 -102.530372 5.504421 13.690942 -155.691164 -5.830088 -11.043737 -120.750172 0.485085 -27.893295 -156.229293 -5.730170 11.043737 2.162203 0.603102 4.911436
1337.358742 570.303276 127.440534 0.000000 0.000000 0.000000 0.000000 0.000000 0.000000 73.705918 -7.405055 16.886559 -106.294082 -0.308729 16.886559 -155.918376 -5.003210 -14.452610 -149.887909 -4.572953 -26.289200 0.000000 0.000000 0.000000 0.000000 0.000000 0.000000
1342.446442 569.623497 109.543990 0.000000 0.000000 0.000000 0.000000 0.000000 0.000000 68.898287 -1.152821 19.021130 -111.101713 -0.176643 19.021130 39.314088 -0.566986 -17.633558 -140.912764 0.707337 -24.270510 -153.216026 -5.977796 17.633558 2.759242 0.732603 4.755283
1335.759430 584.665475 133.892402 0.000000 0.000000 0.000000 0.000000 0.000000 0.000000 66.989329 2.125510 19.960535 -113.010671 -5.062423 19.960535 -154.807077 -4.766194 -20.536413 -142.328055 -2.029590 -21.869059 -153.049156 -5.755243 20.536413 2.866457 0.695947 4.648882
1337.950974 598.074245 105.023629 0.000000 0.000000 0.000000 0.000000 0.000000 0.000000 62.697633 2.507764 19.645745 -117.302367 4.720323 19.645745 19.366736 -4.144124 -23.115397 -144.826223 2.687973 -19.122720 9.911455 -1.719899 23.115397 -17.004209 0.022487 4.524135
1352.846489 601.043322 112.984122 0.000000 0.000000 0.000000 0.000000 0.000000 0.000000 59.083577 0.033154 18.096541 -120.916423 0.639630 18.096541 20.876734 4.082554 -25.329838 -142.301690 -1.330702 -16.074804 13.356960 1.560321 25.329838 -16.821524 0.024819 4.381533
1347.310982 587.475100 100.778225 0.000000 0.000000 0.000000 0.000000 0.000000 0.000000 56.169135 4.369959 15.410265 -123.830865 -5.161070 15.410265 21.172503 1.039921 -27.144812 -139.640745 -4.092494 -12.773379 14.641496 1.788597 27.144812 -16.282575 0.105377 4.221640
1326.982155 606.886139 69.188788 0.000000 0.000000 0.000000 0.000000 0.000000 0.000000 70.119981 -5.528569 11.755705 -109.880019 11.072338 11.755705 26.511889 -1.944409 -28.531695 -111.264667 3.444789 -9.270510 31.153840 0.152010 28.531695 -13.943905 -0.206524 4.045085
1354.391098 626.185555 80.915422 0.000000 0.000000 0.000000 0.000000 0.000000 0.000000 88.154395 8.299790 7.362491 -91.845605 -11.735626 7.362491 30.442275 4.423622 -29.468618 -76.284233 -2.462527 -5.621439 43.854867 -1.596541 29.468618 -10.818190 -0.093934 3.852566
1370.667114 610.219567 56.687855 0.000000 0.000000 0.000000 0.000000 0.000000 0.000000 89.945118 2.402996 2.506665 -90.054882 -4.031822 2.506665 44.053326 3.700482 -29.940802 -56.238091 1.216454 -1.883716 55.411270 -6.233350 29.940802 -7.805659 0.321475 3.644843
1372.834854 597.828534 82.781353 0.000000 0.000000 0.000000 0.000000 0.000000 0.000000 93.407992 -2.149450 -2.506665 -86.592008 -1.672380 -2.506665 54.165845 7.085413 -29.940802 -47.239220 3.544643 1.883716 56.575186 2.160642 29.940802 -6.344474 -0.239945 3.422736
1336.554337 597.454848 69.374746 0.000000 0.000000 0.000000 0.000000 0.000000 0.000000 95.622643 -8.853987 -7.362491 -84.377357 1.140985 -7.362491 56.597780 -1.355548 -29.468618 -45.108662 4.511185 5.621439 55.386034 -0.202338 29.468618 -7.206870 -0.896681 3.187120
1310.567093 590.844769 54.175997 0.000000 0.000000 0.000000 0.000000 0.000000 0.000000 100.193768 -2.635123 -11.755705 -79.806232 3.336868 -11.755705 61.986347 3.505081 -28.531695 -37.593815 2.040701 9.270510 62.907615 2.502758 28.531695 -6.637230 0.079978 2.938926
1328.574371 576.493385 59.934753 0.000000 0.000000 0.000000 0.000000 0.000000 0.000000 101.943783 10.710241 -15.410265 -78.056217 -2.730552 -15.410265 61.902838 -2.072839 -27.144812 -33.889586 -6.515179 12.773379 55.760387 5.057844 27.144812 -7.097415 -0.290970 2.679134
1316.178360 595.500870 58.740661 0.000000 0.000000 0.000000 0.000000 0.000000 0.000000 103.792097 1.554652 -18.096541 -76.207903 4.828655 -18.096541 65.535198 -0.880986 -25.329838 -28.739437 -2.660809 16.074804 68.415337 0.922719 25.329838 -6.481753 -0.388275 2.408768
1302.343140 568.138025 54.338682 0.000000 0.000000 0.000000 0.000000 0.000000 0.000000 101.222717 11.256259 -19.645745 -78.777283 -0.536566 -19.645745 90.757296 -6.105775 -23.115397 -18.578033 -7.163699 19.122720 97.909038 4.077482 23.115397 -5.050134 -0.170265 2.128896
1274.166183 540.660596 42.946476 0.000000 0.000000 0.000000 0.000000 0.000000 0.000000 -126.898591 -15.114410 -19.960535 53.101409 -7.723576 -19.960535 127.276662 -1.564284 -20.536413 8.808645 2.962319 21.869059 119.711272 0.669328 20.536413 -4.115393 -0.232280 1.840623
1268.557091 468.331075 59.826301 0.000000 0.000000 0.000000 0.000000 0.000000 0.000000 -124.112133 14.716732 -19.021130 55.887867 -5.971558 -19.021130 163.344780 -0.524867 -17.633558 38.476068 -0.156379 24.270510 145.889074 0.273903 17.633558 -1.929933 -0.033179 1.545085
1278.673096 454.375906 53.533435 0.000000 0.000000 0.000000 0.000000 0.000000 0.000000 -126.805061 -7.389019 -16.886559 53.194939 12.640912 -16.886559 -174.009950 -0.886868 -14.452610 27.419224 1.316100 26.289200 168.192977 -1.086466 14.452610 -0.976267 0.176266 1.243449
1285.008774 434.700390 45.715543 0.000000 0.000000 0.000000 0.000000 0.000000 0.000000 -132.005120 -3.549104 -13.690942 47.994880 4.797143 -13.690942 -171.247775 1.071979 -11.043737 26.625253 -4.757514 27.893295 178.805957 3.437478 11.043737 0.023422 -0.147241 0.936907
1288.157730 426.987666 46.469634 0.000000 0.000000 0.000000 0.000000 0.000000 0.000000 -123.987926 7.692189 -9.635073 56.012074 3.989297 -9.635073 -166.356219 -0.655581 -7.460697 35.716336 -2.444732 29.057495 -172.960762 1.309076 7.460697 0.819533 -0.192221 0.626666
1291.221657 420.425448 54.341074 0.000000 0.000000 0.000000 0.000000 0.000000 0.000000 -122.265643 4.527619 -4.973798 57.734357 -7.770580 -4.973798 -156.870161 0.844718 -3.759997 38.220704 -6.804575 29.763441 -165.716368 1.320840 3.759997 1.405814 -0.082647 0.313953
