HIERARCHY
ROOT Hips
{
    OFFSET 0.0 0.0 0.0
    CHANNELS 6 Xposition Yposition Zposition Zrotation Xrotation Yrotation
    JOINT Spine
    {
        OFFSET 0.0 5.0 0.0
        CHANNELS 3 Zrotation Xrotation Yrotation
        JOINT Chest
        {
            OFFSET 0.0 5.0 0.0
            CHANNELS 3 Zrotation Xrotation Yrotation
            JOINT Neck
            {
                OFFSET 0.0 8.0 0.0
                CHANNELS 3 Zrotation Xrotation Yrotation
                JOINT Head
                {
                    OFFSET 0.0 5.0 0.0
                    CHANNELS 3 Zrotation Xrotation Yrotation
                    End Site
                    {
                        OFFSET 0.0 3.0 0.0
                    }
                }
            }
            JOINT LeftShoulder
            {
                OFFSET -5.0 0.0 0.0
                CHANNELS 3 Zrotation Xrotation Yrotation
                JOINT LeftArm
                {
                    OFFSET 0.0 -10.0 0.0
                    CHANNELS 3 Zrotation Xrotation Yrotation
                    JOINT LeftForeArm
                    {
                        OFFSET 0.0 -10.0 0.0
                        CHANNELS 3 Zrotation Xrotation Yrotation
                        End Site
                        {
                            OFFSET 0.0 -3.0 0.0
                        }
                    }
                }
            }
        }
    }
}

MOTION
Frames: 300
Frame Time: 0.033333

960.000000 445.000000 111.574766 0.000000 0.000000 0.000000 0.000000 0.000000 0.000000 23.025492 11.907774 0.000000 180.000000 -1.418401 0.000000 21.801409 6.345827 -0.000000 158.198591 -0.590848 30.000000 15.945396 8.320205 0.000000 18.000000 0.146942 0.000000
1691.525230 140.756605 102.919671 0.000000 0.000000 0.000000 0.000000 0.000000 0.000000 -163.376529 -3.773138 4.973798 16.623471 -2.929612 4.973798 -171.853121 -3.348048 3.759997 99.744051 -3.916410 29.763441 -171.126653 -3.684163 -3.759997 0.673538 0.423125 0.313953
1636.048050 128.802021 97.642854 0.000000 0.000000 0.000000 0.000000 0.000000 0.000000 157.904128 -7.603489 9.635073 -22.095872 14.616816 9.635073 -171.936471 -3.716008 7.460697 -143.675701 3.808627 29.057495 -173.500805 -4.034719 -7.460697 0.570999 0.444513 0.626666
1578.156967 80.474526 120.405839 0.000000 0.000000 0.000000 0.000000 0.000000 0.000000 -139.519796 -9.122358 13.690942 40.480204 11.415258 13.690942 -174.507724 -4.047120 11.043737 119.111399 17.787440 27.893295 -173.607258 -4.631224 -11.043737 0.461920 0.497208 0.936907
960.418757 444.998421 125.827165 0.000000 0.000000 0.000000 0.000000 0.000000 0.000000 25.077893 -25.404551 16.886559 180.000000 15.421169 16.886559 23.861935 -12.046278 14.452610 156.138065 9.695369 26.289200 17.903699 -11.444355 -14.452610 18.000000 0.859043 1.243449
960.523360 444.997533 124.098461 0.000000 0.000000 0.000000 0.000000 0.000000 0.000000 25.638906 -9.519506 19.021130 180.000000 12.072073 19.021130 24.425035 -0.055019 17.633558 155.574965 -3.824152 24.270510 18.452907 3.859245 -17.633558 18.000000 0.288231 1.545085
960.627905 444.996447 125.272322 0.000000 0.000000 0.000000 0.000000 0.000000 0.000000 26.219073 8.829676 19.960535 180.000000 13.764305 19.960535 25.006291 -23.223200 20.536413 154.993709 -1.702871 21.869059 19.024920 10.110709 -20.536413 18.000000 -0.391691 1.840623
1126.242828 420.359820 120.633418 0.000000 0.000000 0.000000 0.000000 0.000000 0.000000 31.410514 3.884295 19.645745 -148.589486 -2.158144 19.645745 32.280463 0.410021 23.115397 -131.603972 -4.940556 19.122720 45.585331 3.038473 -23.115397 -13.449727 -0.066556 2.128896
1257.895088 650.549197 137.708376 0.000000 0.000000 0.000000 0.000000 0.000000 0.000000 25.073180 18.575421 18.096541 -154.926820 -11.660088 18.096541 46.260945 -7.233311 25.329838 -154.651428 -5.892767 16.074804 27.339487 5.100092 -25.329838 -13.619892 1.440897 2.408768
960.941083 444.992008 130.992855 0.000000 0.000000 0.000000 0.000000 0.000000 0.000000 28.072001 19.167369 15.410265 180.000000 -11.773115 15.410265 26.849221 -0.062006 27.144812 153.150779 0.951500 12.773379 20.864045 3.250973 -27.144812 18.000000 -0.755841 2.679134
1163.815842 547.748709 138.998871 0.000000 0.000000 0.000000 0.000000 0.000000 0.000000 117.162728 13.841289 11.755705 -62.837272 -11.453041 11.755705 102.363764 -2.721332 28.531695 -47.376450 -0.732869 9.270510 104.768601 -0.405471 -28.531695 -6.003489 -0.113529 2.938926
961.149372 444.988063 143.756665 0.000000 0.000000 0.000000 0.000000 0.000000 0.000000 29.395983 -10.119589 7.362491 180.000000 -6.007098 7.362491 28.146217 -8.409189 29.468618 151.853783 10.113735 5.621439 22.170006 -4.966759 -29.468618 18.000000 -0.041203 3.187120
1136.717377 590.104480 143.471971 0.000000 0.000000 0.000000 0.000000 0.000000 0.000000 115.752126 4.835883 2.506665 -64.247874 -9.476227 2.506665 73.638146 3.184652 29.940802 -21.842452 -1.033440 1.883716 75.369282 -0.927639 -29.940802 -6.767207 -0.396921 3.422736
1163.079758 634.077559 152.956055 0.000000 0.000000 0.000000 0.000000 0.000000 0.000000 132.174340 1.191414 -2.506665 -47.825660 -5.068400 -2.506665 94.255711 1.528736 29.940802 -149.364979 -6.867632 -1.883716 30.021641 5.300962 -29.940802 -5.096180 0.799131 3.644843
961.460830 444.980668 142.459803 0.000000 0.000000 0.000000 0.000000 0.000000 0.000000 31.497152 -23.271343 -7.362491 180.000000 19.612274 -7.362491 30.152455 -6.848665 29.468618 149.847545 17.084565 -5.621439 24.175589 -17.951348 -29.468618 18.000000 0.585847 3.852566
1097.449951 565.089898 166.898426 0.000000 0.000000 0.000000 0.000000 0.000000 0.000000 -119.219568 -3.029752 -11.755705 60.780432 -3.464408 -11.755705 -150.180642 -6.531052 28.531695 48.804955 2.282875 -9.270510 -149.874178 -6.789358 -28.531695 2.713854 0.581605 4.045085
1114.140244 528.302071 153.932429 0.000000 0.000000 0.000000 0.000000 0.000000 0.000000 -142.671523 -4.601952 -15.410265 37.328477 7.448394 -15.410265 -177.395681 2.300216 27.144812 34.687329 4.028566 -12.773379 161.894167 -1.721393 -27.144812 -0.910956 0.006197 4.221640
1116.433640 479.728639 160.596397 0.000000 0.000000 0.000000 0.000000 0.000000 0.000000 -102.267481 10.045217 -18.096541 77.732519 -7.516816 -18.096541 -163.695626 4.325621 25.329838 38.575767 -2.854556 -16.074804 -176.001122 0.026351 -25.329838 0.706594 -0.132871 4.381533
1135.931282 466.493965 153.517951 0.000000 0.000000 0.000000 0.000000 0.000000 0.000000 -112.868406 17.877152 -19.645745 67.131594 2.506612 -19.645745 -159.517862 -1.346575 23.115397 36.204678 -2.376497 -19.122720 -154.426613 -5.975341 -23.115397 2.428729 0.547669 4.524135
1141.618767 467.420679 139.247033 0.000000 0.000000 0.000000 0.000000 0.000000 0.000000 -123.086385 2.217674 -19.960535 56.913615 3.258436 -19.960535 -154.885724 2.430809 20.536413 36.481623 1.444039 -21.869059 -153.965441 -5.935755 -20.536413 2.446728 0.530830 4.648882
1150.647926 469.370956 145.634666 0.000000 0.000000 0.000000 0.000000 0.000000 0.000000 -43.953779 57.297388 -19.021130 136.046221 -51.627190 -19.021130 -154.327268 -6.367641 17.633558 60.745168 -21.253848 -24.270510 -153.350642 -6.117321 -17.633558 2.386216 0.665746 4.755283
1151.529922 496.420240 136.883743 0.000000 0.000000 0.000000 0.000000 0.000000 0.000000 -116.362129 15.325217 -16.886559 63.637871 -13.422697 -16.886559 -149.081043 2.154468 14.452610 35.941860 -4.081981 -26.289200 -156.847177 -0.660730 -14.452610 2.056513 0.020547 4.842916
1148.402367 515.713574 142.495615 0.000000 0.000000 0.000000 0.000000 0.000000 0.000000 -118.252650 -11.141980 -13.690942 61.747350 6.207251 -13.690942 -138.082896 -1.404489 11.043737 -156.312677 -6.458777 -27.893295 21.649626 10.847409 -11.043737 2.962417 -0.105707 4.911436
1175.363617 533.368646 111.161185 0.000000 0.000000 0.000000 0.000000 0.000000 0.000000 -95.476638 -1.065483 -9.635073 84.523362 10.647895 -9.635073 -113.907461 -3.207709 7.460697 -155.995907 -6.852607 -29.057495 12.512064 8.429898 -7.460697 -16.748794 -0.842990 4.960574
1199.533310 485.991104 142.677032 0.000000 0.000000 0.000000 0.000000 0.000000 0.000000 -100.003195 -13.113513 -4.973798 79.996805 18.545930 -4.973798 -86.083188 -5.823616 3.759997 38.843754 3.431987 -29.763441 -106.539452 -0.637522 -3.759997 6.197806 0.185090 4.990134
962.588190 444.938442 144.847541 0.000000 0.000000 0.000000 0.000000 0.000000 0.000000 39.579754 1.008629 -0.000000 180.000000 -13.802866 -0.000000 36.680773 12.722965 0.000000 143.319227 3.971760 -30.000000 29.388385 -0.225333 -0.000000 18.000000 -0.122140 5.000000
1142.094727 445.716287 114.461093 0.000000 0.000000 0.000000 0.000000 0.000000 0.000000 -140.228454 10.950426 4.973798 39.771546 18.448942 4.973798 -156.118008 -6.145467 -3.759997 3.479189 5.670316 -29.763441 -158.005660 -5.865758 3.759997 2.150019 0.562513 4.990134
1164.005928 424.847746 123.619932 0.000000 0.000000 0.000000 0.000000 0.000000 0.000000 -84.241076 35.863411 9.635073 95.758924 -31.913896 9.635073 -156.181584 -5.823477 -7.460697 166.928360 -28.141581 -29.057495 -154.947270 -4.823768 7.460697 2.644196 0.604734 4.960574
1124.208755 418.286655 116.960557 0.000000 0.000000 0.000000 0.000000 0.000000 0.000000 -117.427077 -8.956494 13.690942 62.572923 10.055047 13.690942 -155.943063 -5.193206 -11.043737 14.023837 0.227783 -27.893295 -157.382674 -4.801977 11.043737 2.188130 0.489688 4.911436
962.990408 444.917226 110.730305 0.000000 0.000000 0.000000 0.000000 0.000000 0.000000 42.110883 2.628436 16.886559 180.000000 8.618329 16.886559 37.946959 -12.885359 -14.452610 142.053041 11.752830 -26.289200 29.293612 -6.224476 14.452610 18.000000 0.563221 4.842916
963.090170 444.911436 103.654433 0.000000 0.000000 0.000000 0.000000 0.000000 0.000000 42.659200 9.396544 19.021130 180.000000 15.915862 19.021130 38.119107 -16.814522 -17.633558 141.880893 -12.562239 -24.270510 29.068887 6.266755 17.633558 18.000000 0.590717 4.755283
1186.646461 396.272757 107.396890 0.000000 0.000000 0.000000 0.000000 0.000000 0.000000 -72.847419 -2.528576 19.960535 107.152581 -7.065685 19.960535 -156.703603 -4.779193 -20.536413 178.447294 1.386977 -21.869059 -157.212393 -5.485716 20.536413 1.964058 0.530538 4.648882
1313.051605 426.636125 76.110766 0.000000 0.000000 0.000000 0.000000 0.000000 0.000000 90.994869 9.690701 19.645745 -89.005131 -26.010212 19.645745 -160.515303 -3.945285 -23.115397 -153.248861 -1.487591 -19.122720 -159.640525 -5.177451 23.115397 0.000000 0.000000 0.000000
1347.999344 420.772226 97.813498 0.000000 0.000000 0.000000 0.000000 0.000000 0.000000 90.154351 -0.346272 18.096541 -89.845649 -2.748994 18.096541 -162.053401 -4.049708 -25.329838 -136.198880 -2.927366 -16.074804 -160.991694 -4.344380 25.329838 0.000000 0.000000 0.000000
1344.315948 421.031681 90.290893 0.000000 0.000000 0.000000 0.000000 0.000000 0.000000 69.757587 -6.066648 15.410265 -110.242413 3.108786 15.410265 25.616746 3.902219 -27.144812 -157.821005 -3.567989 -12.773379 17.214985 3.164620 27.144812 -16.704706 0.046507 4.221640
1350.307617 440.309436 91.764594 0.000000 0.000000 0.000000 0.000000 0.000000 0.000000 71.124018 -4.333204 11.755705 -108.875982 10.182008 11.755705 42.739987 -7.403459 -28.531695 -142.315466 2.581634 -9.270510 16.600926 -0.255504 28.531695 -16.660102 0.027396 4.045085
1357.685051 430.688889 89.976053 0.000000 0.000000 0.000000 0.000000 0.000000 0.000000 77.656077 1.720508 7.362491 -102.343923 -5.487853 7.362491 39.407151 -4.231382 -29.468618 -136.343173 -3.912361 -5.621439 22.144452 -1.086294 29.468618 -16.305135 0.043123 3.852566
1369.482193 445.909406 72.863615 0.000000 0.000000 0.000000 0.000000 0.000000 0.000000 88.051188 -18.866599 2.506665 -91.948812 29.904898 2.506665 -161.283973 -4.094707 -29.940802 -119.799169 7.652345 -1.883716 -164.575400 -3.874382 29.940802 1.401013 0.369967 3.644843
963.875156 444.858159 73.503460 0.000000 0.000000 0.000000 0.000000 0.000000 0.000000 45.304844 11.265807 -2.506665 180.000000 25.607810 -2.506665 37.252439 -7.585841 -29.940802 142.747561 14.658545 1.883716 25.146244 1.341664 29.940802 18.000000 -0.006063 3.422736
963.971479 444.850633 65.445301 0.000000 0.000000 0.000000 0.000000 0.000000 0.000000 45.383640 -29.079379 -7.362491 180.000000 5.964381 -7.362491 36.882310 -4.676342 -29.468618 143.117690 3.084386 5.621439 24.499789 0.028565 29.468618 18.000000 -1.143386 3.187120
1336.629524 469.010178 50.287947 0.000000 0.000000 0.000000 0.000000 0.000000 0.000000 -72.390177 23.567220 -11.755705 107.609823 16.410869 -11.755705 -158.649984 -2.656775 -28.531695 2.583425 3.131390 9.270510 -39.658551 -6.063293 28.531695 10.837181 -0.009585 2.938926
1311.966934 518.219100 49.776517 0.000000 0.000000 0.000000 0.000000 0.000000 0.000000 -63.565072 16.111865 -15.410265 116.434928 7.290551 -15.410265 -14.840750 -1.306935 -27.144812 -158.549348 -2.510722 12.773379 17.488774 2.476179 27.144812 7.174982 -0.026558 2.679134
964.257793 444.826908 70.713273 0.000000 0.000000 0.000000 0.000000 0.000000 0.000000 45.262206 4.460806 -18.096541 180.000000 -16.863215 -18.096541 35.497192 2.455325 -25.329838 144.502808 -4.755001 16.074804 22.522929 -4.261670 25.329838 18.000000 -0.222223 2.408768
1275.921364 516.836239 53.284883 0.000000 0.000000 0.000000 0.000000 0.000000 0.000000 85.186295 -4.469324 -19.645745 -94.813705 -7.935020 -19.645745 52.470689 8.965611 -23.115397 -44.513683 -0.545551 19.122720 50.867598 4.172512 23.115397 -8.717188 -0.477724 2.128896
1263.254128 546.875424 57.121898 0.000000 0.000000 0.000000 0.000000 0.000000 0.000000 34.848242 31.244490 -19.960535 -145.151758 -15.525418 -19.960535 42.487561 15.049570 -20.536413 -157.415675 -2.439742 21.869059 22.420880 2.412305 20.536413 -15.757912 -0.241231 1.840623
1258.788185 528.263061 46.929049 0.000000 0.000000 0.000000 0.000000 0.000000 0.000000 118.326865 -50.616894 -19.021130 -61.673135 17.541020 -19.021130 143.214759 -3.873984 -17.633558 -156.228306 -1.830796 24.270510 28.173554 1.419171 17.633558 -15.182645 -0.141917 1.545085
1231.492081 471.383836 38.502350 0.000000 0.000000 0.000000 0.000000 0.000000 0.000000 -115.049381 12.559373 -16.886559 64.950619 10.345918 -16.886559 172.843704 -1.751626 -14.452610 -157.842300 -2.923111 26.289200 32.851042 2.447078 14.452610 -14.714896 -0.244708 1.243449
1223.928795 435.993515 67.733797 0.000000 0.000000 0.000000 0.000000 0.000000 0.000000 -115.322532 0.309933 -13.690942 64.677468 -12.883575 -13.690942 -168.597862 1.507749 -11.043737 -158.853816 -2.564593 27.893295 31.099266 3.682186 11.043737 -14.890073 -0.368219 0.936907
1223.669701 418.195664 37.662959 0.000000 0.000000 0.000000 0.000000 0.000000 0.000000 -102.084053 31.293865 -9.635073 77.915947 -10.843158 -9.635073 -171.103858 -5.142646 -7.460697 162.056334 -2.645503 29.057495 -153.594437 -2.749247 7.460697 2.968481 0.357425 0.626666
1216.486244 414.503002 53.457700 0.000000 0.000000 0.000000 0.000000 0.000000 0.000000 69.261091 -11.393234 -4.973798 -110.738909 10.554144 -4.973798 -158.083722 -2.520321 -3.759997 -173.244581 1.689749 29.763441 -154.635509 -2.962307 3.759997 2.928763 0.251983 0.313953
1212.090225 434.550980 58.066163 0.000000 0.000000 0.000000 0.000000 0.000000 0.000000 -112.403932 5.001787 0.000000 67.596068 -10.023013 0.000000 -157.060799 -2.121745 -0.000000 173.400765 0.113147 30.000000 -154.473580 -2.737971 0.000000 2.734633 0.324674 0.000000
1214.024734 450.340490 57.180011 0.000000 0.000000 0.000000 0.000000 0.000000 0.000000 -110.634751 3.195572 4.973798 69.365249 -9.550039 4.973798 -137.583343 3.839027 3.759997 -158.589698 -2.582111 29.763441 20.879446 3.795594 -3.759997 -15.912055 -0.379559 0.313953
1204.271393 440.192921 64.733423 0.000000 0.000000 0.000000 0.000000 0.000000 0.000000 -99.498286 2.366563 9.635073 80.501714 -11.308655 9.635073 -156.696469 -2.140677 7.460697 -178.487725 1.695137 29.057495 -157.318323 -2.783706 -7.460697 2.108583 0.236262 0.626666
965.269558 444.725315 66.274033 0.000000 0.000000 0.000000 0.000000 0.000000 0.000000 40.845461 -27.464019 13.690942 180.000000 24.782080 13.690942 28.615377 -17.522728 11.043737 151.384623 -5.790707 27.893295 16.305092 9.592794 -11.043737 18.000000 -0.553869 0.936907
1182.456551 475.103824 68.527621 0.000000 0.000000 0.000000 0.000000 0.000000 0.000000 -168.146016 -70.043818 16.886559 11.853984 78.741479 16.886559 -63.802645 3.814898 14.452610 -61.114510 5.310272 26.289200 -47.869281 -9.783587 -14.452610 -13.834956 7.110712 1.243449
965.446390 444.704404 68.456119 0.000000 0.000000 0.000000 0.000000 0.000000 0.000000 39.578146 54.556016 19.021130 180.000000 -24.290527 19.021130 27.338029 4.309534 17.633558 152.661971 -19.816740 24.270510 15.463180 5.567983 -17.633558 18.000000 -0.191320 1.545085
965.533915 444.693669 70.676769 0.000000 0.000000 0.000000 0.000000 0.000000 0.000000 38.916706 -54.012019 19.960535 180.000000 11.511175 19.960535 26.716768 -2.005363 20.536413 153.283232 2.804992 21.869059 15.076605 3.617016 -20.536413 18.000000 0.030094 1.840623
965.620834 444.682749 82.332421 0.000000 0.000000 0.000000 0.000000 0.000000 0.000000 38.241653 -38.613803 19.645745 180.000000 -5.505458 19.645745 26.109467 3.670409 23.115397 153.890533 13.226649 19.122720 14.712258 -12.511551 -23.115397 18.000000 0.153328 2.128896
965.707136 444.671645 78.781625 0.000000 0.000000 0.000000 0.000000 0.000000 0.000000 37.556504 42.718640 18.096541 180.000000 -3.669856 18.096541 25.517536 -8.013043 25.329838 154.482464 -4.480480 16.074804 14.369537 1.473973 -25.329838 18.000000 0.089403 2.408768
965.792812 444.660356 74.498264 0.000000 0.000000 0.000000 0.000000 0.000000 0.000000 36.864608 0.950858 15.410265 180.000000 -11.238942 15.410265 24.942131 9.120714 27.144812 155.057869 -4.755541 12.773379 14.047797 4.451718 -27.144812 18.000000 -0.706198 2.679134
965.877853 444.648882 74.096039 0.000000 0.000000 0.000000 0.000000 0.000000 0.000000 36.169118 -2.734752 11.755705 180.000000 21.469618 11.755705 24.384173 -3.916749 28.531695 155.615827 -0.700297 9.270510 13.746367 0.386441 -28.531695 18.000000 0.393448 2.938926
965.962249 444.637226 90.265925 0.000000 0.000000 0.000000 0.000000 0.000000 0.000000 35.472980 -12.610445 7.362491 180.000000 10.945172 7.362491 23.844373 -7.035094 29.468618 156.155627 7.943454 5.621439 13.464570 3.739452 -29.468618 18.000000 -0.728689 3.187120
966.045991 444.625386 91.465533 0.000000 0.000000 0.000000 0.000000 0.000000 0.000000 34.778913 42.055753 2.506665 180.000000 -19.777964 2.506665 23.323250 11.591700 29.940802 156.676750 -15.283782 1.883716 13.201728 2.874905 -29.940802 18.000000 0.157242 3.422736
966.129071 444.613364 107.241090 0.000000 0.000000 0.000000 0.000000 0.000000 0.000000 34.089406 6.725245 -2.506665 180.000000 -3.646087 -2.506665 22.821158 -0.648603 29.940802 157.178842 8.784618 -1.883716 12.957175 -9.361803 -29.940802 18.000000 0.433477 3.644843
966.211478 444.601159 110.624059 0.000000 0.000000 0.000000 0.000000 0.000000 0.000000 33.406712 -24.564666 -7.362491 180.000000 8.395582 -7.362491 22.338307 -7.082322 29.468618 157.661693 8.916024 -5.621439 12.730264 -6.261121 -29.468618 18.000000 0.494668 3.852566
1171.486244 534.946783 99.981478 0.000000 0.000000 0.000000 0.000000 0.000000 0.000000 70.594720 -1.187724 -11.755705 -109.405280 2.450642 -11.755705 49.953444 -3.694090 28.531695 -151.467583 -5.411101 -9.270510 0.000000 0.000000 0.000000 0.000000 0.000000 0.000000
966.374240 444.576206 116.409038 0.000000 0.000000 0.000000 0.000000 0.000000 0.000000 32.069603 -19.988474 -15.410265 180.000000 21.056166 -15.410265 21.430544 -6.846963 27.144812 158.569456 2.681950 -12.773379 12.326901 -1.616188 -27.144812 18.000000 0.074252 4.221640
1172.156410 555.047708 145.789409 0.000000 0.000000 0.000000 0.000000 0.000000 0.000000 -121.065102 -22.914670 -18.096541 58.934898 22.273632 -18.096541 -151.641456 -5.760951 25.329838 -177.360623 -0.204401 -16.074804 -149.076048 -5.821573 -25.329838 0.000000 0.000000 0.000000
1161.826630 552.360713 134.274071 0.000000 0.000000 0.000000 0.000000 0.000000 0.000000 69.958407 16.763578 -19.645745 -110.041593 -20.112987 -19.645745 -152.437496 -5.996844 23.115397 -158.790607 -2.951619 -19.122720 -150.591725 -6.829322 -23.115397 3.219062 0.792272 4.524135
1165.827255 569.832902 115.806814 0.000000 0.000000 0.000000 0.000000 0.000000 0.000000 25.594208 19.159459 -19.960535 -154.405792 -8.332160 -19.960535 11.723883 -4.824928 20.536413 -161.543160 -2.406361 -21.869059 7.769582 -0.236612 -20.536413 -17.248199 -0.121587 4.648882
1165.555573 565.067046 137.099289 0.000000 0.000000 0.000000 0.000000 0.000000 0.000000 43.355707 4.400149 -19.021130 -136.644293 -4.132824 -19.021130 15.984329 -1.627368 17.633558 -140.773833 -0.362726 -24.270510 13.679449 -0.735237 -17.633558 -16.392157 -0.083479 4.755283
1290.255775 608.533316 126.653017 0.000000 0.000000 0.000000 0.000000 0.000000 0.000000 -153.952071 -1.500324 -16.886559 26.047929 -1.661919 -16.886559 -152.683807 -5.875696 14.452610 4.794196 3.019986 -26.289200 -154.287190 -5.967799 -14.452610 2.418080 0.541737 4.842916
1180.398903 551.817470 131.131656 0.000000 0.000000 0.000000 0.000000 0.000000 0.000000 51.640104 18.193657 -13.690942 -128.359896 -2.930610 -13.690942 14.419400 2.820803 11.043737 -33.521359 -20.189690 -27.893295 -34.277510 16.242646 -11.043737 5.235387 -1.684505 4.911436
1162.708626 619.419501 137.698753 0.000000 0.000000 0.000000 0.000000 0.000000 0.000000 -88.968325 -5.136319 -9.635073 91.031675 23.626467 -9.635073 -52.690088 3.224877 7.460697 25.015222 0.878815 -29.057495 -72.561734 4.450142 -7.460697 8.557489 -0.346715 4.960574
1110.899391 602.919216 141.315826 0.000000 0.000000 0.000000 0.000000 0.000000 0.000000 -86.972237 -17.152281 -4.973798 93.027763 9.372002 -4.973798 -39.551144 1.744418 3.759997 34.838085 9.347893 -29.763441 -44.185810 -4.783642 -3.759997 10.000609 0.110422 4.990134
1150.187302 553.686991 159.131292 0.000000 0.000000 0.000000 0.000000 0.000000 0.000000 -116.065142 20.322048 -0.000000 63.934858 -20.670401 -0.000000 -151.059314 -6.295524 0.000000 -0.492058 1.629034 -30.000000 -14.044098 -10.357418 -0.000000 1.929760 -0.172165 5.000000
967.144727 444.440682 139.950275 0.000000 0.000000 0.000000 0.000000 0.000000 0.000000 26.270296 23.638581 4.973798 180.000000 -7.272362 4.973798 17.996647 3.646686 -3.759997 162.003353 -3.440571 -29.763441 11.189167 -1.933702 3.759997 18.000000 0.132172 4.990134
1213.452644 620.002785 154.174329 0.000000 0.000000 0.000000 0.000000 0.000000 0.000000 140.390379 -35.296554 9.635073 -39.609621 -8.740609 9.635073 77.724607 12.549559 -7.460697 -153.982965 -6.171561 -29.057495 24.142749 6.238308 7.460697 -0.833727 0.251497 4.960574
1124.373779 618.464527 142.353552 0.000000 0.000000 0.000000 0.000000 0.000000 0.000000 99.329635 13.089778 13.690942 -80.670365 35.282599 13.690942 85.960927 -10.692049 -11.043737 -150.875293 -7.295883 -27.893295 31.644098 6.910069 11.043737 -14.835590 -0.691007 4.911436
967.360971 444.396582 145.489073 0.000000 0.000000 0.000000 0.000000 0.000000 0.000000 24.874716 -3.021346 16.886559 180.000000 4.298140 16.886559 17.291102 -0.140051 -14.452610 162.708898 -2.362451 -26.289200 11.098846 3.460870 14.452610 18.000000 -0.231942 4.842916
1107.875175 542.453964 153.002825 0.000000 0.000000 0.000000 0.000000 0.000000 0.000000 -128.741314 6.767260 19.021130 51.258686 -0.137051 19.021130 -177.225595 2.752646 -17.633558 19.954750 -1.525229 -24.270510 162.677362 1.920683 17.633558 -1.443098 -0.218723 4.755283
1119.652290 522.766346 136.822913 0.000000 0.000000 0.000000 0.000000 0.000000 0.000000 -99.017754 4.655409 19.960535 80.982246 10.833993 19.960535 -150.289603 -7.437453 -20.536413 -152.613833 -7.109883 -21.869059 0.000000 0.000000 0.000000 0.000000 0.000000 0.000000
1132.908783 538.229613 155.431693 0.000000 0.000000 0.000000 0.000000 0.000000 0.000000 -127.874185 0.624196 19.645745 52.125815 -4.855903 19.645745 -165.450188 -1.829892 -23.115397 -152.521515 -7.334838 -19.122720 40.606225 8.933228 23.115397 -13.939378 -0.893323 4.524135
1146.969337 541.828065 127.092567 0.000000 0.000000 0.000000 0.000000 0.000000 0.000000 -113.631604 9.754291 18.096541 66.368396 -6.652628 18.096541 -159.067475 -1.884777 -25.329838 113.981862 -0.000855 -16.074804 -145.449815 -7.883292 25.329838 0.000000 0.000000 0.000000
1165.252304 561.329677 156.811645 0.000000 0.000000 0.000000 0.000000 0.000000 0.000000 -112.861399 -1.532594 15.410265 67.138601 8.468414 15.410265 -159.396543 -0.317476 -27.144812 -151.967552 -6.858151 -12.773379 38.422588 8.204127 27.144812 -14.157741 -0.820413 4.221640
1174.726181 592.839689 143.990456 0.000000 0.000000 0.000000 0.000000 0.000000 0.000000 -110.369899 -12.163643 11.755705 69.630101 6.423979 11.755705 -148.108768 -0.831187 -28.531695 -151.515612 -6.364009 -9.270510 34.277732 8.930691 28.531695 -14.572227 -0.893069 4.045085
1167.352524 605.194867 136.581236 0.000000 0.000000 0.000000 0.000000 0.000000 0.000000 -113.828445 7.660749 7.362491 66.171555 -2.137257 7.362491 -131.688453 -1.534588 -29.468618 -151.045756 -6.936097 -5.621439 27.200835 8.208599 29.468618 -15.279916 -0.820860 3.852566
1139.678879 602.981014 128.328129 0.000000 0.000000 0.000000 0.000000 0.000000 0.000000 -97.599684 20.109581 2.506665 82.400316 -3.206588 2.506665 -113.965806 -4.980769 -29.940802 -121.058781 -8.137333 -1.883716 -118.492407 4.216674 29.940802 10.137620 4.595795 3.644843
1165.830002 580.020189 138.637886 0.000000 0.000000 0.000000 0.000000 0.000000 0.000000 -28.085052 -25.274569 -2.506665 151.914948 27.373132 -2.506665 -150.589103 -6.608175 -29.940802 -172.678414 5.438603 1.883716 -149.717924 -6.906619 29.940802 0.000000 0.000000 0.000000
1184.501953 619.872494 112.557729 0.000000 0.000000 0.000000 0.000000 0.000000 0.000000 -113.790307 -30.999459 -7.362491 66.209693 2.569864 -7.362491 -59.272274 8.883218 -29.468618 29.476823 5.443723 5.621439 -88.148483 -1.784122 29.468618 7.414604 0.077607 3.187120
968.090170 444.221640 125.950272 0.000000 0.000000 0.000000 0.000000 0.000000 0.000000 21.092887 14.987039 -11.755705 180.000000 2.476173 -11.755705 15.757771 -3.975504 -28.531695 164.242229 2.571271 9.270510 11.678908 -2.751065 28.531695 18.000000 -0.372303 2.938926
968.151278 444.204723 130.351857 0.000000 0.000000 0.000000 0.000000 0.000000 0.000000 20.844337 -2.150119 -15.410265 180.000000 3.503976 -15.410265 15.691895 7.548068 -27.144812 164.308105 0.760654 12.773379 11.804629 0.373398 27.144812 18.000000 0.165751 2.679134
968.211492 444.187640 105.919509 0.000000 0.000000 0.000000 0.000000 0.000000 0.000000 20.610265 21.731245 -18.096541 180.000000 -1.823995 -18.096541 15.637361 2.471545 -25.329838 164.362639 1.631375 16.074804 11.943263 -5.027321 25.329838 18.000000 0.117340 2.408768
968.270806 444.170392 99.783279 0.000000 0.000000 0.000000 0.000000 0.000000 0.000000 20.390366 29.929547 -19.645745 180.000000 -19.356419 -19.645745 15.594026 7.304541 -23.115397 164.405974 -4.677488 19.122720 12.095062 -1.863539 23.115397 18.000000 0.026191 2.128896
968.329212 444.152979 104.290671 0.000000 0.000000 0.000000 0.000000 0.000000 0.000000 20.184343 -6.460715 -19.960535 180.000000 -0.934192 -19.960535 15.561766 -2.240780 -20.536413 164.438234 -4.269339 21.869059 12.260289 3.209271 20.536413 18.000000 0.057954 1.840623
968.386706 444.135403 92.927948 0.000000 0.000000 0.000000 0.000000 0.000000 0.000000 19.991916 -8.173605 -19.021130 180.000000 -9.542480 -19.021130 15.540476 3.558432 -17.633558 164.459524 -11.147032 24.270510 12.439222 2.181428 17.633558 18.000000 0.380523 1.545085
968.443279 444.117663 84.736191 0.000000 0.000000 0.000000 0.000000 0.000000 0.000000 19.812814 12.683650 -16.886559 180.000000 -4.882754 -16.886559 15.530069 -5.305574 -14.452610 164.469931 -8.590476 26.289200 12.632146 3.303557 14.452610 18.000000 -0.232272 1.243449
968.498927 444.099761 85.744816 0.000000 0.000000 0.000000 0.000000 0.000000 0.000000 19.646785 -23.989088 -13.690942 180.000000 3.693921 -13.690942 15.530474 5.353205 -11.043737 164.469526 15.194776 27.893295 12.839349 -3.119903 11.043737 18.000000 -0.091664 0.936907
968.553643 444.081696 76.640908 0.000000 0.000000 0.000000 0.000000 0.000000 0.000000 19.493591 -30.746544 -9.635073 180.000000 11.459398 -9.635073 15.541640 -3.923106 -7.460697 164.458360 7.279274 29.057495 13.061119 2.141500 7.460697 18.000000 -0.509989 0.626666
1051.772690 653.004448 79.057698 0.000000 0.000000 0.000000 0.000000 0.000000 0.000000 -79.007834 -7.029719 -4.973798 100.992166 -2.780575 -4.973798 -126.715299 -0.299019 -3.759997 -149.991181 -4.015165 29.763441 31.772279 4.050620 3.759997 -14.822772 -0.405062 0.313953
1061.669197 624.716241 82.183481 0.000000 0.000000 0.000000 0.000000 0.000000 0.000000 -94.718359 -7.192265 0.000000 85.281641 6.992130 0.000000 -144.150484 4.105633 -0.000000 60.155085 1.775783 30.000000 -152.711462 1.864374 0.000000 1.815393 0.009840 0.000000
1072.053337 571.032879 62.847946 0.000000 0.000000 0.000000 0.000000 0.000000 0.000000 71.424080 13.964251 4.973798 -108.575920 -11.310953 4.973798 -149.042361 -2.957758 3.759997 -149.913636 -0.935190 29.763441 -145.792107 -4.203221 -3.759997 3.947623 0.414698 0.313953
1070.057373 572.884376 49.068362 0.000000 0.000000 0.000000 0.000000 0.000000 0.000000 -80.850201 -14.077742 9.635073 99.149799 -25.078547 9.635073 -147.567525 -2.829078 7.460697 -164.443014 2.809144 29.057495 -145.447997 -4.462560 -7.460697 4.032371 0.353936 0.626666
968.813035 443.988972 53.797552 0.000000 0.000000 0.000000 0.000000 0.000000 0.000000 18.912944 6.513841 13.690942 180.000000 2.456143 13.690942 15.758200 -2.583436 11.043737 164.241800 1.664322 27.893295 14.397395 -6.051245 -11.043737 18.000000 0.623079 0.936907
968.862036 443.969952 55.100761 0.000000 0.000000 0.000000 0.000000 0.000000 0.000000 18.832684 -26.088688 16.886559 180.000000 5.382362 16.886559 15.833735 -0.126158 14.452610 164.166265 0.726505 26.289200 14.711463 3.119579 -14.452610 18.000000 -0.118372 1.243449
968.910065 443.950775 63.254945 0.000000 0.000000 0.000000 0.000000 0.000000 0.000000 18.764066 -6.940764 19.021130 180.000000 12.118384 19.021130 15.920102 -4.455094 17.633558 164.079898 5.801996 24.270510 15.041323 0.527596 -17.633558 18.000000 -0.208246 1.545085
968.957118 443.931442 38.284312 0.000000 0.000000 0.000000 0.000000 0.000000 0.000000 18.706990 3.071744 19.960535 180.000000 -3.807577 19.960535 16.017366 -5.443093 20.536413 163.982634 6.761312 21.869059 15.386894 -11.501067 -20.536413 18.000000 0.233384 1.840623
969.003188 443.911954 48.676481 0.000000 0.000000 0.000000 0.000000 0.000000 0.000000 18.661377 -15.084267 19.645745 180.000000 2.659446 19.645745 16.125602 -0.865298 23.115397 163.874398 4.014839 19.122720 15.747980 -1.482678 -23.115397 18.000000 -1.027908 2.128896
969.048271 443.892312 40.561147 0.000000 0.000000 0.000000 0.000000 0.000000 0.000000 18.627165 16.197356 18.096541 180.000000 -8.149812 18.096541 16.244896 -0.632091 25.329838 163.755104 -2.988459 16.074804 16.124252 13.876994 -25.329838 18.000000 -1.907869 2.408768
969.092361 443.872515 45.057763 0.000000 0.000000 0.000000 0.000000 0.000000 0.000000 18.604312 -2.455477 15.410265 180.000000 7.626474 15.410265 16.375340 -5.197633 27.144812 163.624660 5.523306 12.773379 16.515224 -1.080531 -27.144812 18.000000 -0.408004 2.679134
1055.186234 577.357593 47.584477 0.000000 0.000000 0.000000 0.000000 0.000000 0.000000 85.510211 -4.889411 11.755705 -94.489789 -3.283232 11.755705 37.103410 -0.099052 28.531695 -148.111343 -2.496166 9.270510 24.294182 1.724982 -28.531695 -8.601915 -0.104657 2.938926
1122.856522 566.714029 42.796025 0.000000 0.000000 0.000000 0.000000 0.000000 0.000000 96.216240 -1.358992 7.362491 -83.783760 -9.883102 7.362491 46.189625 0.219389 29.468618 -149.396962 -2.956762 5.621439 24.670091 2.297824 -29.468618 -7.107716 0.018468 3.187120
969.218632 443.812213 58.465417 0.000000 0.000000 0.000000 0.000000 0.000000 0.000000 18.603763 -11.113269 2.506665 180.000000 -9.097258 2.506665 16.834613 -3.142624 29.940802 163.165387 -5.313291 1.883716 17.768624 -3.874527 -29.940802 18.000000 -0.108006 3.422736
1112.757797 605.798106 49.176146 0.000000 0.000000 0.000000 0.000000 0.000000 0.000000 110.914625 -32.054224 -2.506665 -69.085375 29.121285 -2.506665 67.769469 -0.081281 29.940802 -149.822316 -1.486824 -1.883716 29.049901 2.189981 -29.940802 -3.625079 0.207013 3.644843
1086.733246 592.557156 45.651158 0.000000 0.000000 0.000000 0.000000 0.000000 0.000000 -80.132323 -67.999039 -7.362491 99.867677 27.875207 -7.362491 36.201564 1.637024 29.468618 -13.679556 -0.165354 -5.621439 78.049842 13.599056 -29.468618 -5.127460 -0.664481 3.852566
1081.109390 570.394492 55.256267 0.000000 0.000000 0.000000 0.000000 0.000000 0.000000 -175.864613 11.236944 -11.755705 4.135387 -16.774468 -11.755705 134.713876 -6.628343 28.531695 -10.005873 -8.587907 -9.270510 135.737755 3.917702 -28.531695 -3.389365 0.083919 4.045085
1089.776802 536.594539 63.267230 0.000000 0.000000 0.000000 0.000000 0.000000 0.000000 -139.033903 -2.387067 -15.410265 40.966097 0.689292 -15.410265 161.695972 0.064726 27.144812 3.114398 0.923455 -12.773379 148.805610 1.043345 -27.144812 -2.611636 -0.010050 4.221640
1114.282036 523.965647 56.568072 0.000000 0.000000 0.000000 0.000000 0.000000 0.000000 -156.073983 -1.507690 -18.096541 23.926017 9.149480 -18.096541 174.825807 -4.167774 25.329838 5.093343 2.284636 -16.074804 161.266817 -0.383405 -25.329838 -1.814366 -0.005517 4.381533
1122.145157 503.425248 76.071897 0.000000 0.000000 0.000000 0.000000 0.000000 0.000000 -144.538174 3.881773 -19.645745 35.461826 13.838442 -19.645745 174.215003 -1.116001 23.115397 -151.750905 -3.124873 -19.122720 43.887064 3.731920 -23.115397 -13.611294 -0.373192 4.524135
1134.158249 484.688419 84.626630 0.000000 0.000000 0.000000 0.000000 0.000000 0.000000 -142.311443 -2.164258 -19.960535 37.688557 0.372085 -19.960535 -174.407776 -1.095981 20.536413 14.121014 3.274247 -21.869059 176.737053 -1.400548 -20.536413 -0.386439 0.098549 4.648882
1156.756668 500.025387 76.822171 0.000000 0.000000 0.000000 0.000000 0.000000 0.000000 -140.140767 -16.822264 -19.021130 39.859233 12.011810 -19.021130 -176.866589 -5.196850 17.633558 -153.177991 -3.285174 -24.270510 40.555680 4.120646 -17.633558 -13.944432 -0.412065 4.755283
1163.818588 490.292573 88.497570 0.000000 0.000000 0.000000 0.000000 0.000000 0.000000 -126.918075 -2.301044 -16.886559 53.081925 8.546650 -16.886559 -163.374411 -4.749822 14.452610 -153.952175 -3.875886 -26.289200 36.914642 5.751533 -14.452610 0.798233 -0.010579 4.842916
1176.523705 490.346003 79.328325 0.000000 0.000000 0.000000 0.000000 0.000000 0.000000 -130.072590 -3.280283 -13.690942 49.927410 -3.270883 -13.690942 -150.224616 1.716601 11.043737 24.749952 3.270618 -27.893295 -162.219632 -2.299701 -11.043737 1.550269 0.186511 4.911436
1165.045052 489.521159 78.216188 0.000000 0.000000 0.000000 0.000000 0.000000 0.000000 -134.421293 5.074133 -9.635073 45.578707 9.154645 -9.635073 -138.114962 -3.951471 7.460697 20.347125 -3.183036 -29.057495 -149.675125 0.578897 -7.460697 1.919618 0.030960 4.960574
1186.003189 485.341580 98.172925 0.000000 0.000000 0.000000 0.000000 0.000000 0.000000 151.263424 -41.358393 -4.973798 -28.736576 -82.986106 -4.973798 -155.571724 -3.664770 3.759997 -114.944239 -3.630888 -29.763441 -157.446860 -4.597063 -3.759997 2.096391 0.378908 4.990134
1190.285912 497.609435 97.978605 0.000000 0.000000 0.000000 0.000000 0.000000 0.000000 -104.331435 23.087520 -0.000000 75.668565 20.477018 -0.000000 -153.934692 -4.810825 0.000000 -67.465008 5.426115 -30.000000 -71.629168 -1.224680 -0.000000 -13.965204 7.482746 5.000000
846.875610 502.341399 113.149536 0.000000 0.000000 0.000000 0.000000 0.000000 0.000000 -153.358185 20.574742 4.973798 26.641815 -16.560644 4.973798 -147.628169 -4.887783 -3.759997 -147.401289 -5.749351 -29.763441 0.000000 0.000000 0.000000 0.000000 0.000000 0.000000
969.711343 443.490827 97.877588 0.000000 0.000000 0.000000 0.000000 0.000000 0.000000 20.204512 19.555428 9.635073 180.000000 1.191158 9.635073 20.733157 -0.362705 -7.460697 159.266843 -4.270590 -29.057495 24.065833 -2.297521 7.460697 18.000000 -0.824814 4.960574
969.735789 443.468267 95.885156 0.000000 0.000000 0.000000 0.000000 0.000000 0.000000 20.415894 -19.320631 13.690942 180.000000 11.332638 13.690942 21.087741 -7.194242 -11.043737 158.912259 0.567869 -27.893295 24.320336 8.547789 11.043737 18.000000 -1.566397 4.911436
969.759168 443.445569 117.273730 0.000000 0.000000 0.000000 0.000000 0.000000 0.000000 20.642061 -19.901815 16.886559 180.000000 -7.661458 16.886559 21.453029 9.465510 -14.452610 158.546971 5.239731 -26.289200 24.533304 -2.096914 14.452610 18.000000 0.449155 4.842916
585.252171 514.469179 124.692958 0.000000 0.000000 0.000000 0.000000 0.000000 0.000000 74.723181 38.434277 19.021130 -105.276819 -67.550455 19.021130 119.807175 15.476780 -17.633558 165.825978 -7.524162 -24.270510 138.012220 13.263766 17.633558 -12.357653 -2.175933 4.755283
624.843979 517.601860 114.738188 0.000000 0.000000 0.000000 0.000000 0.000000 0.000000 103.202449 -42.642393 19.960535 -76.797551 39.265048 19.960535 114.381580 -7.782544 -20.536413 -53.015473 77.319543 -21.869059 145.467160 1.544950 20.536413 -4.173333 -2.137419 4.648882
969.822873 443.376664 113.228728 0.000000 0.000000 0.000000 0.000000 0.000000 0.000000 21.413420 -2.652485 19.645745 180.000000 9.106786 19.645745 22.607712 0.915977 -23.115397 157.392288 7.847395 -19.122720 24.899813 -1.823371 23.115397 18.000000 0.350325 4.524135
969.841956 443.353428 152.276727 0.000000 0.000000 0.000000 0.000000 0.000000 0.000000 21.702987 5.077506 18.096541 180.000000 -8.456243 18.096541 23.009909 8.750301 -25.329838 156.990091 -4.680981 -16.074804 24.926562 1.047983 25.329838 18.000000 -0.652430 4.381533
969.859960 443.330059 141.728401 0.000000 0.000000 0.000000 0.000000 0.000000 0.000000 22.009579 -1.437180 15.410265 180.000000 13.194747 15.410265 23.419334 -11.539891 -27.144812 156.580666 3.978764 -12.773379 24.904993 -0.446006 27.144812 18.000000 0.349903 4.221640
594.905148 538.048757 148.160365 0.000000 0.000000 0.000000 0.000000 0.000000 0.000000 -57.080480 -24.667093 11.755705 122.919520 -9.813637 11.755705 -12.750556 5.556110 -28.531695 149.841027 -10.090496 -9.270510 -8.274090 7.177235 28.531695 17.596979 0.049138 4.045085
969.892723 443.282929 147.737627 0.000000 0.000000 0.000000 0.000000 0.000000 0.000000 22.675903 14.057721 7.362491 180.000000 -7.870783 7.362491 24.255612 4.237655 -29.468618 155.744388 -8.914209 -5.621439 24.720303 -3.354611 29.468618 18.000000 -0.831290 3.852566
1257.001877 499.708382 132.598732 0.000000 0.000000 0.000000 0.000000 0.000000 0.000000 52.818511 0.100860 2.506665 -127.181489 -0.986880 2.506665 25.369497 2.748244 -29.940802 -143.914951 -3.999397 -1.883716 14.556766 2.236920 29.940802 -16.686776 0.116337 3.644843
1279.050064 493.773898 156.695867 0.000000 0.000000 0.000000 0.000000 0.000000 0.000000 56.685213 -9.171958 -2.506665 -123.314787 6.689193 -2.506665 24.065452 4.370099 -29.940802 -146.540317 5.488693 1.883716 13.097461 0.547535 29.940802 -16.716891 -0.096139 3.422736
1295.108986 477.099677 144.205531 0.000000 0.000000 0.000000 0.000000 0.000000 0.000000 65.723361 0.346143 -7.362491 -114.276639 -7.018423 -7.362491 23.725299 -1.066749 -29.468618 -147.984281 -1.572767 5.621439 13.187557 -0.938950 29.468618 -16.751134 0.097001 3.187120
1289.065018 496.763316 136.226556 0.000000 0.000000 0.000000 0.000000 0.000000 0.000000 61.662232 1.959463 -11.755705 -118.337768 6.745549 -11.755705 31.397757 -4.513378 -28.531695 -148.047797 4.111678 9.270510 12.491083 -1.114724 28.531695 -16.898368 -0.126998 2.938926
1285.337105 480.691112 168.130925 0.000000 0.000000 0.000000 0.000000 0.000000 0.000000 58.021980 -11.340419 -15.410265 -121.978020 3.979568 -15.410265 31.705930 0.639369 -27.144812 -157.028684 7.886450 12.773379 11.107306 -2.677994 27.144812 -17.140016 0.015870 2.679134
1276.453171 465.093691 149.609475 0.000000 0.000000 0.000000 0.000000 0.000000 0.000000 70.157145 -0.900257 -18.096541 -109.842855 4.337010 -18.096541 40.303764 0.575711 -25.329838 -145.293609 -0.120386 16.074804 10.431204 -2.448869 25.329838 -17.100572 0.187145 2.408768
1253.658714 472.768564 142.274108 0.000000 0.000000 0.000000 0.000000 0.000000 0.000000 65.087926 47.704043 -19.645745 -114.912074 -31.555519 -19.645745 -157.680356 -6.564291 -23.115397 -137.727082 -4.319572 19.122720 -153.053596 1.905627 23.115397 -16.054219 -0.868919 2.128896
1366.101608 507.691247 164.175691 0.000000 0.000000 0.000000 0.000000 0.000000 0.000000 108.715100 -42.525302 -19.960535 -71.284900 12.867318 -19.960535 156.661132 -1.563976 -20.536413 -158.224303 -5.497199 21.869059 0.000000 0.000000 0.000000 0.000000 0.000000 0.000000
969.986295 443.064535 145.485675 0.000000 0.000000 0.000000 0.000000 0.000000 0.000000 26.662144 -30.560842 -19.021130 180.000000 17.207485 -19.021130 28.015351 -6.526920 -17.633558 151.984649 7.883189 24.270510 22.068935 6.156788 17.633558 18.000000 0.148048 1.545085
1282.107124 481.511257 143.266723 0.000000 0.000000 0.000000 0.000000 0.000000 0.000000 80.650781 -11.881876 -16.886559 -99.349219 18.493166 -16.886559 1.511604 0.065948 -14.452610 -32.896908 7.777809 26.289200 -7.727072 4.460149 14.452610 13.531851 -6.354695 1.243449
1282.921486 484.777769 154.418494 0.000000 0.000000 0.000000 0.000000 0.000000 0.000000 -81.737646 26.479895 -13.690942 98.262354 -12.976624 -13.690942 -23.867101 0.995488 -11.043737 12.655668 -5.590699 27.893295 -29.454911 -4.059294 11.043737 9.861248 2.730005 0.936907
1290.933037 513.180238 154.091687 0.000000 0.000000 0.000000 0.000000 0.000000 0.000000 -91.387864 -4.295938 -9.635073 88.612136 8.123293 -9.635073 -41.685392 -4.947512 -7.460697 -161.156957 -6.313107 29.057495 15.157863 5.839125 7.460697 10.543436 -2.459878 0.626666
969.999452 442.964284 144.069984 0.000000 0.000000 0.000000 0.000000 0.000000 0.000000 29.025427 -0.582584 -4.973798 180.000000 -6.835219 -4.973798 29.437993 10.154904 -3.759997 150.562007 -3.022985 29.763441 20.404746 5.866573 3.759997 18.000000 0.491844 0.313953
970.000000 442.938926 144.575664 0.000000 0.000000 0.000000 0.000000 0.000000 0.000000 29.678605 -26.094393 0.000000 180.000000 9.864311 0.000000 29.744881 1.736684 -0.000000 150.255119 9.033281 30.000000 19.983107 -4.218289 0.000000 18.000000 -0.235908 0.000000
1354.522934 467.411410 144.353904 0.000000 0.000000 0.000000 0.000000 0.000000 0.000000 150.622570 -2.436948 4.973798 -29.377430 -3.050236 4.973798 140.176400 2.788034 3.759997 -12.221629 2.449686 29.763441 132.794256 -1.190242 -3.759997 -2.626015 -0.134818 0.313953
969.997807 442.887864 112.447155 0.000000 0.000000 0.000000 0.000000 0.000000 0.000000 31.061399 -24.625934 9.635073 180.000000 13.466400 9.635073 30.285790 -12.346843 7.460697 149.714210 7.743595 29.057495 19.151579 -0.989705 -7.460697 18.000000 -0.626472 0.626666
1246.736984 514.278152 147.078399 0.000000 0.000000 0.000000 0.000000 0.000000 0.000000 143.557092 -10.743081 13.690942 -36.442908 4.977912 13.690942 133.761037 -4.113081 11.043737 -156.950665 -5.566981 27.893295 0.000000 0.000000 0.000000 1.928484 0.428986 0.936907
1245.221100 458.637464 115.720725 0.000000 0.000000 0.000000 0.000000 0.000000 0.000000 160.701064 28.313834 16.886559 -19.298936 5.394615 16.886559 140.193827 -9.811196 14.452610 -157.554825 -6.111373 26.289200 29.500467 6.146240 -14.452610 -15.049953 -0.614624 1.243449
1257.365570 418.514181 102.044807 0.000000 0.000000 0.000000 0.000000 0.000000 0.000000 -143.710676 11.401692 19.021130 36.289324 -21.568010 19.021130 163.220413 8.321385 17.633558 11.688054 -5.901695 24.270510 152.038385 -0.192760 -17.633558 -2.339948 0.116509 1.545085
1275.099564 408.163741 104.722227 0.000000 0.000000 0.000000 0.000000 0.000000 0.000000 -132.929531 1.688835 19.960535 47.070469 -10.287089 19.960535 173.491912 7.157702 20.536413 -160.709681 -5.350790 21.869059 33.138793 5.092136 -20.536413 -14.686121 -0.509214 1.840623
1290.611115 384.880857 96.950676 0.000000 0.000000 0.000000 0.000000 0.000000 0.000000 -132.705235 8.031457 19.645745 47.294765 -8.323940 19.645745 -173.778854 4.897417 23.115397 20.496835 -2.986645 19.122720 -161.220290 -3.875703 -23.115397 1.723235 0.342444 2.128896
1302.817154 380.305352 98.489074 0.000000 0.000000 0.000000 0.000000 0.000000 0.000000 -131.493915 -4.015930 18.096541 48.506085 -3.555714 18.096541 -165.393697 4.147914 25.329838 23.154815 3.455665 16.074804 -178.200316 -1.613095 -25.329838 0.138141 0.019866 2.408768
1304.997711 379.563582 89.191735 0.000000 0.000000 0.000000 0.000000 0.000000 0.000000 -126.727972 -6.532829 15.410265 53.272028 6.658250 15.410265 -160.219593 -0.671328 27.144812 28.448880 2.306580 12.773379 -174.368770 -0.563425 -27.144812 0.079526 0.045644 2.679134
1311.668472 386.890390 103.388736 0.000000 0.000000 0.000000 0.000000 0.000000 0.000000 -122.308728 -21.260031 11.755705 57.691272 0.665374 11.755705 -158.801130 3.584981 28.531695 150.942637 10.722414 9.270510 -154.878332 -5.355984 -28.531695 2.695409 0.558187 2.938926
1305.131836 395.180186 76.683793 0.000000 0.000000 0.000000 0.000000 0.000000 0.000000 -125.112810 3.226051 7.362491 54.887190 24.266878 7.362491 -146.487292 -2.350941 29.468618 -175.167369 4.752831 5.621439 -159.224034 -4.453209 -29.468618 1.782042 0.549031 3.187120
1296.320457 392.734526 80.847712 0.000000 0.000000 0.000000 0.000000 0.000000 0.000000 -131.035750 -11.449555 2.506665 48.964250 13.025389 2.506665 -128.969563 -1.851247 29.940802 38.856147 0.316180 1.883716 -134.776850 0.085168 -29.940802 3.458429 0.240373 3.422736
1306.963577 386.612041 65.800906 0.000000 0.000000 0.000000 0.000000 0.000000 0.000000 -124.469622 -5.286111 -2.506665 55.530378 -1.766096 -2.506665 -109.994856 0.859954 29.940802 37.691309 0.343214 -1.883716 -118.274788 -0.956700 -29.940802 5.098336 -0.033059 3.644843
969.892723 442.572198 72.632002 0.000000 0.000000 0.000000 0.000000 0.000000 0.000000 41.287575 7.405431 -7.362491 180.000000 -14.553238 -7.362491 30.974696 13.861826 29.468618 149.025304 2.900365 -5.621439 15.072869 2.930125 -29.468618 18.000000 -0.300596 3.852566
969.876883 442.545207 73.258511 0.000000 0.000000 0.000000 0.000000 0.000000 0.000000 42.241956 26.385988 -11.755705 180.000000 -13.985812 -11.755705 30.826133 16.894582 28.531695 149.173867 -16.756299 -9.270510 14.823070 1.212118 -28.531695 18.000000 0.192583 4.045085
969.859960 442.518116 50.774213 0.000000 0.000000 0.000000 0.000000 0.000000 0.000000 43.199779 17.099152 -15.410265 180.000000 -14.846172 -15.410265 30.649504 9.451425 27.144812 149.350496 -2.958023 -12.773379 14.587557 -3.090722 -27.144812 18.000000 0.101306 4.221640
969.841956 442.490926 75.834256 0.000000 0.000000 0.000000 0.000000 0.000000 0.000000 44.157210 -20.182369 -18.096541 180.000000 14.260929 -18.096541 30.446417 -6.878222 25.329838 149.553583 13.714076 -16.074804 14.366154 -6.775613 -25.329838 18.000000 0.290055 4.381533
969.822873 442.463637 63.048518 0.000000 0.000000 0.000000 0.000000 0.000000 0.000000 45.110117 -5.566556 -19.645745 180.000000 -3.402763 -19.645745 30.218633 -2.037251 23.115397 149.781367 5.381920 -19.122720 14.158653 0.014274 -23.115397 18.000000 -0.098457 4.524135
969.802712 442.436251 50.783788 0.000000 0.000000 0.000000 0.000000 0.000000 0.000000 46.054109 47.046586 -19.960535 180.000000 -4.522743 -19.960535 29.968037 -10.943686 20.536413 150.031963 -8.320459 -21.869059 13.964823 -3.988164 -20.536413 18.000000 0.674386 4.648882
1187.040939 541.658249 46.302828 0.000000 0.000000 0.000000 0.000000 0.000000 0.000000 82.806623 -14.968188 -19.021130 -97.193377 16.415245 -19.021130 45.395981 -5.321497 17.633558 -156.144455 -2.102909 -24.270510 0.000000 0.000000 0.000000 0.000000 0.000000 0.000000
1182.242889 522.024286 60.586093 0.000000 0.000000 0.000000 0.000000 0.000000 0.000000 -105.721938 5.740797 -16.886559 74.278062 4.364891 -16.886559 -155.708006 -2.280737 14.452610 -157.302521 -2.174430 -26.289200 0.000000 0.000000 0.000000 2.684983 0.178979 4.842916
1180.914459 527.065626 60.521928 0.000000 0.000000 0.000000 0.000000 0.000000 0.000000 88.055617 -9.711685 -13.690942 -91.944383 9.609343 -13.690942 -158.862018 -2.855215 11.043737 -151.747289 -1.378453 -27.893295 0.000000 0.000000 0.000000 0.000000 0.000000 0.000000
1236.800194 541.387432 53.009489 0.000000 0.000000 0.000000 0.000000 0.000000 0.000000 -85.588400 14.953370 -9.635073 94.411600 -26.544563 -9.635073 -159.297106 14.902562 7.460697 -157.915391 -2.889561 -29.057495 26.607362 1.980243 -7.460697 14.926890 -0.191566 4.960574
1161.066513 575.006626 63.481858 0.000000 0.000000 0.000000 0.000000 0.000000 0.000000 -81.021168 0.934062 -4.973798 98.978832 -7.190085 -4.973798 -102.851701 9.920470 3.759997 -157.041007 -2.404835 -29.763441 21.429890 2.944620 -3.759997 10.859432 -0.057612 4.990134
1255.636253 512.645942 44.321578 0.000000 0.000000 0.000000 0.000000 0.000000 0.000000 77.832564 4.487924 -0.000000 -102.167436 -2.162218 -0.000000 -158.264834 -2.523185 0.000000 -130.745502 1.338618 -30.000000 -157.699225 -3.478031 -0.000000 0.000000 0.000000 0.000000
1265.118484 521.473864 54.602800 0.000000 0.000000 0.000000 0.000000 0.000000 0.000000 64.078276 4.056083 4.973798 -115.921724 0.182743 4.973798 41.397952 -5.364355 -3.759997 -139.329851 -8.966537 -29.763441 20.223252 5.463649 3.759997 -16.047574 -0.214254 4.990134
1228.099480 522.138258 49.384494 0.000000 0.000000 0.000000 0.000000 0.000000 0.000000 71.050901 -2.710744 9.635073 -108.949099 10.584787 9.635073 150.099970 -8.341436 -7.460697 -139.894702 2.695059 -29.057495 -156.275691 -3.181383 7.460697 0.000000 0.000000 0.000000
1240.357246 528.695873 65.068033 0.000000 0.000000 0.000000 0.000000 0.000000 0.000000 65.413351 8.957664 13.690942 -114.586649 -3.862286 13.690942 147.242328 -4.037317 -11.043737 -154.470720 -2.521733 -27.893295 25.557225 2.215910 11.043737 -15.444278 -0.221591 4.911436
1231.815262 551.380248 49.110460 0.000000 0.000000 0.000000 0.000000 0.000000 0.000000 56.412506 -14.463430 16.886559 -123.587494 7.648125 16.886559 -153.392336 -6.634274 -14.452610 -154.784582 -2.320184 -26.289200 24.191555 3.805544 14.452610 -15.580844 -0.380554 4.842916
1221.475182 508.360147 57.045755 0.000000 0.000000 0.000000 0.000000 0.000000 0.000000 77.450622 3.075400 19.021130 -102.549378 -9.585064 19.021130 -156.789784 -2.586622 -17.633558 -125.590168 -2.828590 -24.270510 -160.017240 -3.141188 17.633558 1.833434 0.369229 4.755283
969.477684 442.100429 61.320883 0.000000 0.000000 0.000000 0.000000 0.000000 0.000000 54.932575 -3.642305 19.960535 180.000000 -2.462790 19.960535 25.919122 7.002138 -20.536413 154.080878 -1.142738 -21.869059 12.612867 3.901181 20.536413 18.000000 0.809419 4.648882
1480.140495 518.878891 72.474210 0.000000 0.000000 0.000000 0.000000 0.000000 0.000000 -110.621767 -82.264360 19.645745 69.378233 -84.508219 19.645745 -158.235933 -2.736631 -23.115397 166.031448 -8.594498 -19.122720 -155.186432 -2.438121 23.115397 2.641553 0.310873 4.524135
1271.640472 556.840560 81.568973 0.000000 0.000000 0.000000 0.000000 0.000000 0.000000 -94.404719 18.636349 18.096541 85.595281 -10.834905 18.096541 -62.417786 5.868501 -25.329838 23.992813 3.506201 -16.074804 -76.856107 -4.846252 25.329838 7.708835 -0.011308 4.381533
1258.556786 530.268441 69.908861 0.000000 0.000000 0.000000 0.000000 0.000000 0.000000 78.355945 -1.684810 15.410265 -101.644055 -0.302951 15.410265 35.068294 0.659434 -27.144812 -54.090640 2.184817 -12.773379 35.848220 -1.454183 27.144812 -8.104639 -0.693891 4.221640
1250.800209 527.150567 91.155405 0.000000 0.000000 0.000000 0.000000 0.000000 0.000000 72.417769 1.181433 11.755705 -107.582231 12.497313 11.755705 24.571109 -0.712153 -28.531695 -39.196117 0.448851 -9.270510 10.411117 2.617730 28.531695 -9.048616 -4.161023 4.045085
1243.466148 571.776259 73.982555 0.000000 0.000000 0.000000 0.000000 0.000000 0.000000 86.301473 9.935888 7.362491 -93.698527 -8.521182 7.362491 24.553534 1.008619 -29.468618 -153.460385 -4.016883 -5.621439 19.510484 3.235374 29.468618 -10.109500 -2.547004 3.852566
1261.883812 566.052918 98.779799 0.000000 0.000000 0.000000 0.000000 0.000000 0.000000 94.015209 17.580733 2.506665 -85.984791 -14.224214 2.506665 38.959993 -0.525772 -29.940802 -154.008305 -4.320254 -1.883716 20.870951 3.394841 29.940802 -10.872440 -0.355835 3.644843
1284.436798 527.190542 116.643282 0.000000 0.000000 0.000000 0.000000 0.000000 0.000000 111.186365 -19.963746 -2.506665 -68.813635 17.900918 -2.506665 58.506163 4.493909 -29.940802 -19.138727 5.002962 1.883716 51.457372 7.757078 29.940802 -5.203198 -0.203161 3.422736
1272.860069 533.494012 103.243484 0.000000 0.000000 0.000000 0.000000 0.000000 0.000000 72.301471 -11.563482 -7.362491 -107.698529 8.165759 -7.362491 78.802573 2.478031 -29.468618 -154.772375 -4.503945 5.621439 26.927455 3.798270 29.468618 -15.307255 -0.379827 3.187120
1255.264664 498.243735 113.954702 0.000000 0.000000 0.000000 0.000000 0.000000 0.000000 164.596971 47.009083 -11.755705 -15.403029 -52.866479 -11.755705 125.849126 4.964504 -28.531695 -156.067666 -5.538589 9.270510 33.087561 4.941687 28.531695 -14.691244 -0.494169 2.938926
1259.202232 470.407684 122.103158 0.000000 0.000000 0.000000 0.000000 0.000000 0.000000 -139.980397 5.385425 -15.410265 40.019603 -7.952534 -15.410265 165.887722 -2.942360 -27.144812 -157.901492 -6.207382 12.773379 35.196094 6.183021 27.144812 -14.480391 -0.618302 2.679134
1236.502075 429.951335 130.723979 0.000000 0.000000 0.000000 0.000000 0.000000 0.000000 -113.295066 -5.421897 -18.096541 66.704934 -3.441330 -18.096541 -174.664169 3.785934 -25.329838 -159.007335 -5.456810 16.074804 32.868990 6.473683 25.329838 -14.713101 -0.647368 2.408768
1253.359451 413.942538 114.145811 0.000000 0.000000 0.000000 0.000000 0.000000 0.000000 -123.348580 -2.941527 -19.645745 56.651420 -0.374481 -19.645745 -167.815074 -1.132979 -23.115397 -159.603180 -5.585592 19.122720 32.791747 6.574089 23.115397 -14.720825 -0.657409 2.128896
1281.206589 405.664523 142.229502 0.000000 0.000000 0.000000 0.000000 0.000000 0.000000 -124.414271 -3.788344 -19.960535 55.585729 5.208869 -19.960535 -161.281803 -0.872051 -20.536413 28.568449 -0.061769 21.869059 -159.052798 -4.423084 20.536413 1.849141 0.354483 1.840623
1300.238571 418.760215 105.343587 0.000000 0.000000 0.000000 0.000000 0.000000 0.000000 -126.263092 -12.142276 -19.021130 53.736908 10.204482 -19.021130 -159.739358 1.288624 -17.633558 31.487961 3.778704 24.270510 -170.323915 -0.874015 17.633558 0.671815 0.207242 1.545085
1321.889191 413.634385 131.305826 0.000000 0.000000 0.000000 0.000000 0.000000 0.000000 -133.874471 -1.917169 -16.886559 46.125529 -0.553413 -16.886559 -159.376251 0.851109 -14.452610 30.696824 -0.454081 26.289200 -164.929556 -1.406708 14.452610 1.089735 0.164601 1.243449
1336.221428 432.881820 132.337209 0.000000 0.000000 0.000000 0.000000 0.000000 0.000000 -115.020798 -5.075299 -13.690942 64.979202 -8.208416 -13.690942 -135.609544 1.427008 -11.043737 -161.321630 -6.661886 27.893295 17.353502 7.908912 11.043737 -16.264650 -0.790891 0.936907
1329.124603 416.860342 140.513479 0.000000 0.000000 0.000000 0.000000 0.000000 0.000000 -134.023347 -13.212768 -9.635073 45.976653 4.512856 -9.635073 -128.030830 -2.592387 -7.460697 28.249885 2.309100 29.057495 -136.447985 -0.707020 7.460697 4.038834 0.041944 0.626666
1343.366776 427.060794 138.391967 0.000000 0.000000 0.000000 0.000000 0.000000 0.000000 -130.153347 -3.523367 -4.973798 49.846653 -4.551875 -4.973798 -103.564435 0.840157 -3.759997 27.398095 -2.118769 29.763441 -115.461530 -0.547253 3.759997 5.470063 0.069394 0.313953
1376.991005 465.829636 145.901240 0.000000 0.000000 0.000000 0.000000 0.000000 0.000000 -120.272352 -3.161481 0.000000 59.727648 5.362401 0.000000 -62.204131 -1.445156 -0.000000 27.740602 2.562516 30.000000 -80.461527 -4.015995 0.000000 7.450891 0.198679 0.000000
1384.978867 468.790376 130.236020 0.000000 0.000000 0.000000 0.000000 0.000000 0.000000 -93.720384 -39.349886 4.973798 86.279616 47.390790 4.973798 3.847814 3.991531 3.759997 -160.438787 -5.372416 29.763441 15.990976 5.573264 -3.759997 7.894783 -1.001760 0.313953
1345.894547 516.257268 152.024227 0.000000 0.000000 0.000000 0.000000 0.000000 0.000000 127.577640 -9.591915 9.635073 -52.422360 22.148505 9.635073 53.096359 -10.563003 7.460697 -159.021748 -6.239562 29.057495 18.308456 5.639552 -7.460697 -4.062191 -1.767775 0.626666
968.498927 441.455181 149.857510 0.000000 0.000000 0.000000 0.000000 0.000000 0.000000 47.920147 -9.315200 13.690942 180.000000 -9.717297 13.690942 19.641385 4.060666 11.043737 160.358615 3.788543 27.893295 13.993219 -2.315758 -11.043737 18.000000 0.101235 0.936907
1336.846733 493.527671 140.079104 0.000000 0.000000 0.000000 0.000000 0.000000 0.000000 102.681311 -25.697506 16.886559 -77.318689 21.117000 16.886559 35.985219 0.704475 14.452610 -159.617763 -6.277033 26.289200 19.375410 5.079759 -14.452610 -16.062459 -0.507976 1.243449
968.386706 441.394956 141.190848 0.000000 0.000000 0.000000 0.000000 0.000000 0.000000 46.120581 22.271217 19.021130 180.000000 6.792204 19.021130 19.316787 2.531814 17.633558 160.683213 -0.768430 24.270510 14.327067 -7.241409 -17.633558 18.000000 -0.022960 1.545085
1263.984947 433.341283 155.489553 0.000000 0.000000 0.000000 0.000000 0.000000 0.000000 -115.578373 -0.372490 19.960535 64.421627 -5.921952 19.960535 -82.396446 1.027353 20.536413 25.733383 6.323215 21.869059 -77.477544 -6.350463 -20.536413 5.836928 1.091623 1.840623
1352.596436 477.564354 149.837461 0.000000 0.000000 0.000000 0.000000 0.000000 0.000000 -99.196741 2.371888 19.645745 80.803259 3.482351 19.645745 -125.272585 -3.642620 23.115397 -162.405270 -6.527627 19.122720 17.377627 6.383915 -23.115397 -16.262237 -0.638392 2.128896
1384.326782 408.174427 134.545348 0.000000 0.000000 0.000000 0.000000 0.000000 0.000000 96.868601 2.486219 18.096541 -83.131399 1.754656 18.096541 -160.848957 -6.681819 25.329838 -137.255583 -6.559612 16.074804 -162.076720 -6.509343 -25.329838 0.000000 0.000000 0.000000
1387.580223 387.128634 154.072389 0.000000 0.000000 0.000000 0.000000 0.000000 0.000000 78.087764 25.889097 15.410265 -101.912236 -13.238979 15.410265 -161.807915 -6.248056 27.144812 -147.504361 -3.560722 12.773379 -162.566306 -7.098509 -27.144812 1.735427 0.854249 2.679134
1345.818558 392.423122 130.518731 0.000000 0.000000 0.000000 0.000000 0.000000 0.000000 71.782984 -3.366836 11.755705 -108.217016 -8.654142 11.755705 -169.469261 5.759923 28.531695 -153.903088 -1.474175 9.270510 -154.670689 8.057266 -28.531695 15.277725 -3.332267 2.938926
1331.471329 361.814139 125.715212 0.000000 0.000000 0.000000 0.000000 0.000000 0.000000 53.586100 5.236635 7.362491 -126.413900 -10.313131 7.362491 -162.290330 -5.353564 29.468618 -154.912165 1.457389 5.621439 -162.550394 -7.162405 -29.468618 1.742175 0.875594 3.187120
1354.413986 427.213873 137.029751 0.000000 0.000000 0.000000 0.000000 0.000000 0.000000 -131.358118 19.301707 2.506665 48.641882 -7.731683 2.506665 -142.488821 3.740583 29.940802 -161.977882 -6.023665 1.883716 12.673705 7.356938 -29.940802 1.397524 0.400272 3.422736
1330.326691 347.207226 119.013329 0.000000 0.000000 0.000000 0.000000 0.000000 0.000000 52.464175 4.868066 -2.506665 -127.535825 -6.318277 -2.506665 14.270918 3.268499 29.940802 -122.057234 -5.729946 -1.883716 22.820874 1.890575 -29.940802 -15.244909 0.023761 3.644843
1317.103271 414.475805 133.337104 0.000000 0.000000 0.000000 0.000000 0.000000 0.000000 76.170457 -24.328470 -7.362491 -103.829543 21.881253 -7.362491 -50.250674 1.553448 29.468618 -52.503744 0.771871 -5.621439 -92.793049 7.068304 -29.468618 3.303440 -0.338566 3.852566
1331.844635 430.291482 128.900519 0.000000 0.000000 0.000000 0.000000 0.000000 0.000000 79.985160 -11.428049 -11.755705 -100.014840 3.626262 -11.755705 25.995082 -4.100742 28.531695 -75.062603 0.569462 -9.270510 38.761234 -1.682558 -28.531695 -11.442229 0.387160 4.045085
1359.462433 496.472383 93.514381 0.000000 0.000000 0.000000 0.000000 0.000000 0.000000 84.268829 -5.617898 -15.410265 -95.731171 1.324665 -15.410265 30.279153 3.432255 27.144812 -63.318008 2.621528 -12.773379 39.457716 -5.064282 -27.144812 -9.485742 0.280669 4.221640
1323.514366 546.771398 101.518603 0.000000 0.000000 0.000000 0.000000 0.000000 0.000000 84.407325 -3.557935 -18.096541 -95.592675 3.894669 -18.096541 27.768249 -0.314698 25.329838 -47.660055 2.459330 -16.074804 28.281511 -2.186775 -25.329838 -7.827901 0.383257 4.381533
1268.535347 591.567099 119.408400 0.000000 0.000000 0.000000 0.000000 0.000000 0.000000 90.890792 3.820409 -19.645745 -89.109208 -0.413128 -19.645745 44.654760 1.192311 23.115397 -48.200667 5.368815 -19.122720 43.369388 -8.009965 -23.115397 -8.974980 1.324942 4.524135
1303.157158 602.888768 95.215070 0.000000 0.000000 0.000000 0.000000 0.000000 0.000000 90.349289 -3.167707 -19.960535 -89.650711 -1.279483 -19.960535 47.707312 -0.103246 20.536413 -53.918782 -3.450548 -21.869059 40.070965 11.744748 -20.536413 -9.318632 -1.393107 4.648882
1314.841690 613.141973 110.849913 0.000000 0.000000 0.000000 0.000000 0.000000 0.000000 94.480501 10.380301 -19.021130 -85.519499 -2.230906 -19.021130 58.462862 -2.271632 17.633558 -52.020507 -6.424401 -24.270510 55.276552 5.347058 -17.633558 -7.777523 -0.090990 4.755283
1327.521400 639.394319 86.189251 0.000000 0.000000 0.000000 0.000000 0.000000 0.000000 99.879576 0.183170 -16.886559 -80.120424 2.666167 -16.886559 69.161359 1.200783 14.452610 -46.413613 -0.187148 -26.289200 76.680143 4.526543 -14.452610 -6.257768 -0.606257 4.842916
1277.812729 671.228578 78.523036 0.000000 0.000000 0.000000 0.000000 0.000000 0.000000 99.708534 -12.601567 -13.690942 -80.291466 10.767887 -13.690942 92.239140 -3.730338 11.043737 -26.764021 9.201459 -27.893295 98.168457 3.295686 -11.043737 -4.372074 -0.572630 4.911436
1309.642181 690.479329 97.302070 0.000000 0.000000 0.000000 0.000000 0.000000 0.000000 117.292414 -5.760602 -9.635073 -62.707586 -7.443666 -9.635073 137.002702 0.521120 7.460697 -32.045917 -1.358694 -29.057495 135.211322 0.684081 -7.460697 -3.212944 0.036302 4.960574
1299.770966 664.126496 75.550273 0.000000 0.000000 0.000000 0.000000 0.000000 0.000000 158.531160 -8.698606 -4.973798 -21.468840 7.071960 -4.973798 161.478323 -0.716314 3.759997 -12.838206 1.186789 -29.763441 151.269584 1.489523 -3.759997 -2.521934 -0.159286 4.990134
1313.353729 643.668108 79.959181 0.000000 0.000000 0.000000 0.000000 0.000000 0.000000 -154.315892 -6.983086 -0.000000 25.684108 -4.045009 -0.000000 173.459940 0.346093 0.000000 1.519689 1.245567 -30.000000 164.244875 -1.088043 -0.000000 -1.552244 -0.069540 5.000000
1342.841377 638.982847 80.513580 0.000000 0.000000 0.000000 0.000000 0.000000 0.000000 -138.993869 -8.592274 4.973798 41.006131 -7.576722 4.973798 175.724056 -1.484337 -3.759997 -151.723069 -3.181356 -29.763441 43.242568 3.863617 3.759997 -13.675743 -0.386362 4.990134
1350.000229 614.724133 64.205795 0.000000 0.000000 0.000000 0.000000 0.000000 0.000000 -144.248147 -8.798841 9.635073 35.751853 -6.028704 9.635073 177.069273 4.012967 -7.460697 -152.227621 -2.513379 -29.057495 43.136563 3.747093 7.460697 -13.686344 -0.374709 4.960574
1328.535919 624.780936 64.491630 0.000000 0.000000 0.000000 0.000000 0.000000 0.000000 -165.447222 -7.184609 13.690942 14.552778 -9.153830 13.690942 169.657511 6.759458 -11.043737 -152.168050 -2.642382 -27.893295 41.929642 3.968655 11.043737 -13.807036 -0.396866 4.911436
1318.810501 615.688248 82.846752 0.000000 0.000000 0.000000 0.000000 0.000000 0.000000 -120.063657 11.441564 16.886559 59.936343 2.357869 16.886559 -165.389465 -2.029539 -14.452610 -152.866764 -2.956786 -26.289200 39.162270 3.824629 14.452610 -14.083773 -0.382463 4.842916
1321.656418 659.275410 65.419635 0.000000 0.000000 0.000000 0.000000 0.000000 0.000000 -121.435085 2.102339 19.021130 58.564915 4.686095 19.021130 -149.190712 -1.194666 -17.633558 -151.926374 -2.112402 -24.270510 33.097066 4.019567 17.633558 -14.690293 -0.401957 4.755283
1328.445511 687.490232 73.816278 0.000000 0.000000 0.000000 0.000000 0.000000 0.000000 -104.253419 4.899237 19.960535 75.746581 -7.356546 19.960535 -110.140878 0.951654 -20.536413 -152.911692 -2.534790 -21.869059 23.882145 3.392360 20.536413 3.694979 -0.128873 4.648882
966.534206 440.564282 53.401739 0.000000 0.000000 0.000000 0.000000 0.000000 0.000000 25.865486 -2.109510 19.645745 180.000000 -14.587983 19.645745 18.728337 5.831539 -23.115397 161.271663 -4.156118 -19.122720 19.024234 -0.876136 23.115397 18.000000 1.294325 4.524135
966.454577 440.533056 60.952016 0.000000 0.000000 0.000000 0.000000 0.000000 0.000000 25.417507 22.051435 18.096541 180.000000 -6.223421 18.096541 18.825450 1.563762 -25.329838 161.174550 -2.302592 -16.074804 19.071566 -0.932102 25.329838 18.000000 0.641671 4.381533
966.374240 440.501809 35.551390 0.000000 0.000000 0.000000 0.000000 0.000000 0.000000 24.990320 6.850433 15.410265 180.000000 8.359983 15.410265 18.929718 -2.626180 -27.144812 161.070282 -5.179402 -12.773379 19.102411 12.464467 27.144812 18.000000 -0.315033 4.221640
966.293204 440.470542 51.253348 0.000000 0.000000 0.000000 0.000000 0.000000 0.000000 24.583377 2.344265 11.755705 180.000000 3.259806 11.755705 19.040946 -2.971352 -28.531695 160.959054 0.224141 -9.270510 19.116765 11.311058 28.531695 18.000000 -0.319806 4.045085
966.211478 440.439256 52.455430 0.000000 0.000000 0.000000 0.000000 0.000000 0.000000 24.196129 -3.225817 7.362491 180.000000 1.595262 7.362491 19.158923 4.317720 -29.468618 160.841077 -5.012007 -5.621439 19.114778 4.690995 29.468618 18.000000 0.412850 3.852566
644.985180 745.864069 52.715879 0.000000 0.000000 0.000000 0.000000 0.000000 0.000000 96.086415 21.803764 2.506665 -83.913585 -18.876018 2.506665 -159.662371 -3.405718 -29.940802 -116.741565 0.291673 -1.883716 -176.001217 -3.917771 29.940802 -1.006627 1.829996 3.644843
1269.020119 699.025490 51.927267 0.000000 0.000000 0.000000 0.000000 0.000000 0.000000 83.810916 5.910530 -2.506665 -96.189084 -11.021234 -2.506665 51.932890 1.429162 -29.940802 -149.314466 -2.979212 1.883716 27.598511 1.772761 29.940802 -15.240149 -0.177276 3.422736
573.721218 678.450201 65.897350 0.000000 0.000000 0.000000 0.000000 0.000000 0.000000 18.756393 -37.993270 -7.362491 -161.243607 28.404966 -7.362491 -174.158094 -5.067461 -29.468618 178.010322 7.621651 5.621439 -154.394154 -7.745658 29.468618 11.886524 1.185293 3.187120
1261.580200 714.897366 59.486383 0.000000 0.000000 0.000000 0.000000 0.000000 0.000000 87.191276 0.511214 -11.755705 -92.808724 1.708881 -11.755705 23.129119 -8.828378 -28.531695 -149.376238 -2.804712 9.270510 24.545507 2.135802 28.531695 13.583501 0.769859 2.938926
1314.655838 684.171546 70.771873 0.000000 0.000000 0.000000 0.000000 0.000000 0.000000 61.219932 7.815481 -15.410265 -118.780068 9.393325 -15.410265 25.476616 -4.979019 -27.144812 -150.404247 -2.318802 12.773379 24.621454 1.826748 27.144812 -15.537855 -0.182675 2.679134
1319.638939 674.820013 41.961567 0.000000 0.000000 0.000000 0.000000 0.000000 0.000000 82.055377 12.673586 -18.096541 -97.944623 4.682829 -18.096541 17.325085 -8.540712 -25.329838 -60.067277 2.386847 16.074804 23.747728 -5.373869 25.329838 -13.005173 0.539198 2.408768
1367.852325 659.536314 77.106391 0.000000 0.000000 0.000000 0.000000 0.000000 0.000000 -150.278430 -27.947804 -19.645745 29.721570 -22.756258 -19.645745 -151.222797 -2.096697 -23.115397 18.758043 3.170537 19.122720 -152.451920 -2.671385 23.115397 2.484143 0.214725 2.128896
1392.624664 638.981302 75.523364 0.000000 0.000000 0.000000 0.000000 0.000000 0.000000 -122.704248 6.965132 -19.960535 57.295752 -6.577403 -19.960535 -134.513385 1.017107 -20.536413 30.292627 -4.517003 21.869059 -146.694539 1.513310 20.536413 2.430965 -0.266967 1.840623
1401.291389 646.422758 68.666624 0.000000 0.000000 0.000000 0.000000 0.000000 0.000000 83.316637 9.965122 -19.021130 -96.683363 0.316280 -19.021130 29.335627 -2.317835 -17.633558 -136.281416 -1.886675 24.270510 19.119183 0.891370 17.633558 -15.871560 -0.254003 1.545085
1381.838951 663.410475 76.210209 0.000000 0.000000 0.000000 0.000000 0.000000 0.000000 79.215331 3.666907 -16.886559 -100.784669 0.822107 -16.886559 30.640455 -5.331450 -14.452610 -139.113455 -0.952364 26.289200 14.302413 -1.625911 14.452610 -16.408036 0.218156 1.243449
1390.185928 664.248354 69.460374 0.000000 0.000000 0.000000 0.000000 0.000000 0.000000 75.546066 -9.149748 -13.690942 -104.453934 5.738600 -13.690942 38.995097 -3.174503 -11.043737 -142.871297 2.767499 27.893295 14.209110 2.327677 11.043737 -16.737090 -0.112200 0.936907
1393.889923 677.551103 77.779960 0.000000 0.000000 0.000000 0.000000 0.000000 0.000000 84.293627 10.443226 -9.635073 -95.706373 -3.023973 -9.635073 -152.700272 -3.453122 -7.460697 -143.357755 -1.860786 29.057495 -148.868889 -3.988395 7.460697 3.626268 0.454399 0.626666
905.601082 693.654528 81.189173 0.000000 0.000000 0.000000 0.000000 0.000000 0.000000 -84.410869 0.762898 -4.973798 95.589131 -11.822575 -4.973798 -139.498802 -4.116984 -3.759997 -178.556713 10.882293 29.763441 -142.061844 -5.258029 3.759997 3.411456 0.436961 0.313953
1337.643929 680.318756 84.138942 0.000000 0.000000 0.000000 0.000000 0.000000 0.000000 78.192517 -1.077040 0.000000 -101.807483 -3.794552 0.000000 48.289813 3.787493 -0.000000 -140.291980 -3.832007 30.000000 13.663140 2.962480 0.000000 -17.395561 0.060117 0.000000
1322.670708 685.543334 108.288651 0.000000 0.000000 0.000000 0.000000 0.000000 0.000000 71.501063 -14.603731 4.973798 -108.498937 1.393513 4.973798 23.648228 -0.514292 3.759997 -144.586500 -0.159489 29.763441 14.578018 3.696547 -3.759997 -16.885607 -0.208178 0.313953
1305.530548 682.910864 89.905312 0.000000 0.000000 0.000000 0.000000 0.000000 0.000000 72.979287 15.275264 9.635073 -107.020713 14.142740 9.635073 -148.728581 -4.383893 7.460697 -74.802907 14.559878 29.057495 -151.178244 -5.014110 -7.460697 2.601049 0.402540 0.626666
1359.363556 692.650115 108.550368 0.000000 0.000000 0.000000 0.000000 0.000000 0.000000 73.244804 -5.222204 13.690942 -106.755196 10.892217 13.690942 13.983499 0.002282 11.043737 -67.611809 2.478639 27.893295 13.130547 1.483379 -11.043737 -11.004089 -0.510401 0.936907
1299.495964 679.994059 120.039172 0.000000 0.000000 0.000000 0.000000 0.000000 0.000000 116.206779 -8.762798 16.886559 -63.793221 -0.176317 16.886559 -150.858719 -4.267072 14.452610 -34.548592 2.388772 26.289200 60.366751 4.323417 -14.452610 -4.627493 -0.525776 1.243449
1306.260338 711.527116 112.211877 0.000000 0.000000 0.000000 0.000000 0.000000 0.000000 -85.758672 -1.574902 19.021130 94.241328 -4.240021 19.021130 -31.461750 1.999576 17.633558 -4.237664 -2.258629 24.270510 -15.215787 1.860425 -17.633558 7.867754 0.204938 1.545085
1272.614822 704.778571 125.092550 0.000000 0.000000 0.000000 0.000000 0.000000 0.000000 -78.634637 -15.452994 19.960535 101.365363 10.669737 19.960535 -34.118569 0.996494 20.536413 22.539652 -0.708787 21.869059 -31.373170 -1.411944 -20.536413 11.310693 0.782608 1.840623
1310.345650 676.427021 121.942335 0.000000 0.000000 0.000000 0.000000 0.000000 0.000000 97.572435 4.274925 19.645745 -82.427565 -7.984715 19.645745 50.400703 4.657212 23.115397 -39.584286 -1.750376 19.122720 44.966766 -1.861643 -23.115397 -8.852712 -0.279511 2.128896
1315.732956 671.025095 123.689315 0.000000 0.000000 0.000000 0.000000 0.000000 0.000000 97.797337 -0.744722 18.096541 -82.202663 3.059265 18.096541 49.825934 -2.417926 25.329838 -39.162923 1.752183 16.074804 36.475631 -0.745201 -25.329838 -8.191519 -0.208171 2.408768
1329.935532 653.525419 140.173743 0.000000 0.000000 0.000000 0.000000 0.000000 0.000000 96.469555 -0.871065 15.410265 -83.530445 -0.648285 15.410265 63.882053 4.560150 27.144812 -51.972064 1.528806 12.773379 58.624362 1.793711 -27.144812 -8.239564 -0.311860 2.679134
1316.170578 674.246514 148.557049 0.000000 0.000000 0.000000 0.000000 0.000000 0.000000 -87.946330 5.411288 11.755705 92.053670 -7.251615 11.755705 -29.715798 -3.709481 28.531695 54.212796 -3.023532 9.270510 -40.560774 -3.861060 -28.531695 11.008015 0.261720 2.938926
1317.367287 678.027205 125.170542 0.000000 0.000000 0.000000 0.000000 0.000000 0.000000 95.152942 -0.740145 7.362491 -84.847058 -11.687522 7.362491 98.792835 2.014196 29.468618 -150.515547 -6.018583 5.621439 32.983753 4.329937 -29.468618 -14.701625 -0.432994 3.187120
1318.168488 670.157025 140.968749 0.000000 0.000000 0.000000 0.000000 0.000000 0.000000 -151.252255 44.639538 2.506665 28.747745 -39.560751 2.506665 138.896993 -1.278195 29.940802 -151.946620 -6.764327 1.883716 38.784684 5.402740 -29.940802 -14.121532 -0.540274 3.422736
1323.412628 644.667885 157.156352 0.000000 0.000000 0.000000 0.000000 0.000000 0.000000 -97.904066 -22.994402 -2.506665 82.095934 -12.994289 -2.506665 155.695030 1.102175 29.940802 -152.500978 -6.252643 -1.883716 44.721081 6.295245 -29.940802 -13.527892 -0.629525 3.644843
1312.776718 630.059459 138.856411 0.000000 0.000000 0.000000 0.000000 0.000000 0.000000 -116.637972 20.903022 -7.362491 63.362028 4.837506 -7.362491 171.094570 -1.327807 29.468618 -152.894064 -6.342012 -5.621439 43.947863 7.293575 -29.468618 -13.605214 -0.729358 3.852566
1316.420746 625.237019 137.603761 0.000000 0.000000 0.000000 0.000000 0.000000 0.000000 -136.254273 0.183868 -11.755705 43.745727 -4.675703 -11.755705 -177.663204 -1.557716 28.531695 -153.006287 -6.490907 -9.270510 42.784597 7.974298 -28.531695 -13.721540 -0.797430 4.045085
1314.719925 628.818026 161.441976 0.000000 0.000000 0.000000 0.000000 0.000000 0.000000 -114.737929 -1.864907 -15.410265 65.262071 -4.445392 -15.410265 -169.764314 7.565708 27.144812 -153.369487 -6.206808 -12.773379 41.498347 8.489894 -27.144812 -13.850165 -0.848989 4.221640
1334.396782 646.165652 147.497779 0.000000 0.000000 0.000000 0.000000 0.000000 0.000000 -116.903454 -0.052186 -18.096541 63.096546 -4.326954 -18.096541 -154.594534 4.538273 25.329838 -153.225015 -6.425256 -16.074804 37.136182 8.659544 -25.329838 -14.286382 -0.865954 4.381533
1340.823784 648.244128 145.473972 0.000000 0.000000 0.000000 0.000000 0.000000 0.000000 -116.932323 2.581726 -19.645745 63.067677 -7.842580 -19.645745 -138.898656 -0.709097 23.115397 35.335752 -4.336831 -19.122720 -153.336856 0.034361 -23.115397 2.206211 0.000552 4.524135
1330.023880 654.599032 158.473726 0.000000 0.000000 0.000000 0.000000 0.000000 0.000000 -112.150704 9.375378 -19.960535 67.849296 -2.844921 -19.960535 -118.798313 -1.242089 20.536413 -153.636372 -6.780273 -21.869059 16.691869 7.214067 -20.536413 -16.330813 -0.721407 4.648882
1337.431641 662.410698 163.649131 0.000000 0.000000 0.000000 0.000000 0.000000 0.000000 -109.111809 1.399179 -19.021130 70.888191 -1.091689 -19.021130 -91.144379 0.007527 17.633558 -154.448144 -6.301303 -24.270510 10.298202 6.179857 -17.633558 6.642051 0.198858 4.755283
1324.339714 676.416593 137.928519 0.000000 0.000000 0.000000 0.000000 0.000000 0.000000 -104.120178 6.040188 -16.886559 75.879822 -1.565438 -16.886559 -57.095620 -3.748889 14.452610 38.799650 -1.897163 -26.289200 -71.942639 0.957153 -14.452610 8.831938 -0.086335 4.842916
962.890318 439.311049 137.889057 0.000000 0.000000 0.000000 0.000000 0.000000 0.000000 19.986963 -6.230649 -13.690942 180.000000 -8.813388 -13.690942 24.297229 2.518830 11.043737 155.702771 -16.962263 -27.893295 14.983342 1.105205 -11.043737 18.000000 0.087239 4.911436
962.789911 439.279946 148.792418 0.000000 0.000000 0.000000 0.000000 0.000000 0.000000 20.089586 -12.200778 -9.635073 180.000000 10.871914 -9.635073 24.330184 -6.288678 7.460697 155.669816 8.167006 -29.057495 14.926290 0.799647 -7.460697 18.000000 -0.142357 4.960574
641.318550 641.336324 141.251766 0.000000 0.000000 0.000000 0.000000 0.000000 0.000000 163.642929 -16.494796 -4.973798 -16.357071 -3.676573 -4.973798 -155.926011 1.689463 3.759997 -130.644608 -8.626314 -29.763441 68.679337 11.468474 -3.759997 -11.132066 -1.146847 4.990134
1305.385551 662.289033 129.292205 0.000000 0.000000 0.000000 0.000000 0.000000 0.000000 -81.949824 -13.220138 -0.000000 98.050176 -1.808407 -0.000000 9.536664 6.043772 0.000000 -153.586691 -5.577156 -30.000000 24.402531 4.402049 -0.000000 -15.559747 -0.440205 5.000000
962.486899 439.186814 123.040825 0.000000 0.000000 0.000000 0.000000 0.000000 0.000000 20.465882 7.606835 4.973798 180.000000 4.815686 4.973798 24.357206 0.541055 -3.759997 155.642794 3.260493 -29.763441 14.800425 4.203076 3.759997 18.000000 -0.091419 4.990134
1216.314240 612.580640 116.251258 0.000000 0.000000 0.000000 0.000000 0.000000 0.000000 78.221991 -1.391480 9.635073 -101.778009 2.095860 9.635073 46.689014 2.641501 -7.460697 -61.937558 3.985122 -29.057495 44.546377 -0.731971 7.460697 -10.771750 0.123437 4.960574
1273.897820 573.707514 117.376762 0.000000 0.000000 0.000000 0.000000 0.000000 0.000000 77.469628 -6.411103 13.690942 -102.530372 3.839724 13.690942 -155.691164 -5.416877 -11.043737 -120.750172 0.484552 -27.893295 -156.229293 -5.474125 11.043737 2.162203 0.577589 4.911436
1337.358742 570.303276 125.465569 0.000000 0.000000 0.000000 0.000000 0.000000 0.000000 73.705918 -9.663984 16.886559 -106.294082 0.526263 16.886559 -155.918376 -4.934638 -14.452610 -149.887909 -4.396352 -26.289200 0.000000 0.000000 0.000000 0.000000 0.000000 0.000000
1342.446442 569.623497 119.873612 0.000000 0.000000 0.000000 0.000000 0.000000 0.000000 68.898287 -4.950970 19.021130 -111.101713 -1.857905 19.021130 39.314088 2.165987 -17.633558 -140.912764 -0.033272 -24.270510 -153.216026 -6.171864 17.633558 2.759242 0.723140 4.755283
1335.759430 584.665475 126.168539 0.000000 0.000000 0.000000 0.000000 0.000000 0.000000 66.989329 2.126490 19.960535 -113.010671 0.809582 19.960535 -154.807077 -4.583797 -20.536413 -142.328055 0.802246 -21.869059 -153.049156 -5.544245 20.536413 2.866457 0.643778 4.648882
1337.950974 598.074245 97.331994 0.000000 0.000000 0.000000 0.000000 0.000000 0.000000 62.697633 -18.200067 19.645745 -117.302367 4.628129 19.645745 19.366736 2.735929 -23.115397 -144.826223 2.338174 -19.122720 9.911455 1.021450 23.115397 -17.004209 -0.157825 4.524135
1352.846489 601.043322 103.714555 0.000000 0.000000 0.000000 0.000000 0.000000 0.000000 59.083577 -6.278401 18.096541 -120.916423 4.646465 18.096541 20.876734 -1.413096 -25.329838 -142.301690 -2.490609 -16.074804 13.356960 2.251612 25.329838 -16.821524 0.133492 4.381533
1347.310982 587.475100 97.302550 0.000000 0.000000 0.000000 0.000000 0.000000 0.000000 56.169135 1.007134 15.410265 -123.830865 0.179493 15.410265 21.172503 -3.614724 -27.144812 -139.640745 -5.390087 -12.773379 14.641496 1.199897 27.144812 -16.282575 0.069885 4.221640
1326.982155 606.886139 95.578405 0.000000 0.000000 0.000000 0.000000 0.000000 0.000000 70.119981 6.231347 11.755705 -109.880019 -2.207962 11.755705 26.511889 -0.429095 -28.531695 -111.264667 -0.851755 -9.270510 31.153840 1.414164 28.531695 -13.943905 -0.193388 4.045085
1354.391098 626.185555 83.879531 0.000000 0.000000 0.000000 0.000000 0.000000 0.000000 88.154395 -3.238463 7.362491 -91.845605 3.349080 7.362491 30.442275 -2.747334 -29.468618 -76.284233 4.021308 -5.621439 43.854867 -2.144287 29.468618 -10.818190 -0.024108 3.852566
1370.667114 610.219567 76.760215 0.000000 0.000000 0.000000 0.000000 0.000000 0.000000 89.945118 -3.488970 2.506665 -90.054882 -2.518596 2.506665 44.053326 -0.823124 -29.940802 -56.238091 -0.499050 -1.883716 55.411270 -0.868524 29.940802 -7.805659 0.088580 3.644843
1372.834854 597.828534 77.755617 0.000000 0.000000 0.000000 0.000000 0.000000 0.000000 93.407992 -2.066641 -2.506665 -86.592008 3.167549 -2.506665 54.165845 -0.453135 -29.940802 -47.239220 -0.525747 1.883716 56.575186 4.349248 29.940802 -6.344474 -0.285838 3.422736
1336.554337 597.454848 82.836647 0.000000 0.000000 0.000000 0.000000 0.000000 0.000000 95.622643 -0.521316 -7.362491 -84.377357 -4.136527 -7.362491 56.597780 2.035402 -29.468618 -45.108662 0.667813 5.621439 55.386034 -2.648088 29.468618 -7.206870 -0.290677 3.187120
1310.567093 590.844769 67.925923 0.000000 0.000000 0.000000 0.000000 0.000000 0.000000 100.193768 1.046217 -11.755705 -79.806232 -3.125470 -11.755705 61.986347 -1.411288 -28.531695 -37.593815 -1.802837 9.270510 62.907615 4.069955 28.531695 -6.637230 -0.726050 2.938926
1328.574371 576.493385 80.181656 0.000000 0.000000 0.000000 0.000000 0.000000 0.000000 101.943783 2.861619 -15.410265 -78.056217 -5.844665 -15.410265 61.902838 4.013461 -27.144812 -33.889586 -2.120300 12.773379 55.760387 2.970926 27.144812 -7.097415 -0.379727 2.679134
1316.178360 595.500870 53.292510 0.000000 0.000000 0.000000 0.000000 0.000000 0.000000 103.792097 -6.055413 -18.096541 -76.207903 3.696446 -18.096541 65.535198 -2.763460 -25.329838 -28.739437 0.651951 16.074804 68.415337 -4.285013 25.329838 -6.481753 0.919508 2.408768
1302.343140 568.138025 60.883316 0.000000 0.000000 0.000000 0.000000 0.000000 0.000000 101.222717 11.183898 -19.645745 -78.777283 -7.282252 -19.645745 90.757296 -4.852763 -23.115397 -18.578033 -9.557097 19.122720 97.909038 6.493275 23.115397 -5.050134 -0.147112 2.128896
1274.166183 540.660596 52.409764 0.000000 0.000000 0.000000 0.000000 0.000000 0.000000 -126.898591 -14.296632 -19.960535 53.101409 2.951391 -19.960535 127.276662 2.670367 -20.536413 8.808645 0.003502 21.869059 119.711272 -0.508528 20.536413 -4.115393 0.159831 1.840623
1268.557091 468.331075 51.369104 0.000000 0.000000 0.000000 0.000000 0.000000 0.000000 -124.112133 5.994811 -19.021130 55.887867 -0.370920 -19.021130 163.344780 4.947022 -17.633558 38.476068 3.676331 24.270510 145.889074 1.533830 17.633558 -1.929933 -0.128136 1.545085
1278.673096 454.375906 29.736324 0.000000 0.000000 0.000000 0.000000 0.000000 0.000000 -126.805061 6.164286 -16.886559 53.194939 -7.242705 -16.886559 -174.009950 -0.841154 -14.452610 27.419224 -1.540152 26.289200 168.192977 -0.889525 14.452610 -0.976267 -0.007221 1.243449
1285.008774 434.700390 49.272943 0.000000 0.000000 0.000000 0.000000 0.000000 0.000000 -132.005120 6.813295 -13.690942 47.994880 13.733047 -13.690942 -171.247775 -3.283260 -11.043737 26.625253 -1.967411 27.893295 178.805957 0.904405 11.043737 0.023422 -0.037805 0.936907
1288.157730 426.987666 56.511545 0.000000 0.000000 0.000000 0.000000 0.000000 0.000000 -123.987926 10.995951 -9.635073 56.012074 4.917737 -9.635073 -166.356219 -3.464541 -7.460697 35.716336 -0.084866 29.057495 -172.960762 -0.071264 7.460697 0.819533 -0.032960 0.626666
1291.221657 420.425448 57.870011 0.000000 0.000000 0.000000 0.000000 0.000000 0.000000 -122.265643 -4.239615 -4.973798 57.734357 -8.859426 -4.973798 -156.870161 0.602766 -3.759997 38.220704 -0.362638 29.763441 -165.716368 -1.316235 3.759997 1.405814 0.010196 0.313953
