HIERARCHY
ROOT Hips
{
    OFFSET 0.0 0.0 0.0
    CHANNELS 6 Xposition Yposition Zposition Zrotation Xrotation Yrotation
    JOINT Spine
    {
        OFFSET 0.0 5.0 0.0
        CHANNELS 3 Zrotation Xrotation Yrotation
        JOINT Chest
        {
            OFFSET 0.0 5.0 0.0
            CHANNELS 3 Zrotation Xrotation Yrotation
            JOINT Neck
            {
                OFFSET 0.0 8.0 0.0
                CHANNELS 3 Zrotation Xrotation Yrotation
                JOINT Head
                {
                    OFFSET 0.0 5.0 0.0
                    CHANNELS 3 Zrotation Xrotation Yrotation
                    End Site
                    {
                        OFFSET 0.0 3.0 0.0
                    }
                }
            }
            JOINT LeftShoulder
            {
                OFFSET -5.0 0.0 0.0
                CHANNELS 3 Zrotation Xrotation Yrotation
                JOINT LeftArm
                {
                    OFFSET 0.0 -10.0 0.0
                    CHANNELS 3 Zrotation Xrotation Yrotation
                    JOINT LeftForeArm
                    {
                        OFFSET 0.0 -10.0 0.0
                        CHANNELS 3 Zrotation Xrotation Yrotation
                        End Site
                        {
                            OFFSET 0.0 -3.0 0.0
                        }
                    }
                }
            }
        }
    }
}

MOTION
Frames: 300
Frame Time: 0.033333

960.000000 445.000000 81.494963 0.000000 0.000000 0.000000 0.000000 0.000000 0.000000 23.025492 5.102152 0.000000 180.000000 -14.447006 0.000000 21.801409 1.782911 -0.000000 158.198591 -0.079330 30.000000 15.945396 2.231436 0.000000 18.000000 -0.721774 0.000000
1691.525230 140.756605 120.103507 0.000000 0.000000 0.000000 0.000000 0.000000 0.000000 -163.376529 -6.711057 4.973798 16.623471 10.132513 4.973798 -171.853121 -3.423807 3.759997 99.744051 41.459415 29.763441 -171.126653 -4.106595 -3.759997 0.673538 0.388541 0.313953
1636.048050 128.802021 120.295140 0.000000 0.000000 0.000000 0.000000 0.000000 0.000000 157.904128 -19.917301 9.635073 -22.095872 20.835733 9.635073 -171.936471 -4.297184 7.460697 -143.675701 -2.638978 29.057495 -173.500805 -4.012832 -7.460697 0.570999 0.479093 0.626666
1578.156967 80.474526 106.836232 0.000000 0.000000 0.000000 0.000000 0.000000 0.000000 -139.519796 5.453898 13.690942 40.480204 -12.429867 13.690942 -174.507724 -3.378596 11.043737 119.111399 -1.035604 27.893295 -173.607258 -4.273466 -11.043737 0.461920 0.550853 0.936907
960.418757 444.998421 111.143975 0.000000 0.000000 0.000000 0.000000 0.000000 0.000000 25.077893 21.552115 16.886559 180.000000 3.950593 16.886559 23.861935 -2.176088 14.452610 156.138065 1.396713 26.289200 17.903699 0.967097 -14.452610 18.000000 0.168422 1.243449
960.523360 444.997533 131.764202 0.000000 0.000000 0.000000 0.000000 0.000000 0.000000 25.638906 6.122546 19.021130 180.000000 -15.270235 19.021130 24.425035 0.218361 17.633558 155.574965 -10.591598 24.270510 18.452907 0.084495 -17.633558 18.000000 -0.393507 1.545085
960.627905 444.996447 119.335847 0.000000 0.000000 0.000000 0.000000 0.000000 0.000000 26.219073 -18.793293 19.960535 180.000000 8.855381 19.960535 25.006291 -8.508635 20.536413 154.993709 8.100230 21.869059 19.024920 -3.477754 -20.536413 18.000000 0.651325 1.840623
1126.242828 420.359820 153.707960 0.000000 0.000000 0.000000 0.000000 0.000000 0.000000 31.410514 0.048150 19.645745 -148.589486 -2.386671 19.645745 32.280463 3.053216 23.115397 -131.603972 2.729938 19.122720 45.585331 -2.183255 -23.115397 -13.449727 -0.015043 2.128896
1257.895088 650.549197 138.032041 0.000000 0.000000 0.000000 0.000000 0.000000 0.000000 25.073180 -1.376884 18.096541 -154.926820 -6.943580 18.096541 46.260945 13.702838 25.329838 -154.651428 -5.248968 16.074804 27.339487 5.428766 -25.329838 -13.619892 0.032823 2.408768
960.941083 444.992008 146.382766 0.000000 0.000000 0.000000 0.000000 0.000000 0.000000 28.072001 -19.367864 15.410265 180.000000 4.652793 15.410265 26.849221 -8.735763 27.144812 153.150779 -2.935976 12.773379 20.864045 9.336357 -27.144812 18.000000 -0.612899 2.679134
1163.815842 547.748709 138.305364 0.000000 0.000000 0.000000 0.000000 0.000000 0.000000 117.162728 6.623153 11.755705 -62.837272 -1.822391 11.755705 102.363764 0.328413 28.531695 -47.376450 2.513239 9.270510 104.768601 -3.711835 -28.531695 -6.003489 -0.238037 2.938926
961.149372 444.988063 143.866991 0.000000 0.000000 0.000000 0.000000 0.000000 0.000000 29.395983 9.465117 7.362491 180.000000 3.116665 7.362491 28.146217 -0.340800 29.468618 151.853783 -3.952624 5.621439 22.170006 -2.134673 -29.468618 18.000000 -0.353020 3.187120
1136.717377 590.104480 143.191292 0.000000 0.000000 0.000000 0.000000 0.000000 0.000000 115.752126 0.194670 2.506665 -64.247874 -9.147835 2.506665 73.638146 3.933959 29.940802 -21.842452 -2.866269 1.883716 75.369282 -4.546578 -29.940802 -6.767207 0.179143 3.422736
1163.079758 634.077559 141.012826 0.000000 0.000000 0.000000 0.000000 0.000000 0.000000 132.174340 -6.096066 -2.506665 -47.825660 3.609060 -2.506665 94.255711 2.910595 29.940802 -149.364979 -6.443094 -1.883716 30.021641 5.388272 -29.940802 -5.096180 0.760515 3.644843
961.460830 444.980668 160.480465 0.000000 0.000000 0.000000 0.000000 0.000000 0.000000 31.497152 19.606766 -7.362491 180.000000 -1.375170 -7.362491 30.152455 0.324579 29.468618 149.847545 -1.280929 -5.621439 24.175589 4.008193 -29.468618 18.000000 -0.906238 3.852566
1097.449951 565.089898 155.430845 0.000000 0.000000 0.000000 0.000000 0.000000 0.000000 -119.219568 9.003329 -11.755705 60.780432 -3.801214 -11.755705 -150.180642 -6.957547 28.531695 48.804955 -3.895327 -9.270510 -149.874178 -6.028158 -28.531695 2.713854 0.603240 4.045085
1114.140244 528.302071 154.563200 0.000000 0.000000 0.000000 0.000000 0.000000 0.000000 -142.671523 -6.238164 -15.410265 37.328477 6.334356 -15.410265 -177.395681 3.380619 27.144812 34.687329 -0.043938 -12.773379 161.894167 1.074767 -27.144812 -0.910956 -0.075344 4.221640
1116.433640 479.728639 150.086269 0.000000 0.000000 0.000000 0.000000 0.000000 0.000000 -102.267481 6.822871 -18.096541 77.732519 3.834400 -18.096541 -163.695626 -1.170557 25.329838 38.575767 -3.233262 -16.074804 -176.001122 0.840499 -25.329838 0.706594 0.020964 4.381533
1135.931282 466.493965 132.678015 0.000000 0.000000 0.000000 0.000000 0.000000 0.000000 -112.868406 6.496408 -19.645745 67.131594 -8.981151 -19.645745 -159.517862 -5.131642 23.115397 36.204678 -5.755174 -19.122720 -154.426613 -5.502504 -23.115397 2.428729 0.481870 4.524135
1141.618767 467.420679 155.427233 0.000000 0.000000 0.000000 0.000000 0.000000 0.000000 -123.086385 1.612779 -19.960535 56.913615 20.056459 -19.960535 -154.885724 -3.580332 20.536413 36.481623 2.331647 -21.869059 -153.965441 -5.606040 -20.536413 2.446728 0.525218 4.648882
1150.647926 469.370956 139.031896 0.000000 0.000000 0.000000 0.000000 0.000000 0.000000 -43.953779 14.407780 -19.021130 136.046221 7.023888 -19.021130 -154.327268 -7.620623 17.633558 60.745168 4.479425 -24.270510 -153.350642 -7.289796 -17.633558 2.386216 0.581268 4.755283
1151.529922 496.420240 152.040142 0.000000 0.000000 0.000000 0.000000 0.000000 0.000000 -116.362129 -2.576239 -16.886559 63.637871 -5.988289 -16.886559 -149.081043 -1.261815 14.452610 35.941860 -5.349051 -26.289200 -156.847177 -0.954039 -14.452610 2.056513 0.199321 4.842916
1148.402367 515.713574 165.559048 0.000000 0.000000 0.000000 0.000000 0.000000 0.000000 -118.252650 -8.659445 -13.690942 61.747350 12.488620 -13.690942 -138.082896 -2.117779 11.043737 -156.312677 -6.787746 -27.893295 21.649626 9.844877 -11.043737 2.962417 0.201593 4.911436
1175.363617 533.368646 135.612537 0.000000 0.000000 0.000000 0.000000 0.000000 0.000000 -95.476638 -0.056734 -9.635073 84.523362 6.502189 -9.635073 -113.907461 0.431232 7.460697 -155.995907 -6.935572 -29.057495 12.512064 9.020416 -7.460697 -16.748794 -0.902042 4.960574
1199.533310 485.991104 149.709936 0.000000 0.000000 0.000000 0.000000 0.000000 0.000000 -100.003195 -6.152406 -4.973798 79.996805 7.700277 -4.973798 -86.083188 -0.766992 3.759997 38.843754 2.805179 -29.763441 -106.539452 -1.017128 -3.759997 6.197806 -0.104811 4.990134
962.588190 444.938442 125.139932 0.000000 0.000000 0.000000 0.000000 0.000000 0.000000 39.579754 40.238759 -0.000000 180.000000 -9.764515 -0.000000 36.680773 -5.192296 0.000000 143.319227 -9.708717 -30.000000 29.388385 -2.964242 -0.000000 18.000000 -1.198386 5.000000
1142.094727 445.716287 131.349601 0.000000 0.000000 0.000000 0.000000 0.000000 0.000000 -140.228454 1.400268 4.973798 39.771546 -24.305152 4.973798 -156.118008 -5.245340 -3.759997 3.479189 8.611133 -29.763441 -158.005660 -6.165290 3.759997 2.150019 0.559903 4.990134
1164.005928 424.847746 120.973831 0.000000 0.000000 0.000000 0.000000 0.000000 0.000000 -84.241076 -38.261776 9.635073 95.758924 -33.640656 9.635073 -156.181584 -5.252982 -7.460697 166.928360 0.801871 -29.057495 -154.947270 -6.402283 7.460697 2.644196 0.587683 4.960574
1124.208755 418.286655 107.036336 0.000000 0.000000 0.000000 0.000000 0.000000 0.000000 -117.427077 -17.118543 13.690942 62.572923 -16.855027 13.690942 -155.943063 -5.216365 -11.043737 14.023837 -5.788598 -27.893295 -157.382674 -5.299299 11.043737 2.188130 0.451428 4.911436
962.990408 444.917226 108.005087 0.000000 0.000000 0.000000 0.000000 0.000000 0.000000 42.110883 -12.081235 16.886559 180.000000 -0.033621 16.886559 37.946959 -3.336857 -14.452610 142.053041 7.500475 -26.289200 29.293612 -0.051486 14.452610 18.000000 -0.193061 4.842916
963.090170 444.911436 106.966425 0.000000 0.000000 0.000000 0.000000 0.000000 0.000000 42.659200 -5.815797 19.021130 180.000000 4.635647 19.021130 38.119107 -2.656117 -17.633558 141.880893 -3.892035 -24.270510 29.068887 1.975103 17.633558 18.000000 0.542820 4.755283
1186.646461 396.272757 109.290450 0.000000 0.000000 0.000000 0.000000 0.000000 0.000000 -72.847419 -17.771363 19.960535 107.152581 4.414309 19.960535 -156.703603 -5.286967 -20.536413 178.447294 -2.271096 -21.869059 -157.212393 -5.317510 20.536413 1.964058 0.448323 4.648882
1313.051605 426.636125 96.554849 0.000000 0.000000 0.000000 0.000000 0.000000 0.000000 90.994869 29.129969 19.645745 -89.005131 -21.460251 19.645745 -160.515303 -4.191496 -23.115397 -153.248861 -2.602351 -19.122720 -159.640525 -5.119397 23.115397 0.000000 0.000000 0.000000
1347.999344 420.772226 100.357388 0.000000 0.000000 0.000000 0.000000 0.000000 0.000000 90.154351 -4.106709 18.096541 -89.845649 3.496882 18.096541 -162.053401 -4.284406 -25.329838 -136.198880 3.130355 -16.074804 -160.991694 -5.092013 25.329838 0.000000 0.000000 0.000000
1344.315948 421.031681 67.453896 0.000000 0.000000 0.000000 0.000000 0.000000 0.000000 69.757587 6.111644 15.410265 -110.242413 -12.410947 15.410265 25.616746 5.460775 -27.144812 -157.821005 -4.200240 -12.773379 17.214985 2.777820 27.144812 -16.704706 0.028631 4.221640
1350.307617 440.309436 76.711158 0.000000 0.000000 0.000000 0.000000 0.000000 0.000000 71.124018 3.618540 11.755705 -108.875982 13.072573 11.755705 42.739987 -3.567141 -28.531695 -142.315466 -0.437207 -9.270510 16.600926 4.821207 28.531695 -16.660102 -0.196495 4.045085
1357.685051 430.688889 82.316556 0.000000 0.000000 0.000000 0.000000 0.000000 0.000000 77.656077 -1.789044 7.362491 -102.343923 -8.207146 7.362491 39.407151 2.223330 -29.468618 -136.343173 1.587465 -5.621439 22.144452 -0.675123 29.468618 -16.305135 -0.200142 3.852566
1369.482193 445.909406 68.970020 0.000000 0.000000 0.000000 0.000000 0.000000 0.000000 88.051188 -8.026064 2.506665 -91.948812 -15.322850 2.506665 -161.283973 -2.182381 -29.940802 -119.799169 1.164811 -1.883716 -164.575400 -3.548113 29.940802 1.401013 0.364135 3.644843
963.875156 444.858159 64.384694 0.000000 0.000000 0.000000 0.000000 0.000000 0.000000 45.304844 43.267158 -2.506665 180.000000 -15.412229 -2.506665 37.252439 -3.782867 -29.940802 142.747561 2.825857 1.883716 25.146244 -6.039796 29.940802 18.000000 0.340064 3.422736
963.971479 444.850633 61.898254 0.000000 0.000000 0.000000 0.000000 0.000000 0.000000 45.383640 -49.030088 -7.362491 180.000000 -20.643960 -7.362491 36.882310 1.980291 -29.468618 143.117690 1.157441 5.621439 24.499789 13.954361 29.468618 18.000000 -0.583260 3.187120
1336.629524 469.010178 58.806313 0.000000 0.000000 0.000000 0.000000 0.000000 0.000000 -72.390177 10.401328 -11.755705 107.609823 -10.814076 -11.755705 -158.649984 -1.766614 -28.531695 2.583425 3.447985 9.270510 -39.658551 10.932266 28.531695 10.837181 -1.202566 2.938926
1311.966934 518.219100 64.862200 0.000000 0.000000 0.000000 0.000000 0.000000 0.000000 -63.565072 47.810871 -15.410265 116.434928 -58.203968 -15.410265 -14.840750 8.481621 -27.144812 -158.549348 -3.145560 12.773379 17.488774 2.458601 27.144812 7.174982 -2.605622 2.679134
964.257793 444.826908 57.286268 0.000000 0.000000 0.000000 0.000000 0.000000 0.000000 45.262206 17.637335 -18.096541 180.000000 -12.340015 -18.096541 35.497192 -4.180906 -25.329838 144.502808 -12.751547 16.074804 22.522929 3.316059 25.329838 18.000000 -0.361972 2.408768
1275.921364 516.836239 57.033371 0.000000 0.000000 0.000000 0.000000 0.000000 0.000000 85.186295 -0.858072 -19.645745 -94.813705 5.498489 -19.645745 52.470689 -6.088492 -23.115397 -44.513683 4.312684 19.122720 50.867598 1.995619 23.115397 -8.717188 -1.271509 2.128896
1263.254128 546.875424 48.707218 0.000000 0.000000 0.000000 0.000000 0.000000 0.000000 34.848242 36.837225 -19.960535 -145.151758 -29.965403 -19.960535 42.487561 24.392243 -20.536413 -157.415675 -2.978326 21.869059 22.420880 2.438187 20.536413 -15.757912 -0.243819 1.840623
1258.788185 528.263061 60.040518 0.000000 0.000000 0.000000 0.000000 0.000000 0.000000 118.326865 -7.149814 -19.021130 -61.673135 11.964940 -19.021130 143.214759 -13.294031 -17.633558 -156.228306 -2.578566 24.270510 28.173554 1.805888 17.633558 -15.182645 -0.180589 1.545085
1231.492081 471.383836 31.484240 0.000000 0.000000 0.000000 0.000000 0.000000 0.000000 -115.049381 7.659183 -16.886559 64.950619 -7.219340 -16.886559 172.843704 -0.724759 -14.452610 -157.842300 -2.504144 26.289200 32.851042 2.076636 14.452610 -14.714896 -0.207664 1.243449
1223.928795 435.993515 51.780533 0.000000 0.000000 0.000000 0.000000 0.000000 0.000000 -115.322532 -11.712258 -13.690942 64.677468 15.982920 -13.690942 -168.597862 -4.974686 -11.043737 -158.853816 -2.348779 27.893295 31.099266 2.736377 11.043737 -14.890073 -0.273638 0.936907
1223.669701 418.195664 54.504237 0.000000 0.000000 0.000000 0.000000 0.000000 0.000000 -102.084053 0.387299 -9.635073 77.915947 -11.035819 -9.635073 -171.103858 1.958780 -7.460697 162.056334 3.027446 29.057495 -153.594437 -2.880770 7.460697 2.968481 0.289079 0.626666
1216.486244 414.503002 43.295398 0.000000 0.000000 0.000000 0.000000 0.000000 0.000000 69.261091 -21.650136 -4.973798 -110.738909 27.837051 -4.973798 -158.083722 -2.415240 -3.759997 -173.244581 -0.470497 29.763441 -154.635509 -2.064038 3.759997 2.928763 0.301719 0.313953
1212.090225 434.550980 53.072441 0.000000 0.000000 0.000000 0.000000 0.000000 0.000000 -112.403932 -0.576101 0.000000 67.596068 9.249083 0.000000 -157.060799 -2.957517 -0.000000 173.400765 -10.213156 30.000000 -154.473580 -1.690173 0.000000 2.734633 0.349113 0.000000
1214.024734 450.340490 57.096582 0.000000 0.000000 0.000000 0.000000 0.000000 0.000000 -110.634751 5.661755 4.973798 69.365249 5.767891 4.973798 -137.583343 0.379894 3.759997 -158.589698 -2.196060 29.763441 20.879446 2.834775 -3.759997 -15.912055 -0.283477 0.313953
1204.271393 440.192921 61.233921 0.000000 0.000000 0.000000 0.000000 0.000000 0.000000 -99.498286 41.121678 9.635073 80.501714 -36.352891 9.635073 -156.696469 -1.999414 7.460697 -178.487725 2.497869 29.057495 -157.318323 -3.773171 -7.460697 2.108583 0.322452 0.626666
965.269558 444.725315 41.807234 0.000000 0.000000 0.000000 0.000000 0.000000 0.000000 40.845461 -0.592314 13.690942 180.000000 -2.899416 13.690942 28.615377 -12.243241 11.043737 151.384623 -12.139255 27.893295 16.305092 4.164200 -11.043737 18.000000 0.173052 0.936907
1182.456551 475.103824 62.342417 0.000000 0.000000 0.000000 0.000000 0.000000 0.000000 -168.146016 -34.443060 16.886559 11.853984 84.805603 16.886559 -63.802645 -11.309842 14.452610 -61.114510 5.101736 26.289200 -47.869281 0.799468 -14.452610 -13.834956 -8.190647 1.243449
965.446390 444.704404 68.057695 0.000000 0.000000 0.000000 0.000000 0.000000 0.000000 39.578146 -10.240680 19.021130 180.000000 2.535505 19.021130 27.338029 0.165116 17.633558 152.661971 2.949975 24.270510 15.463180 3.912257 -17.633558 18.000000 -0.265418 1.545085
965.533915 444.693669 84.358814 0.000000 0.000000 0.000000 0.000000 0.000000 0.000000 38.916706 -15.982541 19.960535 180.000000 -4.729462 19.960535 26.716768 5.593858 20.536413 153.283232 1.082585 21.869059 15.076605 1.411627 -20.536413 18.000000 -0.313273 1.840623
965.620834 444.682749 78.851931 0.000000 0.000000 0.000000 0.000000 0.000000 0.000000 38.241653 12.488290 19.645745 180.000000 11.459808 19.645745 26.109467 -1.054865 23.115397 153.890533 -0.329056 19.122720 14.712258 0.596612 -23.115397 18.000000 0.036088 2.128896
965.707136 444.671645 82.153054 0.000000 0.000000 0.000000 0.000000 0.000000 0.000000 37.556504 -43.344955 18.096541 180.000000 20.547511 18.096541 25.517536 -4.984501 25.329838 154.482464 6.901905 16.074804 14.369537 2.412837 -25.329838 18.000000 -0.071674 2.408768
965.792812 444.660356 68.761520 0.000000 0.000000 0.000000 0.000000 0.000000 0.000000 36.864608 -22.603641 15.410265 180.000000 -6.646355 15.410265 24.942131 -3.385985 27.144812 155.057869 5.189894 12.773379 14.047797 -2.447222 -27.144812 18.000000 -0.240579 2.679134
965.877853 444.648882 95.095683 0.000000 0.000000 0.000000 0.000000 0.000000 0.000000 36.169118 45.513122 11.755705 180.000000 -13.492471 11.755705 24.384173 -3.496373 28.531695 155.615827 -0.368129 9.270510 13.746367 -5.485420 -28.531695 18.000000 0.039300 2.938926
965.962249 444.637226 92.319006 0.000000 0.000000 0.000000 0.000000 0.000000 0.000000 35.472980 26.156016 7.362491 180.000000 -7.361375 7.362491 23.844373 0.378945 29.468618 156.155627 -0.641584 5.621439 13.464570 -1.852620 -29.468618 18.000000 -0.227671 3.187120
966.045991 444.625386 105.238203 0.000000 0.000000 0.000000 0.000000 0.000000 0.000000 34.778913 14.848085 2.506665 180.000000 -2.221656 2.506665 23.323250 -5.694372 29.940802 156.676750 -11.368918 1.883716 13.201728 5.140750 -29.940802 18.000000 -0.568831 3.422736
966.129071 444.613364 107.525416 0.000000 0.000000 0.000000 0.000000 0.000000 0.000000 34.089406 -28.856605 -2.506665 180.000000 14.231484 -2.506665 22.821158 1.054586 29.940802 157.178842 12.258385 -1.883716 12.957175 -4.896715 -29.940802 18.000000 0.794420 3.644843
966.211478 444.601159 91.848056 0.000000 0.000000 0.000000 0.000000 0.000000 0.000000 33.406712 -10.323947 -7.362491 180.000000 -12.388224 -7.362491 22.338307 6.204345 29.468618 157.661693 -6.790113 -5.621439 12.730264 0.941249 -29.468618 18.000000 0.036115 3.852566
1171.486244 534.946783 120.873345 0.000000 0.000000 0.000000 0.000000 0.000000 0.000000 70.594720 0.970422 -11.755705 -109.405280 0.560455 -11.755705 49.953444 6.920614 28.531695 -151.467583 -4.696540 -9.270510 0.000000 0.000000 0.000000 0.000000 0.000000 0.000000
966.374240 444.576206 127.607444 0.000000 0.000000 0.000000 0.000000 0.000000 0.000000 32.069603 2.223623 -15.410265 180.000000 11.792538 -15.410265 21.430544 -6.297612 27.144812 158.569456 -6.595610 -12.773379 12.326901 3.705096 -27.144812 18.000000 0.110548 4.221640
1172.156410 555.047708 125.973976 0.000000 0.000000 0.000000 0.000000 0.000000 0.000000 -121.065102 -16.597648 -18.096541 58.934898 3.377284 -18.096541 -151.641456 -5.646941 25.329838 -177.360623 0.267262 -16.074804 -149.076048 -6.463200 -25.329838 0.000000 0.000000 0.000000
1161.826630 552.360713 119.059431 0.000000 0.000000 0.000000 0.000000 0.000000 0.000000 69.958407 -43.140273 -19.645745 -110.041593 38.197740 -19.645745 -152.437496 -6.280563 23.115397 -158.790607 3.926273 -19.122720 -150.591725 -7.176203 -23.115397 3.219062 0.711384 4.524135
1165.827255 569.832902 134.549454 0.000000 0.000000 0.000000 0.000000 0.000000 0.000000 25.594208 8.189501 -19.960535 -154.405792 -1.419335 -19.960535 11.723883 -7.381199 20.536413 -161.543160 -5.156546 -21.869059 7.769582 2.898893 -20.536413 -17.248199 -0.081321 4.648882
1165.555573 565.067046 126.005366 0.000000 0.000000 0.000000 0.000000 0.000000 0.000000 43.355707 0.753803 -19.021130 -136.644293 -0.818062 -19.021130 15.984329 -5.061695 17.633558 -140.773833 -3.709730 -24.270510 13.679449 3.271911 -17.633558 -16.392157 -0.300889 4.755283
1290.255775 608.533316 133.651848 0.000000 0.000000 0.000000 0.000000 0.000000 0.000000 -153.952071 -15.898889 -16.886559 26.047929 5.400865 -16.886559 -152.683807 -4.964240 14.452610 4.794196 9.100688 -26.289200 -154.287190 -5.287823 -14.452610 2.418080 0.518518 4.842916
1180.398903 551.817470 148.500610 0.000000 0.000000 0.000000 0.000000 0.000000 0.000000 51.640104 18.093734 -13.690942 -128.359896 -5.901752 -13.690942 14.419400 1.768623 11.043737 -33.521359 -25.432377 -27.893295 -34.277510 8.787595 -11.043737 5.235387 -0.334498 4.911436
1162.708626 619.419501 137.220902 0.000000 0.000000 0.000000 0.000000 0.000000 0.000000 -88.968325 -11.546767 -9.635073 91.031675 36.579646 -9.635073 -52.690088 -1.094868 7.460697 25.015222 6.447816 -29.057495 -72.561734 0.236560 -7.460697 8.557489 -0.320130 4.960574
1110.899391 602.919216 146.545278 0.000000 0.000000 0.000000 0.000000 0.000000 0.000000 -86.972237 4.414515 -4.973798 93.027763 4.020013 -4.973798 -39.551144 -4.547160 3.759997 34.838085 -4.216477 -29.763441 -44.185810 2.627802 -3.759997 10.000609 -0.219211 4.990134
1150.187302 553.686991 166.695352 0.000000 0.000000 0.000000 0.000000 0.000000 0.000000 -116.065142 -9.098449 -0.000000 63.934858 -5.004511 -0.000000 -151.059314 -6.468847 0.000000 -0.492058 -2.615601 -30.000000 -14.044098 -0.677956 -0.000000 1.929760 0.686741 5.000000
967.144727 444.440682 135.510565 0.000000 0.000000 0.000000 0.000000 0.000000 0.000000 26.270296 -2.281447 4.973798 180.000000 10.614062 4.973798 17.996647 -11.801671 -3.759997 162.003353 8.386401 -29.763441 11.189167 -11.498997 3.759997 18.000000 0.625965 4.990134
1213.452644 620.002785 132.492665 0.000000 0.000000 0.000000 0.000000 0.000000 0.000000 140.390379 0.357547 9.635073 -39.609621 9.051897 9.635073 77.724607 -9.014854 -7.460697 -153.982965 -6.630723 -29.057495 24.142749 5.394271 7.460697 -0.833727 1.135737 4.960574
1124.373779 618.464527 146.311150 0.000000 0.000000 0.000000 0.000000 0.000000 0.000000 99.329635 -24.499333 13.690942 -80.670365 -2.201192 13.690942 85.960927 -5.481564 -11.043737 -150.875293 -7.156429 -27.893295 31.644098 6.806848 11.043737 -14.835590 -0.680685 4.911436
967.360971 444.396582 150.649629 0.000000 0.000000 0.000000 0.000000 0.000000 0.000000 24.874716 -10.347262 16.886559 180.000000 15.093100 16.886559 17.291102 -0.225759 -14.452610 162.708898 7.939808 -26.289200 11.098846 0.718051 14.452610 18.000000 0.237151 4.842916
1107.875175 542.453964 154.688289 0.000000 0.000000 0.000000 0.000000 0.000000 0.000000 -128.741314 8.449033 19.021130 51.258686 -4.786222 19.021130 -177.225595 0.317376 -17.633558 19.954750 0.701311 -24.270510 162.677362 -1.866211 17.633558 -1.443098 0.097181 4.755283
1119.652290 522.766346 144.056001 0.000000 0.000000 0.000000 0.000000 0.000000 0.000000 -99.017754 7.716562 19.960535 80.982246 -6.514865 19.960535 -150.289603 -6.990625 -20.536413 -152.613833 -7.544463 -21.869059 0.000000 0.000000 0.000000 0.000000 0.000000 0.000000
1132.908783 538.229613 148.080505 0.000000 0.000000 0.000000 0.000000 0.000000 0.000000 -127.874185 -3.431195 19.645745 52.125815 -2.325646 19.645745 -165.450188 2.519469 -23.115397 -152.521515 -6.989338 -19.122720 40.606225 8.263663 23.115397 -13.939378 -0.826366 4.524135
1146.969337 541.828065 130.440714 0.000000 0.000000 0.000000 0.000000 0.000000 0.000000 -113.631604 -6.384838 18.096541 66.368396 -6.136861 18.096541 -159.067475 4.862122 -25.329838 113.981862 4.584196 -16.074804 -145.449815 -7.096526 25.329838 0.000000 0.000000 0.000000
1165.252304 561.329677 136.130855 0.000000 0.000000 0.000000 0.000000 0.000000 0.000000 -112.861399 4.089514 15.410265 67.138601 -3.983126 15.410265 -159.396543 2.144948 -27.144812 -151.967552 -7.149170 -12.773379 38.422588 8.973263 27.144812 -14.157741 -0.897326 4.221640
1174.726181 592.839689 140.508561 0.000000 0.000000 0.000000 0.000000 0.000000 0.000000 -110.369899 -4.983583 11.755705 69.630101 3.678217 11.755705 -148.108768 0.580463 -28.531695 -151.515612 -6.440947 -9.270510 34.277732 8.323913 28.531695 -14.572227 -0.832391 4.045085
1167.352524 605.194867 149.764422 0.000000 0.000000 0.000000 0.000000 0.000000 0.000000 -113.828445 8.062862 7.362491 66.171555 -9.756625 7.362491 -131.688453 0.120757 -29.468618 -151.045756 -7.320840 -5.621439 27.200835 8.560963 29.468618 -15.279916 -0.856096 3.852566
1139.678879 602.981014 152.343562 0.000000 0.000000 0.000000 0.000000 0.000000 0.000000 -97.599684 -42.722726 2.506665 82.400316 26.449544 2.506665 -113.965806 3.885198 -29.940802 -121.058781 4.534001 -1.883716 -118.492407 5.799233 29.940802 10.137620 -7.199965 3.644843
1165.830002 580.020189 120.544859 0.000000 0.000000 0.000000 0.000000 0.000000 0.000000 -28.085052 -16.064365 -2.506665 151.914948 5.916594 -2.506665 -150.589103 -5.890381 -29.940802 -172.678414 -1.221958 1.883716 -149.717924 -6.069642 29.940802 0.000000 0.000000 0.000000
1184.501953 619.872494 142.091906 0.000000 0.000000 0.000000 0.000000 0.000000 0.000000 -113.790307 -3.397906 -7.362491 66.209693 35.811787 -7.362491 -59.272274 -14.644826 -29.468618 29.476823 2.661656 5.621439 -88.148483 -3.675039 29.468618 7.414604 0.435718 3.187120
968.090170 444.221640 127.668222 0.000000 0.000000 0.000000 0.000000 0.000000 0.000000 21.092887 2.673521 -11.755705 180.000000 5.487087 -11.755705 15.757771 3.525038 -28.531695 164.242229 0.899590 9.270510 11.678908 -1.886773 28.531695 18.000000 0.111059 2.938926
968.151278 444.204723 116.606738 0.000000 0.000000 0.000000 0.000000 0.000000 0.000000 20.844337 -5.016947 -15.410265 180.000000 2.478087 -15.410265 15.691895 0.488025 -27.144812 164.308105 1.719275 12.773379 11.804629 -1.655676 27.144812 18.000000 0.453144 2.679134
968.211492 444.187640 108.983641 0.000000 0.000000 0.000000 0.000000 0.000000 0.000000 20.610265 -8.356467 -18.096541 180.000000 -7.674811 -18.096541 15.637361 13.905314 -25.329838 164.362639 6.711473 16.074804 11.943263 -1.713486 25.329838 18.000000 -0.614496 2.408768
968.270806 444.170392 102.016007 0.000000 0.000000 0.000000 0.000000 0.000000 0.000000 20.390366 24.003251 -19.645745 180.000000 -20.816298 -19.645745 15.594026 7.836222 -23.115397 164.405974 -10.790942 19.122720 12.095062 -1.968959 23.115397 18.000000 0.726758 2.128896
968.329212 444.152979 104.283488 0.000000 0.000000 0.000000 0.000000 0.000000 0.000000 20.184343 31.888408 -19.960535 180.000000 5.310354 -19.960535 15.561766 -6.056760 -20.536413 164.438234 -4.798243 21.869059 12.260289 8.418397 20.536413 18.000000 -0.367768 1.840623
968.386706 444.135403 98.887953 0.000000 0.000000 0.000000 0.000000 0.000000 0.000000 19.991916 -4.057044 -19.021130 180.000000 0.351507 -19.021130 15.540476 3.527066 -17.633558 164.459524 2.942042 24.270510 12.439222 -5.613555 17.633558 18.000000 0.406725 1.545085
968.443279 444.117663 81.563512 0.000000 0.000000 0.000000 0.000000 0.000000 0.000000 19.812814 -22.343562 -16.886559 180.000000 13.602007 -16.886559 15.530069 9.732650 -14.452610 164.469931 14.460891 26.289200 12.632146 -8.315088 14.452610 18.000000 0.414246 1.243449
968.498927 444.099761 89.592456 0.000000 0.000000 0.000000 0.000000 0.000000 0.000000 19.646785 4.605125 -13.690942 180.000000 3.351098 -13.690942 15.530474 -1.608923 -11.043737 164.469526 -0.987782 27.893295 12.839349 -0.613186 11.043737 18.000000 -0.099617 0.936907
968.553643 444.081696 76.194336 0.000000 0.000000 0.000000 0.000000 0.000000 0.000000 19.493591 -0.131004 -9.635073 180.000000 -6.940642 -9.635073 15.541640 1.951458 -7.460697 164.458360 2.986336 29.057495 13.061119 -1.493865 7.460697 18.000000 -0.430195 0.626666
1051.772690 653.004448 75.870572 0.000000 0.000000 0.000000 0.000000 0.000000 0.000000 -79.007834 6.133655 -4.973798 100.992166 5.161328 -4.973798 -126.715299 -4.975939 -3.759997 -149.991181 -4.126358 29.763441 31.772279 4.385560 3.759997 -14.822772 -0.438556 0.313953
1061.669197 624.716241 80.804807 0.000000 0.000000 0.000000 0.000000 0.000000 0.000000 -94.718359 -9.825731 0.000000 85.281641 3.676098 0.000000 -144.150484 -1.073909 -0.000000 60.155085 -3.722092 30.000000 -152.711462 2.729186 0.000000 1.815393 -0.068045 0.000000
1072.053337 571.032879 71.014047 0.000000 0.000000 0.000000 0.000000 0.000000 0.000000 71.424080 4.480792 4.973798 -108.575920 1.226831 4.973798 -149.042361 -4.036059 3.759997 -149.913636 -3.831598 29.763441 -145.792107 -3.731262 -3.759997 3.947623 0.469621 0.313953
1070.057373 572.884376 68.026340 0.000000 0.000000 0.000000 0.000000 0.000000 0.000000 -80.850201 -6.522755 9.635073 99.149799 0.314400 9.635073 -147.567525 -3.176754 7.460697 -164.443014 -0.503826 29.057495 -145.447997 -3.681897 -7.460697 4.032371 0.417937 0.626666
968.813035 443.988972 55.558160 0.000000 0.000000 0.000000 0.000000 0.000000 0.000000 18.912944 23.486481 13.690942 180.000000 -9.237798 13.690942 15.758200 -0.141992 11.043737 164.241800 -8.593685 27.893295 14.397395 1.619210 -11.043737 18.000000 -1.042259 0.936907
968.862036 443.969952 58.249672 0.000000 0.000000 0.000000 0.000000 0.000000 0.000000 18.832684 -15.181396 16.886559 180.000000 2.609477 16.886559 15.833735 -5.823482 14.452610 164.166265 3.229853 26.289200 14.711463 -2.274296 -14.452610 18.000000 0.904694 1.243449
968.910065 443.950775 48.947055 0.000000 0.000000 0.000000 0.000000 0.000000 0.000000 18.764066 -1.694718 19.021130 180.000000 6.057269 19.021130 15.920102 2.715341 17.633558 164.079898 4.255661 24.270510 15.041323 -6.592305 -17.633558 18.000000 0.679779 1.545085
968.957118 443.931442 65.947509 0.000000 0.000000 0.000000 0.000000 0.000000 0.000000 18.706990 2.978911 19.960535 180.000000 2.193983 19.960535 16.017366 -6.494898 20.536413 163.982634 -1.244781 21.869059 15.386894 3.533370 -20.536413 18.000000 0.117489 1.840623
969.003188 443.911954 55.148094 0.000000 0.000000 0.000000 0.000000 0.000000 0.000000 18.661377 4.604905 19.645745 180.000000 13.160528 19.645745 16.125602 -8.277323 23.115397 163.874398 4.551204 19.122720 15.747980 -0.415932 -23.115397 18.000000 -0.191704 2.128896
969.048271 443.892312 57.526308 0.000000 0.000000 0.000000 0.000000 0.000000 0.000000 18.627165 -20.855087 18.096541 180.000000 9.660410 18.096541 16.244896 5.139987 25.329838 163.755104 13.633018 16.074804 16.124252 -9.936691 -25.329838 18.000000 0.493076 2.408768
969.092361 443.872515 56.285235 0.000000 0.000000 0.000000 0.000000 0.000000 0.000000 18.604312 23.136677 15.410265 180.000000 -7.479057 15.410265 16.375340 -0.364339 27.144812 163.624660 -3.323795 12.773379 16.515224 -1.391785 -27.144812 18.000000 -0.233185 2.679134
1055.186234 577.357593 58.510154 0.000000 0.000000 0.000000 0.000000 0.000000 0.000000 85.510211 1.484281 11.755705 -94.489789 1.057109 11.755705 37.103410 3.469647 28.531695 -148.111343 -2.236316 9.270510 24.294182 2.324427 -28.531695 -8.601915 0.479624 2.938926
1122.856522 566.714029 49.804155 0.000000 0.000000 0.000000 0.000000 0.000000 0.000000 96.216240 -6.317670 7.362491 -83.783760 3.125767 7.362491 46.189625 0.116819 29.468618 -149.396962 -1.792479 5.621439 24.670091 1.668434 -29.468618 -7.107716 0.952125 3.187120
969.218632 443.812213 52.753416 0.000000 0.000000 0.000000 0.000000 0.000000 0.000000 18.603763 13.545680 2.506665 180.000000 -5.276998 2.506665 16.834613 5.502914 29.940802 163.165387 5.087398 1.883716 17.768624 -9.492778 -29.940802 18.000000 0.480237 3.422736
1112.757797 605.798106 54.349871 0.000000 0.000000 0.000000 0.000000 0.000000 0.000000 110.914625 -13.112042 -2.506665 -69.085375 19.825272 -2.506665 67.769469 -14.838091 29.940802 -149.822316 -1.994833 -1.883716 29.049901 1.967509 -29.940802 -3.625079 0.213895 3.644843
1086.733246 592.557156 64.195010 0.000000 0.000000 0.000000 0.000000 0.000000 0.000000 -80.132323 60.733049 -7.362491 99.867677 -54.809296 -7.362491 36.201564 2.196977 29.468618 -13.679556 -6.585523 -5.621439 78.049842 5.745158 -29.468618 -5.127460 -0.399035 3.852566
1081.109390 570.394492 55.345191 0.000000 0.000000 0.000000 0.000000 0.000000 0.000000 -175.864613 -8.954398 -11.755705 4.135387 -26.541946 -11.755705 134.713876 12.176406 28.531695 -10.005873 -2.629114 -9.270510 135.737755 -2.346931 -28.531695 -3.389365 0.208144 4.045085
1089.776802 536.594539 46.876536 0.000000 0.000000 0.000000 0.000000 0.000000 0.000000 -139.033903 3.385088 -15.410265 40.966097 -20.325020 -15.410265 161.695972 6.455657 27.144812 3.114398 -5.934779 -12.773379 148.805610 0.875379 -27.144812 -2.611636 0.070324 4.221640
1114.282036 523.965647 78.837240 0.000000 0.000000 0.000000 0.000000 0.000000 0.000000 -156.073983 18.189368 -18.096541 23.926017 -13.562704 -18.096541 174.825807 5.704309 25.329838 5.093343 -2.848138 -16.074804 161.266817 0.293749 -25.329838 -1.814366 -0.167721 4.381533
1122.145157 503.425248 41.882532 0.000000 0.000000 0.000000 0.000000 0.000000 0.000000 -144.538174 -2.722238 -19.645745 35.461826 0.803966 -19.645745 174.215003 -0.166652 23.115397 -151.750905 -2.781145 -19.122720 43.887064 3.496361 -23.115397 -13.611294 -0.349636 4.524135
1134.158249 484.688419 68.673051 0.000000 0.000000 0.000000 0.000000 0.000000 0.000000 -142.311443 3.049883 -19.960535 37.688557 -1.070684 -19.960535 -174.407776 2.497763 20.536413 14.121014 0.679632 -21.869059 176.737053 -1.375511 -20.536413 -0.386439 -0.041750 4.648882
1156.756668 500.025387 65.877666 0.000000 0.000000 0.000000 0.000000 0.000000 0.000000 -140.140767 17.024776 -19.021130 39.859233 0.677818 -19.021130 -176.866589 -5.341710 17.633558 -153.177991 -3.506309 -24.270510 40.555680 4.825496 -17.633558 -13.944432 -0.482550 4.755283
1163.818588 490.292573 82.306761 0.000000 0.000000 0.000000 0.000000 0.000000 0.000000 -126.918075 -4.694738 -16.886559 53.081925 -7.835979 -16.886559 -163.374411 2.454629 14.452610 -153.952175 -3.724147 -26.289200 36.914642 5.393967 -14.452610 0.798233 -0.166001 4.842916
1176.523705 490.346003 84.311185 0.000000 0.000000 0.000000 0.000000 0.000000 0.000000 -130.072590 8.362622 -13.690942 49.927410 1.258134 -13.690942 -150.224616 -1.677178 11.043737 24.749952 -1.760179 -27.893295 -162.219632 -1.016295 -11.043737 1.550269 0.195034 4.911436
1165.045052 489.521159 92.433744 0.000000 0.000000 0.000000 0.000000 0.000000 0.000000 -134.421293 3.714625 -9.635073 45.578707 -13.272652 -9.635073 -138.114962 1.062832 7.460697 20.347125 -5.259755 -29.057495 -149.675125 1.044879 -7.460697 1.919618 -0.181832 4.960574
1186.003189 485.341580 92.685419 0.000000 0.000000 0.000000 0.000000 0.000000 0.000000 151.263424 76.680723 -4.973798 -28.736576 -72.903903 -4.973798 -155.571724 -4.450535 3.759997 -114.944239 -20.738326 -29.763441 -157.446860 -3.881157 -3.759997 2.096391 0.414452 4.990134
1190.285912 497.609435 81.789030 0.000000 0.000000 0.000000 0.000000 0.000000 0.000000 -104.331435 18.913554 -0.000000 75.668565 -30.755112 -0.000000 -153.934692 -3.921302 0.000000 -67.465008 -9.076644 -30.000000 -71.629168 7.683091 -0.000000 -13.965204 -8.523880 5.000000
846.875610 502.341399 95.806147 0.000000 0.000000 0.000000 0.000000 0.000000 0.000000 -153.358185 6.098113 4.973798 26.641815 -6.976107 4.973798 -147.628169 -5.534645 -3.759997 -147.401289 -6.026705 -29.763441 0.000000 0.000000 0.000000 0.000000 0.000000 0.000000
969.711343 443.490827 109.125787 0.000000 0.000000 0.000000 0.000000 0.000000 0.000000 20.204512 5.711309 9.635073 180.000000 0.152843 9.635073 20.733157 -5.103817 -7.460697 159.266843 -1.187016 -29.057495 24.065833 14.790111 7.460697 18.000000 -2.635986 4.960574
969.735789 443.468267 92.124223 0.000000 0.000000 0.000000 0.000000 0.000000 0.000000 20.415894 -39.083357 13.690942 180.000000 16.497359 13.690942 21.087741 -6.894756 -11.043737 158.912259 12.317019 -27.893295 24.320336 4.369273 11.043737 18.000000 0.551933 4.911436
969.759168 443.445569 122.786885 0.000000 0.000000 0.000000 0.000000 0.000000 0.000000 20.642061 1.378257 16.886559 180.000000 -2.206142 16.886559 21.453029 0.289032 -14.452610 158.546971 5.936175 -26.289200 24.533304 -23.938494 14.452610 18.000000 1.593747 4.842916
585.252171 514.469179 121.389047 0.000000 0.000000 0.000000 0.000000 0.000000 0.000000 74.723181 64.771892 19.021130 -105.276819 16.935478 19.021130 119.807175 4.350066 -17.633558 165.825978 -5.368295 -24.270510 138.012220 5.290633 17.633558 -12.357653 -1.737850 4.755283
624.843979 517.601860 139.421488 0.000000 0.000000 0.000000 0.000000 0.000000 0.000000 103.202449 -47.463808 19.960535 -76.797551 18.596000 19.960535 114.381580 0.044927 -20.536413 -53.015473 52.298616 -21.869059 145.467160 9.204445 20.536413 -4.173333 -2.545549 4.648882
969.822873 443.376664 113.817839 0.000000 0.000000 0.000000 0.000000 0.000000 0.000000 21.413420 3.704510 19.645745 180.000000 -3.292941 19.645745 22.607712 -9.777731 -23.115397 157.392288 2.403358 -19.122720 24.899813 -10.507195 23.115397 18.000000 1.024485 4.524135
969.841956 443.353428 100.216728 0.000000 0.000000 0.000000 0.000000 0.000000 0.000000 21.702987 11.387772 18.096541 180.000000 -13.347289 18.096541 23.009909 10.407542 -25.329838 156.990091 -10.870185 -16.074804 24.926562 3.664105 25.329838 18.000000 0.224532 4.381533
969.859960 443.330059 138.989144 0.000000 0.000000 0.000000 0.000000 0.000000 0.000000 22.009579 -7.831804 15.410265 180.000000 -2.623299 15.410265 23.419334 7.806817 -27.144812 156.580666 4.063396 -12.773379 24.904993 -3.375523 27.144812 18.000000 1.068857 4.221640
594.905148 538.048757 138.864898 0.000000 0.000000 0.000000 0.000000 0.000000 0.000000 -57.080480 -10.911533 11.755705 122.919520 7.608757 11.755705 -12.750556 0.683814 -28.531695 149.841027 4.796499 -9.270510 -8.274090 -3.830035 28.531695 17.596979 -0.143699 4.045085
969.892723 443.282929 140.253842 0.000000 0.000000 0.000000 0.000000 0.000000 0.000000 22.675903 28.682079 7.362491 180.000000 -0.573869 7.362491 24.255612 -0.475809 -29.468618 155.744388 -18.716764 -5.621439 24.720303 13.897379 29.468618 18.000000 0.029579 3.852566
1257.001877 499.708382 147.346926 0.000000 0.000000 0.000000 0.000000 0.000000 0.000000 52.818511 14.911281 2.506665 -127.181489 -8.353211 2.506665 25.369497 1.878880 -29.940802 -143.914951 -2.162013 -1.883716 14.556766 0.120434 29.940802 -16.686776 -0.108871 3.644843
1279.050064 493.773898 143.083986 0.000000 0.000000 0.000000 0.000000 0.000000 0.000000 56.685213 -1.469298 -2.506665 -123.314787 2.326215 -2.506665 24.065452 0.610207 -29.940802 -146.540317 2.514338 1.883716 13.097461 -2.293638 29.940802 -16.716891 0.285369 3.422736
1295.108986 477.099677 155.556280 0.000000 0.000000 0.000000 0.000000 0.000000 0.000000 65.723361 -11.899272 -7.362491 -114.276639 12.620359 -7.362491 23.725299 2.403834 -29.468618 -147.984281 6.085409 5.621439 13.187557 0.089825 29.468618 -16.751134 0.095780 3.187120
1289.065018 496.763316 145.974454 0.000000 0.000000 0.000000 0.000000 0.000000 0.000000 61.662232 3.819019 -11.755705 -118.337768 -5.710022 -11.755705 31.397757 -0.427106 -28.531695 -148.047797 -3.354684 9.270510 12.491083 -0.526740 28.531695 -16.898368 0.078368 2.938926
1285.337105 480.691112 154.464234 0.000000 0.000000 0.000000 0.000000 0.000000 0.000000 58.021980 3.536058 -15.410265 -121.978020 -2.820941 -15.410265 31.705930 1.993838 -27.144812 -157.028684 -2.638350 12.773379 11.107306 -0.587034 27.144812 -17.140016 0.104449 2.679134
1276.453171 465.093691 156.940266 0.000000 0.000000 0.000000 0.000000 0.000000 0.000000 70.157145 1.863296 -18.096541 -109.842855 -1.622298 -18.096541 40.303764 2.895697 -25.329838 -145.293609 1.160354 16.074804 10.431204 -2.952732 25.329838 -17.100572 -0.001882 2.408768
1253.658714 472.768564 157.607552 0.000000 0.000000 0.000000 0.000000 0.000000 0.000000 65.087926 17.881835 -19.645745 -114.912074 2.330541 -19.645745 -157.680356 -7.041221 -23.115397 -137.727082 -4.874106 19.122720 -153.053596 9.485416 23.115397 -16.054219 -0.851494 2.128896
1366.101608 507.691247 155.202977 0.000000 0.000000 0.000000 0.000000 0.000000 0.000000 108.715100 24.207638 -19.960535 -71.284900 -4.994032 -19.960535 156.661132 0.413661 -20.536413 -158.224303 -5.830222 21.869059 0.000000 0.000000 0.000000 0.000000 0.000000 0.000000
969.986295 443.064535 145.878456 0.000000 0.000000 0.000000 0.000000 0.000000 0.000000 26.662144 4.923934 -19.021130 180.000000 -0.722878 -19.021130 28.015351 0.905002 -17.633558 151.984649 -0.586286 24.270510 22.068935 -6.253545 17.633558 18.000000 0.116517 1.545085
1282.107124 481.511257 143.504345 0.000000 0.000000 0.000000 0.000000 0.000000 0.000000 80.650781 -17.577267 -16.886559 -99.349219 14.042891 -16.886559 1.511604 5.072249 -14.452610 -32.896908 2.116230 26.289200 -7.727072 -3.741397 14.452610 13.531851 1.644411 1.243449
1282.921486 484.777769 147.847440 0.000000 0.000000 0.000000 0.000000 0.000000 0.000000 -81.737646 1.148024 -13.690942 98.262354 25.383343 -13.690942 -23.867101 -7.034207 -11.043737 12.655668 2.131768 27.893295 -29.454911 -3.924977 11.043737 9.861248 -0.250746 0.936907
1290.933037 513.180238 137.513536 0.000000 0.000000 0.000000 0.000000 0.000000 0.000000 -91.387864 -7.162667 -9.635073 88.612136 5.663411 -9.635073 -41.685392 -1.520834 -7.460697 -161.156957 -5.532965 29.057495 15.157863 5.466286 7.460697 10.543436 -0.904209 0.626666
969.999452 442.964284 134.466191 0.000000 0.000000 0.000000 0.000000 0.000000 0.000000 29.025427 -7.156580 -4.973798 180.000000 3.749227 -4.973798 29.437993 -3.696683 -3.759997 150.562007 0.741485 29.763441 20.404746 11.299852 3.759997 18.000000 -0.198247 0.313953
970.000000 442.938926 121.588053 0.000000 0.000000 0.000000 0.000000 0.000000 0.000000 29.678605 17.930370 0.000000 180.000000 -1.126258 0.000000 29.744881 5.968700 -0.000000 150.255119 2.835371 30.000000 19.983107 -1.744064 0.000000 18.000000 0.704679 0.000000
1354.522934 467.411410 127.382077 0.000000 0.000000 0.000000 0.000000 0.000000 0.000000 150.622570 -7.184758 4.973798 -29.377430 -4.209963 4.973798 140.176400 8.303208 3.759997 -12.221629 5.474053 29.763441 132.794256 5.133299 -3.759997 -2.626015 -0.415796 0.313953
969.997807 442.887864 118.530173 0.000000 0.000000 0.000000 0.000000 0.000000 0.000000 31.061399 -26.308026 9.635073 180.000000 17.347903 9.635073 30.285790 -10.952986 7.460697 149.714210 11.290962 29.057495 19.151579 0.237066 -7.460697 18.000000 -0.491829 0.626666
1246.736984 514.278152 118.922568 0.000000 0.000000 0.000000 0.000000 0.000000 0.000000 143.557092 -14.715956 13.690942 -36.442908 8.117541 13.690942 133.761037 -0.603241 11.043737 -156.950665 -5.192521 27.893295 0.000000 0.000000 0.000000 1.928484 0.380011 0.936907
1245.221100 458.637464 114.970491 0.000000 0.000000 0.000000 0.000000 0.000000 0.000000 160.701064 7.417540 16.886559 -19.298936 -2.102880 16.886559 140.193827 -4.495521 14.452610 -157.554825 -5.846726 26.289200 29.500467 4.829622 -14.452610 -15.049953 -0.482962 1.243449
1257.365570 418.514181 105.246394 0.000000 0.000000 0.000000 0.000000 0.000000 0.000000 -143.710676 9.601943 19.021130 36.289324 -19.568064 19.021130 163.220413 9.738762 17.633558 11.688054 -1.776927 24.270510 152.038385 -0.147323 -17.633558 -2.339948 -0.225970 1.545085
1275.099564 408.163741 106.525048 0.000000 0.000000 0.000000 0.000000 0.000000 0.000000 -132.929531 -13.399177 19.960535 47.070469 3.662116 19.960535 173.491912 -0.252598 20.536413 -160.709681 -4.699268 21.869059 33.138793 4.464292 -20.536413 -14.686121 -0.446429 1.840623
1290.611115 384.880857 116.694003 0.000000 0.000000 0.000000 0.000000 0.000000 0.000000 -132.705235 16.371539 19.645745 47.294765 -1.057550 19.645745 -173.778854 0.886617 23.115397 20.496835 -1.534378 19.122720 -161.220290 -4.017489 -23.115397 1.723235 0.390069 2.128896
1302.817154 380.305352 86.371490 0.000000 0.000000 0.000000 0.000000 0.000000 0.000000 -131.493915 6.555272 18.096541 48.506085 -11.975859 18.096541 -165.393697 0.115319 25.329838 23.154815 -5.667314 16.074804 -178.200316 -0.225826 -25.329838 0.138141 -0.035480 2.408768
1304.997711 379.563582 100.692897 0.000000 0.000000 0.000000 0.000000 0.000000 0.000000 -126.727972 -9.144555 15.410265 53.272028 4.116629 15.410265 -160.219593 1.254198 27.144812 28.448880 6.262232 12.773379 -174.368770 -2.091634 -27.144812 0.079526 0.083992 2.679134
1311.668472 386.890390 81.372449 0.000000 0.000000 0.000000 0.000000 0.000000 0.000000 -122.308728 -4.333630 11.755705 57.691272 1.306410 11.755705 -158.801130 4.607188 28.531695 150.942637 5.607898 9.270510 -154.878332 -4.342861 -28.531695 2.695409 0.591590 2.938926
1305.131836 395.180186 75.388941 0.000000 0.000000 0.000000 0.000000 0.000000 0.000000 -125.112810 3.711632 7.362491 54.887190 7.139770 7.362491 -146.487292 4.150269 29.468618 -175.167369 -3.624884 5.621439 -159.224034 -3.665155 -29.468618 1.782042 0.498153 3.187120
1296.320457 392.734526 68.534088 0.000000 0.000000 0.000000 0.000000 0.000000 0.000000 -131.035750 0.156877 2.506665 48.964250 3.831182 2.506665 -128.969563 -2.044033 29.940802 38.856147 -1.311281 1.883716 -134.776850 0.280519 -29.940802 3.458429 0.052036 3.422736
1306.963577 386.612041 77.007067 0.000000 0.000000 0.000000 0.000000 0.000000 0.000000 -124.469622 -9.978440 -2.506665 55.530378 9.961606 -2.506665 -109.994856 -1.697114 29.940802 37.691309 1.409025 -1.883716 -118.274788 1.782280 -29.940802 5.098336 0.008173 3.644843
969.892723 442.572198 69.664249 0.000000 0.000000 0.000000 0.000000 0.000000 0.000000 41.287575 -3.578052 -7.362491 180.000000 16.498210 -7.362491 30.974696 -19.267262 29.468618 149.025304 -0.171181 -5.621439 15.072869 -3.039349 -29.468618 18.000000 0.160600 3.852566
969.876883 442.545207 44.499672 0.000000 0.000000 0.000000 0.000000 0.000000 0.000000 42.241956 -45.461164 -11.755705 180.000000 18.667088 -11.755705 30.826133 -13.001093 28.531695 149.173867 9.991538 -9.270510 14.823070 4.107004 -28.531695 18.000000 -0.528682 4.045085
969.859960 442.518116 50.534643 0.000000 0.000000 0.000000 0.000000 0.000000 0.000000 43.199779 -50.771699 -15.410265 180.000000 4.226066 -15.410265 30.649504 2.989374 27.144812 149.350496 -4.432214 -12.773379 14.587557 11.129825 -27.144812 18.000000 -0.170779 4.221640
969.841956 442.490926 69.191837 0.000000 0.000000 0.000000 0.000000 0.000000 0.000000 44.157210 38.360418 -18.096541 180.000000 -11.954691 -18.096541 30.446417 -4.744471 25.329838 149.553583 -5.906174 -16.074804 14.366154 0.120157 -25.329838 18.000000 -0.522807 4.381533
969.822873 442.463637 37.165182 0.000000 0.000000 0.000000 0.000000 0.000000 0.000000 45.110117 -29.710208 -19.645745 180.000000 34.454727 -19.645745 30.218633 -15.438590 23.115397 149.781367 6.240414 -19.122720 14.158653 3.733635 -23.115397 18.000000 -0.297248 4.524135
969.802712 442.436251 46.235926 0.000000 0.000000 0.000000 0.000000 0.000000 0.000000 46.054109 -27.618219 -19.960535 180.000000 12.977497 -19.960535 29.968037 0.331535 20.536413 150.031963 2.566345 -21.869059 13.964823 -0.307218 -20.536413 18.000000 -0.290605 4.648882
1187.040939 541.658249 42.244952 0.000000 0.000000 0.000000 0.000000 0.000000 0.000000 82.806623 8.069381 -19.021130 -97.193377 7.134354 -19.021130 45.395981 -9.871450 17.633558 -156.144455 -2.373528 -24.270510 0.000000 0.000000 0.000000 0.000000 0.000000 0.000000
1182.242889 522.024286 39.939029 0.000000 0.000000 0.000000 0.000000 0.000000 0.000000 -105.721938 10.069986 -16.886559 74.278062 -22.182111 -16.886559 -155.708006 -1.638851 14.452610 -157.302521 -2.524071 -26.289200 0.000000 0.000000 0.000000 2.684983 0.192190 4.842916
1180.914459 527.065626 57.710941 0.000000 0.000000 0.000000 0.000000 0.000000 0.000000 88.055617 -2.435008 -13.690942 -91.944383 -0.810413 -13.690942 -158.862018 -2.040901 11.043737 -151.747289 -2.026542 -27.893295 0.000000 0.000000 0.000000 0.000000 0.000000 0.000000
1236.800194 541.387432 52.024328 0.000000 0.000000 0.000000 0.000000 0.000000 0.000000 -85.588400 -0.459174 -9.635073 94.411600 0.366795 -9.635073 -159.297106 7.138060 7.460697 -157.915391 -1.894587 -29.057495 26.607362 2.775789 -7.460697 14.926890 -0.838788 4.960574
1161.066513 575.006626 44.330500 0.000000 0.000000 0.000000 0.000000 0.000000 0.000000 -81.021168 7.366248 -4.973798 98.978832 -7.094894 -4.973798 -102.851701 3.335775 3.759997 -157.041007 -3.177907 -29.763441 21.429890 2.711411 -3.759997 10.859432 -0.790524 4.990134
1255.636253 512.645942 43.238829 0.000000 0.000000 0.000000 0.000000 0.000000 0.000000 77.832564 4.562435 -0.000000 -102.167436 -9.176657 -0.000000 -158.264834 -2.134369 0.000000 -130.745502 -2.700003 -30.000000 -157.699225 -3.101595 -0.000000 0.000000 0.000000 0.000000
1265.118484 521.473864 52.298114 0.000000 0.000000 0.000000 0.000000 0.000000 0.000000 64.078276 -1.124387 4.973798 -115.921724 -7.129066 4.973798 41.397952 6.299253 -3.759997 -139.329851 -1.086444 -29.763441 20.223252 -1.060506 3.759997 -16.047574 0.179589 4.990134
1228.099480 522.138258 47.104462 0.000000 0.000000 0.000000 0.000000 0.000000 0.000000 71.050901 0.674112 9.635073 -108.949099 -10.408431 9.635073 150.099970 8.694527 -7.460697 -139.894702 -4.234970 -29.057495 -156.275691 -2.310440 7.460697 0.000000 0.000000 0.000000
1240.357246 528.695873 49.165361 0.000000 0.000000 0.000000 0.000000 0.000000 0.000000 65.413351 3.365552 13.690942 -114.586649 -8.237542 13.690942 147.242328 -5.724481 -11.043737 -154.470720 -3.278092 -27.893295 25.557225 2.643654 11.043737 -15.444278 -0.264365 4.911436
1231.815262 551.380248 82.123677 0.000000 0.000000 0.000000 0.000000 0.000000 0.000000 56.412506 -0.475556 16.886559 -123.587494 -15.456533 16.886559 -153.392336 9.753255 -14.452610 -154.784582 -2.711265 -26.289200 24.191555 3.976368 14.452610 -15.580844 -0.397637 4.842916
1221.475182 508.360147 54.973447 0.000000 0.000000 0.000000 0.000000 0.000000 0.000000 77.450622 -8.769613 19.021130 -102.549378 6.633851 19.021130 -156.789784 -3.575426 -17.633558 -125.590168 -3.231968 -24.270510 -160.017240 -2.766816 17.633558 1.833434 0.504365 4.755283
969.477684 442.100429 50.697153 0.000000 0.000000 0.000000 0.000000 0.000000 0.000000 54.932575 19.626872 19.960535 180.000000 -0.866097 19.960535 25.919122 8.384245 -20.536413 154.080878 18.332217 -21.869059 12.612867 -11.561401 20.536413 18.000000 0.495663 4.648882
1480.140495 518.878891 78.149999 0.000000 0.000000 0.000000 0.000000 0.000000 0.000000 -110.621767 82.505990 19.645745 69.378233 88.064763 19.645745 -158.235933 -3.498993 -23.115397 166.031448 -4.852262 -19.122720 -155.186432 -2.475682 23.115397 2.641553 0.282645 4.524135
1271.640472 556.840560 84.091961 0.000000 0.000000 0.000000 0.000000 0.000000 0.000000 -94.404719 -12.245891 18.096541 85.595281 0.042465 18.096541 -62.417786 -0.510657 -25.329838 23.992813 -5.359154 -16.074804 -76.856107 2.674622 25.329838 7.708835 0.246258 4.381533
1258.556786 530.268441 68.956276 0.000000 0.000000 0.000000 0.000000 0.000000 0.000000 78.355945 -10.498778 15.410265 -101.644055 -2.441718 15.410265 35.068294 -0.818729 -27.144812 -54.090640 1.518683 -12.773379 35.848220 1.761281 27.144812 -8.104639 -0.319975 4.221640
1250.800209 527.150567 101.602464 0.000000 0.000000 0.000000 0.000000 0.000000 0.000000 72.417769 6.275506 11.755705 -107.582231 -4.224864 11.755705 24.571109 2.846564 -28.531695 -39.196117 4.840669 -9.270510 10.411117 -7.472600 28.531695 -9.048616 1.988613 4.045085
1243.466148 571.776259 79.410774 0.000000 0.000000 0.000000 0.000000 0.000000 0.000000 86.301473 5.594675 7.362491 -93.698527 4.355383 7.362491 24.553534 -1.381463 -29.468618 -153.460385 -3.921737 -5.621439 19.510484 3.342155 29.468618 -10.109500 0.225889 3.852566
1261.883812 566.052918 95.016502 0.000000 0.000000 0.000000 0.000000 0.000000 0.000000 94.015209 -14.677693 2.506665 -85.984791 21.668909 2.506665 38.959993 -5.246673 -29.940802 -154.008305 -3.304706 -1.883716 20.870951 3.679032 29.940802 -10.872440 0.018078 3.644843
1284.436798 527.190542 93.565888 0.000000 0.000000 0.000000 0.000000 0.000000 0.000000 111.186365 -5.426356 -2.506665 -68.813635 17.484565 -2.506665 58.506163 -8.833974 -29.940802 -19.138727 -3.713747 1.883716 51.457372 8.443444 29.940802 -5.203198 -0.193884 3.422736
1272.860069 533.494012 96.906751 0.000000 0.000000 0.000000 0.000000 0.000000 0.000000 72.301471 -1.099354 -7.362491 -107.698529 32.457953 -7.362491 78.802573 3.352747 -29.468618 -154.772375 -4.011748 5.621439 26.927455 3.946433 29.468618 -15.307255 -0.394643 3.187120
1255.264664 498.243735 100.862932 0.000000 0.000000 0.000000 0.000000 0.000000 0.000000 164.596971 -71.927617 -11.755705 -15.403029 16.336435 -11.755705 125.849126 6.567371 -28.531695 -156.067666 -4.167622 9.270510 33.087561 4.384005 28.531695 -14.691244 -0.438401 2.938926
1259.202232 470.407684 130.550443 0.000000 0.000000 0.000000 0.000000 0.000000 0.000000 -139.980397 20.313567 -15.410265 40.019603 4.527711 -15.410265 165.887722 -7.122247 -27.144812 -157.901492 -5.647465 12.773379 35.196094 5.366739 27.144812 -14.480391 -0.536674 2.679134
1236.502075 429.951335 120.187487 0.000000 0.000000 0.000000 0.000000 0.000000 0.000000 -113.295066 -26.531972 -18.096541 66.704934 21.584012 -18.096541 -174.664169 -3.261361 -25.329838 -159.007335 -4.137234 16.074804 32.868990 6.307765 25.329838 -14.713101 -0.630776 2.408768
1253.359451 413.942538 115.542372 0.000000 0.000000 0.000000 0.000000 0.000000 0.000000 -123.348580 -1.202463 -19.645745 56.651420 -1.752943 -19.645745 -167.815074 6.552262 -23.115397 -159.603180 -5.668335 19.122720 32.791747 6.742043 23.115397 -14.720825 -0.674204 2.128896
1281.206589 405.664523 128.622323 0.000000 0.000000 0.000000 0.000000 0.000000 0.000000 -124.414271 3.852804 -19.960535 55.585729 -0.771643 -19.960535 -161.281803 -1.260641 -20.536413 28.568449 -0.568602 21.869059 -159.052798 -4.552945 20.536413 1.849141 0.442500 1.840623
1300.238571 418.760215 109.242835 0.000000 0.000000 0.000000 0.000000 0.000000 0.000000 -126.263092 -0.067184 -19.021130 53.736908 -8.767600 -19.021130 -159.739358 1.081643 -17.633558 31.487961 -3.312467 24.270510 -170.323915 1.559731 17.633558 0.671815 0.012746 1.545085
1321.889191 413.634385 134.218184 0.000000 0.000000 0.000000 0.000000 0.000000 0.000000 -133.874471 3.266263 -16.886559 46.125529 -2.744778 -16.886559 -159.376251 1.747968 -14.452610 30.696824 3.888710 26.289200 -164.929556 -0.877238 14.452610 1.089735 -0.125493 1.243449
1336.221428 432.881820 119.707120 0.000000 0.000000 0.000000 0.000000 0.000000 0.000000 -115.020798 3.095796 -13.690942 64.979202 -1.308683 -13.690942 -135.609544 2.125226 -11.043737 -161.321630 -5.779583 27.893295 17.353502 7.913341 11.043737 -16.264650 -0.791334 0.936907
1329.124603 416.860342 135.818939 0.000000 0.000000 0.000000 0.000000 0.000000 0.000000 -134.023347 -0.800720 -9.635073 45.976653 -5.188663 -9.635073 -128.030830 1.642918 -7.460697 28.249885 0.987898 29.057495 -136.447985 -0.432668 7.460697 4.038834 0.011252 0.626666
1343.366776 427.060794 152.534863 0.000000 0.000000 0.000000 0.000000 0.000000 0.000000 -130.153347 0.540673 -4.973798 49.846653 3.559348 -4.973798 -103.564435 -1.683979 -3.759997 27.398095 -1.806407 29.763441 -115.461530 2.797638 3.759997 5.470063 -0.132504 0.313953
1376.991005 465.829636 149.085899 0.000000 0.000000 0.000000 0.000000 0.000000 0.000000 -120.272352 5.342893 0.000000 59.727648 -4.975159 0.000000 -62.204131 2.743867 -0.000000 27.740602 -1.586783 30.000000 -80.461527 -2.204690 0.000000 7.450891 0.257703 0.000000
1384.978867 468.790376 146.131669 0.000000 0.000000 0.000000 0.000000 0.000000 0.000000 -93.720384 0.368356 4.973798 86.279616 38.818018 4.973798 3.847814 -4.337276 3.759997 -160.438787 -6.361647 29.763441 15.990976 5.191826 -3.759997 7.894783 -2.538510 0.313953
1345.894547 516.257268 150.326165 0.000000 0.000000 0.000000 0.000000 0.000000 0.000000 127.577640 16.628549 9.635073 -52.422360 -22.586265 9.635073 53.096359 9.729251 7.460697 -159.021748 -6.842366 29.057495 18.308456 5.112555 -7.460697 -4.062191 0.406016 0.626666
968.498927 441.455181 134.787644 0.000000 0.000000 0.000000 0.000000 0.000000 0.000000 47.920147 16.210090 13.690942 180.000000 5.869898 13.690942 19.641385 -9.433686 11.043737 160.358615 2.126220 27.893295 13.993219 -11.358169 -11.043737 18.000000 1.045069 0.936907
1336.846733 493.527671 152.741146 0.000000 0.000000 0.000000 0.000000 0.000000 0.000000 102.681311 21.870426 16.886559 -77.318689 -9.894614 16.886559 35.985219 8.353966 14.452610 -159.617763 -6.534018 26.289200 19.375410 5.409705 -14.452610 -16.062459 -0.540970 1.243449
968.386706 441.394956 149.189296 0.000000 0.000000 0.000000 0.000000 0.000000 0.000000 46.120581 46.894592 19.021130 180.000000 -25.444606 19.021130 19.316787 9.500977 17.633558 160.683213 -8.557269 24.270510 14.327067 -4.137283 -17.633558 18.000000 1.079224 1.545085
1263.984947 433.341283 168.526508 0.000000 0.000000 0.000000 0.000000 0.000000 0.000000 -115.578373 1.135073 19.960535 64.421627 -5.094783 19.960535 -82.396446 1.423874 20.536413 25.733383 -2.437693 21.869059 -77.477544 -0.609495 -20.536413 5.836928 -0.475190 1.840623
1352.596436 477.564354 165.156787 0.000000 0.000000 0.000000 0.000000 0.000000 0.000000 -99.196741 -2.622996 19.645745 80.803259 2.145856 19.645745 -125.272585 -3.088892 23.115397 -162.405270 -6.102420 19.122720 17.377627 6.399040 -23.115397 -16.262237 -0.639904 2.128896
1384.326782 408.174427 145.037143 0.000000 0.000000 0.000000 0.000000 0.000000 0.000000 96.868601 6.366978 18.096541 -83.131399 -6.609088 18.096541 -160.848957 -5.856149 25.329838 -137.255583 -2.522257 16.074804 -162.076720 -6.437441 -25.329838 0.000000 0.000000 0.000000
1387.580223 387.128634 130.892240 0.000000 0.000000 0.000000 0.000000 0.000000 0.000000 78.087764 10.064650 15.410265 -101.912236 -23.853325 15.410265 -161.807915 -5.342164 27.144812 -147.504361 -0.086166 12.773379 -162.566306 -7.135549 -27.144812 1.735427 0.808822 2.679134
1345.818558 392.423122 148.045613 0.000000 0.000000 0.000000 0.000000 0.000000 0.000000 71.782984 -15.633235 11.755705 -108.217016 29.717683 11.755705 -169.469261 -3.238424 28.531695 -153.903088 5.949048 9.270510 -154.670689 0.585714 -28.531695 15.277725 -0.319191 2.938926
1331.471329 361.814139 135.127631 0.000000 0.000000 0.000000 0.000000 0.000000 0.000000 53.586100 17.034248 7.362491 -126.413900 -11.904781 7.362491 -162.290330 -6.164015 29.468618 -154.912165 0.648699 5.621439 -162.550394 -8.009281 -29.468618 1.742175 0.725998 3.187120
1354.413986 427.213873 135.004863 0.000000 0.000000 0.000000 0.000000 0.000000 0.000000 -131.358118 6.550692 2.506665 48.641882 5.994409 2.506665 -142.488821 -2.213778 29.940802 -161.977882 -5.668050 1.883716 12.673705 8.497294 -29.940802 1.397524 0.051659 3.422736
1330.326691 347.207226 121.591173 0.000000 0.000000 0.000000 0.000000 0.000000 0.000000 52.464175 -1.311251 -2.506665 -127.535825 -3.583888 -2.506665 14.270918 -0.723966 29.940802 -122.057234 -0.311743 -1.883716 22.820874 -1.424585 -29.940802 -15.244909 0.255062 3.644843
1317.103271 414.475805 123.203453 0.000000 0.000000 0.000000 0.000000 0.000000 0.000000 76.170457 -10.548001 -7.362491 -103.829543 1.815539 -7.362491 -50.250674 2.269748 29.468618 -52.503744 -5.655916 -5.621439 -92.793049 12.991255 -29.468618 3.303440 -1.452552 3.852566
1331.844635 430.291482 129.854452 0.000000 0.000000 0.000000 0.000000 0.000000 0.000000 79.985160 6.316667 -11.755705 -100.014840 -1.070743 -11.755705 25.995082 4.019429 28.531695 -75.062603 -4.056904 -9.270510 38.761234 2.911125 -28.531695 -11.442229 -0.316640 4.045085
1359.462433 496.472383 124.995007 0.000000 0.000000 0.000000 0.000000 0.000000 0.000000 84.268829 1.948605 -15.410265 -95.731171 -2.559222 -15.410265 30.279153 8.183637 27.144812 -63.318008 -2.737641 -12.773379 39.457716 1.152725 -27.144812 -9.485742 0.023767 4.221640
1323.514366 546.771398 116.702078 0.000000 0.000000 0.000000 0.000000 0.000000 0.000000 84.407325 9.463681 -18.096541 -95.592675 -2.670325 -18.096541 27.768249 3.552607 25.329838 -47.660055 3.347944 -16.074804 28.281511 -5.874153 -25.329838 -7.827901 2.003370 4.381533
1268.535347 591.567099 103.619123 0.000000 0.000000 0.000000 0.000000 0.000000 0.000000 90.890792 2.310257 -19.645745 -89.109208 -6.839152 -19.645745 44.654760 2.032023 23.115397 -48.200667 1.497338 -19.122720 43.369388 -2.316402 -23.115397 -8.974980 -0.689761 4.524135
1303.157158 602.888768 91.287768 0.000000 0.000000 0.000000 0.000000 0.000000 0.000000 90.349289 -4.407353 -19.960535 -89.650711 3.932117 -19.960535 47.707312 -2.719837 20.536413 -53.918782 1.588265 -21.869059 40.070965 -9.408776 -20.536413 -9.318632 0.046707 4.648882
1314.841690 613.141973 90.947939 0.000000 0.000000 0.000000 0.000000 0.000000 0.000000 94.480501 -1.911603 -19.021130 -85.519499 -2.284639 -19.021130 58.462862 3.818012 17.633558 -52.020507 2.020105 -24.270510 55.276552 -4.920131 -17.633558 -7.777523 0.490594 4.755283
1327.521400 639.394319 98.933623 0.000000 0.000000 0.000000 0.000000 0.000000 0.000000 99.879576 4.260689 -16.886559 -80.120424 4.748953 -16.886559 69.161359 -3.657752 14.452610 -46.413613 -0.946755 -26.289200 76.680143 -2.919160 -14.452610 -6.257768 0.486307 4.842916
1277.812729 671.228578 69.077974 0.000000 0.000000 0.000000 0.000000 0.000000 0.000000 99.708534 7.220501 -13.690942 -80.291466 -3.251940 -13.690942 92.239140 -0.222438 11.043737 -26.764021 -12.301214 -27.893295 98.168457 5.424105 -11.043737 -4.372074 0.274387 4.911436
1309.642181 690.479329 60.686309 0.000000 0.000000 0.000000 0.000000 0.000000 0.000000 117.292414 -3.330773 -9.635073 -62.707586 -10.066492 -9.635073 137.002702 8.157492 7.460697 -32.045917 1.085074 -29.057495 135.211322 0.339690 -7.460697 -3.212944 0.028430 4.960574
1299.770966 664.126496 78.152902 0.000000 0.000000 0.000000 0.000000 0.000000 0.000000 158.531160 -2.410915 -4.973798 -21.468840 14.037800 -4.973798 161.478323 -0.255685 3.759997 -12.838206 1.712765 -29.763441 151.269584 -0.411762 -3.759997 -2.521934 0.044216 4.990134
1313.353729 643.668108 72.299895 0.000000 0.000000 0.000000 0.000000 0.000000 0.000000 -154.315892 17.131220 -0.000000 25.684108 -12.288952 -0.000000 173.459940 4.601822 0.000000 1.519689 -5.100738 -30.000000 164.244875 0.422660 -0.000000 -1.552244 0.072082 5.000000
1342.841377 638.982847 80.630297 0.000000 0.000000 0.000000 0.000000 0.000000 0.000000 -138.993869 16.037172 4.973798 41.006131 12.109683 4.973798 175.724056 -0.470833 -3.759997 -151.723069 -3.103750 -29.763441 43.242568 3.803352 3.759997 -13.675743 -0.380335 4.990134
1350.000229 614.724133 74.485585 0.000000 0.000000 0.000000 0.000000 0.000000 0.000000 -144.248147 9.215787 9.635073 35.751853 11.243040 9.635073 177.069273 -5.932157 -7.460697 -152.227621 -2.654531 -29.057495 43.136563 3.684640 7.460697 -13.686344 -0.368464 4.960574
1328.535919 624.780936 73.376218 0.000000 0.000000 0.000000 0.000000 0.000000 0.000000 -165.447222 -16.962285 13.690942 14.552778 -8.648188 13.690942 169.657511 1.999737 -11.043737 -152.168050 -2.951367 -27.893295 41.929642 4.451292 11.043737 -13.807036 -0.445129 4.911436
1318.810501 615.688248 73.662995 0.000000 0.000000 0.000000 0.000000 0.000000 0.000000 -120.063657 -11.873149 16.886559 59.936343 8.010341 16.886559 -165.389465 -0.380228 -14.452610 -152.866764 -2.025453 -26.289200 39.162270 4.550147 14.452610 -14.083773 -0.455015 4.842916
1321.656418 659.275410 52.365340 0.000000 0.000000 0.000000 0.000000 0.000000 0.000000 -121.435085 3.846978 19.021130 58.564915 -4.882459 19.021130 -149.190712 7.845088 -17.633558 -151.926374 -2.720093 -24.270510 33.097066 3.995211 17.633558 -14.690293 -0.399521 4.755283
1328.445511 687.490232 67.621849 0.000000 0.000000 0.000000 0.000000 0.000000 0.000000 -104.253419 9.486048 19.960535 75.746581 -2.170363 19.960535 -110.140878 -2.215166 -20.536413 -152.911692 -2.410085 -21.869059 23.882145 2.578269 20.536413 3.694979 -0.211908 4.648882
966.534206 440.564282 63.854343 0.000000 0.000000 0.000000 0.000000 0.000000 0.000000 25.865486 -8.538678 19.645745 180.000000 5.098631 19.645745 18.728337 1.288120 -23.115397 161.271663 12.614924 -19.122720 19.024234 -10.348055 23.115397 18.000000 -0.837922 4.524135
966.454577 440.533056 45.145072 0.000000 0.000000 0.000000 0.000000 0.000000 0.000000 25.417507 12.776770 18.096541 180.000000 5.724693 18.096541 18.825450 -2.681366 -25.329838 161.174550 -1.975571 -16.074804 19.071566 -5.620791 25.329838 18.000000 0.607772 4.381533
966.374240 440.501809 45.694362 0.000000 0.000000 0.000000 0.000000 0.000000 0.000000 24.990320 3.046997 15.410265 180.000000 -1.680056 15.410265 18.929718 -4.855215 -27.144812 161.070282 3.067349 -12.773379 19.102411 -11.464723 27.144812 18.000000 -0.072945 4.221640
966.293204 440.470542 46.433262 0.000000 0.000000 0.000000 0.000000 0.000000 0.000000 24.583377 -11.596112 11.755705 180.000000 8.757268 11.755705 19.040946 0.722456 -28.531695 160.959054 3.328488 -9.270510 19.116765 -2.407751 28.531695 18.000000 0.092808 4.045085
966.211478 440.439256 53.376711 0.000000 0.000000 0.000000 0.000000 0.000000 0.000000 24.196129 2.769884 7.362491 180.000000 4.147439 7.362491 19.158923 -8.210732 -29.468618 160.841077 -4.502222 -5.621439 19.114778 -0.755957 29.468618 18.000000 0.017020 3.852566
644.985180 745.864069 75.723711 0.000000 0.000000 0.000000 0.000000 0.000000 0.000000 96.086415 42.554417 2.506665 -83.913585 -24.091830 2.506665 -159.662371 -4.492673 -29.940802 -116.741565 -5.806894 -1.883716 -176.001217 3.024450 29.940802 -1.006627 -0.025902 3.644843
1269.020119 699.025490 60.643272 0.000000 0.000000 0.000000 0.000000 0.000000 0.000000 83.810916 -5.277970 -2.506665 -96.189084 6.305694 -2.506665 51.932890 -0.771380 -29.940802 -149.314466 -1.765116 1.883716 27.598511 1.985877 29.940802 -15.240149 -0.198588 3.422736
573.721218 678.450201 45.412037 0.000000 0.000000 0.000000 0.000000 0.000000 0.000000 18.756393 -34.174872 -7.362491 -161.243607 -15.176996 -7.362491 -174.158094 3.615951 -29.468618 178.010322 0.466323 5.621439 -154.394154 0.689552 29.468618 11.886524 -2.276301 3.187120
1261.580200 714.897366 34.786121 0.000000 0.000000 0.000000 0.000000 0.000000 0.000000 87.191276 15.147343 -11.755705 -92.808724 11.297001 -11.755705 23.129119 -14.819201 -28.531695 -149.376238 -2.505118 9.270510 24.545507 2.322405 28.531695 13.583501 -4.475789 2.938926
1314.655838 684.171546 65.470681 0.000000 0.000000 0.000000 0.000000 0.000000 0.000000 61.219932 -11.450490 -15.410265 -118.780068 4.212035 -15.410265 25.476616 -1.251265 -27.144812 -150.404247 -1.913239 12.773379 24.621454 1.816140 27.144812 -15.537855 -0.181614 2.679134
1319.638939 674.820013 56.436155 0.000000 0.000000 0.000000 0.000000 0.000000 0.000000 82.055377 3.426361 -18.096541 -97.944623 0.958209 -18.096541 17.325085 -3.251205 -25.329838 -60.067277 2.000585 16.074804 23.747728 -2.006238 25.329838 -13.005173 0.330117 2.408768
1367.852325 659.536314 64.514044 0.000000 0.000000 0.000000 0.000000 0.000000 0.000000 -150.278430 26.993557 -19.645745 29.721570 1.299453 -19.645745 -151.222797 -2.695787 -23.115397 18.758043 -4.735376 19.122720 -152.451920 -1.819263 23.115397 2.484143 0.156258 2.128896
1392.624664 638.981302 65.079781 0.000000 0.000000 0.000000 0.000000 0.000000 0.000000 -122.704248 -4.618914 -19.960535 57.295752 5.309942 -19.960535 -134.513385 3.720093 -20.536413 30.292627 0.686148 21.869059 -146.694539 -0.110007 20.536413 2.430965 -0.020169 1.840623
1401.291389 646.422758 54.050386 0.000000 0.000000 0.000000 0.000000 0.000000 0.000000 83.316637 4.186877 -19.021130 -96.683363 -1.857180 -19.021130 29.335627 3.980697 -17.633558 -136.281416 -2.697432 24.270510 19.119183 1.280258 17.633558 -15.871560 -0.017836 1.545085
1381.838951 663.410475 67.089212 0.000000 0.000000 0.000000 0.000000 0.000000 0.000000 79.215331 2.922612 -16.886559 -100.784669 2.797932 -16.886559 30.640455 -2.443627 -14.452610 -139.113455 1.795835 26.289200 14.302413 -2.615391 14.452610 -16.408036 0.110967 1.243449
1390.185928 664.248354 78.405051 0.000000 0.000000 0.000000 0.000000 0.000000 0.000000 75.546066 3.533222 -13.690942 -104.453934 -10.180001 -13.690942 38.995097 -2.209399 -11.043737 -142.871297 -2.971608 27.893295 14.209110 1.023249 11.043737 -16.737090 0.019562 0.936907
1393.889923 677.551103 82.802843 0.000000 0.000000 0.000000 0.000000 0.000000 0.000000 84.293627 -6.670762 -9.635073 -95.706373 11.118101 -9.635073 -152.700272 -3.835537 -7.460697 -143.357755 3.142938 29.057495 -148.868889 -3.878582 7.460697 3.626268 0.498803 0.626666
905.601082 693.654528 89.684058 0.000000 0.000000 0.000000 0.000000 0.000000 0.000000 -84.410869 -5.802726 -4.973798 95.589131 0.865251 -4.973798 -139.498802 -4.606459 -3.759997 -178.556713 -7.825962 29.763441 -142.061844 -4.655525 3.759997 3.411456 0.397398 0.313953
1337.643929 680.318756 93.678109 0.000000 0.000000 0.000000 0.000000 0.000000 0.000000 78.192517 11.514499 0.000000 -101.807483 -8.031213 0.000000 48.289813 -2.730162 -0.000000 -140.291980 -3.872580 30.000000 13.663140 0.094240 0.000000 -17.395561 0.266544 0.000000
1322.670708 685.543334 81.358485 0.000000 0.000000 0.000000 0.000000 0.000000 0.000000 71.501063 5.939700 4.973798 -108.498937 -12.181453 4.973798 23.648228 7.388635 3.759997 -144.586500 0.880175 29.763441 14.578018 -2.504588 -3.759997 -16.885607 0.124068 0.313953
1305.530548 682.910864 109.901684 0.000000 0.000000 0.000000 0.000000 0.000000 0.000000 72.979287 42.457952 9.635073 -107.020713 -3.722395 9.635073 -148.728581 -4.116579 7.460697 -74.802907 10.124218 29.057495 -151.178244 -4.715700 -7.460697 2.601049 0.418356 0.626666
1359.363556 692.650115 122.342492 0.000000 0.000000 0.000000 0.000000 0.000000 0.000000 73.244804 8.263971 13.690942 -106.755196 -9.962133 13.690942 13.983499 7.967615 11.043737 -67.611809 0.368241 27.893295 13.130547 -4.222794 -11.043737 -11.004089 0.376054 0.936907
1299.495964 679.994059 128.409603 0.000000 0.000000 0.000000 0.000000 0.000000 0.000000 116.206779 -4.188947 16.886559 -63.793221 18.972832 16.886559 -150.858719 -5.022763 14.452610 -34.548592 3.433390 26.289200 60.366751 1.074691 -14.452610 -4.627493 -0.762115 1.243449
1306.260338 711.527116 133.389449 0.000000 0.000000 0.000000 0.000000 0.000000 0.000000 -85.758672 18.106561 19.021130 94.241328 -6.654128 19.021130 -31.461750 -2.777899 17.633558 -4.237664 -5.187803 24.270510 -15.215787 5.180470 -17.633558 7.867754 -0.338248 1.545085
1272.614822 704.778571 116.103497 0.000000 0.000000 0.000000 0.000000 0.000000 0.000000 -78.634637 -10.567338 19.960535 101.365363 -7.729147 19.960535 -34.118569 1.521765 20.536413 22.539652 -2.789918 21.869059 -31.373170 -0.028145 -20.536413 11.310693 0.029843 1.840623
1310.345650 676.427021 128.294942 0.000000 0.000000 0.000000 0.000000 0.000000 0.000000 97.572435 0.531715 19.645745 -82.427565 -8.488459 19.645745 50.400703 6.733947 23.115397 -39.584286 0.841191 19.122720 44.966766 -0.527870 -23.115397 -8.852712 0.204526 2.128896
1315.732956 671.025095 119.650856 0.000000 0.000000 0.000000 0.000000 0.000000 0.000000 97.797337 -7.304551 18.096541 -82.202663 7.042729 18.096541 49.825934 -4.007991 25.329838 -39.162923 -1.148022 16.074804 36.475631 4.689956 -25.329838 -8.191519 -0.919301 2.408768
1329.935532 653.525419 123.572991 0.000000 0.000000 0.000000 0.000000 0.000000 0.000000 96.469555 -1.339705 15.410265 -83.530445 0.887435 15.410265 63.882053 -1.778309 27.144812 -51.972064 0.293425 12.773379 58.624362 2.211305 -27.144812 -8.239564 0.026796 2.679134
1316.170578 674.246514 147.243962 0.000000 0.000000 0.000000 0.000000 0.000000 0.000000 -87.946330 -7.704448 11.755705 92.053670 -6.494691 11.755705 -29.715798 7.487062 28.531695 54.212796 2.854002 9.270510 -40.560774 -2.214903 -28.531695 11.008015 -0.058760 2.938926
1317.367287 678.027205 126.914807 0.000000 0.000000 0.000000 0.000000 0.000000 0.000000 95.152942 10.935651 7.362491 -84.847058 -21.246062 7.362491 98.792835 6.962486 29.468618 -150.515547 -6.528095 5.621439 32.983753 6.233090 -29.468618 -14.701625 -0.623309 3.187120
1318.168488 670.157025 161.489654 0.000000 0.000000 0.000000 0.000000 0.000000 0.000000 -151.252255 39.256055 2.506665 28.747745 4.480618 2.506665 138.896993 0.414905 29.940802 -151.946620 -6.748128 1.883716 38.784684 5.946253 -29.940802 -14.121532 -0.594625 3.422736
1323.412628 644.667885 152.085306 0.000000 0.000000 0.000000 0.000000 0.000000 0.000000 -97.904066 7.280871 -2.506665 82.095934 13.818138 -2.506665 155.695030 -8.177639 29.940802 -152.500978 -6.431540 -1.883716 44.721081 6.664281 -29.940802 -13.527892 -0.666428 3.644843
1312.776718 630.059459 122.931354 0.000000 0.000000 0.000000 0.000000 0.000000 0.000000 -116.637972 27.141873 -7.362491 63.362028 -11.104793 -7.362491 171.094570 -1.543443 29.468618 -152.894064 -7.005470 -5.621439 43.947863 7.227201 -29.468618 -13.605214 -0.722720 3.852566
1316.420746 625.237019 148.628698 0.000000 0.000000 0.000000 0.000000 0.000000 0.000000 -136.254273 3.291375 -11.755705 43.745727 -3.179404 -11.755705 -177.663204 -4.757057 28.531695 -153.006287 -6.999666 -9.270510 42.784597 8.067058 -28.531695 -13.721540 -0.806706 4.045085
1314.719925 628.818026 129.079259 0.000000 0.000000 0.000000 0.000000 0.000000 0.000000 -114.737929 4.710649 -15.410265 65.262071 -2.634130 -15.410265 -169.764314 3.868896 27.144812 -153.369487 -5.973368 -12.773379 41.498347 8.213333 -27.144812 -13.850165 -0.821333 4.221640
1334.396782 646.165652 159.571114 0.000000 0.000000 0.000000 0.000000 0.000000 0.000000 -116.903454 0.931349 -18.096541 63.096546 -3.313452 -18.096541 -154.594534 1.470808 25.329838 -153.225015 -6.415455 -16.074804 37.136182 8.244336 -25.329838 -14.286382 -0.824434 4.381533
1340.823784 648.244128 141.243197 0.000000 0.000000 0.000000 0.000000 0.000000 0.000000 -116.932323 -8.079605 -19.645745 63.067677 7.346993 -19.645745 -138.898656 0.172036 23.115397 35.335752 1.748301 -19.122720 -153.336856 -0.551400 -23.115397 2.206211 0.090015 4.524135
1330.023880 654.599032 146.322598 0.000000 0.000000 0.000000 0.000000 0.000000 0.000000 -112.150704 0.730289 -19.960535 67.849296 -1.586891 -19.960535 -118.798313 1.523264 20.536413 -153.636372 -6.275868 -21.869059 16.691869 8.461892 -20.536413 -16.330813 -0.846189 4.648882
1337.431641 662.410698 130.260957 0.000000 0.000000 0.000000 0.000000 0.000000 0.000000 -109.111809 -8.604673 -19.021130 70.888191 3.481397 -19.021130 -91.144379 1.984657 17.633558 -154.448144 -5.454399 -24.270510 10.298202 6.388348 -17.633558 6.642051 0.026948 4.755283
1324.339714 676.416593 151.762288 0.000000 0.000000 0.000000 0.000000 0.000000 0.000000 -104.120178 7.408842 -16.886559 75.879822 -4.710138 -16.886559 -57.095620 1.111645 14.452610 38.799650 -1.940250 -26.289200 -71.942639 -3.635135 -14.452610 8.831938 0.288814 4.842916
962.890318 439.311049 128.221112 0.000000 0.000000 0.000000 0.000000 0.000000 0.000000 19.986963 22.620461 -13.690942 180.000000 -10.182090 -13.690942 24.297229 11.373028 11.043737 155.702771 -13.850692 -27.893295 14.983342 7.549696 -11.043737 18.000000 -0.323308 4.911436
962.789911 439.279946 120.726670 0.000000 0.000000 0.000000 0.000000 0.000000 0.000000 20.089586 -13.992051 -9.635073 180.000000 3.344214 -9.635073 24.330184 -13.476825 7.460697 155.669816 -8.791991 -29.057495 14.926290 5.050907 -7.460697 18.000000 0.100003 4.960574
641.318550 641.336324 128.791437 0.000000 0.000000 0.000000 0.000000 0.000000 0.000000 163.642929 15.645537 -4.973798 -16.357071 -13.153148 -4.973798 -155.926011 -1.100344 3.759997 -130.644608 -9.096550 -29.763441 68.679337 12.155408 -3.759997 -11.132066 -1.215541 4.990134
1305.385551 662.289033 134.814263 0.000000 0.000000 0.000000 0.000000 0.000000 0.000000 -81.949824 -8.588756 -0.000000 98.050176 -12.766217 -0.000000 9.536664 -3.173913 0.000000 -153.586691 -5.531854 -30.000000 24.402531 4.551927 -0.000000 -15.559747 -0.455193 5.000000
962.486899 439.186814 132.847344 0.000000 0.000000 0.000000 0.000000 0.000000 0.000000 20.465882 11.635629 4.973798 180.000000 -15.159117 4.973798 24.357206 -1.084907 -3.759997 155.642794 -15.409397 -29.763441 14.800425 6.270545 3.759997 18.000000 -0.275421 4.990134
1216.314240 612.580640 122.147061 0.000000 0.000000 0.000000 0.000000 0.000000 0.000000 78.221991 5.249785 9.635073 -101.778009 -3.280679 9.635073 46.689014 -4.801863 -7.460697 -61.937558 -3.009507 -29.057495 44.546377 1.349677 7.460697 -10.771750 -0.917686 4.960574
1273.897820 573.707514 120.253192 0.000000 0.000000 0.000000 0.000000 0.000000 0.000000 77.469628 -4.114374 13.690942 -102.530372 -3.847301 13.690942 -155.691164 -4.384309 -11.043737 -120.750172 1.930804 -27.893295 -156.229293 -5.482648 11.043737 2.162203 0.622427 4.911436
1337.358742 570.303276 128.185438 0.000000 0.000000 0.000000 0.000000 0.000000 0.000000 73.705918 3.368401 16.886559 -106.294082 5.119595 16.886559 -155.918376 -5.727374 -14.452610 -149.887909 -4.484289 -26.289200 0.000000 0.000000 0.000000 0.000000 0.000000 0.000000
1342.446442 569.623497 109.038973 0.000000 0.000000 0.000000 0.000000 0.000000 0.000000 68.898287 -5.780668 19.021130 -111.101713 -2.312802 19.021130 39.314088 5.936791 -17.633558 -140.912764 2.276267 -24.270510 -153.216026 -6.514650 17.633558 2.759242 0.652676 4.755283
1335.759430 584.665475 124.613044 0.000000 0.000000 0.000000 0.000000 0.000000 0.000000 66.989329 -4.879574 19.960535 -113.010671 5.437367 19.960535 -154.807077 -4.718087 -20.536413 -142.328055 -1.630620 -21.869059 -153.049156 -4.327302 20.536413 2.866457 0.714107 4.648882
1337.950974 598.074245 119.634082 0.000000 0.000000 0.000000 0.000000 0.000000 0.000000 62.697633 0.886920 19.645745 -117.302367 -3.238319 19.645745 19.366736 -1.843252 -23.115397 -144.826223 -5.242287 -19.122720 9.911455 2.534978 23.115397 -17.004209 -0.034023 4.524135
1352.846489 601.043322 84.158610 0.000000 0.000000 0.000000 0.000000 0.000000 0.000000 59.083577 -0.826953 18.096541 -120.916423 -10.991839 18.096541 20.876734 6.450729 -25.329838 -142.301690 -1.908518 -16.074804 13.356960 0.920184 25.329838 -16.821524 -0.125909 4.381533
1347.310982 587.475100 92.715864 0.000000 0.000000 0.000000 0.000000 0.000000 0.000000 56.169135 5.616635 15.410265 -123.830865 -3.022242 15.410265 21.172503 4.378408 -27.144812 -139.640745 -0.034115 -12.773379 14.641496 -0.520806 27.144812 -16.282575 0.095225 4.221640
1326.982155 606.886139 82.951921 0.000000 0.000000 0.000000 0.000000 0.000000 0.000000 70.119981 -2.459110 11.755705 -109.880019 -6.832566 11.755705 26.511889 -0.798568 -28.531695 -111.264667 1.017601 -9.270510 31.153840 -0.587887 28.531695 -13.943905 0.016370 4.045085
1354.391098 626.185555 88.128298 0.000000 0.000000 0.000000 0.000000 0.000000 0.000000 88.154395 -5.120729 7.362491 -91.845605 3.206837 7.362491 30.442275 1.418695 -29.468618 -76.284233 3.843054 -5.621439 43.854867 1.078942 29.468618 -10.818190 -0.274719 3.852566
1370.667114 610.219567 73.815176 0.000000 0.000000 0.000000 0.000000 0.000000 0.000000 89.945118 -5.558820 2.506665 -90.054882 -1.502465 2.506665 44.053326 -0.648835 -29.940802 -56.238091 1.040155 -1.883716 55.411270 2.599338 29.940802 -7.805659 -0.190413 3.644843
1372.834854 597.828534 67.260203 0.000000 0.000000 0.000000 0.000000 0.000000 0.000000 93.407992 1.605192 -2.506665 -86.592008 -1.726317 -2.506665 54.165845 2.515632 -29.940802 -47.239220 -2.942421 1.883716 56.575186 7.614485 29.940802 -6.344474 -0.731264 3.422736
1336.554337 597.454848 77.808226 0.000000 0.000000 0.000000 0.000000 0.000000 0.000000 95.622643 1.424859 -7.362491 -84.377357 -2.735466 -7.362491 56.597780 1.451195 -29.468618 -45.108662 -3.277139 5.621439 55.386034 -0.310186 29.468618 -7.206870 0.118912 3.187120
1310.567093 590.844769 69.105268 0.000000 0.000000 0.000000 0.000000 0.000000 0.000000 100.193768 -0.999464 -11.755705 -79.806232 7.070661 -11.755705 61.986347 -0.066162 -28.531695 -37.593815 2.259429 9.270510 62.907615 2.306263 28.531695 -6.637230 -0.056728 2.938926
1328.574371 576.493385 64.340759 0.000000 0.000000 0.000000 0.000000 0.000000 0.000000 101.943783 -5.876568 -15.410265 -78.056217 4.163849 -15.410265 61.902838 1.375965 -27.144812 -33.889586 0.742010 12.773379 55.760387 0.811777 27.144812 -7.097415 0.859740 2.679134
1316.178360 595.500870 32.622912 0.000000 0.000000 0.000000 0.000000 0.000000 0.000000 103.792097 -4.521178 -18.096541 -76.207903 -4.864930 -18.096541 65.535198 -2.881926 -25.329838 -28.739437 -1.647730 16.074804 68.415337 4.209818 25.329838 -6.481753 -0.528160 2.408768
1302.343140 568.138025 69.596288 0.000000 0.000000 0.000000 0.000000 0.000000 0.000000 101.222717 14.700059 -19.645745 -78.777283 14.924461 -19.645745 90.757296 -5.751925 -23.115397 -18.578033 3.534691 19.122720 97.909038 0.381359 23.115397 -5.050134 -0.000866 2.128896
1274.166183 540.660596 53.128282 0.000000 0.000000 0.000000 0.000000 0.000000 0.000000 -126.898591 -20.617603 -19.960535 53.101409 -0.839445 -19.960535 127.276662 0.851556 -20.536413 8.808645 1.914345 21.869059 119.711272 -3.741705 20.536413 -4.115393 0.099829 1.840623
1268.557091 468.331075 50.182710 0.000000 0.000000 0.000000 0.000000 0.000000 0.000000 -124.112133 9.270214 -19.021130 55.887867 -4.280599 -19.021130 163.344780 -3.462901 -17.633558 38.476068 -6.659225 24.270510 145.889074 4.835538 17.633558 -1.929933 -0.170321 1.545085
1278.673096 454.375906 40.100924 0.000000 0.000000 0.000000 0.000000 0.000000 0.000000 -126.805061 5.219836 -16.886559 53.194939 7.698705 -16.886559 -174.009950 -2.900694 -14.452610 27.419224 -1.535697 26.289200 168.192977 0.766430 14.452610 -0.976267 0.054682 1.243449
1285.008774 434.700390 54.915672 0.000000 0.000000 0.000000 0.000000 0.000000 0.000000 -132.005120 11.029370 -13.690942 47.994880 -6.935894 -13.690942 -171.247775 2.171988 -11.043737 26.625253 -2.080638 27.893295 178.805957 1.901715 11.043737 0.023422 -0.091851 0.936907
1288.157730 426.987666 39.082429 0.000000 0.000000 0.000000 0.000000 0.000000 0.000000 -123.987926 2.800112 -9.635073 56.012074 1.455617 -9.635073 -166.356219 -1.171389 -7.460697 35.716336 0.394199 29.057495 -172.960762 -0.888545 7.460697 0.819533 0.077712 0.626666
1291.221657 420.425448 37.916286 0.000000 0.000000 0.000000 0.000000 0.000000 0.000000 -122.265643 -3.787075 -4.973798 57.734357 -2.955330 -4.973798 -156.870161 -0.997034 -3.759997 38.220704 -1.014669 29.763441 -165.716368 -0.228164 3.759997 1.405814 0.131078 0.313953
